<?xml version='1.0' encoding='UTF-8' standalone='yes' ?>
<gpx version="1.1" creator="Locus Map web planner" xsi:schemaLocation="http://www.topografix.com/GPX/1/1 http://www.topografix.com/GPX/1/1/gpx.xsd" xmlns="http://www.topografix.com/GPX/1/1" xmlns:xsi="http://www.w3.org/2001/XMLSchema-instance" xmlns:locus="http://www.locusmap.eu" xmlns:gpxx="http://www.garmin.com/xmlschemas/GpxExtensions/v3" xmlns:gpxtrkx="http://www.garmin.com/xmlschemas/TrackStatsExtension/v1" xmlns:gpxtpx="http://www.garmin.com/xmlschemas/TrackPointExtension/v2">
  <metadata>
    <desc>File with points/tracks from LocusWorld/</desc>
    <time>2022-09-10T21:13:56.968Z</time>
  </metadata>
  <wpt lat="49.7396550" lon="10.1635040">
    <ele>184.50</ele>
    <time>2022-09-10T21:13:56.967Z</time>
    <name></name>
    <sym>left</sym>
    <extensions>
      <locus:rtePointAction>left</locus:rtePointAction>
    </extensions>
  </wpt>
  <wpt lat="49.7398360" lon="10.1631370">
    <ele>184.75</ele>
    <time>2022-09-10T21:13:56.967Z</time>
    <name></name>
    <sym>stay_right</sym>
    <extensions>
      <locus:rtePointAction>stay_right</locus:rtePointAction>
    </extensions>
  </wpt>
  <wpt lat="49.7400690" lon="10.1627480">
    <ele>185.25</ele>
    <time>2022-09-10T21:13:56.967Z</time>
    <name></name>
    <sym>roundabout_e1</sym>
    <extensions>
      <locus:rtePointAction>roundabout_e1</locus:rtePointAction>
    </extensions>
  </wpt>
  <wpt lat="49.7402340" lon="10.1624970">
    <ele>185.25</ele>
    <time>2022-09-10T21:13:56.967Z</time>
    <name></name>
    <sym>right_sharp</sym>
    <extensions>
      <locus:rtePointAction>right_sharp</locus:rtePointAction>
    </extensions>
  </wpt>
  <wpt lat="49.7405360" lon="10.1631490">
    <ele>183.50</ele>
    <time>2022-09-10T21:13:56.967Z</time>
    <name></name>
    <sym>left</sym>
    <extensions>
      <locus:rtePointAction>left</locus:rtePointAction>
    </extensions>
  </wpt>
  <wpt lat="49.7420190" lon="10.1617810">
    <ele>184.00</ele>
    <time>2022-09-10T21:13:56.967Z</time>
    <name></name>
    <sym>stay_right</sym>
    <extensions>
      <locus:rtePointAction>stay_right</locus:rtePointAction>
    </extensions>
  </wpt>
  <wpt lat="49.7431370" lon="10.1609910">
    <ele>184.25</ele>
    <time>2022-09-10T21:13:56.967Z</time>
    <name></name>
    <sym>left</sym>
    <extensions>
      <locus:rtePointAction>left</locus:rtePointAction>
    </extensions>
  </wpt>
  <wpt lat="49.7427730" lon="10.1604170">
    <ele>190.50</ele>
    <time>2022-09-10T21:13:56.967Z</time>
    <name></name>
    <sym>right_slight</sym>
    <extensions>
      <locus:rtePointAction>right_slight</locus:rtePointAction>
    </extensions>
  </wpt>
  <wpt lat="49.7434010" lon="10.1590820">
    <ele>197.00</ele>
    <time>2022-09-10T21:13:56.967Z</time>
    <name></name>
    <sym>straight</sym>
    <extensions>
      <locus:rtePointAction>straight</locus:rtePointAction>
    </extensions>
  </wpt>
  <wpt lat="49.7435490" lon="10.1591490">
    <ele>196.00</ele>
    <time>2022-09-10T21:13:56.967Z</time>
    <name></name>
    <sym>right_slight</sym>
    <extensions>
      <locus:rtePointAction>right_slight</locus:rtePointAction>
    </extensions>
  </wpt>
  <wpt lat="49.7452680" lon="10.1631660">
    <ele>184.75</ele>
    <time>2022-09-10T21:13:56.967Z</time>
    <name></name>
    <sym>u-turn_right</sym>
    <extensions>
      <locus:rtePointAction>u-turn_right</locus:rtePointAction>
    </extensions>
  </wpt>
  <wpt lat="49.7451790" lon="10.1634100">
    <ele>184.75</ele>
    <time>2022-09-10T21:13:56.967Z</time>
    <name></name>
    <sym>left</sym>
    <extensions>
      <locus:rtePointAction>left</locus:rtePointAction>
    </extensions>
  </wpt>
  <wpt lat="49.7457060" lon="10.1630240">
    <ele>184.75</ele>
    <time>2022-09-10T21:13:56.967Z</time>
    <name></name>
    <sym>straight</sym>
    <extensions>
      <locus:rtePointAction>straight</locus:rtePointAction>
    </extensions>
  </wpt>
  <wpt lat="49.7461850" lon="10.1626340">
    <ele>184.75</ele>
    <time>2022-09-10T21:13:56.967Z</time>
    <name></name>
    <sym>left</sym>
    <extensions>
      <locus:rtePointAction>left</locus:rtePointAction>
    </extensions>
  </wpt>
  <wpt lat="49.7462980" lon="10.1623470">
    <ele>184.75</ele>
    <time>2022-09-10T21:13:56.967Z</time>
    <name></name>
    <sym>left_slight</sym>
    <extensions>
      <locus:rtePointAction>left_slight</locus:rtePointAction>
    </extensions>
  </wpt>
  <wpt lat="49.7445110" lon="10.1624030">
    <ele>184.50</ele>
    <time>2022-09-10T21:13:56.967Z</time>
    <name></name>
    <sym>straight</sym>
    <extensions>
      <locus:rtePointAction>straight</locus:rtePointAction>
    </extensions>
  </wpt>
  <wpt lat="49.7425110" lon="10.1640780">
    <ele>183.75</ele>
    <time>2022-09-10T21:13:56.967Z</time>
    <name></name>
    <sym>straight</sym>
    <extensions>
      <locus:rtePointAction>straight</locus:rtePointAction>
    </extensions>
  </wpt>
  <wpt lat="49.7372150" lon="10.1683390">
    <ele>183.00</ele>
    <time>2022-09-10T21:13:56.967Z</time>
    <name></name>
    <sym>stay_right</sym>
    <extensions>
      <locus:rtePointAction>stay_right</locus:rtePointAction>
    </extensions>
  </wpt>
  <wpt lat="49.7352000" lon="10.1695860">
    <ele>184.25</ele>
    <time>2022-09-10T21:13:56.967Z</time>
    <name></name>
    <sym>right_slight</sym>
    <extensions>
      <locus:rtePointAction>right_slight</locus:rtePointAction>
    </extensions>
  </wpt>
  <wpt lat="49.7349440" lon="10.1696330">
    <ele>184.50</ele>
    <time>2022-09-10T21:13:56.967Z</time>
    <name></name>
    <sym>right</sym>
    <extensions>
      <locus:rtePointAction>right</locus:rtePointAction>
    </extensions>
  </wpt>
  <wpt lat="49.7330230" lon="10.1703890">
    <ele>183.75</ele>
    <time>2022-09-10T21:13:56.967Z</time>
    <name></name>
    <sym>left</sym>
    <extensions>
      <locus:rtePointAction>left</locus:rtePointAction>
    </extensions>
  </wpt>
  <wpt lat="49.7321940" lon="10.1700100">
    <ele>184.00</ele>
    <time>2022-09-10T21:13:56.967Z</time>
    <name></name>
    <sym>straight</sym>
    <extensions>
      <locus:rtePointAction>straight</locus:rtePointAction>
    </extensions>
  </wpt>
  <wpt lat="49.7286120" lon="10.1684020">
    <ele>184.50</ele>
    <time>2022-09-10T21:13:56.967Z</time>
    <name></name>
    <sym>right_slight</sym>
    <extensions>
      <locus:rtePointAction>right_slight</locus:rtePointAction>
    </extensions>
  </wpt>
  <wpt lat="49.7267070" lon="10.1656900">
    <ele>184.25</ele>
    <time>2022-09-10T21:13:56.967Z</time>
    <name></name>
    <sym>left_sharp</sym>
    <extensions>
      <locus:rtePointAction>left_sharp</locus:rtePointAction>
    </extensions>
  </wpt>
  <wpt lat="49.7261420" lon="10.1662940">
    <ele>185.50</ele>
    <time>2022-09-10T21:13:56.967Z</time>
    <name></name>
    <sym>straight</sym>
    <extensions>
      <locus:rtePointAction>straight</locus:rtePointAction>
    </extensions>
  </wpt>
  <wpt lat="49.7260180" lon="10.1615110">
    <ele>187.50</ele>
    <time>2022-09-10T21:13:56.967Z</time>
    <name></name>
    <sym>left</sym>
    <extensions>
      <locus:rtePointAction>left</locus:rtePointAction>
    </extensions>
  </wpt>
  <wpt lat="49.7263500" lon="10.1625130">
    <ele>183.50</ele>
    <time>2022-09-10T21:13:56.967Z</time>
    <name></name>
    <sym>right_slight</sym>
    <extensions>
      <locus:rtePointAction>right_slight</locus:rtePointAction>
    </extensions>
  </wpt>
  <wpt lat="49.7263040" lon="10.1630420">
    <ele>182.75</ele>
    <time>2022-09-10T21:13:56.967Z</time>
    <name></name>
    <sym>straight</sym>
    <extensions>
      <locus:rtePointAction>straight</locus:rtePointAction>
    </extensions>
  </wpt>
  <wpt lat="49.7367080" lon="10.1658520">
    <ele>182.75</ele>
    <time>2022-09-10T21:13:56.967Z</time>
    <name></name>
    <sym>left</sym>
    <extensions>
      <locus:rtePointAction>left</locus:rtePointAction>
    </extensions>
  </wpt>
  <wpt lat="49.7366450" lon="10.1651580">
    <ele>183.75</ele>
    <time>2022-09-10T21:13:56.967Z</time>
    <name></name>
    <sym>stay_left</sym>
    <extensions>
      <locus:rtePointAction>stay_left</locus:rtePointAction>
    </extensions>
  </wpt>
  <wpt lat="49.7366560" lon="10.1645530">
    <ele>185.00</ele>
    <time>2022-09-10T21:13:56.967Z</time>
    <name></name>
    <sym>right</sym>
    <extensions>
      <locus:rtePointAction>right</locus:rtePointAction>
    </extensions>
  </wpt>
  <wpt lat="49.7396550" lon="10.1635040">
    <ele>184.50</ele>
    <time>2022-09-10T21:13:56.967Z</time>
    <name></name>
    <sym>left</sym>
    <extensions>
      <locus:rtePointAction>left</locus:rtePointAction>
    </extensions>
  </wpt>
  <trk>
    <name>2022-09-10 21:13</name>
    <trkseg>
      <trkpt lat="49.7392960" lon="10.1626020">
        <ele>186.50</ele>
      </trkpt>
      <trkpt lat="49.7393890" lon="10.1628770">
        <ele>186.00</ele>
      </trkpt>
      <trkpt lat="49.7394530" lon="10.1630540">
        <ele>185.75</ele>
      </trkpt>
      <trkpt lat="49.7394980" lon="10.1631810">
        <ele>185.25</ele>
      </trkpt>
      <trkpt lat="49.7396550" lon="10.1635040">
        <ele>184.50</ele>
      </trkpt>
      <trkpt lat="49.7398000" lon="10.1632130">
        <ele>184.50</ele>
      </trkpt>
      <trkpt lat="49.7398360" lon="10.1631370">
        <ele>184.75</ele>
      </trkpt>
      <trkpt lat="49.7398980" lon="10.1630820">
        <ele>184.75</ele>
      </trkpt>
      <trkpt lat="49.7399800" lon="10.1629720">
        <ele>184.75</ele>
      </trkpt>
      <trkpt lat="49.7399960" lon="10.1629310">
        <ele>184.75</ele>
      </trkpt>
      <trkpt lat="49.7400690" lon="10.1627480">
        <ele>185.25</ele>
      </trkpt>
      <trkpt lat="49.7400860" lon="10.1627240">
        <ele>185.25</ele>
      </trkpt>
      <trkpt lat="49.7401390" lon="10.1626890">
        <ele>185.25</ele>
      </trkpt>
      <trkpt lat="49.7401680" lon="10.1626560">
        <ele>185.25</ele>
      </trkpt>
      <trkpt lat="49.7402070" lon="10.1625870">
        <ele>185.25</ele>
      </trkpt>
      <trkpt lat="49.7402340" lon="10.1624970">
        <ele>185.25</ele>
      </trkpt>
      <trkpt lat="49.7402570" lon="10.1625430">
        <ele>185.00</ele>
      </trkpt>
      <trkpt lat="49.7403690" lon="10.1627650">
        <ele>184.50</ele>
      </trkpt>
      <trkpt lat="49.7405360" lon="10.1631490">
        <ele>183.50</ele>
      </trkpt>
      <trkpt lat="49.7415650" lon="10.1622470">
        <ele>183.00</ele>
      </trkpt>
      <trkpt lat="49.7420090" lon="10.1617990">
        <ele>184.00</ele>
      </trkpt>
      <trkpt lat="49.7420190" lon="10.1617810">
        <ele>184.00</ele>
      </trkpt>
      <trkpt lat="49.7420830" lon="10.1618220">
        <ele>184.00</ele>
      </trkpt>
      <trkpt lat="49.7430200" lon="10.1610820">
        <ele>184.00</ele>
      </trkpt>
      <trkpt lat="49.7431370" lon="10.1609910">
        <ele>184.25</ele>
      </trkpt>
      <trkpt lat="49.7431210" lon="10.1608830">
        <ele>184.75</ele>
      </trkpt>
      <trkpt lat="49.7430710" lon="10.1608110">
        <ele>185.25</ele>
      </trkpt>
      <trkpt lat="49.7430150" lon="10.1607660">
        <ele>186.00</ele>
      </trkpt>
      <trkpt lat="49.7428800" lon="10.1604720">
        <ele>189.25</ele>
      </trkpt>
      <trkpt lat="49.7428560" lon="10.1604080">
        <ele>190.00</ele>
      </trkpt>
      <trkpt lat="49.7427730" lon="10.1604170">
        <ele>190.50</ele>
      </trkpt>
      <trkpt lat="49.7426970" lon="10.1604250">
        <ele>191.00</ele>
      </trkpt>
      <trkpt lat="49.7427060" lon="10.1602240">
        <ele>193.00</ele>
      </trkpt>
      <trkpt lat="49.7427350" lon="10.1600710">
        <ele>194.25</ele>
      </trkpt>
      <trkpt lat="49.7428350" lon="10.1599090">
        <ele>194.75</ele>
      </trkpt>
      <trkpt lat="49.7429120" lon="10.1597370">
        <ele>195.25</ele>
      </trkpt>
      <trkpt lat="49.7430080" lon="10.1595820">
        <ele>195.50</ele>
      </trkpt>
      <trkpt lat="49.7430920" lon="10.1594810">
        <ele>195.50</ele>
      </trkpt>
      <trkpt lat="49.7433390" lon="10.1592490">
        <ele>195.25</ele>
      </trkpt>
      <trkpt lat="49.7433790" lon="10.1591910">
        <ele>195.75</ele>
      </trkpt>
      <trkpt lat="49.7434000" lon="10.1591300">
        <ele>196.25</ele>
      </trkpt>
      <trkpt lat="49.7434010" lon="10.1590820">
        <ele>197.00</ele>
      </trkpt>
      <trkpt lat="49.7434960" lon="10.1590430">
        <ele>197.50</ele>
      </trkpt>
      <trkpt lat="49.7435490" lon="10.1591490">
        <ele>196.00</ele>
      </trkpt>
      <trkpt lat="49.7436060" lon="10.1592720">
        <ele>195.00</ele>
      </trkpt>
      <trkpt lat="49.7436560" lon="10.1592640">
        <ele>195.00</ele>
      </trkpt>
      <trkpt lat="49.7437090" lon="10.1592760">
        <ele>194.75</ele>
      </trkpt>
      <trkpt lat="49.7437850" lon="10.1593410">
        <ele>194.25</ele>
      </trkpt>
      <trkpt lat="49.7438890" lon="10.1594820">
        <ele>192.50</ele>
      </trkpt>
      <trkpt lat="49.7440240" lon="10.1597080">
        <ele>189.75</ele>
      </trkpt>
      <trkpt lat="49.7441230" lon="10.1598940">
        <ele>187.25</ele>
      </trkpt>
      <trkpt lat="49.7441940" lon="10.1600590">
        <ele>187.25</ele>
      </trkpt>
      <trkpt lat="49.7442390" lon="10.1601830">
        <ele>187.25</ele>
      </trkpt>
      <trkpt lat="49.7449370" lon="10.1621890">
        <ele>185.00</ele>
      </trkpt>
      <trkpt lat="49.7452680" lon="10.1631660">
        <ele>184.75</ele>
      </trkpt>
      <trkpt lat="49.7452430" lon="10.1631900">
        <ele>184.75</ele>
      </trkpt>
      <trkpt lat="49.7449870" lon="10.1626090">
        <ele>185.75</ele>
      </trkpt>
      <trkpt lat="49.7449650" lon="10.1626260">
        <ele>185.75</ele>
      </trkpt>
      <trkpt lat="49.7451790" lon="10.1634100">
        <ele>184.75</ele>
      </trkpt>
      <trkpt lat="49.7452060" lon="10.1634060">
        <ele>184.50</ele>
      </trkpt>
      <trkpt lat="49.7452510" lon="10.1634250">
        <ele>184.50</ele>
      </trkpt>
      <trkpt lat="49.7452800" lon="10.1634260">
        <ele>184.50</ele>
      </trkpt>
      <trkpt lat="49.7453190" lon="10.1634140">
        <ele>184.50</ele>
      </trkpt>
      <trkpt lat="49.7456310" lon="10.1631530">
        <ele>184.50</ele>
      </trkpt>
      <trkpt lat="49.7456550" lon="10.1631140">
        <ele>184.50</ele>
      </trkpt>
      <trkpt lat="49.7456660" lon="10.1630650">
        <ele>184.75</ele>
      </trkpt>
      <trkpt lat="49.7457060" lon="10.1630240">
        <ele>184.75</ele>
      </trkpt>
      <trkpt lat="49.7461850" lon="10.1626340">
        <ele>184.75</ele>
      </trkpt>
      <trkpt lat="49.7462070" lon="10.1625870">
        <ele>184.75</ele>
      </trkpt>
      <trkpt lat="49.7462400" lon="10.1624090">
        <ele>184.75</ele>
      </trkpt>
      <trkpt lat="49.7462980" lon="10.1623470">
        <ele>184.75</ele>
      </trkpt>
      <trkpt lat="49.7464120" lon="10.1622370">
        <ele>184.50</ele>
      </trkpt>
      <trkpt lat="49.7464010" lon="10.1622120">
        <ele>184.50</ele>
      </trkpt>
      <trkpt lat="49.7463370" lon="10.1620680">
        <ele>184.50</ele>
      </trkpt>
      <trkpt lat="49.7462990" lon="10.1620150">
        <ele>184.50</ele>
      </trkpt>
      <trkpt lat="49.7461870" lon="10.1618960">
        <ele>184.50</ele>
      </trkpt>
      <trkpt lat="49.7461090" lon="10.1618340">
        <ele>184.75</ele>
      </trkpt>
      <trkpt lat="49.7460130" lon="10.1617820">
        <ele>184.75</ele>
      </trkpt>
      <trkpt lat="49.7459260" lon="10.1617480">
        <ele>184.75</ele>
      </trkpt>
      <trkpt lat="49.7457770" lon="10.1617350">
        <ele>185.00</ele>
      </trkpt>
      <trkpt lat="49.7456850" lon="10.1617510">
        <ele>184.75</ele>
      </trkpt>
      <trkpt lat="49.7452820" lon="10.1618640">
        <ele>184.50</ele>
      </trkpt>
      <trkpt lat="49.7450750" lon="10.1619780">
        <ele>184.75</ele>
      </trkpt>
      <trkpt lat="49.7450370" lon="10.1619460">
        <ele>184.50</ele>
      </trkpt>
      <trkpt lat="49.7445240" lon="10.1624240">
        <ele>184.50</ele>
      </trkpt>
      <trkpt lat="49.7445110" lon="10.1624030">
        <ele>184.50</ele>
      </trkpt>
      <trkpt lat="49.7435440" lon="10.1632230">
        <ele>183.75</ele>
      </trkpt>
      <trkpt lat="49.7434660" lon="10.1632890">
        <ele>183.75</ele>
      </trkpt>
      <trkpt lat="49.7434230" lon="10.1633250">
        <ele>183.75</ele>
      </trkpt>
      <trkpt lat="49.7432950" lon="10.1634330">
        <ele>183.75</ele>
      </trkpt>
      <trkpt lat="49.7432350" lon="10.1634840">
        <ele>183.75</ele>
      </trkpt>
      <trkpt lat="49.7431820" lon="10.1635290">
        <ele>183.75</ele>
      </trkpt>
      <trkpt lat="49.7431530" lon="10.1635530">
        <ele>183.75</ele>
      </trkpt>
      <trkpt lat="49.7427410" lon="10.1639030">
        <ele>183.75</ele>
      </trkpt>
      <trkpt lat="49.7425590" lon="10.1640280">
        <ele>183.75</ele>
      </trkpt>
      <trkpt lat="49.7425110" lon="10.1640780">
        <ele>183.75</ele>
      </trkpt>
      <trkpt lat="49.7424560" lon="10.1641070">
        <ele>183.75</ele>
      </trkpt>
      <trkpt lat="49.7420060" lon="10.1645420">
        <ele>183.00</ele>
      </trkpt>
      <trkpt lat="49.7419600" lon="10.1645930">
        <ele>183.00</ele>
      </trkpt>
      <trkpt lat="49.7416480" lon="10.1649340">
        <ele>182.75</ele>
      </trkpt>
      <trkpt lat="49.7413920" lon="10.1651240">
        <ele>183.00</ele>
      </trkpt>
      <trkpt lat="49.7412800" lon="10.1652260">
        <ele>183.00</ele>
      </trkpt>
      <trkpt lat="49.7409890" lon="10.1654520">
        <ele>183.00</ele>
      </trkpt>
      <trkpt lat="49.7408590" lon="10.1655330">
        <ele>183.00</ele>
      </trkpt>
      <trkpt lat="49.7407620" lon="10.1657240">
        <ele>182.75</ele>
      </trkpt>
      <trkpt lat="49.7404780" lon="10.1659630">
        <ele>182.75</ele>
      </trkpt>
      <trkpt lat="49.7402860" lon="10.1661130">
        <ele>182.75</ele>
      </trkpt>
      <trkpt lat="49.7401160" lon="10.1662470">
        <ele>183.00</ele>
      </trkpt>
      <trkpt lat="49.7399540" lon="10.1663750">
        <ele>183.25</ele>
      </trkpt>
      <trkpt lat="49.7397850" lon="10.1665080">
        <ele>183.25</ele>
      </trkpt>
      <trkpt lat="49.7395000" lon="10.1667350">
        <ele>183.25</ele>
      </trkpt>
      <trkpt lat="49.7392980" lon="10.1668750">
        <ele>183.00</ele>
      </trkpt>
      <trkpt lat="49.7389860" lon="10.1670290">
        <ele>182.75</ele>
      </trkpt>
      <trkpt lat="49.7385550" lon="10.1672920">
        <ele>182.75</ele>
      </trkpt>
      <trkpt lat="49.7381890" lon="10.1674810">
        <ele>182.75</ele>
      </trkpt>
      <trkpt lat="49.7378520" lon="10.1675580">
        <ele>182.25</ele>
      </trkpt>
      <trkpt lat="49.7377230" lon="10.1676040">
        <ele>182.25</ele>
      </trkpt>
      <trkpt lat="49.7376600" lon="10.1676500">
        <ele>182.25</ele>
      </trkpt>
      <trkpt lat="49.7376180" lon="10.1677300">
        <ele>182.25</ele>
      </trkpt>
      <trkpt lat="49.7375060" lon="10.1680740">
        <ele>182.50</ele>
      </trkpt>
      <trkpt lat="49.7374470" lon="10.1681550">
        <ele>182.75</ele>
      </trkpt>
      <trkpt lat="49.7373610" lon="10.1682360">
        <ele>182.75</ele>
      </trkpt>
      <trkpt lat="49.7372150" lon="10.1683390">
        <ele>183.00</ele>
      </trkpt>
      <trkpt lat="49.7369970" lon="10.1684980">
        <ele>183.00</ele>
      </trkpt>
      <trkpt lat="49.7367290" lon="10.1687090">
        <ele>183.00</ele>
      </trkpt>
      <trkpt lat="49.7357390" lon="10.1691260">
        <ele>183.00</ele>
      </trkpt>
      <trkpt lat="49.7353810" lon="10.1693380">
        <ele>183.25</ele>
      </trkpt>
      <trkpt lat="49.7352000" lon="10.1695860">
        <ele>184.25</ele>
      </trkpt>
      <trkpt lat="49.7350880" lon="10.1694700">
        <ele>184.00</ele>
      </trkpt>
      <trkpt lat="49.7350400" lon="10.1694690">
        <ele>184.00</ele>
      </trkpt>
      <trkpt lat="49.7349940" lon="10.1695070">
        <ele>184.00</ele>
      </trkpt>
      <trkpt lat="49.7349560" lon="10.1695590">
        <ele>184.25</ele>
      </trkpt>
      <trkpt lat="49.7349440" lon="10.1696330">
        <ele>184.50</ele>
      </trkpt>
      <trkpt lat="49.7347840" lon="10.1697190">
        <ele>184.25</ele>
      </trkpt>
      <trkpt lat="49.7346290" lon="10.1698160">
        <ele>184.25</ele>
      </trkpt>
      <trkpt lat="49.7343580" lon="10.1700250">
        <ele>183.50</ele>
      </trkpt>
      <trkpt lat="49.7341420" lon="10.1700640">
        <ele>183.00</ele>
      </trkpt>
      <trkpt lat="49.7336370" lon="10.1702160">
        <ele>183.25</ele>
      </trkpt>
      <trkpt lat="49.7334640" lon="10.1703180">
        <ele>183.25</ele>
      </trkpt>
      <trkpt lat="49.7334160" lon="10.1703930">
        <ele>183.25</ele>
      </trkpt>
      <trkpt lat="49.7333350" lon="10.1704890">
        <ele>183.50</ele>
      </trkpt>
      <trkpt lat="49.7330950" lon="10.1704180">
        <ele>183.75</ele>
      </trkpt>
      <trkpt lat="49.7330230" lon="10.1703890">
        <ele>183.75</ele>
      </trkpt>
      <trkpt lat="49.7329840" lon="10.1705630">
        <ele>184.00</ele>
      </trkpt>
      <trkpt lat="49.7321940" lon="10.1700100">
        <ele>184.00</ele>
      </trkpt>
      <trkpt lat="49.7321270" lon="10.1700270">
        <ele>184.00</ele>
      </trkpt>
      <trkpt lat="49.7313340" lon="10.1696640">
        <ele>184.00</ele>
      </trkpt>
      <trkpt lat="49.7300130" lon="10.1689320">
        <ele>183.50</ele>
      </trkpt>
      <trkpt lat="49.7299120" lon="10.1687910">
        <ele>183.50</ele>
      </trkpt>
      <trkpt lat="49.7298330" lon="10.1684980">
        <ele>183.25</ele>
      </trkpt>
      <trkpt lat="49.7295210" lon="10.1679570">
        <ele>183.25</ele>
      </trkpt>
      <trkpt lat="49.7294060" lon="10.1676430">
        <ele>183.00</ele>
      </trkpt>
      <trkpt lat="49.7293190" lon="10.1676530">
        <ele>183.00</ele>
      </trkpt>
      <trkpt lat="49.7292630" lon="10.1676830">
        <ele>183.00</ele>
      </trkpt>
      <trkpt lat="49.7291990" lon="10.1677360">
        <ele>183.25</ele>
      </trkpt>
      <trkpt lat="49.7292020" lon="10.1678630">
        <ele>183.25</ele>
      </trkpt>
      <trkpt lat="49.7291950" lon="10.1680440">
        <ele>183.50</ele>
      </trkpt>
      <trkpt lat="49.7291150" lon="10.1681860">
        <ele>183.75</ele>
      </trkpt>
      <trkpt lat="49.7288750" lon="10.1684250">
        <ele>184.25</ele>
      </trkpt>
      <trkpt lat="49.7286120" lon="10.1684020">
        <ele>184.50</ele>
      </trkpt>
      <trkpt lat="49.7283580" lon="10.1680500">
        <ele>184.50</ele>
      </trkpt>
      <trkpt lat="49.7277310" lon="10.1670020">
        <ele>183.75</ele>
      </trkpt>
      <trkpt lat="49.7267070" lon="10.1656900">
        <ele>184.25</ele>
      </trkpt>
      <trkpt lat="49.7265310" lon="10.1659730">
        <ele>185.00</ele>
      </trkpt>
      <trkpt lat="49.7261420" lon="10.1662940">
        <ele>185.50</ele>
      </trkpt>
      <trkpt lat="49.7260270" lon="10.1663620">
        <ele>185.75</ele>
      </trkpt>
      <trkpt lat="49.7258690" lon="10.1663930">
        <ele>186.00</ele>
      </trkpt>
      <trkpt lat="49.7256730" lon="10.1663510">
        <ele>187.25</ele>
      </trkpt>
      <trkpt lat="49.7255830" lon="10.1663180">
        <ele>188.00</ele>
      </trkpt>
      <trkpt lat="49.7253640" lon="10.1661980">
        <ele>189.00</ele>
      </trkpt>
      <trkpt lat="49.7252870" lon="10.1661420">
        <ele>189.50</ele>
      </trkpt>
      <trkpt lat="49.7251690" lon="10.1660810">
        <ele>190.00</ele>
      </trkpt>
      <trkpt lat="49.7251080" lon="10.1660680">
        <ele>190.25</ele>
      </trkpt>
      <trkpt lat="49.7249970" lon="10.1661390">
        <ele>191.00</ele>
      </trkpt>
      <trkpt lat="49.7248800" lon="10.1660270">
        <ele>190.50</ele>
      </trkpt>
      <trkpt lat="49.7248960" lon="10.1659570">
        <ele>190.00</ele>
      </trkpt>
      <trkpt lat="49.7250250" lon="10.1654010">
        <ele>187.25</ele>
      </trkpt>
      <trkpt lat="49.7250510" lon="10.1653090">
        <ele>186.50</ele>
      </trkpt>
      <trkpt lat="49.7250990" lon="10.1651370">
        <ele>185.50</ele>
      </trkpt>
      <trkpt lat="49.7259290" lon="10.1618990">
        <ele>186.00</ele>
      </trkpt>
      <trkpt lat="49.7260180" lon="10.1615110">
        <ele>187.50</ele>
      </trkpt>
      <trkpt lat="49.7259240" lon="10.1614510">
        <ele>187.25</ele>
      </trkpt>
      <trkpt lat="49.7257890" lon="10.1615010">
        <ele>186.75</ele>
      </trkpt>
      <trkpt lat="49.7257630" lon="10.1615830">
        <ele>186.75</ele>
      </trkpt>
      <trkpt lat="49.7257490" lon="10.1616530">
        <ele>186.50</ele>
      </trkpt>
      <trkpt lat="49.7257500" lon="10.1617470">
        <ele>186.25</ele>
      </trkpt>
      <trkpt lat="49.7257670" lon="10.1618840">
        <ele>185.75</ele>
      </trkpt>
      <trkpt lat="49.7257870" lon="10.1619660">
        <ele>185.25</ele>
      </trkpt>
      <trkpt lat="49.7258110" lon="10.1620310">
        <ele>185.00</ele>
      </trkpt>
      <trkpt lat="49.7258870" lon="10.1621360">
        <ele>184.75</ele>
      </trkpt>
      <trkpt lat="49.7263430" lon="10.1624490">
        <ele>183.75</ele>
      </trkpt>
      <trkpt lat="49.7263500" lon="10.1625130">
        <ele>183.50</ele>
      </trkpt>
      <trkpt lat="49.7264260" lon="10.1626290">
        <ele>183.50</ele>
      </trkpt>
      <trkpt lat="49.7263040" lon="10.1630420">
        <ele>182.75</ele>
      </trkpt>
      <trkpt lat="49.7262390" lon="10.1632430">
        <ele>182.50</ele>
      </trkpt>
      <trkpt lat="49.7262660" lon="10.1632620">
        <ele>182.50</ele>
      </trkpt>
      <trkpt lat="49.7268630" lon="10.1636950">
        <ele>182.75</ele>
      </trkpt>
      <trkpt lat="49.7274080" lon="10.1640330">
        <ele>183.00</ele>
      </trkpt>
      <trkpt lat="49.7275500" lon="10.1640890">
        <ele>183.00</ele>
      </trkpt>
      <trkpt lat="49.7276120" lon="10.1640810">
        <ele>183.00</ele>
      </trkpt>
      <trkpt lat="49.7276450" lon="10.1640570">
        <ele>183.00</ele>
      </trkpt>
      <trkpt lat="49.7277660" lon="10.1641030">
        <ele>183.00</ele>
      </trkpt>
      <trkpt lat="49.7277930" lon="10.1641130">
        <ele>183.00</ele>
      </trkpt>
      <trkpt lat="49.7278600" lon="10.1641800">
        <ele>182.75</ele>
      </trkpt>
      <trkpt lat="49.7279110" lon="10.1642610">
        <ele>182.75</ele>
      </trkpt>
      <trkpt lat="49.7279630" lon="10.1643140">
        <ele>182.75</ele>
      </trkpt>
      <trkpt lat="49.7282900" lon="10.1644350">
        <ele>182.50</ele>
      </trkpt>
      <trkpt lat="49.7285000" lon="10.1645020">
        <ele>182.50</ele>
      </trkpt>
      <trkpt lat="49.7297450" lon="10.1648320">
        <ele>183.25</ele>
      </trkpt>
      <trkpt lat="49.7302790" lon="10.1649650">
        <ele>183.00</ele>
      </trkpt>
      <trkpt lat="49.7304660" lon="10.1650210">
        <ele>182.75</ele>
      </trkpt>
      <trkpt lat="49.7311720" lon="10.1651670">
        <ele>183.00</ele>
      </trkpt>
      <trkpt lat="49.7313570" lon="10.1652200">
        <ele>183.00</ele>
      </trkpt>
      <trkpt lat="49.7315130" lon="10.1652640">
        <ele>183.00</ele>
      </trkpt>
      <trkpt lat="49.7326720" lon="10.1655310">
        <ele>183.50</ele>
      </trkpt>
      <trkpt lat="49.7329090" lon="10.1655990">
        <ele>183.50</ele>
      </trkpt>
      <trkpt lat="49.7334260" lon="10.1657250">
        <ele>183.25</ele>
      </trkpt>
      <trkpt lat="49.7339580" lon="10.1658240">
        <ele>183.00</ele>
      </trkpt>
      <trkpt lat="49.7349360" lon="10.1659770">
        <ele>182.75</ele>
      </trkpt>
      <trkpt lat="49.7352980" lon="10.1660090">
        <ele>182.75</ele>
      </trkpt>
      <trkpt lat="49.7358980" lon="10.1659910">
        <ele>182.75</ele>
      </trkpt>
      <trkpt lat="49.7360620" lon="10.1659540">
        <ele>182.75</ele>
      </trkpt>
      <trkpt lat="49.7365110" lon="10.1659070">
        <ele>182.75</ele>
      </trkpt>
      <trkpt lat="49.7367080" lon="10.1658520">
        <ele>182.75</ele>
      </trkpt>
      <trkpt lat="49.7366760" lon="10.1656220">
        <ele>183.00</ele>
      </trkpt>
      <trkpt lat="49.7366560" lon="10.1655580">
        <ele>183.25</ele>
      </trkpt>
      <trkpt lat="49.7366160" lon="10.1654700">
        <ele>183.25</ele>
      </trkpt>
      <trkpt lat="49.7365960" lon="10.1653850">
        <ele>183.50</ele>
      </trkpt>
      <trkpt lat="49.7365940" lon="10.1653370">
        <ele>183.50</ele>
      </trkpt>
      <trkpt lat="49.7366010" lon="10.1652420">
        <ele>183.75</ele>
      </trkpt>
      <trkpt lat="49.7366310" lon="10.1651630">
        <ele>183.75</ele>
      </trkpt>
      <trkpt lat="49.7366450" lon="10.1651580">
        <ele>183.75</ele>
      </trkpt>
      <trkpt lat="49.7366660" lon="10.1649120">
        <ele>184.00</ele>
      </trkpt>
      <trkpt lat="49.7366640" lon="10.1648240">
        <ele>184.25</ele>
      </trkpt>
      <trkpt lat="49.7366560" lon="10.1645670">
        <ele>184.75</ele>
      </trkpt>
      <trkpt lat="49.7366560" lon="10.1645530">
        <ele>185.00</ele>
      </trkpt>
      <trkpt lat="49.7368630" lon="10.1645430">
        <ele>184.75</ele>
      </trkpt>
      <trkpt lat="49.7371430" lon="10.1645150">
        <ele>184.75</ele>
      </trkpt>
      <trkpt lat="49.7372490" lon="10.1645030">
        <ele>184.75</ele>
      </trkpt>
      <trkpt lat="49.7373110" lon="10.1644960">
        <ele>184.50</ele>
      </trkpt>
      <trkpt lat="49.7375140" lon="10.1644500">
        <ele>184.50</ele>
      </trkpt>
      <trkpt lat="49.7376260" lon="10.1644240">
        <ele>184.50</ele>
      </trkpt>
      <trkpt lat="49.7376900" lon="10.1644060">
        <ele>184.50</ele>
      </trkpt>
      <trkpt lat="49.7381130" lon="10.1642780">
        <ele>184.75</ele>
      </trkpt>
      <trkpt lat="49.7388810" lon="10.1639860">
        <ele>184.75</ele>
      </trkpt>
      <trkpt lat="49.7390330" lon="10.1639240">
        <ele>184.50</ele>
      </trkpt>
      <trkpt lat="49.7390500" lon="10.1639170">
        <ele>184.50</ele>
      </trkpt>
      <trkpt lat="49.7391490" lon="10.1638700">
        <ele>184.50</ele>
      </trkpt>
      <trkpt lat="49.7391490" lon="10.1638690">
        <ele>184.50</ele>
      </trkpt>
      <trkpt lat="49.7391490" lon="10.1638700">
        <ele>184.50</ele>
      </trkpt>
      <trkpt lat="49.7393630" lon="10.1637690">
        <ele>184.50</ele>
      </trkpt>
      <trkpt lat="49.7394450" lon="10.1637150">
        <ele>184.50</ele>
      </trkpt>
      <trkpt lat="49.7395400" lon="10.1636360">
        <ele>184.50</ele>
      </trkpt>
      <trkpt lat="49.7396040" lon="10.1635760">
        <ele>184.50</ele>
      </trkpt>
      <trkpt lat="49.7396210" lon="10.1635510">
        <ele>184.50</ele>
      </trkpt>
      <trkpt lat="49.7396550" lon="10.1635040">
        <ele>184.50</ele>
      </trkpt>
      <trkpt lat="49.7394980" lon="10.1631810">
        <ele>185.25</ele>
      </trkpt>
      <trkpt lat="49.7394530" lon="10.1630540">
        <ele>185.75</ele>
      </trkpt>
      <trkpt lat="49.7393890" lon="10.1628770">
        <ele>186.00</ele>
      </trkpt>
      <trkpt lat="49.7393230" lon="10.1626840">
        <ele>186.25</ele>
      </trkpt>
    </trkseg>
  </trk>
</gpx>