<?xml version='1.0' encoding='UTF-8'?>
<gpx version="1.1" creator="https://www.komoot.de" xmlns="http://www.topografix.com/GPX/1/1" xmlns:xsi="http://www.w3.org/2001/XMLSchema-instance" xsi:schemaLocation="http://www.topografix.com/GPX/1/1 http://www.topografix.com/GPX/1/1/gpx.xsd">
  <metadata>
    <name>Ganderkesee 11km</name>
    <author>
      <link href="https://www.komoot.de">
        <text>komoot</text>
        <type>text/html</type>
      </link>
    </author>
  </metadata>
  <trk>
    <name>Ganderkesee 11km</name>
    <trkseg>
      <trkpt lat="53.034749" lon="8.507466">
        <ele>28.553602</ele>
        <time>2023-04-07T19:42:58.943Z</time>
      </trkpt>
      <trkpt lat="53.034886" lon="8.508250">
        <ele>28.553602</ele>
        <time>2023-04-07T19:43:48.416Z</time>
      </trkpt>
      <trkpt lat="53.035017" lon="8.508993">
        <ele>28.561547</ele>
        <time>2023-04-07T19:44:35.570Z</time>
      </trkpt>
      <trkpt lat="53.035048" lon="8.508980">
        <ele>28.565987</ele>
        <time>2023-04-07T19:44:38.875Z</time>
      </trkpt>
      <trkpt lat="53.035163" lon="8.509617">
        <ele>28.621522</ele>
        <time>2023-04-07T19:45:19.358Z</time>
      </trkpt>
      <trkpt lat="53.035503" lon="8.510592">
        <ele>28.715635</ele>
        <time>2023-04-07T19:46:28.014Z</time>
      </trkpt>
      <trkpt lat="53.035635" lon="8.511330">
        <ele>28.779926</ele>
        <time>2023-04-07T19:47:14.491Z</time>
      </trkpt>
      <trkpt lat="53.035722" lon="8.512272">
        <ele>28.611715</ele>
        <time>2023-04-07T19:48:12.327Z</time>
      </trkpt>
      <trkpt lat="53.035637" lon="8.513303">
        <ele>28.315085</ele>
        <time>2023-04-07T19:49:15.607Z</time>
      </trkpt>
      <trkpt lat="53.035809" lon="8.513327">
        <ele>28.233265</ele>
        <time>2023-04-07T19:49:33.104Z</time>
      </trkpt>
      <trkpt lat="53.036388" lon="8.513565">
        <ele>27.950490</ele>
        <time>2023-04-07T19:50:33.464Z</time>
      </trkpt>
      <trkpt lat="53.037196" lon="8.513847">
        <ele>27.464701</ele>
        <time>2023-04-07T19:51:57.296Z</time>
      </trkpt>
      <trkpt lat="53.037363" lon="8.513874">
        <ele>27.365974</ele>
        <time>2023-04-07T19:52:14.316Z</time>
      </trkpt>
      <trkpt lat="53.037483" lon="8.513799">
        <ele>27.290544</ele>
        <time>2023-04-07T19:52:27.344Z</time>
      </trkpt>
      <trkpt lat="53.037533" lon="8.513707">
        <ele>27.246669</ele>
        <time>2023-04-07T19:52:34.907Z</time>
      </trkpt>
      <trkpt lat="53.037616" lon="8.513262">
        <ele>27.081826</ele>
        <time>2023-04-07T19:53:03.258Z</time>
      </trkpt>
      <trkpt lat="53.037684" lon="8.513120">
        <ele>27.017600</ele>
        <time>2023-04-07T19:53:14.305Z</time>
      </trkpt>
      <trkpt lat="53.037953" lon="8.513050">
        <ele>26.884411</ele>
        <time>2023-04-07T19:53:41.686Z</time>
      </trkpt>
      <trkpt lat="53.038008" lon="8.512984">
        <ele>26.875289</ele>
        <time>2023-04-07T19:53:48.594Z</time>
      </trkpt>
      <trkpt lat="53.038055" lon="8.512849">
        <ele>26.862674</ele>
        <time>2023-04-07T19:53:58.061Z</time>
      </trkpt>
      <trkpt lat="53.038222" lon="8.511468">
        <ele>26.748758</ele>
        <time>2023-04-07T19:55:23.227Z</time>
      </trkpt>
      <trkpt lat="53.038279" lon="8.511184">
        <ele>26.724546</ele>
        <time>2023-04-07T19:55:41.329Z</time>
      </trkpt>
      <trkpt lat="53.038362" lon="8.511061">
        <ele>26.709594</ele>
        <time>2023-04-07T19:55:52.489Z</time>
      </trkpt>
      <trkpt lat="53.038733" lon="8.510901">
        <ele>26.658047</ele>
        <time>2023-04-07T19:56:30.877Z</time>
      </trkpt>
      <trkpt lat="53.040937" lon="8.510012">
        <ele>27.615120</ele>
        <time>2023-04-07T20:00:22.016Z</time>
      </trkpt>
      <trkpt lat="53.044220" lon="8.508953">
        <ele>28.779445</ele>
        <time>2023-04-07T20:06:00.255Z</time>
      </trkpt>
      <trkpt lat="53.042892" lon="8.514572">
        <ele>30.827968</ele>
        <time>2023-04-07T20:12:10.990Z</time>
      </trkpt>
      <trkpt lat="53.041968" lon="8.518482">
        <ele>32.509320</ele>
        <time>2023-04-07T20:16:29.686Z</time>
      </trkpt>
      <trkpt lat="53.041966" lon="8.518622">
        <ele>32.566840</ele>
        <time>2023-04-07T20:16:38.353Z</time>
      </trkpt>
      <trkpt lat="53.041999" lon="8.518849">
        <ele>32.662765</ele>
        <time>2023-04-07T20:16:52.787Z</time>
      </trkpt>
      <trkpt lat="53.042030" lon="8.518950">
        <ele>32.709343</ele>
        <time>2023-04-07T20:16:59.803Z</time>
      </trkpt>
      <trkpt lat="53.041477" lon="8.519477">
        <ele>33.134731</ele>
        <time>2023-04-07T20:18:05.289Z</time>
      </trkpt>
      <trkpt lat="53.041388" lon="8.519563">
        <ele>33.184955</ele>
        <time>2023-04-07T20:18:15.848Z</time>
      </trkpt>
      <trkpt lat="53.041457" lon="8.519809">
        <ele>33.264592</ele>
        <time>2023-04-07T20:18:32.572Z</time>
      </trkpt>
      <trkpt lat="53.041460" lon="8.520052">
        <ele>33.335896</ele>
        <time>2023-04-07T20:18:47.644Z</time>
      </trkpt>
      <trkpt lat="53.041443" lon="8.520193">
        <ele>33.378084</ele>
        <time>2023-04-07T20:18:56.473Z</time>
      </trkpt>
      <trkpt lat="53.041278" lon="8.520787">
        <ele>33.570046</ele>
        <time>2023-04-07T20:19:36.585Z</time>
      </trkpt>
      <trkpt lat="53.041220" lon="8.520900">
        <ele>33.613634</ele>
        <time>2023-04-07T20:19:45.656Z</time>
      </trkpt>
      <trkpt lat="53.040792" lon="8.522443">
        <ele>34.018863</ele>
        <time>2023-04-07T20:21:29.006Z</time>
      </trkpt>
      <trkpt lat="53.040654" lon="8.522945">
        <ele>34.059786</ele>
        <time>2023-04-07T20:22:02.225Z</time>
      </trkpt>
      <trkpt lat="53.040520" lon="8.523434">
        <ele>34.099627</ele>
        <time>2023-04-07T20:22:34.516Z</time>
      </trkpt>
      <trkpt lat="53.040398" lon="8.523879">
        <ele>34.135887</ele>
        <time>2023-04-07T20:23:04.067Z</time>
      </trkpt>
      <trkpt lat="53.040236" lon="8.524473">
        <ele>34.184243</ele>
        <time>2023-04-07T20:23:43.417Z</time>
      </trkpt>
      <trkpt lat="53.040071" lon="8.525075">
        <ele>34.328034</ele>
        <time>2023-04-07T20:24:23.348Z</time>
      </trkpt>
      <trkpt lat="53.039931" lon="8.525587">
        <ele>34.533017</ele>
        <time>2023-04-07T20:24:57.662Z</time>
      </trkpt>
      <trkpt lat="53.038620" lon="8.530374">
        <ele>36.656932</ele>
        <time>2023-04-07T20:30:23.297Z</time>
      </trkpt>
      <trkpt lat="53.038285" lon="8.531667">
        <ele>36.770187</ele>
        <time>2023-04-07T20:31:49.081Z</time>
      </trkpt>
      <trkpt lat="53.038101" lon="8.532350">
        <ele>36.830391</ele>
        <time>2023-04-07T20:32:34.104Z</time>
      </trkpt>
      <trkpt lat="53.038028" lon="8.532624">
        <ele>36.854499</ele>
        <time>2023-04-07T20:32:52.246Z</time>
      </trkpt>
      <trkpt lat="53.037949" lon="8.532806">
        <ele>36.872555</ele>
        <time>2023-04-07T20:33:05.783Z</time>
      </trkpt>
      <trkpt lat="53.037500" lon="8.533603">
        <ele>36.434716</ele>
        <time>2023-04-07T20:34:12.454Z</time>
      </trkpt>
      <trkpt lat="53.036920" lon="8.534595">
        <ele>35.778294</ele>
        <time>2023-04-07T20:35:37.525Z</time>
      </trkpt>
      <trkpt lat="53.036739" lon="8.534899">
        <ele>35.575331</ele>
        <time>2023-04-07T20:36:03.722Z</time>
      </trkpt>
      <trkpt lat="53.036694" lon="8.534975">
        <ele>35.524728</ele>
        <time>2023-04-07T20:36:10.231Z</time>
      </trkpt>
      <trkpt lat="53.036360" lon="8.535673">
        <ele>35.217527</ele>
        <time>2023-04-07T20:37:04.696Z</time>
      </trkpt>
      <trkpt lat="53.035905" lon="8.536962">
        <ele>34.734665</ele>
        <time>2023-04-07T20:38:35.541Z</time>
      </trkpt>
      <trkpt lat="53.035457" lon="8.539016">
        <ele>34.004775</ele>
        <time>2023-04-07T20:40:48.310Z</time>
      </trkpt>
      <trkpt lat="53.035260" lon="8.540042">
        <ele>33.639040</ele>
        <time>2023-04-07T20:41:53.889Z</time>
      </trkpt>
      <trkpt lat="53.035162" lon="8.540612">
        <ele>33.421535</ele>
        <time>2023-04-07T20:42:30.056Z</time>
      </trkpt>
      <trkpt lat="53.035056" lon="8.541076">
        <ele>33.192783</ele>
        <time>2023-04-07T20:43:00.414Z</time>
      </trkpt>
      <trkpt lat="53.034839" lon="8.541569">
        <ele>32.911214</ele>
        <time>2023-04-07T20:43:37.922Z</time>
      </trkpt>
      <trkpt lat="53.034723" lon="8.541688">
        <ele>32.806755</ele>
        <time>2023-04-07T20:43:51.765Z</time>
      </trkpt>
      <trkpt lat="53.034647" lon="8.541819">
        <ele>32.722864</ele>
        <time>2023-04-07T20:44:02.893Z</time>
      </trkpt>
      <trkpt lat="53.034629" lon="8.541836">
        <ele>32.707000</ele>
        <time>2023-04-07T20:44:04.978Z</time>
      </trkpt>
      <trkpt lat="53.034515" lon="8.541943">
        <ele>32.606673</ele>
        <time>2023-04-07T20:44:18.306Z</time>
      </trkpt>
      <trkpt lat="53.034356" lon="8.542077">
        <ele>32.470059</ele>
        <time>2023-04-07T20:44:36.462Z</time>
      </trkpt>
      <trkpt lat="53.034369" lon="8.542136">
        <ele>32.441100</ele>
        <time>2023-04-07T20:44:40.290Z</time>
      </trkpt>
      <trkpt lat="53.034392" lon="8.542212">
        <ele>32.401888</ele>
        <time>2023-04-07T20:44:45.496Z</time>
      </trkpt>
      <trkpt lat="53.034514" lon="8.542288">
        <ele>32.302041</ele>
        <time>2023-04-07T20:44:58.657Z</time>
      </trkpt>
      <trkpt lat="53.034562" lon="8.542357">
        <ele>32.253415</ele>
        <time>2023-04-07T20:45:05.139Z</time>
      </trkpt>
      <trkpt lat="53.034890" lon="8.543126">
        <ele>31.892246</ele>
        <time>2023-04-07T20:46:02.817Z</time>
      </trkpt>
      <trkpt lat="53.034777" lon="8.543222">
        <ele>31.819964</ele>
        <time>2023-04-07T20:46:15.651Z</time>
      </trkpt>
      <trkpt lat="53.034585" lon="8.543295">
        <ele>31.707771</ele>
        <time>2023-04-07T20:46:35.794Z</time>
      </trkpt>
      <trkpt lat="53.034543" lon="8.543294">
        <ele>31.683843</ele>
        <time>2023-04-07T20:46:40.005Z</time>
      </trkpt>
      <trkpt lat="53.034257" lon="8.543412">
        <ele>31.515987</ele>
        <time>2023-04-07T20:47:10.055Z</time>
      </trkpt>
      <trkpt lat="53.033724" lon="8.543487">
        <ele>31.211284</ele>
        <time>2023-04-07T20:48:04.035Z</time>
      </trkpt>
      <trkpt lat="53.033624" lon="8.543542">
        <ele>31.151285</ele>
        <time>2023-04-07T20:48:14.623Z</time>
      </trkpt>
      <trkpt lat="53.033473" lon="8.543725">
        <ele>31.100423</ele>
        <time>2023-04-07T20:48:33.307Z</time>
      </trkpt>
      <trkpt lat="53.033294" lon="8.544360">
        <ele>31.240236</ele>
        <time>2023-04-07T20:49:15.591Z</time>
      </trkpt>
      <trkpt lat="53.033235" lon="8.544660">
        <ele>31.303162</ele>
        <time>2023-04-07T20:49:34.600Z</time>
      </trkpt>
      <trkpt lat="53.033145" lon="8.544816">
        <ele>31.346260</ele>
        <time>2023-04-07T20:49:47.805Z</time>
      </trkpt>
      <trkpt lat="53.032920" lon="8.545304">
        <ele>31.468854</ele>
        <time>2023-04-07T20:50:25.234Z</time>
      </trkpt>
      <trkpt lat="53.032856" lon="8.545426">
        <ele>31.501130</ele>
        <time>2023-04-07T20:50:35.025Z</time>
      </trkpt>
      <trkpt lat="53.032724" lon="8.545564">
        <ele>31.552821</ele>
        <time>2023-04-07T20:50:51.055Z</time>
      </trkpt>
      <trkpt lat="53.032284" lon="8.545727">
        <ele>31.755131</ele>
        <time>2023-04-07T20:51:37.402Z</time>
      </trkpt>
      <trkpt lat="53.032293" lon="8.545593">
        <ele>31.836675</ele>
        <time>2023-04-07T20:51:45.703Z</time>
      </trkpt>
      <trkpt lat="53.032266" lon="8.545517">
        <ele>31.890060</ele>
        <time>2023-04-07T20:51:51.175Z</time>
      </trkpt>
      <trkpt lat="53.032211" lon="8.545509">
        <ele>31.945583</ele>
        <time>2023-04-07T20:51:56.876Z</time>
      </trkpt>
      <trkpt lat="53.032157" lon="8.545502">
        <ele>32.000055</ele>
        <time>2023-04-07T20:52:02.485Z</time>
      </trkpt>
      <trkpt lat="53.032101" lon="8.545588">
        <ele>32.076715</ele>
        <time>2023-04-07T20:52:10.488Z</time>
      </trkpt>
      <trkpt lat="53.032052" lon="8.545593">
        <ele>32.126086</ele>
        <time>2023-04-07T20:52:15.644Z</time>
      </trkpt>
      <trkpt lat="53.031926" lon="8.545493">
        <ele>32.266494</ele>
        <time>2023-04-07T20:52:30.033Z</time>
      </trkpt>
      <trkpt lat="53.031604" lon="8.545152">
        <ele>32.650415</ele>
        <time>2023-04-07T20:53:09.861Z</time>
      </trkpt>
      <trkpt lat="53.031560" lon="8.545148">
        <ele>32.694731</ele>
        <time>2023-04-07T20:53:14.509Z</time>
      </trkpt>
      <trkpt lat="53.031066" lon="8.544793">
        <ele>33.235943</ele>
        <time>2023-04-07T20:54:10.586Z</time>
      </trkpt>
      <trkpt lat="53.030733" lon="8.544590">
        <ele>33.543151</ele>
        <time>2023-04-07T20:54:47.316Z</time>
      </trkpt>
      <trkpt lat="53.030716" lon="8.544579">
        <ele>33.553053</ele>
        <time>2023-04-07T20:54:49.260Z</time>
      </trkpt>
      <trkpt lat="53.030432" lon="8.544401">
        <ele>33.717807</ele>
        <time>2023-04-07T20:55:20.509Z</time>
      </trkpt>
      <trkpt lat="53.029928" lon="8.544086">
        <ele>34.010085</ele>
        <time>2023-04-07T20:56:15.503Z</time>
      </trkpt>
      <trkpt lat="53.029470" lon="8.543834">
        <ele>34.271962</ele>
        <time>2023-04-07T20:57:04.284Z</time>
      </trkpt>
      <trkpt lat="53.029201" lon="8.543718">
        <ele>34.422816</ele>
        <time>2023-04-07T20:57:32.309Z</time>
      </trkpt>
      <trkpt lat="53.028983" lon="8.543670">
        <ele>34.499338</ele>
        <time>2023-04-07T20:57:54.485Z</time>
      </trkpt>
      <trkpt lat="53.028876" lon="8.543447">
        <ele>34.543019</ele>
        <time>2023-04-07T20:58:11.870Z</time>
      </trkpt>
      <trkpt lat="53.028767" lon="8.543057">
        <ele>34.608868</ele>
        <time>2023-04-07T20:58:37.957Z</time>
      </trkpt>
      <trkpt lat="53.028675" lon="8.542725">
        <ele>34.664840</ele>
        <time>2023-04-07T20:59:00.081Z</time>
      </trkpt>
      <trkpt lat="53.028643" lon="8.542611">
        <ele>34.684103</ele>
        <time>2023-04-07T20:59:07.668Z</time>
      </trkpt>
      <trkpt lat="53.028465" lon="8.541933">
        <ele>34.797377</ele>
        <time>2023-04-07T20:59:52.553Z</time>
      </trkpt>
      <trkpt lat="53.028364" lon="8.541552">
        <ele>34.861132</ele>
        <time>2023-04-07T21:00:17.824Z</time>
      </trkpt>
      <trkpt lat="53.028257" lon="8.541149">
        <ele>34.921917</ele>
        <time>2023-04-07T21:00:44.663Z</time>
      </trkpt>
      <trkpt lat="53.027958" lon="8.539868">
        <ele>34.979274</ele>
        <time>2023-04-07T21:02:08.315Z</time>
      </trkpt>
      <trkpt lat="53.027910" lon="8.539589">
        <ele>34.991388</ele>
        <time>2023-04-07T21:02:25.973Z</time>
      </trkpt>
      <trkpt lat="53.027625" lon="8.537157">
        <ele>34.993000</ele>
        <time>2023-04-07T21:04:55.737Z</time>
      </trkpt>
      <trkpt lat="53.027533" lon="8.536730">
        <ele>34.973807</ele>
        <time>2023-04-07T21:05:23.207Z</time>
      </trkpt>
      <trkpt lat="53.027480" lon="8.536519">
        <ele>34.964131</ele>
        <time>2023-04-07T21:05:37.097Z</time>
      </trkpt>
      <trkpt lat="53.026739" lon="8.533905">
        <ele>35.049349</ele>
        <time>2023-04-07T21:08:32.139Z</time>
      </trkpt>
      <trkpt lat="53.026553" lon="8.533246">
        <ele>35.102806</ele>
        <time>2023-04-07T21:09:16.053Z</time>
      </trkpt>
      <trkpt lat="53.026524" lon="8.533147">
        <ele>35.110892</ele>
        <time>2023-04-07T21:09:22.674Z</time>
      </trkpt>
      <trkpt lat="53.026457" lon="8.532912">
        <ele>35.129990</ele>
        <time>2023-04-07T21:09:38.370Z</time>
      </trkpt>
      <trkpt lat="53.026234" lon="8.532129">
        <ele>35.228452</ele>
        <time>2023-04-07T21:10:30.640Z</time>
      </trkpt>
      <trkpt lat="53.026066" lon="8.531482">
        <ele>35.312233</ele>
        <time>2023-04-07T21:11:13.208Z</time>
      </trkpt>
      <trkpt lat="53.025965" lon="8.531140">
        <ele>35.357529</ele>
        <time>2023-04-07T21:11:36.261Z</time>
      </trkpt>
      <trkpt lat="53.025281" lon="8.529955">
        <ele>35.934669</ele>
        <time>2023-04-07T21:13:15.962Z</time>
      </trkpt>
      <trkpt lat="53.024928" lon="8.529281">
        <ele>36.717757</ele>
        <time>2023-04-07T21:14:11.910Z</time>
      </trkpt>
      <trkpt lat="53.024601" lon="8.528529">
        <ele>37.530843</ele>
        <time>2023-04-07T21:15:11.736Z</time>
      </trkpt>
      <trkpt lat="53.024233" lon="8.527520">
        <ele>38.678454</ele>
        <time>2023-04-07T21:16:28.365Z</time>
      </trkpt>
      <trkpt lat="53.023884" lon="8.526917">
        <ele>39.596216</ele>
        <time>2023-04-07T21:17:22.591Z</time>
      </trkpt>
      <trkpt lat="53.023582" lon="8.526468">
        <ele>40.334935</ele>
        <time>2023-04-07T21:18:05.929Z</time>
      </trkpt>
      <trkpt lat="53.023397" lon="8.526178">
        <ele>40.798554</ele>
        <time>2023-04-07T21:18:32.877Z</time>
      </trkpt>
      <trkpt lat="53.022703" lon="8.524840">
        <ele>41.854889</ele>
        <time>2023-04-07T21:20:23.613Z</time>
      </trkpt>
      <trkpt lat="53.022507" lon="8.524554">
        <ele>42.018471</ele>
        <time>2023-04-07T21:20:50.160Z</time>
      </trkpt>
      <trkpt lat="53.022406" lon="8.524406">
        <ele>42.102921</ele>
        <time>2023-04-07T21:21:03.790Z</time>
      </trkpt>
      <trkpt lat="53.022090" lon="8.523986">
        <ele>42.356693</ele>
        <time>2023-04-07T21:21:44.512Z</time>
      </trkpt>
      <trkpt lat="53.021789" lon="8.523638">
        <ele>42.473929</ele>
        <time>2023-04-07T21:22:21.314Z</time>
      </trkpt>
      <trkpt lat="53.021133" lon="8.522992">
        <ele>42.132283</ele>
        <time>2023-04-07T21:23:37.832Z</time>
      </trkpt>
      <trkpt lat="53.019365" lon="8.521001">
        <ele>40.380821</ele>
        <time>2023-04-07T21:27:15.296Z</time>
      </trkpt>
      <trkpt lat="53.019507" lon="8.520712">
        <ele>40.132113</ele>
        <time>2023-04-07T21:27:38.406Z</time>
      </trkpt>
      <trkpt lat="53.019710" lon="8.520319">
        <ele>39.786861</ele>
        <time>2023-04-07T21:28:10.660Z</time>
      </trkpt>
      <trkpt lat="53.019819" lon="8.520209">
        <ele>39.612868</ele>
        <time>2023-04-07T21:28:23.863Z</time>
      </trkpt>
      <trkpt lat="53.021804" lon="8.519454">
        <ele>36.612973</ele>
        <time>2023-04-07T21:31:54.512Z</time>
      </trkpt>
      <trkpt lat="53.022020" lon="8.519360">
        <ele>36.420691</ele>
        <time>2023-04-07T21:32:17.402Z</time>
      </trkpt>
      <trkpt lat="53.023372" lon="8.518873">
        <ele>35.281647</ele>
        <time>2023-04-07T21:34:37.724Z</time>
      </trkpt>
      <trkpt lat="53.023636" lon="8.518780">
        <ele>35.172258</ele>
        <time>2023-04-07T21:35:04.941Z</time>
      </trkpt>
      <trkpt lat="53.023705" lon="8.518726">
        <ele>35.141345</ele>
        <time>2023-04-07T21:35:12.626Z</time>
      </trkpt>
      <trkpt lat="53.023778" lon="8.518852">
        <ele>35.098691</ele>
        <time>2023-04-07T21:35:23.241Z</time>
      </trkpt>
      <trkpt lat="53.023898" lon="8.518980">
        <ele>35.040898</ele>
        <time>2023-04-07T21:35:37.552Z</time>
      </trkpt>
      <trkpt lat="53.024048" lon="8.519039">
        <ele>34.978416</ele>
        <time>2023-04-07T21:35:53.144Z</time>
      </trkpt>
      <trkpt lat="53.024200" lon="8.519039">
        <ele>34.916802</ele>
        <time>2023-04-07T21:36:08.353Z</time>
      </trkpt>
      <trkpt lat="53.024490" lon="8.518917">
        <ele>34.795545</ele>
        <time>2023-04-07T21:36:38.568Z</time>
      </trkpt>
      <trkpt lat="53.028444" lon="8.516819">
        <ele>33.099247</ele>
        <time>2023-04-07T21:43:37.433Z</time>
      </trkpt>
      <trkpt lat="53.028506" lon="8.516788">
        <ele>33.072710</ele>
        <time>2023-04-07T21:43:43.984Z</time>
      </trkpt>
      <trkpt lat="53.028512" lon="8.516871">
        <ele>33.052102</ele>
        <time>2023-04-07T21:43:49.101Z</time>
      </trkpt>
      <trkpt lat="53.028857" lon="8.516685">
        <ele>32.903445</ele>
        <time>2023-04-07T21:44:25.727Z</time>
      </trkpt>
      <trkpt lat="53.029201" lon="8.516593">
        <ele>32.760634</ele>
        <time>2023-04-07T21:45:01.039Z</time>
      </trkpt>
      <trkpt lat="53.031517" lon="8.516117">
        <ele>31.875900</ele>
        <time>2023-04-07T21:48:56.354Z</time>
      </trkpt>
      <trkpt lat="53.031617" lon="8.516120">
        <ele>31.839927</ele>
        <time>2023-04-07T21:49:06.357Z</time>
      </trkpt>
      <trkpt lat="53.031710" lon="8.516174">
        <ele>31.804497</ele>
        <time>2023-04-07T21:49:16.314Z</time>
      </trkpt>
      <trkpt lat="53.031765" lon="8.516246">
        <ele>31.779321</ele>
        <time>2023-04-07T21:49:23.300Z</time>
      </trkpt>
      <trkpt lat="53.031805" lon="8.516038">
        <ele>31.730130</ele>
        <time>2023-04-07T21:49:36.618Z</time>
      </trkpt>
      <trkpt lat="53.031633" lon="8.513876">
        <ele>31.174955</ele>
        <time>2023-04-07T21:51:48.801Z</time>
      </trkpt>
      <trkpt lat="53.031151" lon="8.507840">
        <ele>28.878500</ele>
        <time>2023-04-07T21:58:00.316Z</time>
      </trkpt>
      <trkpt lat="53.031001" lon="8.505293">
        <ele>28.128145</ele>
        <time>2023-04-07T22:00:36.595Z</time>
      </trkpt>
      <trkpt lat="53.030544" lon="8.502551">
        <ele>28.305781</ele>
        <time>2023-04-07T22:03:28.453Z</time>
      </trkpt>
      <trkpt lat="53.031830" lon="8.501431">
        <ele>29.235190</ele>
        <time>2023-04-07T22:05:58.466Z</time>
      </trkpt>
      <trkpt lat="53.031946" lon="8.501283">
        <ele>29.360829</ele>
        <time>2023-04-07T22:06:13.765Z</time>
      </trkpt>
      <trkpt lat="53.032499" lon="8.498386">
        <ele>30.307028</ele>
        <time>2023-04-07T22:09:21.380Z</time>
      </trkpt>
      <trkpt lat="53.032576" lon="8.498449">
        <ele>30.320430</ele>
        <time>2023-04-07T22:09:30.115Z</time>
      </trkpt>
      <trkpt lat="53.033159" lon="8.501429">
        <ele>29.890481</ele>
        <time>2023-04-07T22:12:40.469Z</time>
      </trkpt>
      <trkpt lat="53.033893" lon="8.505189">
        <ele>28.516413</ele>
        <time>2023-04-07T22:16:41.600Z</time>
      </trkpt>
      <trkpt lat="53.034131" lon="8.505633">
        <ele>28.420083</ele>
        <time>2023-04-07T22:17:17.641Z</time>
      </trkpt>
      <trkpt lat="53.034207" lon="8.505729">
        <ele>28.420083</ele>
        <time>2023-04-07T22:17:27.215Z</time>
      </trkpt>
      <trkpt lat="53.034336" lon="8.505805">
        <ele>28.420083</ele>
        <time>2023-04-07T22:17:41.050Z</time>
      </trkpt>
      <trkpt lat="53.034472" lon="8.505910">
        <ele>28.420083</ele>
        <time>2023-04-07T22:17:56.135Z</time>
      </trkpt>
      <trkpt lat="53.034513" lon="8.505995">
        <ele>28.420083</ele>
        <time>2023-04-07T22:18:02.683Z</time>
      </trkpt>
      <trkpt lat="53.034670" lon="8.506887">
        <ele>28.420083</ele>
        <time>2023-04-07T22:18:58.773Z</time>
      </trkpt>
      <trkpt lat="53.034731" lon="8.507221">
        <ele>28.420083</ele>
        <time>2023-04-07T22:19:19.752Z</time>
      </trkpt>
      <trkpt lat="53.035006" lon="8.507094">
        <ele>28.420083</ele>
        <time>2023-04-07T22:19:48.350Z</time>
      </trkpt>
      <trkpt lat="53.035014" lon="8.507136">
        <ele>28.420083</ele>
        <time>2023-04-07T22:19:51.004Z</time>
      </trkpt>
      <trkpt lat="53.035234" lon="8.507031">
        <ele>28.420083</ele>
        <time>2023-04-07T22:20:13.965Z</time>
      </trkpt>
    </trkseg>
  </trk>
</gpx>
