<?xml version='1.0' encoding='UTF-8'?>
<gpx version="1.1" creator="https://www.komoot.de" xmlns="http://www.topografix.com/GPX/1/1" xmlns:xsi="http://www.w3.org/2001/XMLSchema-instance" xsi:schemaLocation="http://www.topografix.com/GPX/1/1 http://www.topografix.com/GPX/1/1/gpx.xsd">
  <metadata>
    <name>Kiel Holtenau PW 13 km</name>
    <author>
      <link href="https://www.komoot.de">
        <text>komoot</text>
        <type>text/html</type>
      </link>
    </author>
  </metadata>
  <trk>
    <name>Kiel Holtenau PW 13 km</name>
    <trkseg>
      <trkpt lat="54.374463" lon="10.132172">
        <ele>14.600000</ele>
        <time>2019-12-07T10:45:04.000Z</time>
      </trkpt>
      <trkpt lat="54.374298" lon="10.132169">
        <ele>14.600000</ele>
        <time>2019-12-07T10:45:22.000Z</time>
      </trkpt>
      <trkpt lat="54.374433" lon="10.132134">
        <ele>14.600000</ele>
        <time>2019-12-07T10:47:31.000Z</time>
      </trkpt>
      <trkpt lat="54.374452" lon="10.132133">
        <ele>14.600000</ele>
        <time>2019-12-07T10:47:47.000Z</time>
      </trkpt>
      <trkpt lat="54.374470" lon="10.132131">
        <ele>14.600000</ele>
        <time>2019-12-07T10:48:16.000Z</time>
      </trkpt>
      <trkpt lat="54.374481" lon="10.132145">
        <ele>14.600000</ele>
        <time>2019-12-07T10:48:38.000Z</time>
      </trkpt>
      <trkpt lat="54.374474" lon="10.132153">
        <ele>14.600000</ele>
        <time>2019-12-07T10:49:10.000Z</time>
      </trkpt>
      <trkpt lat="54.374511" lon="10.132142">
        <ele>14.600000</ele>
        <time>2019-12-07T10:49:38.000Z</time>
      </trkpt>
      <trkpt lat="54.374709" lon="10.132226">
        <ele>14.600000</ele>
        <time>2019-12-07T10:50:44.000Z</time>
      </trkpt>
      <trkpt lat="54.374770" lon="10.132358">
        <ele>14.600000</ele>
        <time>2019-12-07T10:50:58.000Z</time>
      </trkpt>
      <trkpt lat="54.374793" lon="10.132410">
        <ele>14.600000</ele>
        <time>2019-12-07T10:51:02.000Z</time>
      </trkpt>
      <trkpt lat="54.375020" lon="10.132448">
        <ele>14.600000</ele>
        <time>2019-12-07T10:51:20.000Z</time>
      </trkpt>
      <trkpt lat="54.375242" lon="10.132468">
        <ele>14.600000</ele>
        <time>2019-12-07T10:51:37.000Z</time>
      </trkpt>
      <trkpt lat="54.375429" lon="10.132553">
        <ele>14.600000</ele>
        <time>2019-12-07T10:51:53.000Z</time>
      </trkpt>
      <trkpt lat="54.375464" lon="10.132576">
        <ele>14.600000</ele>
        <time>2019-12-07T10:51:56.000Z</time>
      </trkpt>
      <trkpt lat="54.375672" lon="10.132634">
        <ele>14.600000</ele>
        <time>2019-12-07T10:52:14.000Z</time>
      </trkpt>
      <trkpt lat="54.375899" lon="10.132706">
        <ele>14.600000</ele>
        <time>2019-12-07T10:52:33.000Z</time>
      </trkpt>
      <trkpt lat="54.376153" lon="10.132734">
        <ele>14.600000</ele>
        <time>2019-12-07T10:52:55.000Z</time>
      </trkpt>
      <trkpt lat="54.376387" lon="10.132751">
        <ele>14.600000</ele>
        <time>2019-12-07T10:53:15.000Z</time>
      </trkpt>
      <trkpt lat="54.376583" lon="10.132735">
        <ele>14.600000</ele>
        <time>2019-12-07T10:53:32.000Z</time>
      </trkpt>
      <trkpt lat="54.376604" lon="10.132776">
        <ele>14.600000</ele>
        <time>2019-12-07T10:53:35.000Z</time>
      </trkpt>
      <trkpt lat="54.376607" lon="10.132824">
        <ele>14.600000</ele>
        <time>2019-12-07T10:53:37.000Z</time>
      </trkpt>
      <trkpt lat="54.376639" lon="10.133251">
        <ele>14.600000</ele>
        <time>2019-12-07T10:53:57.000Z</time>
      </trkpt>
      <trkpt lat="54.376666" lon="10.133427">
        <ele>14.600000</ele>
        <time>2019-12-07T10:54:15.000Z</time>
      </trkpt>
      <trkpt lat="54.376688" lon="10.133754">
        <ele>14.600000</ele>
        <time>2019-12-07T10:54:32.000Z</time>
      </trkpt>
      <trkpt lat="54.376716" lon="10.134205">
        <ele>14.600000</ele>
        <time>2019-12-07T10:54:54.000Z</time>
      </trkpt>
      <trkpt lat="54.376682" lon="10.134287">
        <ele>14.600000</ele>
        <time>2019-12-07T10:54:58.000Z</time>
      </trkpt>
      <trkpt lat="54.376642" lon="10.134339">
        <ele>14.600000</ele>
        <time>2019-12-07T10:55:02.000Z</time>
      </trkpt>
      <trkpt lat="54.376626" lon="10.134428">
        <ele>14.600000</ele>
        <time>2019-12-07T10:55:07.000Z</time>
      </trkpt>
      <trkpt lat="54.376611" lon="10.134763">
        <ele>14.600000</ele>
        <time>2019-12-07T10:55:26.000Z</time>
      </trkpt>
      <trkpt lat="54.376587" lon="10.134920">
        <ele>14.600000</ele>
        <time>2019-12-07T10:55:36.000Z</time>
      </trkpt>
      <trkpt lat="54.376552" lon="10.135342">
        <ele>14.600000</ele>
        <time>2019-12-07T10:55:57.000Z</time>
      </trkpt>
      <trkpt lat="54.376548" lon="10.135714">
        <ele>14.600000</ele>
        <time>2019-12-07T10:56:15.000Z</time>
      </trkpt>
      <trkpt lat="54.376542" lon="10.136066">
        <ele>14.600000</ele>
        <time>2019-12-07T10:56:34.000Z</time>
      </trkpt>
      <trkpt lat="54.376534" lon="10.136079">
        <ele>14.600000</ele>
        <time>2019-12-07T10:56:35.000Z</time>
      </trkpt>
      <trkpt lat="54.376396" lon="10.136368">
        <ele>14.600000</ele>
        <time>2019-12-07T10:56:55.000Z</time>
      </trkpt>
      <trkpt lat="54.376243" lon="10.136670">
        <ele>14.600000</ele>
        <time>2019-12-07T10:57:14.000Z</time>
      </trkpt>
      <trkpt lat="54.376160" lon="10.136955">
        <ele>14.600000</ele>
        <time>2019-12-07T10:57:31.000Z</time>
      </trkpt>
      <trkpt lat="54.376150" lon="10.136991">
        <ele>14.600000</ele>
        <time>2019-12-07T10:57:33.000Z</time>
      </trkpt>
      <trkpt lat="54.376132" lon="10.137074">
        <ele>14.600000</ele>
        <time>2019-12-07T10:57:37.000Z</time>
      </trkpt>
      <trkpt lat="54.376091" lon="10.137380">
        <ele>14.600000</ele>
        <time>2019-12-07T10:57:55.000Z</time>
      </trkpt>
      <trkpt lat="54.376037" lon="10.137750">
        <ele>14.600000</ele>
        <time>2019-12-07T10:58:15.000Z</time>
      </trkpt>
      <trkpt lat="54.375996" lon="10.138051">
        <ele>14.600000</ele>
        <time>2019-12-07T10:58:31.000Z</time>
      </trkpt>
      <trkpt lat="54.375968" lon="10.138245">
        <ele>14.600000</ele>
        <time>2019-12-07T10:58:41.000Z</time>
      </trkpt>
      <trkpt lat="54.375959" lon="10.138289">
        <ele>14.600000</ele>
        <time>2019-12-07T10:58:43.000Z</time>
      </trkpt>
      <trkpt lat="54.375927" lon="10.138401">
        <ele>14.600000</ele>
        <time>2019-12-07T10:58:49.000Z</time>
      </trkpt>
      <trkpt lat="54.375899" lon="10.138565">
        <ele>14.600000</ele>
        <time>2019-12-07T10:58:58.000Z</time>
      </trkpt>
      <trkpt lat="54.375877" lon="10.138754">
        <ele>14.600000</ele>
        <time>2019-12-07T10:59:08.000Z</time>
      </trkpt>
      <trkpt lat="54.375818" lon="10.139089">
        <ele>14.600000</ele>
        <time>2019-12-07T10:59:26.000Z</time>
      </trkpt>
      <trkpt lat="54.375812" lon="10.139130">
        <ele>14.600000</ele>
        <time>2019-12-07T10:59:28.000Z</time>
      </trkpt>
      <trkpt lat="54.375755" lon="10.139451">
        <ele>14.600000</ele>
        <time>2019-12-07T10:59:46.000Z</time>
      </trkpt>
      <trkpt lat="54.375697" lon="10.139621">
        <ele>14.600000</ele>
        <time>2019-12-07T10:59:56.000Z</time>
      </trkpt>
      <trkpt lat="54.375670" lon="10.139679">
        <ele>14.600000</ele>
        <time>2019-12-07T10:59:59.000Z</time>
      </trkpt>
      <trkpt lat="54.375559" lon="10.140006">
        <ele>14.600000</ele>
        <time>2019-12-07T11:00:16.000Z</time>
      </trkpt>
      <trkpt lat="54.375530" lon="10.140304">
        <ele>14.600000</ele>
        <time>2019-12-07T11:00:33.000Z</time>
      </trkpt>
      <trkpt lat="54.375503" lon="10.140704">
        <ele>14.600000</ele>
        <time>2019-12-07T11:00:54.000Z</time>
      </trkpt>
      <trkpt lat="54.375465" lon="10.141054">
        <ele>14.600000</ele>
        <time>2019-12-07T11:01:11.000Z</time>
      </trkpt>
      <trkpt lat="54.375455" lon="10.141218">
        <ele>14.600000</ele>
        <time>2019-12-07T11:01:20.000Z</time>
      </trkpt>
      <trkpt lat="54.375465" lon="10.141555">
        <ele>14.600000</ele>
        <time>2019-12-07T11:01:37.000Z</time>
      </trkpt>
      <trkpt lat="54.375456" lon="10.141802">
        <ele>14.600000</ele>
        <time>2019-12-07T11:01:50.000Z</time>
      </trkpt>
      <trkpt lat="54.375458" lon="10.141845">
        <ele>14.600000</ele>
        <time>2019-12-07T11:01:52.000Z</time>
      </trkpt>
      <trkpt lat="54.375457" lon="10.142056">
        <ele>14.600000</ele>
        <time>2019-12-07T11:02:07.000Z</time>
      </trkpt>
      <trkpt lat="54.375407" lon="10.142219">
        <ele>14.600000</ele>
        <time>2019-12-07T11:02:30.000Z</time>
      </trkpt>
      <trkpt lat="54.375396" lon="10.142318">
        <ele>14.600000</ele>
        <time>2019-12-07T11:02:36.000Z</time>
      </trkpt>
      <trkpt lat="54.375353" lon="10.142699">
        <ele>14.600000</ele>
        <time>2019-12-07T11:02:55.000Z</time>
      </trkpt>
      <trkpt lat="54.375319" lon="10.143034">
        <ele>14.600000</ele>
        <time>2019-12-07T11:03:12.000Z</time>
      </trkpt>
      <trkpt lat="54.375282" lon="10.143332">
        <ele>14.600000</ele>
        <time>2019-12-07T11:03:29.000Z</time>
      </trkpt>
      <trkpt lat="54.375290" lon="10.143621">
        <ele>14.600000</ele>
        <time>2019-12-07T11:03:47.000Z</time>
      </trkpt>
      <trkpt lat="54.375271" lon="10.143887">
        <ele>14.600000</ele>
        <time>2019-12-07T11:04:01.000Z</time>
      </trkpt>
      <trkpt lat="54.375258" lon="10.143963">
        <ele>14.600000</ele>
        <time>2019-12-07T11:04:04.000Z</time>
      </trkpt>
      <trkpt lat="54.375222" lon="10.144222">
        <ele>14.600000</ele>
        <time>2019-12-07T11:04:18.000Z</time>
      </trkpt>
      <trkpt lat="54.375228" lon="10.144481">
        <ele>14.600000</ele>
        <time>2019-12-07T11:04:35.000Z</time>
      </trkpt>
      <trkpt lat="54.375257" lon="10.144834">
        <ele>14.600000</ele>
        <time>2019-12-07T11:04:54.000Z</time>
      </trkpt>
      <trkpt lat="54.375231" lon="10.145213">
        <ele>14.600000</ele>
        <time>2019-12-07T11:05:12.000Z</time>
      </trkpt>
      <trkpt lat="54.375061" lon="10.145461">
        <ele>14.600000</ele>
        <time>2019-12-07T11:05:29.000Z</time>
      </trkpt>
      <trkpt lat="54.374920" lon="10.145664">
        <ele>14.600000</ele>
        <time>2019-12-07T11:05:44.000Z</time>
      </trkpt>
      <trkpt lat="54.374793" lon="10.145735">
        <ele>14.600000</ele>
        <time>2019-12-07T11:07:55.000Z</time>
      </trkpt>
      <trkpt lat="54.374693" lon="10.145685">
        <ele>14.600000</ele>
        <time>2019-12-07T11:13:27.000Z</time>
      </trkpt>
      <trkpt lat="54.374570" lon="10.145612">
        <ele>14.600000</ele>
        <time>2019-12-07T11:13:43.000Z</time>
      </trkpt>
      <trkpt lat="54.374502" lon="10.145606">
        <ele>14.600000</ele>
        <time>2019-12-07T11:13:51.000Z</time>
      </trkpt>
      <trkpt lat="54.374296" lon="10.145641">
        <ele>14.600000</ele>
        <time>2019-12-07T11:14:09.000Z</time>
      </trkpt>
      <trkpt lat="54.374157" lon="10.145683">
        <ele>14.600000</ele>
        <time>2019-12-07T11:14:23.000Z</time>
      </trkpt>
      <trkpt lat="54.373935" lon="10.145728">
        <ele>14.600000</ele>
        <time>2019-12-07T11:14:40.000Z</time>
      </trkpt>
      <trkpt lat="54.373789" lon="10.145722">
        <ele>14.600000</ele>
        <time>2019-12-07T11:14:55.000Z</time>
      </trkpt>
      <trkpt lat="54.373758" lon="10.145724">
        <ele>14.600000</ele>
        <time>2019-12-07T11:14:58.000Z</time>
      </trkpt>
      <trkpt lat="54.373719" lon="10.145744">
        <ele>14.600000</ele>
        <time>2019-12-07T11:15:01.000Z</time>
      </trkpt>
      <trkpt lat="54.373586" lon="10.145800">
        <ele>14.600000</ele>
        <time>2019-12-07T11:15:12.000Z</time>
      </trkpt>
      <trkpt lat="54.373426" lon="10.145842">
        <ele>14.600000</ele>
        <time>2019-12-07T11:15:28.000Z</time>
      </trkpt>
      <trkpt lat="54.373336" lon="10.145890">
        <ele>14.600000</ele>
        <time>2019-12-07T11:15:40.000Z</time>
      </trkpt>
      <trkpt lat="54.373277" lon="10.145865">
        <ele>14.600000</ele>
        <time>2019-12-07T11:15:45.000Z</time>
      </trkpt>
      <trkpt lat="54.373184" lon="10.145870">
        <ele>14.600000</ele>
        <time>2019-12-07T11:15:54.000Z</time>
      </trkpt>
      <trkpt lat="54.373153" lon="10.145869">
        <ele>14.600000</ele>
        <time>2019-12-07T11:15:56.000Z</time>
      </trkpt>
      <trkpt lat="54.372923" lon="10.145898">
        <ele>14.600000</ele>
        <time>2019-12-07T11:16:17.000Z</time>
      </trkpt>
      <trkpt lat="54.372708" lon="10.145923">
        <ele>14.600000</ele>
        <time>2019-12-07T11:16:35.000Z</time>
      </trkpt>
      <trkpt lat="54.372531" lon="10.145940">
        <ele>14.600000</ele>
        <time>2019-12-07T11:16:49.000Z</time>
      </trkpt>
      <trkpt lat="54.372329" lon="10.145950">
        <ele>14.600000</ele>
        <time>2019-12-07T11:17:07.000Z</time>
      </trkpt>
      <trkpt lat="54.372130" lon="10.146031">
        <ele>14.600000</ele>
        <time>2019-12-07T11:17:24.000Z</time>
      </trkpt>
      <trkpt lat="54.372012" lon="10.146061">
        <ele>14.600000</ele>
        <time>2019-12-07T11:17:34.000Z</time>
      </trkpt>
      <trkpt lat="54.371981" lon="10.146071">
        <ele>14.600000</ele>
        <time>2019-12-07T11:17:36.000Z</time>
      </trkpt>
      <trkpt lat="54.371776" lon="10.146055">
        <ele>14.600000</ele>
        <time>2019-12-07T11:17:54.000Z</time>
      </trkpt>
      <trkpt lat="54.371584" lon="10.146113">
        <ele>14.600000</ele>
        <time>2019-12-07T11:18:08.000Z</time>
      </trkpt>
      <trkpt lat="54.371424" lon="10.146206">
        <ele>14.600000</ele>
        <time>2019-12-07T11:18:24.000Z</time>
      </trkpt>
      <trkpt lat="54.371357" lon="10.146217">
        <ele>14.600000</ele>
        <time>2019-12-07T11:18:34.000Z</time>
      </trkpt>
      <trkpt lat="54.371287" lon="10.146215">
        <ele>14.600000</ele>
        <time>2019-12-07T11:18:40.000Z</time>
      </trkpt>
      <trkpt lat="54.371224" lon="10.146256">
        <ele>14.600000</ele>
        <time>2019-12-07T11:18:57.000Z</time>
      </trkpt>
      <trkpt lat="54.371207" lon="10.146261">
        <ele>14.600000</ele>
        <time>2019-12-07T11:20:05.000Z</time>
      </trkpt>
      <trkpt lat="54.371230" lon="10.146393">
        <ele>14.600000</ele>
        <time>2019-12-07T11:20:24.000Z</time>
      </trkpt>
      <trkpt lat="54.371242" lon="10.146494">
        <ele>14.600000</ele>
        <time>2019-12-07T11:20:30.000Z</time>
      </trkpt>
      <trkpt lat="54.371248" lon="10.146807">
        <ele>14.600000</ele>
        <time>2019-12-07T11:20:48.000Z</time>
      </trkpt>
      <trkpt lat="54.371250" lon="10.146829">
        <ele>14.600000</ele>
        <time>2019-12-07T11:20:49.000Z</time>
      </trkpt>
      <trkpt lat="54.371266" lon="10.147190">
        <ele>14.600000</ele>
        <time>2019-12-07T11:21:07.000Z</time>
      </trkpt>
      <trkpt lat="54.371282" lon="10.147525">
        <ele>14.600000</ele>
        <time>2019-12-07T11:21:23.000Z</time>
      </trkpt>
      <trkpt lat="54.371306" lon="10.147698">
        <ele>14.600000</ele>
        <time>2019-12-07T11:21:33.000Z</time>
      </trkpt>
      <trkpt lat="54.371289" lon="10.148024">
        <ele>14.600000</ele>
        <time>2019-12-07T11:21:48.000Z</time>
      </trkpt>
      <trkpt lat="54.371288" lon="10.148047">
        <ele>14.600000</ele>
        <time>2019-12-07T11:21:49.000Z</time>
      </trkpt>
      <trkpt lat="54.371309" lon="10.148179">
        <ele>14.600000</ele>
        <time>2019-12-07T11:22:06.000Z</time>
      </trkpt>
      <trkpt lat="54.371288" lon="10.148275">
        <ele>14.600000</ele>
        <time>2019-12-07T11:22:25.000Z</time>
      </trkpt>
      <trkpt lat="54.371279" lon="10.148479">
        <ele>14.600000</ele>
        <time>2019-12-07T11:22:45.000Z</time>
      </trkpt>
      <trkpt lat="54.371294" lon="10.148590">
        <ele>14.600000</ele>
        <time>2019-12-07T11:23:01.000Z</time>
      </trkpt>
      <trkpt lat="54.371294" lon="10.148712">
        <ele>14.600000</ele>
        <time>2019-12-07T11:23:07.000Z</time>
      </trkpt>
      <trkpt lat="54.371379" lon="10.149011">
        <ele>14.600000</ele>
        <time>2019-12-07T11:23:25.000Z</time>
      </trkpt>
      <trkpt lat="54.371414" lon="10.149031">
        <ele>14.600000</ele>
        <time>2019-12-07T11:23:30.000Z</time>
      </trkpt>
      <trkpt lat="54.371490" lon="10.149262">
        <ele>14.600000</ele>
        <time>2019-12-07T11:23:44.000Z</time>
      </trkpt>
      <trkpt lat="54.371507" lon="10.149334">
        <ele>14.600000</ele>
        <time>2019-12-07T11:23:48.000Z</time>
      </trkpt>
      <trkpt lat="54.371516" lon="10.149443">
        <ele>14.600000</ele>
        <time>2019-12-07T11:23:54.000Z</time>
      </trkpt>
      <trkpt lat="54.371522" lon="10.149486">
        <ele>14.600000</ele>
        <time>2019-12-07T11:23:56.000Z</time>
      </trkpt>
      <trkpt lat="54.371527" lon="10.149744">
        <ele>14.600000</ele>
        <time>2019-12-07T11:24:09.000Z</time>
      </trkpt>
      <trkpt lat="54.371501" lon="10.150085">
        <ele>14.600000</ele>
        <time>2019-12-07T11:24:25.000Z</time>
      </trkpt>
      <trkpt lat="54.371518" lon="10.150284">
        <ele>14.600000</ele>
        <time>2019-12-07T11:24:41.000Z</time>
      </trkpt>
      <trkpt lat="54.371518" lon="10.150319">
        <ele>14.600000</ele>
        <time>2019-12-07T11:24:43.000Z</time>
      </trkpt>
      <trkpt lat="54.371305" lon="10.150451">
        <ele>14.600000</ele>
        <time>2019-12-07T11:25:02.000Z</time>
      </trkpt>
      <trkpt lat="54.371292" lon="10.150463">
        <ele>14.600000</ele>
        <time>2019-12-07T11:25:03.000Z</time>
      </trkpt>
      <trkpt lat="54.371211" lon="10.150470">
        <ele>14.600000</ele>
        <time>2019-12-07T11:25:08.000Z</time>
      </trkpt>
      <trkpt lat="54.370997" lon="10.150474">
        <ele>14.600000</ele>
        <time>2019-12-07T11:25:27.000Z</time>
      </trkpt>
      <trkpt lat="54.370958" lon="10.150516">
        <ele>14.600000</ele>
        <time>2019-12-07T11:25:56.000Z</time>
      </trkpt>
      <trkpt lat="54.370946" lon="10.150549">
        <ele>14.600000</ele>
        <time>2019-12-07T11:26:15.000Z</time>
      </trkpt>
      <trkpt lat="54.370926" lon="10.150621">
        <ele>14.600000</ele>
        <time>2019-12-07T11:26:34.000Z</time>
      </trkpt>
      <trkpt lat="54.370832" lon="10.150703">
        <ele>14.600000</ele>
        <time>2019-12-07T11:27:01.000Z</time>
      </trkpt>
      <trkpt lat="54.370793" lon="10.150717">
        <ele>14.600000</ele>
        <time>2019-12-07T11:27:04.000Z</time>
      </trkpt>
      <trkpt lat="54.370722" lon="10.150730">
        <ele>14.600000</ele>
        <time>2019-12-07T11:27:11.000Z</time>
      </trkpt>
      <trkpt lat="54.370642" lon="10.150790">
        <ele>14.600000</ele>
        <time>2019-12-07T11:27:31.000Z</time>
      </trkpt>
      <trkpt lat="54.370572" lon="10.151002">
        <ele>14.600000</ele>
        <time>2019-12-07T11:27:47.000Z</time>
      </trkpt>
      <trkpt lat="54.370505" lon="10.151126">
        <ele>14.600000</ele>
        <time>2019-12-07T11:28:06.000Z</time>
      </trkpt>
      <trkpt lat="54.370404" lon="10.151294">
        <ele>14.600000</ele>
        <time>2019-12-07T11:28:22.000Z</time>
      </trkpt>
      <trkpt lat="54.370441" lon="10.151451">
        <ele>14.600000</ele>
        <time>2019-12-07T11:31:31.000Z</time>
      </trkpt>
      <trkpt lat="54.370451" lon="10.151486">
        <ele>14.600000</ele>
        <time>2019-12-07T11:32:02.000Z</time>
      </trkpt>
      <trkpt lat="54.370450" lon="10.151617">
        <ele>14.600000</ele>
        <time>2019-12-07T11:32:25.000Z</time>
      </trkpt>
      <trkpt lat="54.370325" lon="10.151904">
        <ele>14.600000</ele>
        <time>2019-12-07T11:32:45.000Z</time>
      </trkpt>
      <trkpt lat="54.370124" lon="10.151995">
        <ele>14.600000</ele>
        <time>2019-12-07T11:33:03.000Z</time>
      </trkpt>
      <trkpt lat="54.370027" lon="10.152035">
        <ele>14.600000</ele>
        <time>2019-12-07T11:33:21.000Z</time>
      </trkpt>
      <trkpt lat="54.369958" lon="10.152189">
        <ele>14.598343</ele>
        <time>2019-12-07T11:33:37.000Z</time>
      </trkpt>
      <trkpt lat="54.370061" lon="10.152314">
        <ele>14.595445</ele>
        <time>2019-12-07T11:33:48.000Z</time>
      </trkpt>
      <trkpt lat="54.370057" lon="10.152350">
        <ele>14.594954</ele>
        <time>2019-12-07T11:33:50.000Z</time>
      </trkpt>
      <trkpt lat="54.370079" lon="10.152709">
        <ele>14.590123</ele>
        <time>2019-12-07T11:34:07.000Z</time>
      </trkpt>
      <trkpt lat="54.370073" lon="10.153057">
        <ele>14.585463</ele>
        <time>2019-12-07T11:34:23.000Z</time>
      </trkpt>
      <trkpt lat="54.370068" lon="10.153420">
        <ele>14.580604</ele>
        <time>2019-12-07T11:34:43.000Z</time>
      </trkpt>
      <trkpt lat="54.370044" lon="10.153691">
        <ele>14.576935</ele>
        <time>2019-12-07T11:34:57.000Z</time>
      </trkpt>
      <trkpt lat="54.370020" lon="10.154061">
        <ele>14.571952</ele>
        <time>2019-12-07T11:35:15.000Z</time>
      </trkpt>
      <trkpt lat="54.370040" lon="10.154422">
        <ele>14.567099</ele>
        <time>2019-12-07T11:35:32.000Z</time>
      </trkpt>
      <trkpt lat="54.369959" lon="10.154694">
        <ele>14.563011</ele>
        <time>2019-12-07T11:35:49.000Z</time>
      </trkpt>
      <trkpt lat="54.369813" lon="10.154789">
        <ele>14.559424</ele>
        <time>2019-12-07T11:36:04.000Z</time>
      </trkpt>
      <trkpt lat="54.369810" lon="10.154787">
        <ele>14.559350</ele>
        <time>2019-12-07T11:36:15.000Z</time>
      </trkpt>
      <trkpt lat="54.369770" lon="10.154716">
        <ele>14.557755</ele>
        <time>2019-12-07T11:36:20.000Z</time>
      </trkpt>
      <trkpt lat="54.369538" lon="10.154532">
        <ele>14.549417</ele>
        <time>2019-12-07T11:36:42.000Z</time>
      </trkpt>
      <trkpt lat="54.369531" lon="10.154527">
        <ele>14.549170</ele>
        <time>2019-12-07T11:36:44.000Z</time>
      </trkpt>
      <trkpt lat="54.369505" lon="10.154510">
        <ele>14.548262</ele>
        <time>2019-12-07T11:36:47.000Z</time>
      </trkpt>
      <trkpt lat="54.369456" lon="10.154435">
        <ele>14.546121</ele>
        <time>2019-12-07T11:37:07.000Z</time>
      </trkpt>
      <trkpt lat="54.369469" lon="10.154391">
        <ele>14.545183</ele>
        <time>2019-12-07T11:37:25.000Z</time>
      </trkpt>
      <trkpt lat="54.369459" lon="10.154260">
        <ele>14.542672</ele>
        <time>2019-12-07T11:37:55.000Z</time>
      </trkpt>
      <trkpt lat="54.369287" lon="10.154150">
        <ele>14.536684</ele>
        <time>2019-12-07T11:38:13.000Z</time>
      </trkpt>
      <trkpt lat="54.369260" lon="10.154049">
        <ele>14.534572</ele>
        <time>2019-12-07T11:38:29.000Z</time>
      </trkpt>
      <trkpt lat="54.369239" lon="10.153902">
        <ele>14.531696</ele>
        <time>2019-12-07T11:38:48.000Z</time>
      </trkpt>
      <trkpt lat="54.369279" lon="10.153861">
        <ele>14.530176</ele>
        <time>2019-12-07T11:40:24.000Z</time>
      </trkpt>
      <trkpt lat="54.369270" lon="10.153891">
        <ele>14.529535</ele>
        <time>2019-12-07T11:40:52.000Z</time>
      </trkpt>
      <trkpt lat="54.369278" lon="10.153889">
        <ele>14.529271</ele>
        <time>2019-12-07T11:41:46.000Z</time>
      </trkpt>
      <trkpt lat="54.369288" lon="10.153841">
        <ele>14.528302</ele>
        <time>2019-12-07T11:42:15.000Z</time>
      </trkpt>
      <trkpt lat="54.369291" lon="10.153843">
        <ele>14.528197</ele>
        <time>2019-12-07T11:42:38.000Z</time>
      </trkpt>
      <trkpt lat="54.369226" lon="10.153710">
        <ele>14.524898</ele>
        <time>2019-12-07T11:42:55.000Z</time>
      </trkpt>
      <trkpt lat="54.369194" lon="10.153526">
        <ele>14.521248</ele>
        <time>2019-12-07T11:43:12.000Z</time>
      </trkpt>
      <trkpt lat="54.369201" lon="10.153468">
        <ele>14.520123</ele>
        <time>2019-12-07T11:43:33.000Z</time>
      </trkpt>
      <trkpt lat="54.369200" lon="10.153430">
        <ele>14.519400</ele>
        <time>2019-12-07T11:44:09.000Z</time>
      </trkpt>
      <trkpt lat="54.369172" lon="10.153096">
        <ele>14.512987</ele>
        <time>2019-12-07T11:44:27.000Z</time>
      </trkpt>
      <trkpt lat="54.369108" lon="10.152744">
        <ele>14.505979</ele>
        <time>2019-12-07T11:44:47.000Z</time>
      </trkpt>
      <trkpt lat="54.369113" lon="10.152258">
        <ele>14.500000</ele>
        <time>2019-12-07T11:45:12.000Z</time>
      </trkpt>
      <trkpt lat="54.369141" lon="10.151990">
        <ele>14.500000</ele>
        <time>2019-12-07T11:45:27.000Z</time>
      </trkpt>
      <trkpt lat="54.369139" lon="10.151976">
        <ele>14.500000</ele>
        <time>2019-12-07T11:45:42.000Z</time>
      </trkpt>
      <trkpt lat="54.369142" lon="10.151935">
        <ele>14.500000</ele>
        <time>2019-12-07T11:53:42.000Z</time>
      </trkpt>
      <trkpt lat="54.369106" lon="10.151849">
        <ele>14.500000</ele>
        <time>2019-12-07T11:53:47.000Z</time>
      </trkpt>
      <trkpt lat="54.369097" lon="10.151788">
        <ele>14.500000</ele>
        <time>2019-12-07T11:53:50.000Z</time>
      </trkpt>
      <trkpt lat="54.369071" lon="10.151471">
        <ele>14.500000</ele>
        <time>2019-12-07T11:54:07.000Z</time>
      </trkpt>
      <trkpt lat="54.369102" lon="10.151234">
        <ele>14.500000</ele>
        <time>2019-12-07T11:54:26.000Z</time>
      </trkpt>
      <trkpt lat="54.369096" lon="10.151162">
        <ele>14.500000</ele>
        <time>2019-12-07T11:54:43.000Z</time>
      </trkpt>
      <trkpt lat="54.369056" lon="10.150745">
        <ele>14.500000</ele>
        <time>2019-12-07T11:55:05.000Z</time>
      </trkpt>
      <trkpt lat="54.369056" lon="10.150262">
        <ele>14.500000</ele>
        <time>2019-12-07T11:55:30.000Z</time>
      </trkpt>
      <trkpt lat="54.369020" lon="10.150061">
        <ele>14.500000</ele>
        <time>2019-12-07T11:55:41.000Z</time>
      </trkpt>
      <trkpt lat="54.369019" lon="10.149888">
        <ele>14.500000</ele>
        <time>2019-12-07T11:55:51.000Z</time>
      </trkpt>
      <trkpt lat="54.369025" lon="10.149778">
        <ele>14.500000</ele>
        <time>2019-12-07T11:55:58.000Z</time>
      </trkpt>
      <trkpt lat="54.369022" lon="10.149564">
        <ele>14.500000</ele>
        <time>2019-12-07T11:56:09.000Z</time>
      </trkpt>
      <trkpt lat="54.369055" lon="10.149442">
        <ele>14.500000</ele>
        <time>2019-12-07T11:56:16.000Z</time>
      </trkpt>
      <trkpt lat="54.369064" lon="10.148972">
        <ele>14.500000</ele>
        <time>2019-12-07T11:56:38.000Z</time>
      </trkpt>
      <trkpt lat="54.369052" lon="10.148604">
        <ele>14.500000</ele>
        <time>2019-12-07T11:56:57.000Z</time>
      </trkpt>
      <trkpt lat="54.369047" lon="10.148145">
        <ele>14.500000</ele>
        <time>2019-12-07T11:57:20.000Z</time>
      </trkpt>
      <trkpt lat="54.369044" lon="10.148125">
        <ele>14.500000</ele>
        <time>2019-12-07T11:57:21.000Z</time>
      </trkpt>
      <trkpt lat="54.369068" lon="10.147710">
        <ele>14.500000</ele>
        <time>2019-12-07T11:57:41.000Z</time>
      </trkpt>
      <trkpt lat="54.369102" lon="10.147464">
        <ele>14.500000</ele>
        <time>2019-12-07T11:57:54.000Z</time>
      </trkpt>
      <trkpt lat="54.369138" lon="10.147109">
        <ele>14.500000</ele>
        <time>2019-12-07T11:58:11.000Z</time>
      </trkpt>
      <trkpt lat="54.369174" lon="10.146797">
        <ele>14.500000</ele>
        <time>2019-12-07T11:58:27.000Z</time>
      </trkpt>
      <trkpt lat="54.369204" lon="10.146520">
        <ele>14.500000</ele>
        <time>2019-12-07T11:58:44.000Z</time>
      </trkpt>
      <trkpt lat="54.369211" lon="10.146355">
        <ele>14.500000</ele>
        <time>2019-12-07T11:58:58.000Z</time>
      </trkpt>
      <trkpt lat="54.369230" lon="10.146539">
        <ele>14.500000</ele>
        <time>2019-12-07T11:59:19.000Z</time>
      </trkpt>
      <trkpt lat="54.369203" lon="10.146547">
        <ele>14.500000</ele>
        <time>2019-12-07T11:59:42.000Z</time>
      </trkpt>
      <trkpt lat="54.369180" lon="10.146529">
        <ele>14.500000</ele>
        <time>2019-12-07T12:00:05.000Z</time>
      </trkpt>
      <trkpt lat="54.369187" lon="10.146539">
        <ele>14.500000</ele>
        <time>2019-12-07T12:00:38.000Z</time>
      </trkpt>
      <trkpt lat="54.369184" lon="10.146490">
        <ele>14.500000</ele>
        <time>2019-12-07T12:01:09.000Z</time>
      </trkpt>
      <trkpt lat="54.369199" lon="10.146462">
        <ele>14.500000</ele>
        <time>2019-12-07T12:01:21.000Z</time>
      </trkpt>
      <trkpt lat="54.369255" lon="10.146180">
        <ele>14.500000</ele>
        <time>2019-12-07T12:01:36.000Z</time>
      </trkpt>
      <trkpt lat="54.369283" lon="10.145926">
        <ele>14.500000</ele>
        <time>2019-12-07T12:01:50.000Z</time>
      </trkpt>
      <trkpt lat="54.369307" lon="10.145666">
        <ele>14.500000</ele>
        <time>2019-12-07T12:02:06.000Z</time>
      </trkpt>
      <trkpt lat="54.369357" lon="10.145361">
        <ele>14.500000</ele>
        <time>2019-12-07T12:02:21.000Z</time>
      </trkpt>
      <trkpt lat="54.369375" lon="10.145122">
        <ele>14.500000</ele>
        <time>2019-12-07T12:02:35.000Z</time>
      </trkpt>
      <trkpt lat="54.369418" lon="10.144794">
        <ele>14.500000</ele>
        <time>2019-12-07T12:02:51.000Z</time>
      </trkpt>
      <trkpt lat="54.369476" lon="10.144377">
        <ele>14.500000</ele>
        <time>2019-12-07T12:03:09.000Z</time>
      </trkpt>
      <trkpt lat="54.369519" lon="10.144013">
        <ele>14.500000</ele>
        <time>2019-12-07T12:03:25.000Z</time>
      </trkpt>
      <trkpt lat="54.369551" lon="10.143667">
        <ele>14.500000</ele>
        <time>2019-12-07T12:03:41.000Z</time>
      </trkpt>
      <trkpt lat="54.369582" lon="10.143474">
        <ele>14.500000</ele>
        <time>2019-12-07T12:03:52.000Z</time>
      </trkpt>
      <trkpt lat="54.369591" lon="10.143420">
        <ele>14.500000</ele>
        <time>2019-12-07T12:03:54.000Z</time>
      </trkpt>
      <trkpt lat="54.369609" lon="10.143325">
        <ele>14.500000</ele>
        <time>2019-12-07T12:03:58.000Z</time>
      </trkpt>
      <trkpt lat="54.369658" lon="10.142933">
        <ele>14.500000</ele>
        <time>2019-12-07T12:04:16.000Z</time>
      </trkpt>
      <trkpt lat="54.369706" lon="10.142759">
        <ele>14.500000</ele>
        <time>2019-12-07T12:04:30.000Z</time>
      </trkpt>
      <trkpt lat="54.369685" lon="10.142734">
        <ele>14.500000</ele>
        <time>2019-12-07T12:05:31.000Z</time>
      </trkpt>
      <trkpt lat="54.369646" lon="10.142502">
        <ele>14.500000</ele>
        <time>2019-12-07T12:07:57.000Z</time>
      </trkpt>
      <trkpt lat="54.369749" lon="10.142107">
        <ele>14.500000</ele>
        <time>2019-12-07T12:08:15.000Z</time>
      </trkpt>
      <trkpt lat="54.369876" lon="10.141847">
        <ele>14.500000</ele>
        <time>2019-12-07T12:08:31.000Z</time>
      </trkpt>
      <trkpt lat="54.369876" lon="10.141815">
        <ele>14.500000</ele>
        <time>2019-12-07T12:08:33.000Z</time>
      </trkpt>
      <trkpt lat="54.369879" lon="10.141771">
        <ele>14.500000</ele>
        <time>2019-12-07T12:08:35.000Z</time>
      </trkpt>
      <trkpt lat="54.369893" lon="10.141307">
        <ele>14.500000</ele>
        <time>2019-12-07T12:08:57.000Z</time>
      </trkpt>
      <trkpt lat="54.369892" lon="10.140826">
        <ele>14.500000</ele>
        <time>2019-12-07T12:09:21.000Z</time>
      </trkpt>
      <trkpt lat="54.369897" lon="10.140806">
        <ele>14.500000</ele>
        <time>2019-12-07T12:09:22.000Z</time>
      </trkpt>
      <trkpt lat="54.369936" lon="10.140558">
        <ele>14.500000</ele>
        <time>2019-12-07T12:09:33.000Z</time>
      </trkpt>
      <trkpt lat="54.370026" lon="10.140137">
        <ele>14.500000</ele>
        <time>2019-12-07T12:09:57.000Z</time>
      </trkpt>
      <trkpt lat="54.370081" lon="10.139806">
        <ele>14.500000</ele>
        <time>2019-12-07T12:10:15.000Z</time>
      </trkpt>
      <trkpt lat="54.370146" lon="10.139437">
        <ele>14.500000</ele>
        <time>2019-12-07T12:10:34.000Z</time>
      </trkpt>
      <trkpt lat="54.370186" lon="10.139059">
        <ele>14.500000</ele>
        <time>2019-12-07T12:10:53.000Z</time>
      </trkpt>
      <trkpt lat="54.370246" lon="10.138695">
        <ele>14.500000</ele>
        <time>2019-12-07T12:11:12.000Z</time>
      </trkpt>
      <trkpt lat="54.370268" lon="10.138478">
        <ele>14.500000</ele>
        <time>2019-12-07T12:11:24.000Z</time>
      </trkpt>
      <trkpt lat="54.370327" lon="10.138354">
        <ele>14.500000</ele>
        <time>2019-12-07T12:11:40.000Z</time>
      </trkpt>
      <trkpt lat="54.370324" lon="10.138353">
        <ele>14.500000</ele>
        <time>2019-12-07T12:11:57.000Z</time>
      </trkpt>
      <trkpt lat="54.370326" lon="10.138404">
        <ele>14.500000</ele>
        <time>2019-12-07T12:12:14.000Z</time>
      </trkpt>
      <trkpt lat="54.370303" lon="10.138309">
        <ele>14.500000</ele>
        <time>2019-12-07T12:12:32.000Z</time>
      </trkpt>
      <trkpt lat="54.370294" lon="10.138271">
        <ele>14.500000</ele>
        <time>2019-12-07T12:12:34.000Z</time>
      </trkpt>
      <trkpt lat="54.370316" lon="10.138277">
        <ele>14.500000</ele>
        <time>2019-12-07T12:12:48.000Z</time>
      </trkpt>
      <trkpt lat="54.370294" lon="10.138168">
        <ele>14.500000</ele>
        <time>2019-12-07T12:12:57.000Z</time>
      </trkpt>
      <trkpt lat="54.370272" lon="10.138027">
        <ele>14.500000</ele>
        <time>2019-12-07T12:13:05.000Z</time>
      </trkpt>
      <trkpt lat="54.370247" lon="10.137832">
        <ele>14.500000</ele>
        <time>2019-12-07T12:13:22.000Z</time>
      </trkpt>
      <trkpt lat="54.370237" lon="10.137791">
        <ele>14.500000</ele>
        <time>2019-12-07T12:13:26.000Z</time>
      </trkpt>
      <trkpt lat="54.370229" lon="10.137716">
        <ele>14.500000</ele>
        <time>2019-12-07T12:13:30.000Z</time>
      </trkpt>
      <trkpt lat="54.370277" lon="10.137424">
        <ele>14.500000</ele>
        <time>2019-12-07T12:13:49.000Z</time>
      </trkpt>
      <trkpt lat="54.370350" lon="10.137325">
        <ele>14.500000</ele>
        <time>2019-12-07T12:14:07.000Z</time>
      </trkpt>
      <trkpt lat="54.370359" lon="10.137301">
        <ele>14.500000</ele>
        <time>2019-12-07T12:14:11.000Z</time>
      </trkpt>
      <trkpt lat="54.370389" lon="10.137242">
        <ele>14.500000</ele>
        <time>2019-12-07T12:14:15.000Z</time>
      </trkpt>
      <trkpt lat="54.370480" lon="10.137078">
        <ele>14.500000</ele>
        <time>2019-12-07T12:14:29.000Z</time>
      </trkpt>
      <trkpt lat="54.370364" lon="10.136744">
        <ele>14.500000</ele>
        <time>2019-12-07T12:14:51.000Z</time>
      </trkpt>
      <trkpt lat="54.370348" lon="10.136724">
        <ele>14.500000</ele>
        <time>2019-12-07T12:14:53.000Z</time>
      </trkpt>
      <trkpt lat="54.370242" lon="10.136500">
        <ele>14.500000</ele>
        <time>2019-12-07T12:15:08.000Z</time>
      </trkpt>
      <trkpt lat="54.370230" lon="10.136466">
        <ele>14.500000</ele>
        <time>2019-12-07T12:15:10.000Z</time>
      </trkpt>
      <trkpt lat="54.370099" lon="10.136204">
        <ele>14.500000</ele>
        <time>2019-12-07T12:15:27.000Z</time>
      </trkpt>
      <trkpt lat="54.369943" lon="10.135885">
        <ele>14.500000</ele>
        <time>2019-12-07T12:15:46.000Z</time>
      </trkpt>
      <trkpt lat="54.369814" lon="10.135656">
        <ele>14.500000</ele>
        <time>2019-12-07T12:16:04.000Z</time>
      </trkpt>
      <trkpt lat="54.369700" lon="10.135408">
        <ele>14.500000</ele>
        <time>2019-12-07T12:16:20.000Z</time>
      </trkpt>
      <trkpt lat="54.369673" lon="10.135372">
        <ele>14.500000</ele>
        <time>2019-12-07T12:16:23.000Z</time>
      </trkpt>
      <trkpt lat="54.369648" lon="10.135304">
        <ele>14.500000</ele>
        <time>2019-12-07T12:16:27.000Z</time>
      </trkpt>
      <trkpt lat="54.369565" lon="10.135151">
        <ele>14.500000</ele>
        <time>2019-12-07T12:16:37.000Z</time>
      </trkpt>
      <trkpt lat="54.369475" lon="10.134976">
        <ele>14.500000</ele>
        <time>2019-12-07T12:16:50.000Z</time>
      </trkpt>
      <trkpt lat="54.369313" lon="10.134699">
        <ele>14.500000</ele>
        <time>2019-12-07T12:17:09.000Z</time>
      </trkpt>
      <trkpt lat="54.369238" lon="10.134503">
        <ele>14.500000</ele>
        <time>2019-12-07T12:17:20.000Z</time>
      </trkpt>
      <trkpt lat="54.369094" lon="10.134249">
        <ele>14.500000</ele>
        <time>2019-12-07T12:17:39.000Z</time>
      </trkpt>
      <trkpt lat="54.369064" lon="10.134153">
        <ele>14.500000</ele>
        <time>2019-12-07T12:17:56.000Z</time>
      </trkpt>
      <trkpt lat="54.368938" lon="10.134155">
        <ele>14.500000</ele>
        <time>2019-12-07T12:18:11.000Z</time>
      </trkpt>
      <trkpt lat="54.368817" lon="10.134197">
        <ele>14.500000</ele>
        <time>2019-12-07T12:18:27.000Z</time>
      </trkpt>
      <trkpt lat="54.368807" lon="10.134194">
        <ele>14.500000</ele>
        <time>2019-12-07T12:18:51.000Z</time>
      </trkpt>
      <trkpt lat="54.368785" lon="10.134150">
        <ele>14.500000</ele>
        <time>2019-12-07T12:19:14.000Z</time>
      </trkpt>
      <trkpt lat="54.368740" lon="10.134127">
        <ele>14.500000</ele>
        <time>2019-12-07T12:19:37.000Z</time>
      </trkpt>
      <trkpt lat="54.368767" lon="10.134132">
        <ele>14.500000</ele>
        <time>2019-12-07T12:19:55.000Z</time>
      </trkpt>
      <trkpt lat="54.368765" lon="10.133834">
        <ele>14.500000</ele>
        <time>2019-12-07T12:20:11.000Z</time>
      </trkpt>
      <trkpt lat="54.368768" lon="10.133817">
        <ele>14.500000</ele>
        <time>2019-12-07T12:20:12.000Z</time>
      </trkpt>
      <trkpt lat="54.368787" lon="10.133776">
        <ele>14.500000</ele>
        <time>2019-12-07T12:20:15.000Z</time>
      </trkpt>
      <trkpt lat="54.368813" lon="10.133368">
        <ele>14.500000</ele>
        <time>2019-12-07T12:20:36.000Z</time>
      </trkpt>
      <trkpt lat="54.368836" lon="10.133014">
        <ele>14.500000</ele>
        <time>2019-12-07T12:20:54.000Z</time>
      </trkpt>
      <trkpt lat="54.368833" lon="10.132596">
        <ele>14.500000</ele>
        <time>2019-12-07T12:21:15.000Z</time>
      </trkpt>
      <trkpt lat="54.368838" lon="10.132232">
        <ele>14.500000</ele>
        <time>2019-12-07T12:21:33.000Z</time>
      </trkpt>
      <trkpt lat="54.368847" lon="10.131807">
        <ele>14.500000</ele>
        <time>2019-12-07T12:21:54.000Z</time>
      </trkpt>
      <trkpt lat="54.368869" lon="10.131433">
        <ele>14.500000</ele>
        <time>2019-12-07T12:22:12.000Z</time>
      </trkpt>
      <trkpt lat="54.368897" lon="10.131039">
        <ele>14.500000</ele>
        <time>2019-12-07T12:22:32.000Z</time>
      </trkpt>
      <trkpt lat="54.368917" lon="10.130644">
        <ele>14.500000</ele>
        <time>2019-12-07T12:22:52.000Z</time>
      </trkpt>
      <trkpt lat="54.368930" lon="10.130495">
        <ele>14.500000</ele>
        <time>2019-12-07T12:23:07.000Z</time>
      </trkpt>
      <trkpt lat="54.368942" lon="10.130451">
        <ele>14.500000</ele>
        <time>2019-12-07T12:23:16.000Z</time>
      </trkpt>
      <trkpt lat="54.368946" lon="10.130419">
        <ele>14.500000</ele>
        <time>2019-12-07T12:23:18.000Z</time>
      </trkpt>
      <trkpt lat="54.368953" lon="10.130343">
        <ele>14.500000</ele>
        <time>2019-12-07T12:23:22.000Z</time>
      </trkpt>
      <trkpt lat="54.368967" lon="10.129966">
        <ele>14.500000</ele>
        <time>2019-12-07T12:23:43.000Z</time>
      </trkpt>
      <trkpt lat="54.368955" lon="10.129617">
        <ele>14.500000</ele>
        <time>2019-12-07T12:24:01.000Z</time>
      </trkpt>
      <trkpt lat="54.368976" lon="10.129167">
        <ele>14.500000</ele>
        <time>2019-12-07T12:24:23.000Z</time>
      </trkpt>
      <trkpt lat="54.368995" lon="10.128833">
        <ele>14.500000</ele>
        <time>2019-12-07T12:24:41.000Z</time>
      </trkpt>
      <trkpt lat="54.369004" lon="10.128458">
        <ele>14.500000</ele>
        <time>2019-12-07T12:25:00.000Z</time>
      </trkpt>
      <trkpt lat="54.369028" lon="10.128016">
        <ele>14.500000</ele>
        <time>2019-12-07T12:25:23.000Z</time>
      </trkpt>
      <trkpt lat="54.369046" lon="10.127639">
        <ele>14.500000</ele>
        <time>2019-12-07T12:25:41.000Z</time>
      </trkpt>
      <trkpt lat="54.369060" lon="10.127239">
        <ele>14.500000</ele>
        <time>2019-12-07T12:26:01.000Z</time>
      </trkpt>
      <trkpt lat="54.369066" lon="10.126853">
        <ele>14.500000</ele>
        <time>2019-12-07T12:26:22.000Z</time>
      </trkpt>
      <trkpt lat="54.369069" lon="10.126818">
        <ele>14.500000</ele>
        <time>2019-12-07T12:26:49.000Z</time>
      </trkpt>
      <trkpt lat="54.369069" lon="10.126688">
        <ele>14.500000</ele>
        <time>2019-12-07T12:27:05.000Z</time>
      </trkpt>
      <trkpt lat="54.369063" lon="10.126638">
        <ele>14.500000</ele>
        <time>2019-12-07T12:27:12.000Z</time>
      </trkpt>
      <trkpt lat="54.369067" lon="10.126261">
        <ele>14.500000</ele>
        <time>2019-12-07T12:27:32.000Z</time>
      </trkpt>
      <trkpt lat="54.369089" lon="10.125905">
        <ele>14.500000</ele>
        <time>2019-12-07T12:27:48.000Z</time>
      </trkpt>
      <trkpt lat="54.369110" lon="10.125590">
        <ele>14.500000</ele>
        <time>2019-12-07T12:28:03.000Z</time>
      </trkpt>
      <trkpt lat="54.369122" lon="10.125149">
        <ele>14.500000</ele>
        <time>2019-12-07T12:28:24.000Z</time>
      </trkpt>
      <trkpt lat="54.369120" lon="10.124789">
        <ele>14.500000</ele>
        <time>2019-12-07T12:28:43.000Z</time>
      </trkpt>
      <trkpt lat="54.369144" lon="10.124465">
        <ele>14.500000</ele>
        <time>2019-12-07T12:29:01.000Z</time>
      </trkpt>
      <trkpt lat="54.369143" lon="10.124149">
        <ele>14.500000</ele>
        <time>2019-12-07T12:29:19.000Z</time>
      </trkpt>
      <trkpt lat="54.369232" lon="10.123774">
        <ele>14.500000</ele>
        <time>2019-12-07T12:29:36.000Z</time>
      </trkpt>
      <trkpt lat="54.369279" lon="10.123449">
        <ele>14.500000</ele>
        <time>2019-12-07T12:29:53.000Z</time>
      </trkpt>
      <trkpt lat="54.369338" lon="10.123160">
        <ele>14.500000</ele>
        <time>2019-12-07T12:30:08.000Z</time>
      </trkpt>
      <trkpt lat="54.369299" lon="10.122920">
        <ele>14.500000</ele>
        <time>2019-12-07T12:30:24.000Z</time>
      </trkpt>
      <trkpt lat="54.369377" lon="10.122469">
        <ele>14.500000</ele>
        <time>2019-12-07T12:30:43.000Z</time>
      </trkpt>
      <trkpt lat="54.369501" lon="10.122143">
        <ele>14.500000</ele>
        <time>2019-12-07T12:30:58.000Z</time>
      </trkpt>
      <trkpt lat="54.369526" lon="10.121984">
        <ele>14.500000</ele>
        <time>2019-12-07T12:31:06.000Z</time>
      </trkpt>
      <trkpt lat="54.369606" lon="10.121700">
        <ele>14.500000</ele>
        <time>2019-12-07T12:31:21.000Z</time>
      </trkpt>
      <trkpt lat="54.369661" lon="10.121467">
        <ele>14.500000</ele>
        <time>2019-12-07T12:31:33.000Z</time>
      </trkpt>
      <trkpt lat="54.369663" lon="10.121138">
        <ele>14.500000</ele>
        <time>2019-12-07T12:31:50.000Z</time>
      </trkpt>
      <trkpt lat="54.369711" lon="10.120856">
        <ele>14.500000</ele>
        <time>2019-12-07T12:32:05.000Z</time>
      </trkpt>
      <trkpt lat="54.369732" lon="10.120560">
        <ele>14.500000</ele>
        <time>2019-12-07T12:32:18.000Z</time>
      </trkpt>
      <trkpt lat="54.369784" lon="10.120149">
        <ele>14.500000</ele>
        <time>2019-12-07T12:32:39.000Z</time>
      </trkpt>
      <trkpt lat="54.369824" lon="10.119898">
        <ele>14.500000</ele>
        <time>2019-12-07T12:32:52.000Z</time>
      </trkpt>
      <trkpt lat="54.369866" lon="10.119472">
        <ele>14.500000</ele>
        <time>2019-12-07T12:33:12.000Z</time>
      </trkpt>
      <trkpt lat="54.369942" lon="10.119142">
        <ele>14.500000</ele>
        <time>2019-12-07T12:33:29.000Z</time>
      </trkpt>
      <trkpt lat="54.369973" lon="10.119071">
        <ele>14.500000</ele>
        <time>2019-12-07T12:33:33.000Z</time>
      </trkpt>
      <trkpt lat="54.370066" lon="10.118801">
        <ele>14.500000</ele>
        <time>2019-12-07T12:33:48.000Z</time>
      </trkpt>
      <trkpt lat="54.370174" lon="10.118546">
        <ele>14.500000</ele>
        <time>2019-12-07T12:34:04.000Z</time>
      </trkpt>
      <trkpt lat="54.370270" lon="10.118312">
        <ele>14.500000</ele>
        <time>2019-12-07T12:34:19.000Z</time>
      </trkpt>
      <trkpt lat="54.370283" lon="10.118278">
        <ele>14.500000</ele>
        <time>2019-12-07T12:34:21.000Z</time>
      </trkpt>
      <trkpt lat="54.370383" lon="10.118053">
        <ele>14.500000</ele>
        <time>2019-12-07T12:34:36.000Z</time>
      </trkpt>
      <trkpt lat="54.370416" lon="10.117950">
        <ele>14.500000</ele>
        <time>2019-12-07T12:34:42.000Z</time>
      </trkpt>
      <trkpt lat="54.370489" lon="10.117505">
        <ele>14.500000</ele>
        <time>2019-12-07T12:35:03.000Z</time>
      </trkpt>
      <trkpt lat="54.370514" lon="10.117321">
        <ele>14.500000</ele>
        <time>2019-12-07T12:35:19.000Z</time>
      </trkpt>
      <trkpt lat="54.370516" lon="10.117312">
        <ele>14.500000</ele>
        <time>2019-12-07T12:35:20.000Z</time>
      </trkpt>
      <trkpt lat="54.370524" lon="10.117283">
        <ele>14.500000</ele>
        <time>2019-12-07T12:35:22.000Z</time>
      </trkpt>
      <trkpt lat="54.370595" lon="10.116939">
        <ele>14.500000</ele>
        <time>2019-12-07T12:35:41.000Z</time>
      </trkpt>
      <trkpt lat="54.370610" lon="10.116649">
        <ele>14.500000</ele>
        <time>2019-12-07T12:35:55.000Z</time>
      </trkpt>
      <trkpt lat="54.370675" lon="10.116329">
        <ele>14.500000</ele>
        <time>2019-12-07T12:36:12.000Z</time>
      </trkpt>
      <trkpt lat="54.370694" lon="10.116162">
        <ele>14.500000</ele>
        <time>2019-12-07T12:36:21.000Z</time>
      </trkpt>
      <trkpt lat="54.370779" lon="10.115788">
        <ele>14.500000</ele>
        <time>2019-12-07T12:36:42.000Z</time>
      </trkpt>
      <trkpt lat="54.370785" lon="10.115728">
        <ele>14.500000</ele>
        <time>2019-12-07T12:36:46.000Z</time>
      </trkpt>
      <trkpt lat="54.370839" lon="10.115370">
        <ele>14.500000</ele>
        <time>2019-12-07T12:37:04.000Z</time>
      </trkpt>
      <trkpt lat="54.370875" lon="10.114983">
        <ele>14.500000</ele>
        <time>2019-12-07T12:37:24.000Z</time>
      </trkpt>
      <trkpt lat="54.370927" lon="10.114669">
        <ele>14.500000</ele>
        <time>2019-12-07T12:37:43.000Z</time>
      </trkpt>
      <trkpt lat="54.370912" lon="10.114617">
        <ele>14.500000</ele>
        <time>2019-12-07T12:37:49.000Z</time>
      </trkpt>
      <trkpt lat="54.370938" lon="10.114325">
        <ele>14.500000</ele>
        <time>2019-12-07T12:38:02.000Z</time>
      </trkpt>
      <trkpt lat="54.370999" lon="10.113976">
        <ele>14.500000</ele>
        <time>2019-12-07T12:38:19.000Z</time>
      </trkpt>
      <trkpt lat="54.371070" lon="10.113603">
        <ele>14.500000</ele>
        <time>2019-12-07T12:38:37.000Z</time>
      </trkpt>
      <trkpt lat="54.371101" lon="10.113295">
        <ele>14.500000</ele>
        <time>2019-12-07T12:38:53.000Z</time>
      </trkpt>
      <trkpt lat="54.371131" lon="10.113091">
        <ele>14.500000</ele>
        <time>2019-12-07T12:39:04.000Z</time>
      </trkpt>
      <trkpt lat="54.371184" lon="10.112846">
        <ele>14.500000</ele>
        <time>2019-12-07T12:39:18.000Z</time>
      </trkpt>
      <trkpt lat="54.371249" lon="10.112438">
        <ele>14.500000</ele>
        <time>2019-12-07T12:39:39.000Z</time>
      </trkpt>
      <trkpt lat="54.371297" lon="10.112085">
        <ele>14.500000</ele>
        <time>2019-12-07T12:39:57.000Z</time>
      </trkpt>
      <trkpt lat="54.371345" lon="10.111704">
        <ele>14.500000</ele>
        <time>2019-12-07T12:40:16.000Z</time>
      </trkpt>
      <trkpt lat="54.371356" lon="10.111633">
        <ele>14.500000</ele>
        <time>2019-12-07T12:40:23.000Z</time>
      </trkpt>
      <trkpt lat="54.371413" lon="10.111273">
        <ele>14.500000</ele>
        <time>2019-12-07T12:40:43.000Z</time>
      </trkpt>
      <trkpt lat="54.371422" lon="10.111199">
        <ele>14.500000</ele>
        <time>2019-12-07T12:40:47.000Z</time>
      </trkpt>
      <trkpt lat="54.371466" lon="10.110900">
        <ele>14.500000</ele>
        <time>2019-12-07T12:41:04.000Z</time>
      </trkpt>
      <trkpt lat="54.371536" lon="10.110468">
        <ele>14.500000</ele>
        <time>2019-12-07T12:41:25.000Z</time>
      </trkpt>
      <trkpt lat="54.371585" lon="10.110055">
        <ele>14.500000</ele>
        <time>2019-12-07T12:41:45.000Z</time>
      </trkpt>
      <trkpt lat="54.371636" lon="10.109779">
        <ele>14.500000</ele>
        <time>2019-12-07T12:42:00.000Z</time>
      </trkpt>
      <trkpt lat="54.371666" lon="10.109446">
        <ele>14.500000</ele>
        <time>2019-12-07T12:42:16.000Z</time>
      </trkpt>
      <trkpt lat="54.371725" lon="10.109016">
        <ele>14.500000</ele>
        <time>2019-12-07T12:42:35.000Z</time>
      </trkpt>
      <trkpt lat="54.371780" lon="10.108676">
        <ele>14.500000</ele>
        <time>2019-12-07T12:42:51.000Z</time>
      </trkpt>
      <trkpt lat="54.371850" lon="10.108329">
        <ele>14.500000</ele>
        <time>2019-12-07T12:43:09.000Z</time>
      </trkpt>
      <trkpt lat="54.371934" lon="10.108117">
        <ele>14.500000</ele>
        <time>2019-12-07T12:43:21.000Z</time>
      </trkpt>
      <trkpt lat="54.371968" lon="10.107795">
        <ele>14.500000</ele>
        <time>2019-12-07T12:43:36.000Z</time>
      </trkpt>
      <trkpt lat="54.371990" lon="10.107542">
        <ele>14.500000</ele>
        <time>2019-12-07T12:43:50.000Z</time>
      </trkpt>
      <trkpt lat="54.371999" lon="10.107193">
        <ele>14.500000</ele>
        <time>2019-12-07T12:44:08.000Z</time>
      </trkpt>
      <trkpt lat="54.372053" lon="10.106882">
        <ele>14.500000</ele>
        <time>2019-12-07T12:44:25.000Z</time>
      </trkpt>
      <trkpt lat="54.372116" lon="10.106574">
        <ele>14.500000</ele>
        <time>2019-12-07T12:44:41.000Z</time>
      </trkpt>
      <trkpt lat="54.372151" lon="10.106313">
        <ele>14.500000</ele>
        <time>2019-12-07T12:44:55.000Z</time>
      </trkpt>
      <trkpt lat="54.372185" lon="10.105963">
        <ele>14.500000</ele>
        <time>2019-12-07T12:45:13.000Z</time>
      </trkpt>
      <trkpt lat="54.372208" lon="10.105731">
        <ele>14.500000</ele>
        <time>2019-12-07T12:45:23.000Z</time>
      </trkpt>
      <trkpt lat="54.372284" lon="10.105397">
        <ele>14.500000</ele>
        <time>2019-12-07T12:45:41.000Z</time>
      </trkpt>
      <trkpt lat="54.372312" lon="10.105018">
        <ele>14.500000</ele>
        <time>2019-12-07T12:46:02.000Z</time>
      </trkpt>
      <trkpt lat="54.372332" lon="10.104914">
        <ele>14.500000</ele>
        <time>2019-12-07T12:46:07.000Z</time>
      </trkpt>
      <trkpt lat="54.372367" lon="10.104561">
        <ele>14.500000</ele>
        <time>2019-12-07T12:46:24.000Z</time>
      </trkpt>
      <trkpt lat="54.372438" lon="10.104312">
        <ele>14.500000</ele>
        <time>2019-12-07T12:46:36.000Z</time>
      </trkpt>
      <trkpt lat="54.372452" lon="10.104122">
        <ele>14.500000</ele>
        <time>2019-12-07T12:46:45.000Z</time>
      </trkpt>
      <trkpt lat="54.372490" lon="10.103792">
        <ele>14.500000</ele>
        <time>2019-12-07T12:47:00.000Z</time>
      </trkpt>
      <trkpt lat="54.372525" lon="10.103548">
        <ele>14.500000</ele>
        <time>2019-12-07T12:47:14.000Z</time>
      </trkpt>
      <trkpt lat="54.372537" lon="10.103493">
        <ele>14.500000</ele>
        <time>2019-12-07T12:47:18.000Z</time>
      </trkpt>
      <trkpt lat="54.372594" lon="10.103174">
        <ele>14.500000</ele>
        <time>2019-12-07T12:47:34.000Z</time>
      </trkpt>
      <trkpt lat="54.372614" lon="10.102777">
        <ele>14.500000</ele>
        <time>2019-12-07T12:47:52.000Z</time>
      </trkpt>
      <trkpt lat="54.372645" lon="10.102547">
        <ele>14.500000</ele>
        <time>2019-12-07T12:48:04.000Z</time>
      </trkpt>
      <trkpt lat="54.372688" lon="10.102202">
        <ele>14.500000</ele>
        <time>2019-12-07T12:48:21.000Z</time>
      </trkpt>
      <trkpt lat="54.372720" lon="10.101841">
        <ele>14.500000</ele>
        <time>2019-12-07T12:48:38.000Z</time>
      </trkpt>
      <trkpt lat="54.372758" lon="10.101537">
        <ele>14.500000</ele>
        <time>2019-12-07T12:48:54.000Z</time>
      </trkpt>
      <trkpt lat="54.372792" lon="10.101224">
        <ele>14.500000</ele>
        <time>2019-12-07T12:49:10.000Z</time>
      </trkpt>
      <trkpt lat="54.372817" lon="10.100944">
        <ele>14.500000</ele>
        <time>2019-12-07T12:49:24.000Z</time>
      </trkpt>
      <trkpt lat="54.372830" lon="10.100877">
        <ele>14.500000</ele>
        <time>2019-12-07T12:49:28.000Z</time>
      </trkpt>
      <trkpt lat="54.372865" lon="10.100521">
        <ele>14.500000</ele>
        <time>2019-12-07T12:49:45.000Z</time>
      </trkpt>
      <trkpt lat="54.372894" lon="10.100235">
        <ele>14.500000</ele>
        <time>2019-12-07T12:49:59.000Z</time>
      </trkpt>
      <trkpt lat="54.372903" lon="10.100162">
        <ele>14.500000</ele>
        <time>2019-12-07T12:50:03.000Z</time>
      </trkpt>
      <trkpt lat="54.372950" lon="10.099996">
        <ele>14.500000</ele>
        <time>2019-12-07T12:50:12.000Z</time>
      </trkpt>
      <trkpt lat="54.372944" lon="10.099711">
        <ele>14.500000</ele>
        <time>2019-12-07T12:50:25.000Z</time>
      </trkpt>
      <trkpt lat="54.372959" lon="10.099449">
        <ele>14.500000</ele>
        <time>2019-12-07T12:50:43.000Z</time>
      </trkpt>
      <trkpt lat="54.372964" lon="10.099408">
        <ele>14.500000</ele>
        <time>2019-12-07T12:50:47.000Z</time>
      </trkpt>
      <trkpt lat="54.372964" lon="10.099115">
        <ele>14.500000</ele>
        <time>2019-12-07T12:51:02.000Z</time>
      </trkpt>
      <trkpt lat="54.372990" lon="10.098817">
        <ele>14.500000</ele>
        <time>2019-12-07T12:51:17.000Z</time>
      </trkpt>
      <trkpt lat="54.372989" lon="10.098570">
        <ele>14.500000</ele>
        <time>2019-12-07T12:51:30.000Z</time>
      </trkpt>
      <trkpt lat="54.372992" lon="10.098303">
        <ele>14.500000</ele>
        <time>2019-12-07T12:51:44.000Z</time>
      </trkpt>
      <trkpt lat="54.373003" lon="10.097941">
        <ele>14.500000</ele>
        <time>2019-12-07T12:52:01.000Z</time>
      </trkpt>
      <trkpt lat="54.372969" lon="10.097623">
        <ele>14.500000</ele>
        <time>2019-12-07T12:52:18.000Z</time>
      </trkpt>
      <trkpt lat="54.372940" lon="10.097463">
        <ele>14.500000</ele>
        <time>2019-12-07T12:52:26.000Z</time>
      </trkpt>
      <trkpt lat="54.372970" lon="10.097238">
        <ele>14.500000</ele>
        <time>2019-12-07T12:52:39.000Z</time>
      </trkpt>
      <trkpt lat="54.372948" lon="10.096841">
        <ele>14.500000</ele>
        <time>2019-12-07T12:52:57.000Z</time>
      </trkpt>
      <trkpt lat="54.372963" lon="10.096659">
        <ele>14.500000</ele>
        <time>2019-12-07T12:53:06.000Z</time>
      </trkpt>
      <trkpt lat="54.372953" lon="10.096581">
        <ele>14.500000</ele>
        <time>2019-12-07T12:53:10.000Z</time>
      </trkpt>
      <trkpt lat="54.372952" lon="10.096315">
        <ele>14.500000</ele>
        <time>2019-12-07T12:53:26.000Z</time>
      </trkpt>
      <trkpt lat="54.373056" lon="10.096243">
        <ele>14.500000</ele>
        <time>2019-12-07T12:53:48.000Z</time>
      </trkpt>
      <trkpt lat="54.373127" lon="10.096321">
        <ele>14.500000</ele>
        <time>2019-12-07T12:53:56.000Z</time>
      </trkpt>
      <trkpt lat="54.373135" lon="10.096394">
        <ele>14.500000</ele>
        <time>2019-12-07T12:54:15.000Z</time>
      </trkpt>
      <trkpt lat="54.373222" lon="10.096322">
        <ele>14.500000</ele>
        <time>2019-12-07T12:54:34.000Z</time>
      </trkpt>
      <trkpt lat="54.373355" lon="10.096105">
        <ele>14.500000</ele>
        <time>2019-12-07T12:54:54.000Z</time>
      </trkpt>
      <trkpt lat="54.373460" lon="10.095901">
        <ele>14.500000</ele>
        <time>2019-12-07T12:55:14.000Z</time>
      </trkpt>
      <trkpt lat="54.373586" lon="10.095838">
        <ele>14.500000</ele>
        <time>2019-12-07T12:55:25.000Z</time>
      </trkpt>
      <trkpt lat="54.373684" lon="10.095610">
        <ele>14.500000</ele>
        <time>2019-12-07T12:55:39.000Z</time>
      </trkpt>
      <trkpt lat="54.373783" lon="10.095426">
        <ele>14.500000</ele>
        <time>2019-12-07T12:55:51.000Z</time>
      </trkpt>
      <trkpt lat="54.373927" lon="10.095208">
        <ele>14.500000</ele>
        <time>2019-12-07T12:56:07.000Z</time>
      </trkpt>
      <trkpt lat="54.374056" lon="10.094997">
        <ele>14.500000</ele>
        <time>2019-12-07T12:56:25.000Z</time>
      </trkpt>
      <trkpt lat="54.374177" lon="10.094765">
        <ele>14.500000</ele>
        <time>2019-12-07T12:56:42.000Z</time>
      </trkpt>
      <trkpt lat="54.374416" lon="10.094471">
        <ele>14.500000</ele>
        <time>2019-12-07T12:57:03.000Z</time>
      </trkpt>
      <trkpt lat="54.374545" lon="10.094308">
        <ele>14.500000</ele>
        <time>2019-12-07T12:57:16.000Z</time>
      </trkpt>
      <trkpt lat="54.374694" lon="10.094415">
        <ele>14.500000</ele>
        <time>2019-12-07T12:57:34.000Z</time>
      </trkpt>
      <trkpt lat="54.374735" lon="10.094431">
        <ele>14.500000</ele>
        <time>2019-12-07T12:57:37.000Z</time>
      </trkpt>
      <trkpt lat="54.374813" lon="10.094551">
        <ele>14.500000</ele>
        <time>2019-12-07T12:57:46.000Z</time>
      </trkpt>
      <trkpt lat="54.374861" lon="10.094870">
        <ele>14.500000</ele>
        <time>2019-12-07T12:58:03.000Z</time>
      </trkpt>
      <trkpt lat="54.374945" lon="10.095216">
        <ele>14.500000</ele>
        <time>2019-12-07T12:58:24.000Z</time>
      </trkpt>
      <trkpt lat="54.375070" lon="10.095570">
        <ele>14.500000</ele>
        <time>2019-12-07T12:58:46.000Z</time>
      </trkpt>
      <trkpt lat="54.375177" lon="10.095838">
        <ele>14.500000</ele>
        <time>2019-12-07T12:59:03.000Z</time>
      </trkpt>
      <trkpt lat="54.375308" lon="10.096114">
        <ele>14.500000</ele>
        <time>2019-12-07T12:59:20.000Z</time>
      </trkpt>
      <trkpt lat="54.375451" lon="10.096368">
        <ele>14.500000</ele>
        <time>2019-12-07T12:59:36.000Z</time>
      </trkpt>
      <trkpt lat="54.375539" lon="10.096587">
        <ele>14.500000</ele>
        <time>2019-12-07T12:59:49.000Z</time>
      </trkpt>
      <trkpt lat="54.375629" lon="10.096918">
        <ele>14.500000</ele>
        <time>2019-12-07T13:00:08.000Z</time>
      </trkpt>
      <trkpt lat="54.375713" lon="10.097111">
        <ele>14.500000</ele>
        <time>2019-12-07T13:00:19.000Z</time>
      </trkpt>
      <trkpt lat="54.375733" lon="10.097141">
        <ele>14.500000</ele>
        <time>2019-12-07T13:00:21.000Z</time>
      </trkpt>
      <trkpt lat="54.375767" lon="10.097229">
        <ele>14.500000</ele>
        <time>2019-12-07T13:00:26.000Z</time>
      </trkpt>
      <trkpt lat="54.375873" lon="10.097474">
        <ele>14.500000</ele>
        <time>2019-12-07T13:00:42.000Z</time>
      </trkpt>
      <trkpt lat="54.375953" lon="10.097685">
        <ele>14.500000</ele>
        <time>2019-12-07T13:00:55.000Z</time>
      </trkpt>
      <trkpt lat="54.376013" lon="10.097877">
        <ele>14.500000</ele>
        <time>2019-12-07T13:01:05.000Z</time>
      </trkpt>
      <trkpt lat="54.376091" lon="10.098129">
        <ele>14.500000</ele>
        <time>2019-12-07T13:01:20.000Z</time>
      </trkpt>
      <trkpt lat="54.376188" lon="10.098383">
        <ele>14.500000</ele>
        <time>2019-12-07T13:01:35.000Z</time>
      </trkpt>
      <trkpt lat="54.376200" lon="10.098419">
        <ele>14.500000</ele>
        <time>2019-12-07T13:01:37.000Z</time>
      </trkpt>
      <trkpt lat="54.376218" lon="10.098646">
        <ele>14.500000</ele>
        <time>2019-12-07T13:01:52.000Z</time>
      </trkpt>
      <trkpt lat="54.376337" lon="10.098896">
        <ele>14.500000</ele>
        <time>2019-12-07T13:02:07.000Z</time>
      </trkpt>
      <trkpt lat="54.376344" lon="10.098998">
        <ele>14.500000</ele>
        <time>2019-12-07T13:02:13.000Z</time>
      </trkpt>
      <trkpt lat="54.376373" lon="10.099071">
        <ele>14.500000</ele>
        <time>2019-12-07T13:02:18.000Z</time>
      </trkpt>
      <trkpt lat="54.376385" lon="10.099140">
        <ele>14.500000</ele>
        <time>2019-12-07T13:02:22.000Z</time>
      </trkpt>
      <trkpt lat="54.376400" lon="10.099202">
        <ele>14.500000</ele>
        <time>2019-12-07T13:02:25.000Z</time>
      </trkpt>
      <trkpt lat="54.376453" lon="10.099477">
        <ele>14.500000</ele>
        <time>2019-12-07T13:02:42.000Z</time>
      </trkpt>
      <trkpt lat="54.376538" lon="10.099496">
        <ele>14.500000</ele>
        <time>2019-12-07T13:03:10.000Z</time>
      </trkpt>
      <trkpt lat="54.376597" lon="10.099470">
        <ele>14.500000</ele>
        <time>2019-12-07T13:03:33.000Z</time>
      </trkpt>
      <trkpt lat="54.376548" lon="10.099543">
        <ele>14.500000</ele>
        <time>2019-12-07T13:03:55.000Z</time>
      </trkpt>
      <trkpt lat="54.376576" lon="10.099902">
        <ele>14.500000</ele>
        <time>2019-12-07T13:04:17.000Z</time>
      </trkpt>
      <trkpt lat="54.376686" lon="10.100248">
        <ele>14.500000</ele>
        <time>2019-12-07T13:04:38.000Z</time>
      </trkpt>
      <trkpt lat="54.376708" lon="10.100277">
        <ele>14.500000</ele>
        <time>2019-12-07T13:04:41.000Z</time>
      </trkpt>
      <trkpt lat="54.376831" lon="10.100406">
        <ele>14.500000</ele>
        <time>2019-12-07T13:05:02.000Z</time>
      </trkpt>
      <trkpt lat="54.376847" lon="10.100418">
        <ele>14.500000</ele>
        <time>2019-12-07T13:05:04.000Z</time>
      </trkpt>
      <trkpt lat="54.376945" lon="10.100467">
        <ele>14.500000</ele>
        <time>2019-12-07T13:05:15.000Z</time>
      </trkpt>
      <trkpt lat="54.376988" lon="10.100492">
        <ele>14.500000</ele>
        <time>2019-12-07T13:05:18.000Z</time>
      </trkpt>
      <trkpt lat="54.377027" lon="10.100531">
        <ele>14.500000</ele>
        <time>2019-12-07T13:05:22.000Z</time>
      </trkpt>
      <trkpt lat="54.377138" lon="10.100723">
        <ele>14.500000</ele>
        <time>2019-12-07T13:05:42.000Z</time>
      </trkpt>
      <trkpt lat="54.377208" lon="10.100864">
        <ele>14.500000</ele>
        <time>2019-12-07T13:05:50.000Z</time>
      </trkpt>
      <trkpt lat="54.377290" lon="10.101218">
        <ele>14.500000</ele>
        <time>2019-12-07T13:06:08.000Z</time>
      </trkpt>
      <trkpt lat="54.377378" lon="10.101458">
        <ele>14.500000</ele>
        <time>2019-12-07T13:06:20.000Z</time>
      </trkpt>
      <trkpt lat="54.377419" lon="10.101579">
        <ele>14.500000</ele>
        <time>2019-12-07T13:06:27.000Z</time>
      </trkpt>
      <trkpt lat="54.377436" lon="10.101649">
        <ele>14.500000</ele>
        <time>2019-12-07T13:06:30.000Z</time>
      </trkpt>
      <trkpt lat="54.377444" lon="10.101742">
        <ele>14.500000</ele>
        <time>2019-12-07T13:06:34.000Z</time>
      </trkpt>
      <trkpt lat="54.377531" lon="10.102025">
        <ele>14.500000</ele>
        <time>2019-12-07T13:06:47.000Z</time>
      </trkpt>
      <trkpt lat="54.377506" lon="10.102189">
        <ele>14.500000</ele>
        <time>2019-12-07T13:06:53.000Z</time>
      </trkpt>
      <trkpt lat="54.377572" lon="10.102495">
        <ele>14.500000</ele>
        <time>2019-12-07T13:07:09.000Z</time>
      </trkpt>
      <trkpt lat="54.377582" lon="10.102683">
        <ele>14.500000</ele>
        <time>2019-12-07T13:07:19.000Z</time>
      </trkpt>
      <trkpt lat="54.377629" lon="10.102918">
        <ele>14.500000</ele>
        <time>2019-12-07T13:07:30.000Z</time>
      </trkpt>
      <trkpt lat="54.377631" lon="10.103061">
        <ele>14.500000</ele>
        <time>2019-12-07T13:07:36.000Z</time>
      </trkpt>
      <trkpt lat="54.377583" lon="10.103199">
        <ele>14.500000</ele>
        <time>2019-12-07T13:07:44.000Z</time>
      </trkpt>
      <trkpt lat="54.377342" lon="10.103349">
        <ele>14.500000</ele>
        <time>2019-12-07T13:08:04.000Z</time>
      </trkpt>
      <trkpt lat="54.377273" lon="10.103470">
        <ele>14.500000</ele>
        <time>2019-12-07T13:08:27.000Z</time>
      </trkpt>
      <trkpt lat="54.377252" lon="10.103652">
        <ele>14.500000</ele>
        <time>2019-12-07T13:08:41.000Z</time>
      </trkpt>
      <trkpt lat="54.377203" lon="10.103715">
        <ele>14.500000</ele>
        <time>2019-12-07T13:08:58.000Z</time>
      </trkpt>
      <trkpt lat="54.377308" lon="10.103961">
        <ele>14.500000</ele>
        <time>2019-12-07T13:09:19.000Z</time>
      </trkpt>
      <trkpt lat="54.377511" lon="10.104202">
        <ele>14.500000</ele>
        <time>2019-12-07T13:09:39.000Z</time>
      </trkpt>
      <trkpt lat="54.377609" lon="10.104395">
        <ele>14.500000</ele>
        <time>2019-12-07T13:09:55.000Z</time>
      </trkpt>
      <trkpt lat="54.377794" lon="10.104688">
        <ele>14.500000</ele>
        <time>2019-12-07T13:10:17.000Z</time>
      </trkpt>
      <trkpt lat="54.377899" lon="10.104856">
        <ele>14.500000</ele>
        <time>2019-12-07T13:10:32.000Z</time>
      </trkpt>
      <trkpt lat="54.378084" lon="10.105126">
        <ele>14.500000</ele>
        <time>2019-12-07T13:10:53.000Z</time>
      </trkpt>
      <trkpt lat="54.378143" lon="10.105222">
        <ele>14.500000</ele>
        <time>2019-12-07T13:10:59.000Z</time>
      </trkpt>
      <trkpt lat="54.378270" lon="10.105385">
        <ele>14.500000</ele>
        <time>2019-12-07T13:11:11.000Z</time>
      </trkpt>
      <trkpt lat="54.378341" lon="10.105448">
        <ele>14.500000</ele>
        <time>2019-12-07T13:11:15.000Z</time>
      </trkpt>
      <trkpt lat="54.378635" lon="10.105731">
        <ele>14.500000</ele>
        <time>2019-12-07T13:11:36.000Z</time>
      </trkpt>
      <trkpt lat="54.378700" lon="10.105909">
        <ele>14.500000</ele>
        <time>2019-12-07T13:11:51.000Z</time>
      </trkpt>
      <trkpt lat="54.378816" lon="10.106147">
        <ele>14.500000</ele>
        <time>2019-12-07T13:12:12.000Z</time>
      </trkpt>
      <trkpt lat="54.378909" lon="10.106212">
        <ele>14.500000</ele>
        <time>2019-12-07T13:12:18.000Z</time>
      </trkpt>
      <trkpt lat="54.379114" lon="10.106469">
        <ele>14.500000</ele>
        <time>2019-12-07T13:12:38.000Z</time>
      </trkpt>
      <trkpt lat="54.379157" lon="10.106665">
        <ele>14.500000</ele>
        <time>2019-12-07T13:12:53.000Z</time>
      </trkpt>
      <trkpt lat="54.379326" lon="10.106939">
        <ele>14.500000</ele>
        <time>2019-12-07T13:13:11.000Z</time>
      </trkpt>
      <trkpt lat="54.379490" lon="10.107150">
        <ele>14.500000</ele>
        <time>2019-12-07T13:13:27.000Z</time>
      </trkpt>
      <trkpt lat="54.379655" lon="10.107376">
        <ele>14.500000</ele>
        <time>2019-12-07T13:13:44.000Z</time>
      </trkpt>
      <trkpt lat="54.379847" lon="10.107530">
        <ele>14.500000</ele>
        <time>2019-12-07T13:14:00.000Z</time>
      </trkpt>
      <trkpt lat="54.380081" lon="10.107732">
        <ele>14.500000</ele>
        <time>2019-12-07T13:14:19.000Z</time>
      </trkpt>
      <trkpt lat="54.380116" lon="10.107808">
        <ele>14.500000</ele>
        <time>2019-12-07T13:14:25.000Z</time>
      </trkpt>
      <trkpt lat="54.380340" lon="10.108061">
        <ele>14.500000</ele>
        <time>2019-12-07T13:14:49.000Z</time>
      </trkpt>
      <trkpt lat="54.380450" lon="10.108250">
        <ele>14.500000</ele>
        <time>2019-12-07T13:15:03.000Z</time>
      </trkpt>
      <trkpt lat="54.380579" lon="10.108428">
        <ele>14.500000</ele>
        <time>2019-12-07T13:15:19.000Z</time>
      </trkpt>
      <trkpt lat="54.380602" lon="10.108456">
        <ele>14.500000</ele>
        <time>2019-12-07T13:15:21.000Z</time>
      </trkpt>
      <trkpt lat="54.380695" lon="10.108523">
        <ele>14.500000</ele>
        <time>2019-12-07T13:15:28.000Z</time>
      </trkpt>
      <trkpt lat="54.380800" lon="10.108617">
        <ele>14.500000</ele>
        <time>2019-12-07T13:15:36.000Z</time>
      </trkpt>
      <trkpt lat="54.380836" lon="10.108625">
        <ele>14.500000</ele>
        <time>2019-12-07T13:15:39.000Z</time>
      </trkpt>
      <trkpt lat="54.380966" lon="10.108637">
        <ele>14.500000</ele>
        <time>2019-12-07T13:15:53.000Z</time>
      </trkpt>
      <trkpt lat="54.381141" lon="10.108662">
        <ele>14.500000</ele>
        <time>2019-12-07T13:16:13.000Z</time>
      </trkpt>
      <trkpt lat="54.381371" lon="10.108711">
        <ele>14.500000</ele>
        <time>2019-12-07T13:16:30.000Z</time>
      </trkpt>
      <trkpt lat="54.381573" lon="10.108784">
        <ele>14.500000</ele>
        <time>2019-12-07T13:16:47.000Z</time>
      </trkpt>
      <trkpt lat="54.381763" lon="10.108948">
        <ele>14.500000</ele>
        <time>2019-12-07T13:17:07.000Z</time>
      </trkpt>
      <trkpt lat="54.381976" lon="10.109082">
        <ele>14.500000</ele>
        <time>2019-12-07T13:17:26.000Z</time>
      </trkpt>
      <trkpt lat="54.382261" lon="10.109218">
        <ele>14.500000</ele>
        <time>2019-12-07T13:17:47.000Z</time>
      </trkpt>
      <trkpt lat="54.382441" lon="10.109293">
        <ele>14.500000</ele>
        <time>2019-12-07T13:17:59.000Z</time>
      </trkpt>
      <trkpt lat="54.382526" lon="10.109333">
        <ele>14.500000</ele>
        <time>2019-12-07T13:18:11.000Z</time>
      </trkpt>
      <trkpt lat="54.382631" lon="10.109331">
        <ele>14.500000</ele>
        <time>2019-12-07T13:18:30.000Z</time>
      </trkpt>
      <trkpt lat="54.382764" lon="10.109393">
        <ele>14.500000</ele>
        <time>2019-12-07T13:18:47.000Z</time>
      </trkpt>
      <trkpt lat="54.383100" lon="10.109584">
        <ele>14.500000</ele>
        <time>2019-12-07T13:19:07.000Z</time>
      </trkpt>
      <trkpt lat="54.383328" lon="10.109992">
        <ele>14.500000</ele>
        <time>2019-12-07T13:19:26.000Z</time>
      </trkpt>
      <trkpt lat="54.383332" lon="10.110489">
        <ele>14.500000</ele>
        <time>2019-12-07T13:19:47.000Z</time>
      </trkpt>
      <trkpt lat="54.383442" lon="10.110552">
        <ele>14.500000</ele>
        <time>2019-12-07T13:20:04.000Z</time>
      </trkpt>
      <trkpt lat="54.383407" lon="10.110526">
        <ele>14.500000</ele>
        <time>2019-12-07T13:20:28.000Z</time>
      </trkpt>
      <trkpt lat="54.383419" lon="10.110612">
        <ele>14.500000</ele>
        <time>2019-12-07T13:20:58.000Z</time>
      </trkpt>
      <trkpt lat="54.383453" lon="10.110612">
        <ele>14.500000</ele>
        <time>2019-12-07T13:21:08.000Z</time>
      </trkpt>
      <trkpt lat="54.383425" lon="10.110736">
        <ele>14.500000</ele>
        <time>2019-12-07T13:21:34.000Z</time>
      </trkpt>
      <trkpt lat="54.383355" lon="10.110821">
        <ele>14.500653</ele>
        <time>2019-12-07T13:22:01.000Z</time>
      </trkpt>
      <trkpt lat="54.383373" lon="10.110870">
        <ele>14.501492</ele>
        <time>2019-12-07T13:22:24.000Z</time>
      </trkpt>
      <trkpt lat="54.383399" lon="10.110886">
        <ele>14.502178</ele>
        <time>2019-12-07T13:22:47.000Z</time>
      </trkpt>
      <trkpt lat="54.383306" lon="10.110925">
        <ele>14.504557</ele>
        <time>2019-12-07T13:23:17.000Z</time>
      </trkpt>
      <trkpt lat="54.383253" lon="10.110934">
        <ele>14.505881</ele>
        <time>2019-12-07T13:23:50.000Z</time>
      </trkpt>
      <trkpt lat="54.383244" lon="10.110898">
        <ele>14.506448</ele>
        <time>2019-12-07T13:24:13.000Z</time>
      </trkpt>
      <trkpt lat="54.383297" lon="10.110831">
        <ele>14.508083</ele>
        <time>2019-12-07T13:24:37.000Z</time>
      </trkpt>
      <trkpt lat="54.383377" lon="10.110831">
        <ele>14.510071</ele>
        <time>2019-12-07T13:25:12.000Z</time>
      </trkpt>
      <trkpt lat="54.383343" lon="10.110907">
        <ele>14.511458</ele>
        <time>2019-12-07T13:25:38.000Z</time>
      </trkpt>
      <trkpt lat="54.383268" lon="10.110935">
        <ele>14.513366</ele>
        <time>2019-12-07T13:26:09.000Z</time>
      </trkpt>
      <trkpt lat="54.383298" lon="10.110919">
        <ele>14.514146</ele>
        <time>2019-12-07T13:26:33.000Z</time>
      </trkpt>
      <trkpt lat="54.383279" lon="10.110874">
        <ele>14.514951</ele>
        <time>2019-12-07T13:26:36.000Z</time>
      </trkpt>
      <trkpt lat="54.383245" lon="10.110776">
        <ele>14.516601</ele>
        <time>2019-12-07T13:26:42.000Z</time>
      </trkpt>
      <trkpt lat="54.383232" lon="10.110715">
        <ele>14.517541</ele>
        <time>2019-12-07T13:26:46.000Z</time>
      </trkpt>
      <trkpt lat="54.383372" lon="10.110806">
        <ele>14.521261</ele>
        <time>2019-12-07T13:27:04.000Z</time>
      </trkpt>
      <trkpt lat="54.383431" lon="10.110951">
        <ele>14.523821</ele>
        <time>2019-12-07T13:27:17.000Z</time>
      </trkpt>
      <trkpt lat="54.383442" lon="10.110990">
        <ele>14.524448</ele>
        <time>2019-12-07T13:27:19.000Z</time>
      </trkpt>
      <trkpt lat="54.383479" lon="10.111310">
        <ele>14.529170</ele>
        <time>2019-12-07T13:27:36.000Z</time>
      </trkpt>
      <trkpt lat="54.383529" lon="10.111524">
        <ele>14.532507</ele>
        <time>2019-12-07T13:27:48.000Z</time>
      </trkpt>
      <trkpt lat="54.383526" lon="10.111861">
        <ele>14.537384</ele>
        <time>2019-12-07T13:28:06.000Z</time>
      </trkpt>
      <trkpt lat="54.383504" lon="10.112006">
        <ele>14.539553</ele>
        <time>2019-12-07T13:28:14.000Z</time>
      </trkpt>
      <trkpt lat="54.383510" lon="10.112063">
        <ele>14.540391</ele>
        <time>2019-12-07T13:28:16.000Z</time>
      </trkpt>
      <trkpt lat="54.383564" lon="10.112345">
        <ele>14.544687</ele>
        <time>2019-12-07T13:28:30.000Z</time>
      </trkpt>
      <trkpt lat="54.383650" lon="10.112639">
        <ele>14.550576</ele>
        <time>2019-12-07T13:28:48.000Z</time>
      </trkpt>
      <trkpt lat="54.383701" lon="10.113087">
        <ele>14.558749</ele>
        <time>2019-12-07T13:29:10.000Z</time>
      </trkpt>
      <trkpt lat="54.383695" lon="10.113142">
        <ele>14.559751</ele>
        <time>2019-12-07T13:29:13.000Z</time>
      </trkpt>
      <trkpt lat="54.383731" lon="10.113460">
        <ele>14.565552</ele>
        <time>2019-12-07T13:29:30.000Z</time>
      </trkpt>
      <trkpt lat="54.383784" lon="10.113815">
        <ele>14.572114</ele>
        <time>2019-12-07T13:29:51.000Z</time>
      </trkpt>
      <trkpt lat="54.383880" lon="10.114078">
        <ele>14.577672</ele>
        <time>2019-12-07T13:30:07.000Z</time>
      </trkpt>
      <trkpt lat="54.383950" lon="10.114303">
        <ele>14.582239</ele>
        <time>2019-12-07T13:30:19.000Z</time>
      </trkpt>
      <trkpt lat="54.384044" lon="10.114510">
        <ele>14.586939</ele>
        <time>2019-12-07T13:30:33.000Z</time>
      </trkpt>
      <trkpt lat="54.384048" lon="10.114580">
        <ele>14.588199</ele>
        <time>2019-12-07T13:30:36.000Z</time>
      </trkpt>
      <trkpt lat="54.384042" lon="10.114772">
        <ele>14.591642</ele>
        <time>2019-12-07T13:30:52.000Z</time>
      </trkpt>
      <trkpt lat="54.384036" lon="10.115112">
        <ele>14.597732</ele>
        <time>2019-12-07T13:31:11.000Z</time>
      </trkpt>
      <trkpt lat="54.383977" lon="10.115478">
        <ele>14.600000</ele>
        <time>2019-12-07T13:31:29.000Z</time>
      </trkpt>
      <trkpt lat="54.383937" lon="10.115919">
        <ele>14.600000</ele>
        <time>2019-12-07T13:31:51.000Z</time>
      </trkpt>
      <trkpt lat="54.383908" lon="10.116303">
        <ele>14.600000</ele>
        <time>2019-12-07T13:32:12.000Z</time>
      </trkpt>
      <trkpt lat="54.383890" lon="10.116480">
        <ele>14.600000</ele>
        <time>2019-12-07T13:32:20.000Z</time>
      </trkpt>
      <trkpt lat="54.383858" lon="10.116832">
        <ele>14.600000</ele>
        <time>2019-12-07T13:32:38.000Z</time>
      </trkpt>
      <trkpt lat="54.383818" lon="10.117132">
        <ele>14.600000</ele>
        <time>2019-12-07T13:32:55.000Z</time>
      </trkpt>
      <trkpt lat="54.383800" lon="10.117421">
        <ele>14.600000</ele>
        <time>2019-12-07T13:33:09.000Z</time>
      </trkpt>
      <trkpt lat="54.383781" lon="10.117694">
        <ele>14.600000</ele>
        <time>2019-12-07T13:33:23.000Z</time>
      </trkpt>
      <trkpt lat="54.383753" lon="10.118028">
        <ele>14.600000</ele>
        <time>2019-12-07T13:33:40.000Z</time>
      </trkpt>
      <trkpt lat="54.383721" lon="10.118245">
        <ele>14.600000</ele>
        <time>2019-12-07T13:33:54.000Z</time>
      </trkpt>
      <trkpt lat="54.383799" lon="10.118515">
        <ele>14.600000</ele>
        <time>2019-12-07T13:34:12.000Z</time>
      </trkpt>
      <trkpt lat="54.383744" lon="10.118730">
        <ele>14.600000</ele>
        <time>2019-12-07T13:34:29.000Z</time>
      </trkpt>
      <trkpt lat="54.383497" lon="10.119090">
        <ele>14.600000</ele>
        <time>2019-12-07T13:34:53.000Z</time>
      </trkpt>
      <trkpt lat="54.383370" lon="10.119332">
        <ele>14.600000</ele>
        <time>2019-12-07T13:35:12.000Z</time>
      </trkpt>
      <trkpt lat="54.383302" lon="10.119566">
        <ele>14.600000</ele>
        <time>2019-12-07T13:35:26.000Z</time>
      </trkpt>
      <trkpt lat="54.383296" lon="10.119629">
        <ele>14.600000</ele>
        <time>2019-12-07T13:35:29.000Z</time>
      </trkpt>
      <trkpt lat="54.383263" lon="10.119873">
        <ele>14.600000</ele>
        <time>2019-12-07T13:35:45.000Z</time>
      </trkpt>
      <trkpt lat="54.383193" lon="10.120164">
        <ele>14.600000</ele>
        <time>2019-12-07T13:36:03.000Z</time>
      </trkpt>
      <trkpt lat="54.383085" lon="10.120619">
        <ele>14.600000</ele>
        <time>2019-12-07T13:36:28.000Z</time>
      </trkpt>
      <trkpt lat="54.383058" lon="10.120795">
        <ele>14.600000</ele>
        <time>2019-12-07T13:36:39.000Z</time>
      </trkpt>
      <trkpt lat="54.383007" lon="10.121103">
        <ele>14.600000</ele>
        <time>2019-12-07T13:36:55.000Z</time>
      </trkpt>
      <trkpt lat="54.382957" lon="10.121195">
        <ele>14.600000</ele>
        <time>2019-12-07T13:37:00.000Z</time>
      </trkpt>
      <trkpt lat="54.382899" lon="10.121534">
        <ele>14.600000</ele>
        <time>2019-12-07T13:37:18.000Z</time>
      </trkpt>
      <trkpt lat="54.382877" lon="10.121817">
        <ele>14.600000</ele>
        <time>2019-12-07T13:37:37.000Z</time>
      </trkpt>
      <trkpt lat="54.382732" lon="10.122156">
        <ele>14.600000</ele>
        <time>2019-12-07T13:37:56.000Z</time>
      </trkpt>
      <trkpt lat="54.382618" lon="10.122474">
        <ele>14.600000</ele>
        <time>2019-12-07T13:38:14.000Z</time>
      </trkpt>
      <trkpt lat="54.382459" lon="10.122786">
        <ele>14.600000</ele>
        <time>2019-12-07T13:38:35.000Z</time>
      </trkpt>
      <trkpt lat="54.382353" lon="10.123075">
        <ele>14.600000</ele>
        <time>2019-12-07T13:38:54.000Z</time>
      </trkpt>
      <trkpt lat="54.382289" lon="10.123417">
        <ele>14.600000</ele>
        <time>2019-12-07T13:39:13.000Z</time>
      </trkpt>
      <trkpt lat="54.382246" lon="10.123789">
        <ele>14.600000</ele>
        <time>2019-12-07T13:39:34.000Z</time>
      </trkpt>
      <trkpt lat="54.382207" lon="10.123934">
        <ele>14.600000</ele>
        <time>2019-12-07T13:39:44.000Z</time>
      </trkpt>
      <trkpt lat="54.382158" lon="10.124243">
        <ele>14.600000</ele>
        <time>2019-12-07T13:40:00.000Z</time>
      </trkpt>
      <trkpt lat="54.382156" lon="10.124414">
        <ele>14.600000</ele>
        <time>2019-12-07T13:40:08.000Z</time>
      </trkpt>
      <trkpt lat="54.382171" lon="10.124532">
        <ele>14.600000</ele>
        <time>2019-12-07T13:40:14.000Z</time>
      </trkpt>
      <trkpt lat="54.382154" lon="10.124774">
        <ele>14.600000</ele>
        <time>2019-12-07T13:40:30.000Z</time>
      </trkpt>
      <trkpt lat="54.382060" lon="10.124993">
        <ele>14.600000</ele>
        <time>2019-12-07T13:40:46.000Z</time>
      </trkpt>
      <trkpt lat="54.381958" lon="10.125162">
        <ele>14.600000</ele>
        <time>2019-12-07T13:40:58.000Z</time>
      </trkpt>
      <trkpt lat="54.381751" lon="10.125076">
        <ele>14.600000</ele>
        <time>2019-12-07T13:41:17.000Z</time>
      </trkpt>
      <trkpt lat="54.381623" lon="10.124928">
        <ele>14.600000</ele>
        <time>2019-12-07T13:41:31.000Z</time>
      </trkpt>
      <trkpt lat="54.381485" lon="10.124755">
        <ele>14.600000</ele>
        <time>2019-12-07T13:41:48.000Z</time>
      </trkpt>
      <trkpt lat="54.381307" lon="10.124594">
        <ele>14.600000</ele>
        <time>2019-12-07T13:42:06.000Z</time>
      </trkpt>
      <trkpt lat="54.381148" lon="10.124468">
        <ele>14.597090</ele>
        <time>2019-12-07T13:42:22.000Z</time>
      </trkpt>
      <trkpt lat="54.381057" lon="10.124392">
        <ele>14.593933</ele>
        <time>2019-12-07T13:42:39.000Z</time>
      </trkpt>
      <trkpt lat="54.380990" lon="10.124323">
        <ele>14.591495</ele>
        <time>2019-12-07T13:42:49.000Z</time>
      </trkpt>
      <trkpt lat="54.380840" lon="10.124218">
        <ele>14.586442</ele>
        <time>2019-12-07T13:43:06.000Z</time>
      </trkpt>
      <trkpt lat="54.380821" lon="10.124176">
        <ele>14.585475</ele>
        <time>2019-12-07T13:43:11.000Z</time>
      </trkpt>
      <trkpt lat="54.380773" lon="10.124113">
        <ele>14.583590</ele>
        <time>2019-12-07T13:43:17.000Z</time>
      </trkpt>
      <trkpt lat="54.380726" lon="10.124075">
        <ele>14.581970</ele>
        <time>2019-12-07T13:43:21.000Z</time>
      </trkpt>
      <trkpt lat="54.380529" lon="10.123780">
        <ele>14.573815</ele>
        <time>2019-12-07T13:43:39.000Z</time>
      </trkpt>
      <trkpt lat="54.380477" lon="10.123703">
        <ele>14.571672</ele>
        <time>2019-12-07T13:43:44.000Z</time>
      </trkpt>
      <trkpt lat="54.380450" lon="10.123628">
        <ele>14.570070</ele>
        <time>2019-12-07T13:43:48.000Z</time>
      </trkpt>
      <trkpt lat="54.380289" lon="10.123465">
        <ele>14.564239</ele>
        <time>2019-12-07T13:44:04.000Z</time>
      </trkpt>
      <trkpt lat="54.380109" lon="10.123305">
        <ele>14.557916</ele>
        <time>2019-12-07T13:44:22.000Z</time>
      </trkpt>
      <trkpt lat="54.379956" lon="10.123149">
        <ele>14.552364</ele>
        <time>2019-12-07T13:44:35.000Z</time>
      </trkpt>
      <trkpt lat="54.379894" lon="10.123104">
        <ele>14.550264</ele>
        <time>2019-12-07T13:44:41.000Z</time>
      </trkpt>
      <trkpt lat="54.379713" lon="10.123011">
        <ele>14.544370</ele>
        <time>2019-12-07T13:44:57.000Z</time>
      </trkpt>
      <trkpt lat="54.379511" lon="10.122780">
        <ele>14.538343</ele>
        <time>2019-12-07T13:45:16.000Z</time>
      </trkpt>
      <trkpt lat="54.379308" lon="10.122620">
        <ele>14.532893</ele>
        <time>2019-12-07T13:45:33.000Z</time>
      </trkpt>
      <trkpt lat="54.379265" lon="10.122581">
        <ele>14.531706</ele>
        <time>2019-12-07T13:45:37.000Z</time>
      </trkpt>
      <trkpt lat="54.379061" lon="10.122403">
        <ele>14.526123</ele>
        <time>2019-12-07T13:45:56.000Z</time>
      </trkpt>
      <trkpt lat="54.378919" lon="10.122212">
        <ele>14.521722</ele>
        <time>2019-12-07T13:46:12.000Z</time>
      </trkpt>
      <trkpt lat="54.378714" lon="10.122022">
        <ele>14.516037</ele>
        <time>2019-12-07T13:46:32.000Z</time>
      </trkpt>
      <trkpt lat="54.378486" lon="10.121812">
        <ele>14.509725</ele>
        <time>2019-12-07T13:46:53.000Z</time>
      </trkpt>
      <trkpt lat="54.378375" lon="10.121808">
        <ele>14.507016</ele>
        <time>2019-12-07T13:47:10.000Z</time>
      </trkpt>
      <trkpt lat="54.378372" lon="10.121815">
        <ele>14.506892</ele>
        <time>2019-12-07T13:47:33.000Z</time>
      </trkpt>
      <trkpt lat="54.378364" lon="10.121821">
        <ele>14.506679</ele>
        <time>2019-12-07T13:48:00.000Z</time>
      </trkpt>
      <trkpt lat="54.378341" lon="10.121774">
        <ele>14.505807</ele>
        <time>2019-12-07T13:48:10.000Z</time>
      </trkpt>
      <trkpt lat="54.378255" lon="10.121814">
        <ele>14.503633</ele>
        <time>2019-12-07T13:48:25.000Z</time>
      </trkpt>
      <trkpt lat="54.378131" lon="10.122080">
        <ele>14.500000</ele>
        <time>2019-12-07T13:48:42.000Z</time>
      </trkpt>
      <trkpt lat="54.378022" lon="10.122306">
        <ele>14.500000</ele>
        <time>2019-12-07T13:48:59.000Z</time>
      </trkpt>
      <trkpt lat="54.377959" lon="10.122423">
        <ele>14.500000</ele>
        <time>2019-12-07T13:49:08.000Z</time>
      </trkpt>
      <trkpt lat="54.377866" lon="10.122465">
        <ele>14.500000</ele>
        <time>2019-12-07T13:49:16.000Z</time>
      </trkpt>
      <trkpt lat="54.377803" lon="10.122426">
        <ele>14.500000</ele>
        <time>2019-12-07T13:49:21.000Z</time>
      </trkpt>
      <trkpt lat="54.377637" lon="10.122191">
        <ele>14.500000</ele>
        <time>2019-12-07T13:49:39.000Z</time>
      </trkpt>
      <trkpt lat="54.377504" lon="10.121992">
        <ele>14.500000</ele>
        <time>2019-12-07T13:49:55.000Z</time>
      </trkpt>
      <trkpt lat="54.377440" lon="10.121852">
        <ele>14.500000</ele>
        <time>2019-12-07T13:50:05.000Z</time>
      </trkpt>
      <trkpt lat="54.377311" lon="10.121645">
        <ele>14.500000</ele>
        <time>2019-12-07T13:50:20.000Z</time>
      </trkpt>
      <trkpt lat="54.377176" lon="10.121452">
        <ele>14.500000</ele>
        <time>2019-12-07T13:50:35.000Z</time>
      </trkpt>
      <trkpt lat="54.377068" lon="10.121299">
        <ele>14.500000</ele>
        <time>2019-12-07T13:50:47.000Z</time>
      </trkpt>
      <trkpt lat="54.376932" lon="10.121077">
        <ele>14.500000</ele>
        <time>2019-12-07T13:51:03.000Z</time>
      </trkpt>
      <trkpt lat="54.376770" lon="10.121210">
        <ele>14.500000</ele>
        <time>2019-12-07T13:51:24.000Z</time>
      </trkpt>
      <trkpt lat="54.376673" lon="10.121341">
        <ele>14.500000</ele>
        <time>2019-12-07T13:51:41.000Z</time>
      </trkpt>
      <trkpt lat="54.376457" lon="10.121633">
        <ele>14.500000</ele>
        <time>2019-12-07T13:52:01.000Z</time>
      </trkpt>
      <trkpt lat="54.376170" lon="10.122049">
        <ele>14.500000</ele>
        <time>2019-12-07T13:52:32.000Z</time>
      </trkpt>
      <trkpt lat="54.375960" lon="10.122372">
        <ele>14.500000</ele>
        <time>2019-12-07T13:52:59.000Z</time>
      </trkpt>
      <trkpt lat="54.375757" lon="10.122692">
        <ele>14.500000</ele>
        <time>2019-12-07T13:53:24.000Z</time>
      </trkpt>
      <trkpt lat="54.375558" lon="10.122842">
        <ele>14.500000</ele>
        <time>2019-12-07T13:53:44.000Z</time>
      </trkpt>
      <trkpt lat="54.375296" lon="10.123232">
        <ele>14.500000</ele>
        <time>2019-12-07T13:54:12.000Z</time>
      </trkpt>
      <trkpt lat="54.375195" lon="10.123404">
        <ele>14.500000</ele>
        <time>2019-12-07T13:54:32.000Z</time>
      </trkpt>
      <trkpt lat="54.375104" lon="10.123511">
        <ele>14.500000</ele>
        <time>2019-12-07T13:54:59.000Z</time>
      </trkpt>
      <trkpt lat="54.374950" lon="10.123746">
        <ele>14.500000</ele>
        <time>2019-12-07T13:55:21.000Z</time>
      </trkpt>
      <trkpt lat="54.374767" lon="10.123952">
        <ele>14.500000</ele>
        <time>2019-12-07T13:55:41.000Z</time>
      </trkpt>
      <trkpt lat="54.374647" lon="10.124169">
        <ele>14.500000</ele>
        <time>2019-12-07T13:55:58.000Z</time>
      </trkpt>
      <trkpt lat="54.374531" lon="10.124402">
        <ele>14.500000</ele>
        <time>2019-12-07T13:56:13.000Z</time>
      </trkpt>
      <trkpt lat="54.374316" lon="10.124735">
        <ele>14.500000</ele>
        <time>2019-12-07T13:56:35.000Z</time>
      </trkpt>
      <trkpt lat="54.374192" lon="10.125023">
        <ele>14.500000</ele>
        <time>2019-12-07T13:56:55.000Z</time>
      </trkpt>
      <trkpt lat="54.373974" lon="10.125344">
        <ele>14.500043</ele>
        <time>2019-12-07T13:57:21.000Z</time>
      </trkpt>
      <trkpt lat="54.373774" lon="10.125601">
        <ele>14.500116</ele>
        <time>2019-12-07T13:57:43.000Z</time>
      </trkpt>
      <trkpt lat="54.373599" lon="10.125594">
        <ele>14.500168</ele>
        <time>2019-12-07T13:58:00.000Z</time>
      </trkpt>
      <trkpt lat="54.373581" lon="10.125667">
        <ele>14.500181</ele>
        <time>2019-12-07T13:58:12.000Z</time>
      </trkpt>
      <trkpt lat="54.373595" lon="10.125991">
        <ele>14.500236</ele>
        <time>2019-12-07T13:58:28.000Z</time>
      </trkpt>
      <trkpt lat="54.373568" lon="10.126025">
        <ele>14.500246</ele>
        <time>2019-12-07T13:58:30.000Z</time>
      </trkpt>
      <trkpt lat="54.373497" lon="10.126217">
        <ele>14.500285</ele>
        <time>2019-12-07T13:58:44.000Z</time>
      </trkpt>
      <trkpt lat="54.373478" lon="10.126304">
        <ele>14.500301</ele>
        <time>2019-12-07T13:58:49.000Z</time>
      </trkpt>
      <trkpt lat="54.373432" lon="10.126420">
        <ele>14.500325</ele>
        <time>2019-12-07T13:58:56.000Z</time>
      </trkpt>
      <trkpt lat="54.373332" lon="10.126493">
        <ele>14.500356</ele>
        <time>2019-12-07T13:59:08.000Z</time>
      </trkpt>
      <trkpt lat="54.373227" lon="10.126548">
        <ele>14.500389</ele>
        <time>2019-12-07T13:59:15.000Z</time>
      </trkpt>
      <trkpt lat="54.373061" lon="10.126624">
        <ele>14.500439</ele>
        <time>2019-12-07T13:59:29.000Z</time>
      </trkpt>
      <trkpt lat="54.373026" lon="10.126673">
        <ele>14.500452</ele>
        <time>2019-12-07T13:59:33.000Z</time>
      </trkpt>
      <trkpt lat="54.372859" lon="10.126933">
        <ele>14.500518</ele>
        <time>2019-12-07T13:59:52.000Z</time>
      </trkpt>
      <trkpt lat="54.372734" lon="10.127106">
        <ele>14.507592</ele>
        <time>2019-12-07T14:00:06.000Z</time>
      </trkpt>
      <trkpt lat="54.372699" lon="10.127270">
        <ele>14.513067</ele>
        <time>2019-12-07T14:00:14.000Z</time>
      </trkpt>
      <trkpt lat="54.372683" lon="10.127479">
        <ele>14.519674</ele>
        <time>2019-12-07T14:00:22.000Z</time>
      </trkpt>
      <trkpt lat="54.372676" lon="10.127747">
        <ele>14.528083</ele>
        <time>2019-12-07T14:00:35.000Z</time>
      </trkpt>
      <trkpt lat="54.372692" lon="10.128015">
        <ele>14.536528</ele>
        <time>2019-12-07T14:00:48.000Z</time>
      </trkpt>
      <trkpt lat="54.372694" lon="10.128116">
        <ele>14.539695</ele>
        <time>2019-12-07T14:00:53.000Z</time>
      </trkpt>
      <trkpt lat="54.372740" lon="10.128287">
        <ele>14.545599</ele>
        <time>2019-12-07T14:01:02.000Z</time>
      </trkpt>
      <trkpt lat="54.372875" lon="10.128543">
        <ele>14.556424</ele>
        <time>2019-12-07T14:01:17.000Z</time>
      </trkpt>
      <trkpt lat="54.372983" lon="10.128699">
        <ele>14.564019</ele>
        <time>2019-12-07T14:01:27.000Z</time>
      </trkpt>
      <trkpt lat="54.373054" lon="10.128840">
        <ele>14.569861</ele>
        <time>2019-12-07T14:01:36.000Z</time>
      </trkpt>
      <trkpt lat="54.373090" lon="10.128958">
        <ele>14.574036</ele>
        <time>2019-12-07T14:01:43.000Z</time>
      </trkpt>
      <trkpt lat="54.373119" lon="10.129000">
        <ele>14.576078</ele>
        <time>2019-12-07T14:01:46.000Z</time>
      </trkpt>
      <trkpt lat="54.373198" lon="10.129331">
        <ele>14.587290</ele>
        <time>2019-12-07T14:02:05.000Z</time>
      </trkpt>
      <trkpt lat="54.373192" lon="10.129387">
        <ele>14.589075</ele>
        <time>2019-12-07T14:02:08.000Z</time>
      </trkpt>
      <trkpt lat="54.373184" lon="10.129745">
        <ele>14.597396</ele>
        <time>2019-12-07T14:02:24.000Z</time>
      </trkpt>
      <trkpt lat="54.373182" lon="10.129777">
        <ele>14.597424</ele>
        <time>2019-12-07T14:02:25.000Z</time>
      </trkpt>
      <trkpt lat="54.373169" lon="10.129904">
        <ele>14.597536</ele>
        <time>2019-12-07T14:02:30.000Z</time>
      </trkpt>
      <trkpt lat="54.373169" lon="10.130041">
        <ele>14.597656</ele>
        <time>2019-12-07T14:02:36.000Z</time>
      </trkpt>
      <trkpt lat="54.373225" lon="10.130381">
        <ele>14.597963</ele>
        <time>2019-12-07T14:02:53.000Z</time>
      </trkpt>
      <trkpt lat="54.373233" lon="10.130415">
        <ele>14.597995</ele>
        <time>2019-12-07T14:02:55.000Z</time>
      </trkpt>
      <trkpt lat="54.373380" lon="10.130673">
        <ele>14.598309</ele>
        <time>2019-12-07T14:03:14.000Z</time>
      </trkpt>
      <trkpt lat="54.373466" lon="10.130742">
        <ele>14.598451</ele>
        <time>2019-12-07T14:03:22.000Z</time>
      </trkpt>
      <trkpt lat="54.373509" lon="10.130846">
        <ele>14.598562</ele>
        <time>2019-12-07T14:03:29.000Z</time>
      </trkpt>
      <trkpt lat="54.373573" lon="10.131119">
        <ele>14.598818</ele>
        <time>2019-12-07T14:03:44.000Z</time>
      </trkpt>
      <trkpt lat="54.373578" lon="10.131159">
        <ele>14.598854</ele>
        <time>2019-12-07T14:03:46.000Z</time>
      </trkpt>
      <trkpt lat="54.373621" lon="10.131320">
        <ele>14.599008</ele>
        <time>2019-12-07T14:03:53.000Z</time>
      </trkpt>
      <trkpt lat="54.373708" lon="10.131645">
        <ele>14.599319</ele>
        <time>2019-12-07T14:04:09.000Z</time>
      </trkpt>
      <trkpt lat="54.373712" lon="10.131739">
        <ele>14.599401</ele>
        <time>2019-12-07T14:04:22.000Z</time>
      </trkpt>
      <trkpt lat="54.373733" lon="10.131825">
        <ele>14.599482</ele>
        <time>2019-12-07T14:04:30.000Z</time>
      </trkpt>
      <trkpt lat="54.373795" lon="10.131843">
        <ele>14.599576</ele>
        <time>2019-12-07T14:04:34.000Z</time>
      </trkpt>
      <trkpt lat="54.373992" lon="10.131964">
        <ele>14.599889</ele>
        <time>2019-12-07T14:04:49.000Z</time>
      </trkpt>
      <trkpt lat="54.374081" lon="10.132004">
        <ele>14.600000</ele>
        <time>2019-12-07T14:04:57.000Z</time>
      </trkpt>
      <trkpt lat="54.374305" lon="10.132117">
        <ele>14.600000</ele>
        <time>2019-12-07T14:05:16.000Z</time>
      </trkpt>
      <trkpt lat="54.374394" lon="10.132143">
        <ele>14.600000</ele>
        <time>2019-12-07T14:07:06.000Z</time>
      </trkpt>
      <trkpt lat="54.374350" lon="10.132112">
        <ele>14.600000</ele>
        <time>2019-12-07T14:07:10.000Z</time>
      </trkpt>
      <trkpt lat="54.374189" lon="10.132028">
        <ele>14.600000</ele>
        <time>2019-12-07T14:07:23.000Z</time>
      </trkpt>
      <trkpt lat="54.373987" lon="10.131962">
        <ele>14.600000</ele>
        <time>2019-12-07T14:07:40.000Z</time>
      </trkpt>
      <trkpt lat="54.374423" lon="10.132179">
        <ele>14.600000</ele>
        <time>2019-12-07T14:17:10.000Z</time>
      </trkpt>
      <trkpt lat="54.374424" lon="10.132176">
        <ele>14.600000</ele>
        <time>2019-12-07T14:17:11.000Z</time>
      </trkpt>
    </trkseg>
  </trk>
</gpx>