<?xml version='1.0' encoding='UTF-8'?>
<gpx version="1.1" creator="https://www.komoot.de" xmlns="http://www.topografix.com/GPX/1/1" xmlns:xsi="http://www.w3.org/2001/XMLSchema-instance" xsi:schemaLocation="http://www.topografix.com/GPX/1/1 http://www.topografix.com/GPX/1/1/gpx.xsd">
  <metadata>
    <name>DVV Leck - Historischer Westlicher Ochsenweg und Langenberger Forst - 7km</name>
    <author>
      <link href="https://www.komoot.de">
        <text>komoot</text>
        <type>text/html</type>
      </link>
    </author>
  </metadata>
  <trk>
    <name>DVV Leck - Historischer Westlicher Ochsenweg und Langenberger Forst - 7km</name>
    <trkseg>
      <trkpt lat="54.765380" lon="8.979123">
        <ele>5.210227</ele>
        <time>2021-07-03T15:18:29.473Z</time>
      </trkpt>
      <trkpt lat="54.765380" lon="8.979123">
        <ele>5.210227</ele>
        <time>2021-07-03T15:18:29.536Z</time>
      </trkpt>
      <trkpt lat="54.765430" lon="8.979320">
        <ele>5.210227</ele>
        <time>2021-07-03T15:18:42.005Z</time>
      </trkpt>
      <trkpt lat="54.765170" lon="8.979561">
        <ele>5.210227</ele>
        <time>2021-07-03T15:19:11.744Z</time>
      </trkpt>
      <trkpt lat="54.764820" lon="8.979885">
        <ele>5.210227</ele>
        <time>2021-07-03T15:19:51.881Z</time>
      </trkpt>
      <trkpt lat="54.764638" lon="8.980044">
        <ele>5.282872</ele>
        <time>2021-07-03T15:20:12.630Z</time>
      </trkpt>
      <trkpt lat="54.764558" lon="8.979969">
        <ele>5.337801</ele>
        <time>2021-07-03T15:20:21.896Z</time>
      </trkpt>
      <trkpt lat="54.764402" lon="8.979692">
        <ele>5.472677</ele>
        <time>2021-07-03T15:20:44.554Z</time>
      </trkpt>
      <trkpt lat="54.764368" lon="8.979572">
        <ele>5.519259</ele>
        <time>2021-07-03T15:20:52.462Z</time>
      </trkpt>
      <trkpt lat="54.764342" lon="8.979501">
        <ele>5.548561</ele>
        <time>2021-07-03T15:20:57.456Z</time>
      </trkpt>
      <trkpt lat="54.764045" lon="8.978929">
        <ele>5.816694</ele>
        <time>2021-07-03T15:21:42.628Z</time>
      </trkpt>
      <trkpt lat="54.763983" lon="8.978830">
        <ele>5.867605</ele>
        <time>2021-07-03T15:21:51.209Z</time>
      </trkpt>
      <trkpt lat="54.763891" lon="8.978738">
        <ele>5.931752</ele>
        <time>2021-07-03T15:22:02.142Z</time>
      </trkpt>
      <trkpt lat="54.762548" lon="8.977427">
        <ele>7.362444</ele>
        <time>2021-07-03T15:24:41.821Z</time>
      </trkpt>
      <trkpt lat="54.762467" lon="8.977352">
        <ele>7.466870</ele>
        <time>2021-07-03T15:24:51.549Z</time>
      </trkpt>
      <trkpt lat="54.761833" lon="8.976762">
        <ele>8.285150</ele>
        <time>2021-07-03T15:26:07.169Z</time>
      </trkpt>
      <trkpt lat="54.761812" lon="8.976839">
        <ele>8.341028</ele>
        <time>2021-07-03T15:26:12.310Z</time>
      </trkpt>
      <trkpt lat="54.761695" lon="8.977383">
        <ele>8.772305</ele>
        <time>2021-07-03T15:26:47.459Z</time>
      </trkpt>
      <trkpt lat="54.761509" lon="8.978048">
        <ele>9.321415</ele>
        <time>2021-07-03T15:27:32.109Z</time>
      </trkpt>
      <trkpt lat="54.761276" lon="8.978879">
        <ele>10.007918</ele>
        <time>2021-07-03T15:28:28.135Z</time>
      </trkpt>
      <trkpt lat="54.760535" lon="8.978764">
        <ele>10.922696</ele>
        <time>2021-07-03T15:29:46.093Z</time>
      </trkpt>
      <trkpt lat="54.759763" lon="8.978681">
        <ele>11.778761</ele>
        <time>2021-07-03T15:31:06.837Z</time>
      </trkpt>
      <trkpt lat="54.758854" lon="8.978512">
        <ele>12.728316</ele>
        <time>2021-07-03T15:32:41.701Z</time>
      </trkpt>
      <trkpt lat="54.758469" lon="8.978604">
        <ele>12.969685</ele>
        <time>2021-07-03T15:33:21.757Z</time>
      </trkpt>
      <trkpt lat="54.758326" lon="8.978648">
        <ele>13.059885</ele>
        <time>2021-07-03T15:33:37.048Z</time>
      </trkpt>
      <trkpt lat="54.757111" lon="8.979019">
        <ele>13.767911</ele>
        <time>2021-07-03T15:35:42.677Z</time>
      </trkpt>
      <trkpt lat="54.756990" lon="8.979056">
        <ele>13.770634</ele>
        <time>2021-07-03T15:35:55.229Z</time>
      </trkpt>
      <trkpt lat="54.756582" lon="8.979118">
        <ele>13.779712</ele>
        <time>2021-07-03T15:36:36.302Z</time>
      </trkpt>
      <trkpt lat="54.756024" lon="8.979288">
        <ele>13.792270</ele>
        <time>2021-07-03T15:37:33.216Z</time>
      </trkpt>
      <trkpt lat="54.754764" lon="8.979673">
        <ele>13.886579</ele>
        <time>2021-07-03T15:39:41.861Z</time>
      </trkpt>
      <trkpt lat="54.753858" lon="8.979993">
        <ele>13.997153</ele>
        <time>2021-07-03T15:41:14.953Z</time>
      </trkpt>
      <trkpt lat="54.753256" lon="8.980284">
        <ele>14.574240</ele>
        <time>2021-07-03T15:42:19.110Z</time>
      </trkpt>
      <trkpt lat="54.752934" lon="8.980400">
        <ele>14.999670</ele>
        <time>2021-07-03T15:42:53.157Z</time>
      </trkpt>
      <trkpt lat="54.750087" lon="8.981619">
        <ele>19.872802</ele>
        <time>2021-07-03T15:48:05.307Z</time>
      </trkpt>
      <trkpt lat="54.749771" lon="8.981774">
        <ele>20.701075</ele>
        <time>2021-07-03T15:48:40.891Z</time>
      </trkpt>
      <trkpt lat="54.747931" lon="8.982244">
        <ele>25.471814</ele>
        <time>2021-07-03T15:52:04.998Z</time>
      </trkpt>
      <trkpt lat="54.746239" lon="8.982625">
        <ele>29.594049</ele>
        <time>2021-07-03T15:55:12.373Z</time>
      </trkpt>
      <trkpt lat="54.746045" lon="8.982649">
        <ele>29.884876</ele>
        <time>2021-07-03T15:55:33.401Z</time>
      </trkpt>
      <trkpt lat="54.745714" lon="8.982672">
        <ele>30.380220</ele>
        <time>2021-07-03T15:56:08.480Z</time>
      </trkpt>
      <trkpt lat="54.745250" lon="8.983005">
        <ele>31.131214</ele>
        <time>2021-07-03T15:57:00.694Z</time>
      </trkpt>
      <trkpt lat="54.745081" lon="8.983133">
        <ele>31.407015</ele>
        <time>2021-07-03T15:57:19.802Z</time>
      </trkpt>
      <trkpt lat="54.744796" lon="8.983349">
        <ele>31.655412</ele>
        <time>2021-07-03T15:57:51.533Z</time>
      </trkpt>
      <trkpt lat="54.744926" lon="8.983032">
        <ele>31.565254</ele>
        <time>2021-07-03T15:58:14.263Z</time>
      </trkpt>
      <trkpt lat="54.745756" lon="8.978551">
        <ele>30.100006</ele>
        <time>2021-07-03T16:02:50.935Z</time>
      </trkpt>
      <trkpt lat="54.745915" lon="8.977687">
        <ele>29.733887</ele>
        <time>2021-07-03T16:03:44.350Z</time>
      </trkpt>
      <trkpt lat="54.745919" lon="8.977677">
        <ele>29.728975</ele>
        <time>2021-07-03T16:03:45.302Z</time>
      </trkpt>
      <trkpt lat="54.746461" lon="8.974742">
        <ele>28.897065</ele>
        <time>2021-07-03T16:06:45.356Z</time>
      </trkpt>
      <trkpt lat="54.746624" lon="8.973859">
        <ele>28.076044</ele>
        <time>2021-07-03T16:07:39.295Z</time>
      </trkpt>
      <trkpt lat="54.746793" lon="8.972949">
        <ele>27.192357</ele>
        <time>2021-07-03T16:08:36.232Z</time>
      </trkpt>
      <trkpt lat="54.747096" lon="8.971250">
        <ele>25.019375</ele>
        <time>2021-07-03T16:10:24.673Z</time>
      </trkpt>
      <trkpt lat="54.747188" lon="8.970737">
        <ele>23.942886</ele>
        <time>2021-07-03T16:10:57.988Z</time>
      </trkpt>
      <trkpt lat="54.747507" lon="8.969182">
        <ele>20.635841</ele>
        <time>2021-07-03T16:12:40.707Z</time>
      </trkpt>
      <trkpt lat="54.747848" lon="8.968338">
        <ele>18.574423</ele>
        <time>2021-07-03T16:13:45.685Z</time>
      </trkpt>
      <trkpt lat="54.748096" lon="8.967860">
        <ele>17.289789</ele>
        <time>2021-07-03T16:14:25.798Z</time>
      </trkpt>
      <trkpt lat="54.748584" lon="8.967293">
        <ele>15.255088</ele>
        <time>2021-07-03T16:15:28.551Z</time>
      </trkpt>
      <trkpt lat="54.748663" lon="8.967258">
        <ele>14.972716</ele>
        <time>2021-07-03T16:15:37.498Z</time>
      </trkpt>
      <trkpt lat="54.748763" lon="8.966931">
        <ele>14.233081</ele>
        <time>2021-07-03T16:16:00.073Z</time>
      </trkpt>
      <trkpt lat="54.748906" lon="8.966382">
        <ele>13.271660</ele>
        <time>2021-07-03T16:16:36.970Z</time>
      </trkpt>
      <trkpt lat="54.748974" lon="8.966152">
        <ele>13.005972</ele>
        <time>2021-07-03T16:16:52.902Z</time>
      </trkpt>
      <trkpt lat="54.749135" lon="8.965505">
        <ele>12.281584</ele>
        <time>2021-07-03T16:17:35.624Z</time>
      </trkpt>
      <trkpt lat="54.749179" lon="8.965308">
        <ele>12.064407</ele>
        <time>2021-07-03T16:17:48.336Z</time>
      </trkpt>
      <trkpt lat="54.749390" lon="8.965514">
        <ele>11.632978</ele>
        <time>2021-07-03T16:18:13.764Z</time>
      </trkpt>
      <trkpt lat="54.749400" lon="8.965447">
        <ele>11.561829</ele>
        <time>2021-07-03T16:18:17.911Z</time>
      </trkpt>
      <trkpt lat="54.749463" lon="8.965503">
        <ele>11.435696</ele>
        <time>2021-07-03T16:18:25.201Z</time>
      </trkpt>
      <trkpt lat="54.749463" lon="8.965419">
        <ele>11.349335</ele>
        <time>2021-07-03T16:18:30.195Z</time>
      </trkpt>
      <trkpt lat="54.749707" lon="8.963540">
        <ele>10.249305</ele>
        <time>2021-07-03T16:20:23.406Z</time>
      </trkpt>
      <trkpt lat="54.749834" lon="8.962515">
        <ele>10.164529</ele>
        <time>2021-07-03T16:21:24.346Z</time>
      </trkpt>
      <trkpt lat="54.749995" lon="8.962559">
        <ele>10.141692</ele>
        <time>2021-07-03T16:21:40.783Z</time>
      </trkpt>
      <trkpt lat="54.750146" lon="8.962544">
        <ele>10.120501</ele>
        <time>2021-07-03T16:21:56.041Z</time>
      </trkpt>
      <trkpt lat="54.750425" lon="8.962330">
        <ele>10.077750</ele>
        <time>2021-07-03T16:22:26.989Z</time>
      </trkpt>
      <trkpt lat="54.750996" lon="8.961976">
        <ele>10.071088</ele>
        <time>2021-07-03T16:23:29.116Z</time>
      </trkpt>
      <trkpt lat="54.751904" lon="8.960670">
        <ele>10.068311</ele>
        <time>2021-07-03T16:25:27.694Z</time>
      </trkpt>
      <trkpt lat="54.752238" lon="8.960191">
        <ele>9.579917</ele>
        <time>2021-07-03T16:26:11.775Z</time>
      </trkpt>
      <trkpt lat="54.752562" lon="8.959925">
        <ele>9.123355</ele>
        <time>2021-07-03T16:26:48.417Z</time>
      </trkpt>
      <trkpt lat="54.752752" lon="8.959738">
        <ele>8.845097</ele>
        <time>2021-07-03T16:27:11.036Z</time>
      </trkpt>
      <trkpt lat="54.752797" lon="8.959666">
        <ele>8.767100</ele>
        <time>2021-07-03T16:27:17.356Z</time>
      </trkpt>
      <trkpt lat="54.753046" lon="8.959352">
        <ele>8.374935</ele>
        <time>2021-07-03T16:27:49.189Z</time>
      </trkpt>
      <trkpt lat="54.753299" lon="8.958971">
        <ele>7.948089</ele>
        <time>2021-07-03T16:28:24.035Z</time>
      </trkpt>
      <trkpt lat="54.753475" lon="8.958662">
        <ele>7.599754</ele>
        <time>2021-07-03T16:28:50.269Z</time>
      </trkpt>
      <trkpt lat="54.753577" lon="8.958567">
        <ele>7.423258</ele>
        <time>2021-07-03T16:29:02.399Z</time>
      </trkpt>
      <trkpt lat="54.753680" lon="8.958531">
        <ele>7.263109</ele>
        <time>2021-07-03T16:29:13.450Z</time>
      </trkpt>
      <trkpt lat="54.753793" lon="8.958536">
        <ele>7.090825</ele>
        <time>2021-07-03T16:29:25.417Z</time>
      </trkpt>
      <trkpt lat="54.754605" lon="8.958951">
        <ele>5.800515</ele>
        <time>2021-07-03T16:30:52.788Z</time>
      </trkpt>
      <trkpt lat="54.754967" lon="8.959174">
        <ele>5.214949</ele>
        <time>2021-07-03T16:31:32.254Z</time>
      </trkpt>
      <trkpt lat="54.755049" lon="8.959252">
        <ele>5.072378</ele>
        <time>2021-07-03T16:31:41.889Z</time>
      </trkpt>
      <trkpt lat="54.755486" lon="8.959481">
        <ele>4.686788</ele>
        <time>2021-07-03T16:32:28.622Z</time>
      </trkpt>
      <trkpt lat="54.757102" lon="8.960313">
        <ele>3.506238</ele>
        <time>2021-07-03T16:35:20.064Z</time>
      </trkpt>
      <trkpt lat="54.758837" lon="8.961272">
        <ele>3.140301</ele>
        <time>2021-07-03T16:38:23.067Z</time>
      </trkpt>
      <trkpt lat="54.760355" lon="8.962111">
        <ele>3.119599</ele>
        <time>2021-07-03T16:41:03.048Z</time>
      </trkpt>
      <trkpt lat="54.759929" lon="8.966934">
        <ele>3.221312</ele>
        <time>2021-07-03T16:45:46.431Z</time>
      </trkpt>
      <trkpt lat="54.760401" lon="8.967620">
        <ele>3.223065</ele>
        <time>2021-07-03T16:46:48.445Z</time>
      </trkpt>
      <trkpt lat="54.760937" lon="8.968185">
        <ele>3.074144</ele>
        <time>2021-07-03T16:47:51.608Z</time>
      </trkpt>
      <trkpt lat="54.761589" lon="8.968593">
        <ele>2.901591</ele>
        <time>2021-07-03T16:49:01.454Z</time>
      </trkpt>
      <trkpt lat="54.762760" lon="8.968872">
        <ele>2.694932</ele>
        <time>2021-07-03T16:51:00.512Z</time>
      </trkpt>
      <trkpt lat="54.764204" lon="8.968872">
        <ele>2.642898</ele>
        <time>2021-07-03T16:53:25.339Z</time>
      </trkpt>
      <trkpt lat="54.764541" lon="8.969055">
        <ele>2.733144</ele>
        <time>2021-07-03T16:54:01.033Z</time>
      </trkpt>
      <trkpt lat="54.764654" lon="8.969147">
        <ele>2.765048</ele>
        <time>2021-07-03T16:54:13.724Z</time>
      </trkpt>
      <trkpt lat="54.764894" lon="8.969489">
        <ele>2.844444</ele>
        <time>2021-07-03T16:54:45.267Z</time>
      </trkpt>
      <trkpt lat="54.765130" lon="8.970085">
        <ele>2.951019</ele>
        <time>2021-07-03T16:55:27.662Z</time>
      </trkpt>
      <trkpt lat="54.765307" lon="8.970598">
        <ele>3.052297</ele>
        <time>2021-07-03T16:56:02.678Z</time>
      </trkpt>
      <trkpt lat="54.765623" lon="8.971268">
        <ele>3.270509</ele>
        <time>2021-07-03T16:56:53.483Z</time>
      </trkpt>
      <trkpt lat="54.765762" lon="8.971480">
        <ele>3.351431</ele>
        <time>2021-07-03T16:57:12.439Z</time>
      </trkpt>
      <trkpt lat="54.765559" lon="8.972938">
        <ele>3.729622</ele>
        <time>2021-07-03T16:58:40.365Z</time>
      </trkpt>
      <trkpt lat="54.764970" lon="8.974807">
        <ele>4.257507</ele>
        <time>2021-07-03T17:00:46.099Z</time>
      </trkpt>
      <trkpt lat="54.764971" lon="8.975090">
        <ele>4.327454</ele>
        <time>2021-07-03T17:01:02.733Z</time>
      </trkpt>
      <trkpt lat="54.764974" lon="8.975710">
        <ele>4.480697</ele>
        <time>2021-07-03T17:01:39.143Z</time>
      </trkpt>
      <trkpt lat="54.764934" lon="8.975853">
        <ele>4.519975</ele>
        <time>2021-07-03T17:01:48.423Z</time>
      </trkpt>
      <trkpt lat="54.764653" lon="8.976355">
        <ele>4.577285</ele>
        <time>2021-07-03T17:02:29.231Z</time>
      </trkpt>
      <trkpt lat="54.764498" lon="8.976633">
        <ele>4.577285</ele>
        <time>2021-07-03T17:02:51.855Z</time>
      </trkpt>
      <trkpt lat="54.764345" lon="8.977040">
        <ele>4.577285</ele>
        <time>2021-07-03T17:03:20.164Z</time>
      </trkpt>
      <trkpt lat="54.764574" lon="8.977222">
        <ele>4.577285</ele>
        <time>2021-07-03T17:03:45.594Z</time>
      </trkpt>
      <trkpt lat="54.764722" lon="8.977295">
        <ele>4.577285</ele>
        <time>2021-07-03T17:04:01.217Z</time>
      </trkpt>
      <trkpt lat="54.764973" lon="8.977339">
        <ele>4.577285</ele>
        <time>2021-07-03T17:04:26.483Z</time>
      </trkpt>
      <trkpt lat="54.764939" lon="8.978076">
        <ele>4.577285</ele>
        <time>2021-07-03T17:05:09.390Z</time>
      </trkpt>
      <trkpt lat="54.764923" lon="8.978269">
        <ele>4.577285</ele>
        <time>2021-07-03T17:05:20.683Z</time>
      </trkpt>
      <trkpt lat="54.764985" lon="8.978532">
        <ele>4.577285</ele>
        <time>2021-07-03T17:05:37.234Z</time>
      </trkpt>
      <trkpt lat="54.765277" lon="8.978763">
        <ele>4.577285</ele>
        <time>2021-07-03T17:06:09.489Z</time>
      </trkpt>
      <trkpt lat="54.765293" lon="8.978820">
        <ele>4.577285</ele>
        <time>2021-07-03T17:06:13.159Z</time>
      </trkpt>
    </trkseg>
  </trk>
</gpx>