<?xml version="1.0" encoding="UTF-8" standalone="yes"?>
<gpx version="1.1" creator="outdooractive - http://www.outdooractive.com" xmlns="http://www.topografix.com/GPX/1/1" xmlns:xsi="http://www.w3.org/2001/XMLSchema-instance" xsi:schemaLocation="http://www.topografix.com/GPX/1/1 http://www.topografix.com/GPX/1/1/gpx.xsd" xmlns:oa="http://www.outdooractive.com/GPX/Extensions/1">
  <metadata>
    <name>IVV PW + GTW &quot;Auf Luthers Spuren - Luther, Drachen, Rosenwunder...&quot;</name>
    <author>
      <name>Werner Wolf - Thüringer Wald</name>
    </author>
    <link href="https://www.outdooractive.com/r/62417948"/>
    <time>2022-11-02T03:37:35.570</time>
    <extensions>
      <oa:oaCategory>hikingTourTrail</oa:oaCategory>
    </extensions>
  </metadata>
  <trk>
    <name>IVV PW + GTW &quot;Auf Luthers Spuren - Luther, Drachen, Rosenwunder...&quot;</name>
    <desc>Die Pummpälz-Wanderung &quot;Luther, Drachen, Rosenwunder...&quot; passt genau in die 500-jährige Jubiläumszeit der Luther-Ereignisse an historischen Wegpunkten</desc>
    <type>hikingTourTrail</type>
    <trkseg>
      <trkpt lat="50.975837" lon="10.325548">
        <ele>218.7</ele>
        <name>50.975872,10.325689</name>
        <extensions>
          <oa:mapZoom>16</oa:mapZoom>
        </extensions>
      </trkpt>
      <trkpt lat="50.975807" lon="10.325567">
        <ele>218.8</ele>
      </trkpt>
      <trkpt lat="50.975635" lon="10.32592">
        <ele>218.7</ele>
      </trkpt>
      <trkpt lat="50.975443" lon="10.325589">
        <ele>219.5</ele>
      </trkpt>
      <trkpt lat="50.975121" lon="10.325125">
        <ele>220.3</ele>
      </trkpt>
      <trkpt lat="50.974964" lon="10.324892">
        <ele>220.5</ele>
      </trkpt>
      <trkpt lat="50.974703" lon="10.324718">
        <ele>220.9</ele>
      </trkpt>
      <trkpt lat="50.974443" lon="10.324545">
        <ele>221.2</ele>
      </trkpt>
      <trkpt lat="50.974281" lon="10.324361">
        <ele>221.0</ele>
      </trkpt>
      <trkpt lat="50.974084" lon="10.323923">
        <ele>220.6</ele>
      </trkpt>
      <trkpt lat="50.974084" lon="10.323923">
        <ele>220.6</ele>
        <name>50.974084,10.323923</name>
        <extensions>
          <oa:mapZoom>16</oa:mapZoom>
        </extensions>
      </trkpt>
      <trkpt lat="50.974061" lon="10.323872">
        <ele>220.5</ele>
      </trkpt>
      <trkpt lat="50.973678" lon="10.323788">
        <ele>221.6</ele>
      </trkpt>
      <trkpt lat="50.973448" lon="10.323674">
        <ele>223.0</ele>
      </trkpt>
      <trkpt lat="50.973218" lon="10.323561">
        <ele>224.7</ele>
      </trkpt>
      <trkpt lat="50.972998" lon="10.323496">
        <ele>226.0</ele>
      </trkpt>
      <trkpt lat="50.972687" lon="10.323441">
        <ele>227.2</ele>
      </trkpt>
      <trkpt lat="50.972275" lon="10.323448">
        <ele>228.5</ele>
      </trkpt>
      <trkpt lat="50.971863" lon="10.323455">
        <ele>229.9</ele>
      </trkpt>
      <trkpt lat="50.971699" lon="10.323479">
        <ele>230.0</ele>
      </trkpt>
      <trkpt lat="50.971355" lon="10.323567">
        <ele>229.4</ele>
      </trkpt>
      <trkpt lat="50.970969" lon="10.323667">
        <ele>228.5</ele>
      </trkpt>
      <trkpt lat="50.970711" lon="10.323681">
        <ele>228.4</ele>
      </trkpt>
      <trkpt lat="50.970373" lon="10.323636">
        <ele>228.9</ele>
      </trkpt>
      <trkpt lat="50.969969" lon="10.323394">
        <ele>230.3</ele>
      </trkpt>
      <trkpt lat="50.969671" lon="10.323127">
        <ele>231.0</ele>
      </trkpt>
      <trkpt lat="50.969373" lon="10.322861">
        <ele>231.8</ele>
      </trkpt>
      <trkpt lat="50.969332" lon="10.32283">
        <ele>232.0</ele>
      </trkpt>
      <trkpt lat="50.969332" lon="10.32283">
        <ele>232.0</ele>
        <name>50.969332,10.322830</name>
        <extensions>
          <oa:mapZoom>16</oa:mapZoom>
        </extensions>
      </trkpt>
      <trkpt lat="50.969037" lon="10.322609">
        <ele>233.3</ele>
      </trkpt>
      <trkpt lat="50.968784" lon="10.322417">
        <ele>234.5</ele>
      </trkpt>
      <trkpt lat="50.96853" lon="10.322225">
        <ele>235.2</ele>
      </trkpt>
      <trkpt lat="50.968199" lon="10.321837">
        <ele>235.7</ele>
      </trkpt>
      <trkpt lat="50.968109" lon="10.321814">
        <ele>235.2</ele>
      </trkpt>
      <trkpt lat="50.968075" lon="10.321821">
        <ele>234.9</ele>
      </trkpt>
      <trkpt lat="50.968039" lon="10.321641">
        <ele>235.4</ele>
      </trkpt>
      <trkpt lat="50.967972" lon="10.321495">
        <ele>235.4</ele>
      </trkpt>
      <trkpt lat="50.967878" lon="10.321354">
        <ele>235.2</ele>
      </trkpt>
      <trkpt lat="50.96771" lon="10.321177">
        <ele>235.1</ele>
      </trkpt>
      <trkpt lat="50.967448" lon="10.320952">
        <ele>235.8</ele>
      </trkpt>
      <trkpt lat="50.967186" lon="10.320727">
        <ele>236.5</ele>
      </trkpt>
      <trkpt lat="50.966921" lon="10.320407">
        <ele>237.4</ele>
      </trkpt>
      <trkpt lat="50.966656" lon="10.320087">
        <ele>237.9</ele>
      </trkpt>
      <trkpt lat="50.966453" lon="10.319828">
        <ele>238.1</ele>
      </trkpt>
      <trkpt lat="50.966269" lon="10.319584">
        <ele>237.7</ele>
      </trkpt>
      <trkpt lat="50.966117" lon="10.319333">
        <ele>237.8</ele>
      </trkpt>
      <trkpt lat="50.965907" lon="10.318903">
        <ele>239.0</ele>
      </trkpt>
      <trkpt lat="50.965905" lon="10.3189">
        <ele>239.0</ele>
      </trkpt>
      <trkpt lat="50.965905" lon="10.3189">
        <ele>239.0</ele>
        <name>50.965905,10.318900</name>
        <extensions>
          <oa:mapZoom>17</oa:mapZoom>
        </extensions>
      </trkpt>
      <trkpt lat="50.965674" lon="10.31842">
        <ele>239.5</ele>
      </trkpt>
      <trkpt lat="50.965442" lon="10.317937">
        <ele>239.0</ele>
      </trkpt>
      <trkpt lat="50.965209" lon="10.317454">
        <ele>240.7</ele>
      </trkpt>
      <trkpt lat="50.964918" lon="10.316914">
        <ele>242.1</ele>
      </trkpt>
      <trkpt lat="50.96468" lon="10.316588">
        <ele>242.2</ele>
      </trkpt>
      <trkpt lat="50.964608" lon="10.316719">
        <ele>241.2</ele>
      </trkpt>
      <trkpt lat="50.964583" lon="10.316737">
        <ele>241.2</ele>
      </trkpt>
      <trkpt lat="50.964538" lon="10.316772">
        <ele>241.7</ele>
      </trkpt>
      <trkpt lat="50.96424" lon="10.316637">
        <ele>245.9</ele>
      </trkpt>
      <trkpt lat="50.963943" lon="10.316502">
        <ele>249.2</ele>
      </trkpt>
      <trkpt lat="50.963889" lon="10.3165">
        <ele>249.8</ele>
      </trkpt>
      <trkpt lat="50.963853" lon="10.316377">
        <ele>248.8</ele>
      </trkpt>
      <trkpt lat="50.963711" lon="10.316278">
        <ele>249.0</ele>
      </trkpt>
      <trkpt lat="50.963488" lon="10.316185">
        <ele>250.3</ele>
      </trkpt>
      <trkpt lat="50.963488" lon="10.316185">
        <ele>250.3</ele>
        <name>50.963488,10.316185</name>
        <extensions>
          <oa:mapZoom>17</oa:mapZoom>
        </extensions>
      </trkpt>
      <trkpt lat="50.963315" lon="10.316113">
        <ele>251.3</ele>
      </trkpt>
      <trkpt lat="50.963016" lon="10.316044">
        <ele>255.2</ele>
      </trkpt>
      <trkpt lat="50.962717" lon="10.315974">
        <ele>258.2</ele>
      </trkpt>
      <trkpt lat="50.962307" lon="10.315842">
        <ele>258.7</ele>
      </trkpt>
      <trkpt lat="50.961898" lon="10.31571">
        <ele>259.1</ele>
      </trkpt>
      <trkpt lat="50.961473" lon="10.315488">
        <ele>257.1</ele>
      </trkpt>
      <trkpt lat="50.96125" lon="10.315344">
        <ele>256.2</ele>
      </trkpt>
      <trkpt lat="50.961026" lon="10.3152">
        <ele>257.5</ele>
      </trkpt>
      <trkpt lat="50.960735" lon="10.314919">
        <ele>257.5</ele>
      </trkpt>
      <trkpt lat="50.960471" lon="10.314547">
        <ele>255.7</ele>
      </trkpt>
      <trkpt lat="50.960359" lon="10.31439">
        <ele>254.6</ele>
      </trkpt>
      <trkpt lat="50.960359" lon="10.31439">
        <ele>254.6</ele>
        <name>50.960359,10.314390</name>
        <extensions>
          <oa:mapZoom>16</oa:mapZoom>
        </extensions>
      </trkpt>
      <trkpt lat="50.960206" lon="10.314175">
        <ele>253.1</ele>
      </trkpt>
      <trkpt lat="50.95997" lon="10.313765">
        <ele>250.9</ele>
      </trkpt>
      <trkpt lat="50.95983" lon="10.31347">
        <ele>249.6</ele>
      </trkpt>
      <trkpt lat="50.959666" lon="10.313204">
        <ele>249.3</ele>
      </trkpt>
      <trkpt lat="50.959366" lon="10.312835">
        <ele>249.9</ele>
      </trkpt>
      <trkpt lat="50.959264" lon="10.312751">
        <ele>250.3</ele>
      </trkpt>
      <trkpt lat="50.959129" lon="10.312535">
        <ele>250.2</ele>
      </trkpt>
      <trkpt lat="50.958764" lon="10.312172">
        <ele>252.2</ele>
      </trkpt>
      <trkpt lat="50.958598" lon="10.31192">
        <ele>253.2</ele>
      </trkpt>
      <trkpt lat="50.958433" lon="10.311668">
        <ele>254.9</ele>
      </trkpt>
      <trkpt lat="50.958124" lon="10.311277">
        <ele>258.4</ele>
      </trkpt>
      <trkpt lat="50.957819" lon="10.311115">
        <ele>262.7</ele>
      </trkpt>
      <trkpt lat="50.957514" lon="10.310954">
        <ele>265.3</ele>
      </trkpt>
      <trkpt lat="50.957208" lon="10.310793">
        <ele>266.5</ele>
      </trkpt>
      <trkpt lat="50.956908" lon="10.310671">
        <ele>267.8</ele>
      </trkpt>
      <trkpt lat="50.956608" lon="10.310549">
        <ele>268.7</ele>
      </trkpt>
      <trkpt lat="50.956324" lon="10.310397">
        <ele>268.7</ele>
      </trkpt>
      <trkpt lat="50.95604" lon="10.310244">
        <ele>268.6</ele>
      </trkpt>
      <trkpt lat="50.955756" lon="10.310092">
        <ele>268.7</ele>
      </trkpt>
      <trkpt lat="50.955355" lon="10.30992">
        <ele>269.8</ele>
      </trkpt>
      <trkpt lat="50.955185" lon="10.309848">
        <ele>270.6</ele>
      </trkpt>
      <trkpt lat="50.955185" lon="10.309848">
        <ele>270.6</ele>
        <name>50.955185,10.309848</name>
        <extensions>
          <oa:mapZoom>17</oa:mapZoom>
        </extensions>
      </trkpt>
      <trkpt lat="50.954953" lon="10.309748">
        <ele>271.6</ele>
      </trkpt>
      <trkpt lat="50.954591" lon="10.309566">
        <ele>273.3</ele>
      </trkpt>
      <trkpt lat="50.954228" lon="10.309384">
        <ele>273.8</ele>
      </trkpt>
      <trkpt lat="50.954124" lon="10.309214">
        <ele>271.6</ele>
      </trkpt>
      <trkpt lat="50.954093" lon="10.309164">
        <ele>271.3</ele>
      </trkpt>
      <trkpt lat="50.953993" lon="10.309014">
        <ele>271.4</ele>
      </trkpt>
      <trkpt lat="50.953914" lon="10.308924">
        <ele>272.4</ele>
      </trkpt>
      <trkpt lat="50.953569" lon="10.308764">
        <ele>278.5</ele>
      </trkpt>
      <trkpt lat="50.953395" lon="10.308644">
        <ele>278.8</ele>
      </trkpt>
      <trkpt lat="50.953163" lon="10.308571">
        <ele>278.8</ele>
      </trkpt>
      <trkpt lat="50.953166" lon="10.308373">
        <ele>275.4</ele>
      </trkpt>
      <trkpt lat="50.953143" lon="10.308228">
        <ele>275.6</ele>
      </trkpt>
      <trkpt lat="50.953143" lon="10.308228">
        <ele>275.6</ele>
        <name>50.953143,10.308228</name>
        <extensions>
          <oa:mapZoom>17</oa:mapZoom>
        </extensions>
      </trkpt>
      <trkpt lat="50.953139" lon="10.308207">
        <ele>275.6</ele>
      </trkpt>
      <trkpt lat="50.953088" lon="10.308084">
        <ele>276.9</ele>
      </trkpt>
      <trkpt lat="50.953041" lon="10.307994">
        <ele>278.3</ele>
      </trkpt>
      <trkpt lat="50.952968" lon="10.308059">
        <ele>277.3</ele>
      </trkpt>
      <trkpt lat="50.952879" lon="10.308074">
        <ele>277.2</ele>
      </trkpt>
      <trkpt lat="50.952587" lon="10.308211">
        <ele>277.0</ele>
      </trkpt>
      <trkpt lat="50.952308" lon="10.308365">
        <ele>277.9</ele>
      </trkpt>
      <trkpt lat="50.952051" lon="10.308595">
        <ele>279.5</ele>
      </trkpt>
      <trkpt lat="50.951934" lon="10.308682">
        <ele>280.6</ele>
      </trkpt>
      <trkpt lat="50.951913" lon="10.308698">
        <ele>280.8</ele>
      </trkpt>
      <trkpt lat="50.951858" lon="10.308726">
        <ele>281.3</ele>
      </trkpt>
      <trkpt lat="50.951789" lon="10.30875">
        <ele>281.8</ele>
      </trkpt>
      <trkpt lat="50.951789" lon="10.30875">
        <ele>281.8</ele>
        <name>50.951789,10.308750</name>
        <extensions>
          <oa:mapZoom>16</oa:mapZoom>
        </extensions>
      </trkpt>
      <trkpt lat="50.951778" lon="10.308754">
        <ele>281.9</ele>
      </trkpt>
      <trkpt lat="50.951628" lon="10.308731">
        <ele>282.7</ele>
      </trkpt>
      <trkpt lat="50.951525" lon="10.308727">
        <ele>283.5</ele>
      </trkpt>
      <trkpt lat="50.951394" lon="10.308701">
        <ele>284.5</ele>
      </trkpt>
      <trkpt lat="50.951252" lon="10.308706">
        <ele>285.4</ele>
      </trkpt>
      <trkpt lat="50.950926" lon="10.308656">
        <ele>287.5</ele>
      </trkpt>
      <trkpt lat="50.950671" lon="10.308677">
        <ele>288.6</ele>
      </trkpt>
      <trkpt lat="50.950317" lon="10.30873">
        <ele>289.9</ele>
      </trkpt>
      <trkpt lat="50.950154" lon="10.308735">
        <ele>290.6</ele>
      </trkpt>
      <trkpt lat="50.94985" lon="10.308722">
        <ele>291.8</ele>
      </trkpt>
      <trkpt lat="50.949714" lon="10.308701">
        <ele>292.2</ele>
      </trkpt>
      <trkpt lat="50.949585" lon="10.308634">
        <ele>292.5</ele>
      </trkpt>
      <trkpt lat="50.949443" lon="10.308526">
        <ele>292.7</ele>
      </trkpt>
      <trkpt lat="50.949363" lon="10.308443">
        <ele>292.7</ele>
      </trkpt>
      <trkpt lat="50.949295" lon="10.308387">
        <ele>292.8</ele>
      </trkpt>
      <trkpt lat="50.949253" lon="10.308284">
        <ele>292.8</ele>
      </trkpt>
      <trkpt lat="50.949253" lon="10.308284">
        <ele>292.8</ele>
        <name>50.949253,10.308284</name>
        <extensions>
          <oa:mapZoom>16</oa:mapZoom>
        </extensions>
      </trkpt>
      <trkpt lat="50.949217" lon="10.308198">
        <ele>292.8</ele>
      </trkpt>
      <trkpt lat="50.949197" lon="10.30816">
        <ele>292.8</ele>
      </trkpt>
      <trkpt lat="50.949087" lon="10.307974">
        <ele>293.0</ele>
      </trkpt>
      <trkpt lat="50.948949" lon="10.307676">
        <ele>293.6</ele>
      </trkpt>
      <trkpt lat="50.94891" lon="10.3076">
        <ele>293.8</ele>
      </trkpt>
      <trkpt lat="50.948677" lon="10.307316">
        <ele>294.4</ele>
      </trkpt>
      <trkpt lat="50.948355" lon="10.306967">
        <ele>295.1</ele>
      </trkpt>
      <trkpt lat="50.948266" lon="10.306871">
        <ele>295.2</ele>
      </trkpt>
      <trkpt lat="50.948116" lon="10.306786">
        <ele>294.5</ele>
      </trkpt>
      <trkpt lat="50.948023" lon="10.306741">
        <ele>294.2</ele>
      </trkpt>
      <trkpt lat="50.947952" lon="10.306741">
        <ele>294.2</ele>
      </trkpt>
      <trkpt lat="50.947683" lon="10.30674">
        <ele>296.8</ele>
      </trkpt>
      <trkpt lat="50.947389" lon="10.30691">
        <ele>300.0</ele>
      </trkpt>
      <trkpt lat="50.947145" lon="10.307086">
        <ele>300.5</ele>
      </trkpt>
      <trkpt lat="50.946901" lon="10.307263">
        <ele>301.2</ele>
      </trkpt>
      <trkpt lat="50.946541" lon="10.307383">
        <ele>303.7</ele>
      </trkpt>
      <trkpt lat="50.946181" lon="10.307503">
        <ele>306.1</ele>
      </trkpt>
      <trkpt lat="50.945942" lon="10.307671">
        <ele>306.7</ele>
      </trkpt>
      <trkpt lat="50.945798" lon="10.307772">
        <ele>307.0</ele>
      </trkpt>
      <trkpt lat="50.945798" lon="10.307772">
        <ele>307.0</ele>
        <name>50.945798,10.307772</name>
        <extensions>
          <oa:mapZoom>17</oa:mapZoom>
        </extensions>
      </trkpt>
      <trkpt lat="50.945703" lon="10.307839">
        <ele>307.1</ele>
      </trkpt>
      <trkpt lat="50.945608" lon="10.307936">
        <ele>307.2</ele>
      </trkpt>
      <trkpt lat="50.945415" lon="10.308131">
        <ele>307.5</ele>
      </trkpt>
      <trkpt lat="50.945285" lon="10.308384">
        <ele>307.6</ele>
      </trkpt>
      <trkpt lat="50.945181" lon="10.308663">
        <ele>307.8</ele>
      </trkpt>
      <trkpt lat="50.945114" lon="10.309232">
        <ele>308.5</ele>
      </trkpt>
      <trkpt lat="50.945024" lon="10.309732">
        <ele>309.6</ele>
      </trkpt>
      <trkpt lat="50.944923" lon="10.310137">
        <ele>310.4</ele>
      </trkpt>
      <trkpt lat="50.944769" lon="10.310575">
        <ele>311.8</ele>
      </trkpt>
      <trkpt lat="50.944553" lon="10.311002">
        <ele>313.9</ele>
      </trkpt>
      <trkpt lat="50.944337" lon="10.311429">
        <ele>315.7</ele>
      </trkpt>
      <trkpt lat="50.944166" lon="10.311627">
        <ele>316.5</ele>
      </trkpt>
      <trkpt lat="50.943943" lon="10.311765">
        <ele>317.7</ele>
      </trkpt>
      <trkpt lat="50.943501" lon="10.311864">
        <ele>321.1</ele>
      </trkpt>
      <trkpt lat="50.943059" lon="10.311962">
        <ele>324.6</ele>
      </trkpt>
      <trkpt lat="50.942617" lon="10.31206">
        <ele>327.4</ele>
      </trkpt>
      <trkpt lat="50.942329" lon="10.31218">
        <ele>329.1</ele>
      </trkpt>
      <trkpt lat="50.942064" lon="10.312394">
        <ele>330.4</ele>
      </trkpt>
      <trkpt lat="50.9418" lon="10.312607">
        <ele>331.3</ele>
      </trkpt>
      <trkpt lat="50.941671" lon="10.312681">
        <ele>331.4</ele>
      </trkpt>
      <trkpt lat="50.941437" lon="10.312783">
        <ele>331.5</ele>
      </trkpt>
      <trkpt lat="50.941363" lon="10.312853">
        <ele>331.4</ele>
      </trkpt>
      <trkpt lat="50.941295" lon="10.312932">
        <ele>331.2</ele>
      </trkpt>
      <trkpt lat="50.940875" lon="10.313141">
        <ele>330.8</ele>
      </trkpt>
      <trkpt lat="50.94075" lon="10.313296">
        <ele>330.8</ele>
      </trkpt>
      <trkpt lat="50.940676" lon="10.313454">
        <ele>331.0</ele>
      </trkpt>
      <trkpt lat="50.940617" lon="10.313738">
        <ele>331.3</ele>
      </trkpt>
      <trkpt lat="50.940583" lon="10.31429">
        <ele>332.9</ele>
      </trkpt>
      <trkpt lat="50.940572" lon="10.314518">
        <ele>334.0</ele>
      </trkpt>
      <trkpt lat="50.940503" lon="10.314933">
        <ele>336.6</ele>
      </trkpt>
      <trkpt lat="50.940372" lon="10.315425">
        <ele>339.6</ele>
      </trkpt>
      <trkpt lat="50.940292" lon="10.315567">
        <ele>340.0</ele>
      </trkpt>
      <trkpt lat="50.940157" lon="10.315695">
        <ele>340.0</ele>
      </trkpt>
      <trkpt lat="50.939835" lon="10.315699">
        <ele>340.0</ele>
      </trkpt>
      <trkpt lat="50.939513" lon="10.315704">
        <ele>340.7</ele>
      </trkpt>
      <trkpt lat="50.939253" lon="10.315946">
        <ele>341.3</ele>
      </trkpt>
      <trkpt lat="50.939075" lon="10.316258">
        <ele>342.4</ele>
      </trkpt>
      <trkpt lat="50.938877" lon="10.316775">
        <ele>345.3</ele>
      </trkpt>
      <trkpt lat="50.938774" lon="10.316909">
        <ele>346.6</ele>
      </trkpt>
      <trkpt lat="50.938491" lon="10.317102">
        <ele>349.6</ele>
      </trkpt>
      <trkpt lat="50.938208" lon="10.317295">
        <ele>353.3</ele>
      </trkpt>
      <trkpt lat="50.937925" lon="10.317488">
        <ele>356.6</ele>
      </trkpt>
      <trkpt lat="50.937818" lon="10.317532">
        <ele>357.8</ele>
      </trkpt>
      <trkpt lat="50.937477" lon="10.317435">
        <ele>360.8</ele>
      </trkpt>
      <trkpt lat="50.937137" lon="10.317339">
        <ele>364.6</ele>
      </trkpt>
      <trkpt lat="50.936796" lon="10.317242">
        <ele>369.1</ele>
      </trkpt>
      <trkpt lat="50.936611" lon="10.317259">
        <ele>371.7</ele>
      </trkpt>
      <trkpt lat="50.93648" lon="10.317364">
        <ele>373.4</ele>
      </trkpt>
      <trkpt lat="50.936409" lon="10.317363">
        <ele>374.6</ele>
      </trkpt>
      <trkpt lat="50.935994" lon="10.31722">
        <ele>381.3</ele>
      </trkpt>
      <trkpt lat="50.93558" lon="10.317078">
        <ele>386.7</ele>
      </trkpt>
      <trkpt lat="50.935206" lon="10.317081">
        <ele>390.7</ele>
      </trkpt>
      <trkpt lat="50.934833" lon="10.317084">
        <ele>394.4</ele>
      </trkpt>
      <trkpt lat="50.93446" lon="10.317087">
        <ele>398.1</ele>
      </trkpt>
      <trkpt lat="50.934256" lon="10.317101">
        <ele>400.2</ele>
      </trkpt>
      <trkpt lat="50.934024" lon="10.317164">
        <ele>402.8</ele>
      </trkpt>
      <trkpt lat="50.933793" lon="10.317226">
        <ele>405.4</ele>
      </trkpt>
      <trkpt lat="50.933493" lon="10.317223">
        <ele>408.5</ele>
      </trkpt>
      <trkpt lat="50.933192" lon="10.317219">
        <ele>411.9</ele>
      </trkpt>
      <trkpt lat="50.932861" lon="10.317295">
        <ele>416.3</ele>
      </trkpt>
      <trkpt lat="50.93253" lon="10.317371">
        <ele>420.4</ele>
      </trkpt>
      <trkpt lat="50.932449" lon="10.317653">
        <ele>422.6</ele>
      </trkpt>
      <trkpt lat="50.932296" lon="10.317916">
        <ele>425.2</ele>
      </trkpt>
      <trkpt lat="50.93216" lon="10.317957">
        <ele>426.4</ele>
      </trkpt>
      <trkpt lat="50.932125" lon="10.317733">
        <ele>425.7</ele>
      </trkpt>
      <trkpt lat="50.932125" lon="10.317733">
        <ele>425.7</ele>
        <name>50.932125,10.317733</name>
        <extensions>
          <oa:mapZoom>17</oa:mapZoom>
        </extensions>
      </trkpt>
      <trkpt lat="50.932103" lon="10.317587">
        <ele>425.2</ele>
      </trkpt>
      <trkpt lat="50.932046" lon="10.317217">
        <ele>424.5</ele>
      </trkpt>
      <trkpt lat="50.932021" lon="10.31695">
        <ele>424.2</ele>
      </trkpt>
      <trkpt lat="50.93204" lon="10.316611">
        <ele>423.6</ele>
      </trkpt>
      <trkpt lat="50.93208" lon="10.316206">
        <ele>422.8</ele>
      </trkpt>
      <trkpt lat="50.93216" lon="10.315848">
        <ele>421.8</ele>
      </trkpt>
      <trkpt lat="50.932247" lon="10.315603">
        <ele>420.9</ele>
      </trkpt>
      <trkpt lat="50.932351" lon="10.315395">
        <ele>419.8</ele>
      </trkpt>
      <trkpt lat="50.932537" lon="10.315189">
        <ele>418.0</ele>
      </trkpt>
      <trkpt lat="50.932723" lon="10.314983">
        <ele>416.6</ele>
      </trkpt>
      <trkpt lat="50.93305" lon="10.314634">
        <ele>415.1</ele>
      </trkpt>
      <trkpt lat="50.933427" lon="10.314289">
        <ele>414.6</ele>
      </trkpt>
      <trkpt lat="50.933666" lon="10.314114">
        <ele>414.5</ele>
      </trkpt>
      <trkpt lat="50.933949" lon="10.313914">
        <ele>413.8</ele>
      </trkpt>
      <trkpt lat="50.934231" lon="10.313715">
        <ele>412.3</ele>
      </trkpt>
      <trkpt lat="50.934334" lon="10.313541">
        <ele>410.8</ele>
      </trkpt>
      <trkpt lat="50.934546" lon="10.313091">
        <ele>406.7</ele>
      </trkpt>
      <trkpt lat="50.934746" lon="10.312597">
        <ele>401.8</ele>
      </trkpt>
      <trkpt lat="50.934947" lon="10.312103">
        <ele>397.9</ele>
      </trkpt>
      <trkpt lat="50.935147" lon="10.311608">
        <ele>395.4</ele>
      </trkpt>
      <trkpt lat="50.935298" lon="10.311236">
        <ele>393.8</ele>
      </trkpt>
      <trkpt lat="50.935298" lon="10.311236">
        <ele>393.8</ele>
        <name>50.935298,10.311236</name>
        <extensions>
          <oa:mapZoom>16</oa:mapZoom>
        </extensions>
      </trkpt>
      <trkpt lat="50.935348" lon="10.311114">
        <ele>393.3</ele>
      </trkpt>
      <trkpt lat="50.935549" lon="10.31062">
        <ele>391.7</ele>
      </trkpt>
      <trkpt lat="50.935495" lon="10.309943">
        <ele>392.3</ele>
      </trkpt>
      <trkpt lat="50.935442" lon="10.309266">
        <ele>392.9</ele>
      </trkpt>
      <trkpt lat="50.935413" lon="10.308896">
        <ele>392.7</ele>
      </trkpt>
      <trkpt lat="50.935383" lon="10.308526">
        <ele>392.4</ele>
      </trkpt>
      <trkpt lat="50.935318" lon="10.30795">
        <ele>391.9</ele>
      </trkpt>
      <trkpt lat="50.935282" lon="10.307431">
        <ele>391.4</ele>
      </trkpt>
      <trkpt lat="50.935246" lon="10.306911">
        <ele>389.5</ele>
      </trkpt>
      <trkpt lat="50.935245" lon="10.306702">
        <ele>388.5</ele>
      </trkpt>
      <trkpt lat="50.935289" lon="10.306422">
        <ele>387.8</ele>
      </trkpt>
      <trkpt lat="50.935405" lon="10.306279">
        <ele>389.2</ele>
      </trkpt>
      <trkpt lat="50.935476" lon="10.306271">
        <ele>390.5</ele>
      </trkpt>
      <trkpt lat="50.935733" lon="10.306404">
        <ele>396.1</ele>
      </trkpt>
      <trkpt lat="50.935795" lon="10.306392">
        <ele>397.1</ele>
      </trkpt>
      <trkpt lat="50.935844" lon="10.306345">
        <ele>397.5</ele>
      </trkpt>
      <trkpt lat="50.935872" lon="10.306258">
        <ele>397.3</ele>
      </trkpt>
      <trkpt lat="50.935958" lon="10.305681">
        <ele>394.0</ele>
      </trkpt>
      <trkpt lat="50.936012" lon="10.305647">
        <ele>394.6</ele>
      </trkpt>
      <trkpt lat="50.936271" lon="10.305683">
        <ele>398.5</ele>
      </trkpt>
      <trkpt lat="50.936381" lon="10.30563">
        <ele>399.6</ele>
      </trkpt>
      <trkpt lat="50.936682" lon="10.305311">
        <ele>402.1</ele>
      </trkpt>
      <trkpt lat="50.936802" lon="10.305136">
        <ele>403.1</ele>
      </trkpt>
      <trkpt lat="50.937032" lon="10.304919">
        <ele>404.8</ele>
      </trkpt>
      <trkpt lat="50.937166" lon="10.304677">
        <ele>405.4</ele>
      </trkpt>
      <trkpt lat="50.937312" lon="10.304052">
        <ele>405.0</ele>
      </trkpt>
      <trkpt lat="50.937459" lon="10.303428">
        <ele>402.5</ele>
      </trkpt>
      <trkpt lat="50.937475" lon="10.303165">
        <ele>401.2</ele>
      </trkpt>
      <trkpt lat="50.937454" lon="10.302804">
        <ele>399.2</ele>
      </trkpt>
      <trkpt lat="50.937458" lon="10.302188">
        <ele>395.7</ele>
      </trkpt>
      <trkpt lat="50.9375" lon="10.301583">
        <ele>394.2</ele>
      </trkpt>
      <trkpt lat="50.937542" lon="10.300978">
        <ele>394.7</ele>
      </trkpt>
      <trkpt lat="50.937566" lon="10.30084">
        <ele>395.1</ele>
      </trkpt>
      <trkpt lat="50.937603" lon="10.300732">
        <ele>395.5</ele>
      </trkpt>
      <trkpt lat="50.938014" lon="10.300512">
        <ele>396.7</ele>
      </trkpt>
      <trkpt lat="50.938041" lon="10.300403">
        <ele>396.9</ele>
      </trkpt>
      <trkpt lat="50.937981" lon="10.29976">
        <ele>398.2</ele>
      </trkpt>
      <trkpt lat="50.937971" lon="10.299361">
        <ele>398.7</ele>
      </trkpt>
      <trkpt lat="50.93796" lon="10.298962">
        <ele>398.8</ele>
      </trkpt>
      <trkpt lat="50.938" lon="10.298714">
        <ele>399.1</ele>
      </trkpt>
      <trkpt lat="50.938063" lon="10.298494">
        <ele>399.6</ele>
      </trkpt>
      <trkpt lat="50.93832" lon="10.298283">
        <ele>401.9</ele>
      </trkpt>
      <trkpt lat="50.938357" lon="10.298193">
        <ele>402.1</ele>
      </trkpt>
      <trkpt lat="50.938402" lon="10.297502">
        <ele>400.5</ele>
      </trkpt>
      <trkpt lat="50.938445" lon="10.297365">
        <ele>400.1</ele>
      </trkpt>
      <trkpt lat="50.938575" lon="10.297181">
        <ele>399.8</ele>
      </trkpt>
      <trkpt lat="50.938575" lon="10.297181">
        <ele>399.8</ele>
        <name>50.938575,10.297181</name>
        <extensions>
          <oa:mapZoom>16</oa:mapZoom>
        </extensions>
      </trkpt>
      <trkpt lat="50.93859" lon="10.29716">
        <ele>399.7</ele>
      </trkpt>
      <trkpt lat="50.938961" lon="10.296935">
        <ele>398.9</ele>
      </trkpt>
      <trkpt lat="50.939048" lon="10.296843">
        <ele>398.3</ele>
      </trkpt>
      <trkpt lat="50.939267" lon="10.296439">
        <ele>396.2</ele>
      </trkpt>
      <trkpt lat="50.939486" lon="10.296035">
        <ele>394.9</ele>
      </trkpt>
      <trkpt lat="50.939705" lon="10.295631">
        <ele>394.7</ele>
      </trkpt>
      <trkpt lat="50.939749" lon="10.295486">
        <ele>394.8</ele>
      </trkpt>
      <trkpt lat="50.939811" lon="10.295235">
        <ele>394.9</ele>
      </trkpt>
      <trkpt lat="50.939911" lon="10.294607">
        <ele>394.9</ele>
      </trkpt>
      <trkpt lat="50.940038" lon="10.294109">
        <ele>393.5</ele>
      </trkpt>
      <trkpt lat="50.940166" lon="10.293611">
        <ele>391.2</ele>
      </trkpt>
      <trkpt lat="50.940155" lon="10.293194">
        <ele>389.9</ele>
      </trkpt>
      <trkpt lat="50.940012" lon="10.292527">
        <ele>387.9</ele>
      </trkpt>
      <trkpt lat="50.93999" lon="10.292321">
        <ele>387.7</ele>
      </trkpt>
      <trkpt lat="50.939997" lon="10.292063">
        <ele>388.2</ele>
      </trkpt>
      <trkpt lat="50.940031" lon="10.291837">
        <ele>389.1</ele>
      </trkpt>
      <trkpt lat="50.940108" lon="10.291561">
        <ele>390.9</ele>
      </trkpt>
      <trkpt lat="50.940231" lon="10.291271">
        <ele>393.4</ele>
      </trkpt>
      <trkpt lat="50.94033" lon="10.29112">
        <ele>395.2</ele>
      </trkpt>
      <trkpt lat="50.940721" lon="10.290827">
        <ele>399.0</ele>
      </trkpt>
      <trkpt lat="50.941112" lon="10.290534">
        <ele>400.4</ele>
      </trkpt>
      <trkpt lat="50.941468" lon="10.290292">
        <ele>399.3</ele>
      </trkpt>
      <trkpt lat="50.941774" lon="10.290145">
        <ele>397.1</ele>
      </trkpt>
      <trkpt lat="50.941996" lon="10.290108">
        <ele>395.3</ele>
      </trkpt>
      <trkpt lat="50.942137" lon="10.290123">
        <ele>394.3</ele>
      </trkpt>
      <trkpt lat="50.942372" lon="10.290189">
        <ele>392.8</ele>
      </trkpt>
      <trkpt lat="50.942607" lon="10.290254">
        <ele>391.0</ele>
      </trkpt>
      <trkpt lat="50.942687" lon="10.290291">
        <ele>390.1</ele>
      </trkpt>
      <trkpt lat="50.942687" lon="10.290291">
        <ele>390.1</ele>
        <name>50.942687,10.290291</name>
        <extensions>
          <oa:mapZoom>16</oa:mapZoom>
        </extensions>
      </trkpt>
      <trkpt lat="50.943013" lon="10.290441">
        <ele>386.6</ele>
      </trkpt>
      <trkpt lat="50.943419" lon="10.290628">
        <ele>381.5</ele>
      </trkpt>
      <trkpt lat="50.943811" lon="10.290909">
        <ele>378.3</ele>
      </trkpt>
      <trkpt lat="50.94395" lon="10.290972">
        <ele>377.9</ele>
      </trkpt>
      <trkpt lat="50.944259" lon="10.291084">
        <ele>378.1</ele>
      </trkpt>
      <trkpt lat="50.944568" lon="10.291197">
        <ele>379.5</ele>
      </trkpt>
      <trkpt lat="50.944808" lon="10.291208">
        <ele>381.2</ele>
      </trkpt>
      <trkpt lat="50.94505" lon="10.291149">
        <ele>383.1</ele>
      </trkpt>
      <trkpt lat="50.945418" lon="10.29124">
        <ele>384.4</ele>
      </trkpt>
      <trkpt lat="50.945585" lon="10.291411">
        <ele>384.2</ele>
      </trkpt>
      <trkpt lat="50.94578" lon="10.291801">
        <ele>382.8</ele>
      </trkpt>
      <trkpt lat="50.945956" lon="10.292346">
        <ele>380.5</ele>
      </trkpt>
      <trkpt lat="50.946167" lon="10.292769">
        <ele>379.3</ele>
      </trkpt>
      <trkpt lat="50.946192" lon="10.292791">
        <ele>379.2</ele>
      </trkpt>
      <trkpt lat="50.946192" lon="10.292791">
        <ele>379.2</ele>
        <name>50.946192,10.292791</name>
        <extensions>
          <oa:mapZoom>16</oa:mapZoom>
        </extensions>
      </trkpt>
      <trkpt lat="50.946338" lon="10.292921">
        <ele>379.0</ele>
      </trkpt>
      <trkpt lat="50.946547" lon="10.293043">
        <ele>378.3</ele>
      </trkpt>
      <trkpt lat="50.946792" lon="10.293319">
        <ele>377.4</ele>
      </trkpt>
      <trkpt lat="50.946971" lon="10.293518">
        <ele>376.3</ele>
      </trkpt>
      <trkpt lat="50.94729" lon="10.293943">
        <ele>374.0</ele>
      </trkpt>
      <trkpt lat="50.947608" lon="10.294369">
        <ele>371.0</ele>
      </trkpt>
      <trkpt lat="50.947867" lon="10.2948">
        <ele>368.8</ele>
      </trkpt>
      <trkpt lat="50.948053" lon="10.295152">
        <ele>367.9</ele>
      </trkpt>
      <trkpt lat="50.948224" lon="10.295573">
        <ele>368.3</ele>
      </trkpt>
      <trkpt lat="50.948395" lon="10.295994">
        <ele>370.2</ele>
      </trkpt>
      <trkpt lat="50.948491" lon="10.296508">
        <ele>372.8</ele>
      </trkpt>
      <trkpt lat="50.948626" lon="10.296921">
        <ele>374.3</ele>
      </trkpt>
      <trkpt lat="50.948716" lon="10.297049">
        <ele>375.1</ele>
      </trkpt>
      <trkpt lat="50.948981" lon="10.29708">
        <ele>377.9</ele>
      </trkpt>
      <trkpt lat="50.949047" lon="10.297173">
        <ele>378.5</ele>
      </trkpt>
      <trkpt lat="50.9491" lon="10.297601">
        <ele>377.9</ele>
      </trkpt>
      <trkpt lat="50.9491" lon="10.297601">
        <ele>377.9</ele>
        <name>50.949100,10.297601</name>
        <extensions>
          <oa:mapZoom>16</oa:mapZoom>
        </extensions>
      </trkpt>
      <trkpt lat="50.949129" lon="10.297837">
        <ele>377.6</ele>
      </trkpt>
      <trkpt lat="50.949136" lon="10.298427">
        <ele>375.0</ele>
      </trkpt>
      <trkpt lat="50.949275" lon="10.299102">
        <ele>372.9</ele>
      </trkpt>
      <trkpt lat="50.949402" lon="10.29955">
        <ele>370.8</ele>
      </trkpt>
      <trkpt lat="50.94953" lon="10.299998">
        <ele>368.6</ele>
      </trkpt>
      <trkpt lat="50.949645" lon="10.300329">
        <ele>367.1</ele>
      </trkpt>
      <trkpt lat="50.949761" lon="10.30066">
        <ele>365.6</ele>
      </trkpt>
      <trkpt lat="50.949997" lon="10.301216">
        <ele>363.6</ele>
      </trkpt>
      <trkpt lat="50.950233" lon="10.301772">
        <ele>361.7</ele>
      </trkpt>
      <trkpt lat="50.950567" lon="10.302115">
        <ele>361.3</ele>
      </trkpt>
      <trkpt lat="50.950744" lon="10.302296">
        <ele>360.5</ele>
      </trkpt>
      <trkpt lat="50.950744" lon="10.302296">
        <ele>360.5</ele>
        <name>50.950744,10.302296</name>
        <extensions>
          <oa:mapZoom>16</oa:mapZoom>
        </extensions>
      </trkpt>
      <trkpt lat="50.950902" lon="10.302458">
        <ele>359.8</ele>
      </trkpt>
      <trkpt lat="50.951117" lon="10.302594">
        <ele>358.7</ele>
      </trkpt>
      <trkpt lat="50.951332" lon="10.302731">
        <ele>357.3</ele>
      </trkpt>
      <trkpt lat="50.951574" lon="10.302792">
        <ele>356.1</ele>
      </trkpt>
      <trkpt lat="50.951721" lon="10.303001">
        <ele>354.2</ele>
      </trkpt>
      <trkpt lat="50.951924" lon="10.303446">
        <ele>350.3</ele>
      </trkpt>
      <trkpt lat="50.952084" lon="10.303755">
        <ele>347.2</ele>
      </trkpt>
      <trkpt lat="50.952244" lon="10.304064">
        <ele>343.7</ele>
      </trkpt>
      <trkpt lat="50.952364" lon="10.304222">
        <ele>341.5</ele>
      </trkpt>
      <trkpt lat="50.952622" lon="10.304299">
        <ele>338.9</ele>
      </trkpt>
      <trkpt lat="50.952933" lon="10.304334">
        <ele>336.4</ele>
      </trkpt>
      <trkpt lat="50.953243" lon="10.30437">
        <ele>334.4</ele>
      </trkpt>
      <trkpt lat="50.953567" lon="10.304348">
        <ele>333.4</ele>
      </trkpt>
      <trkpt lat="50.954" lon="10.304363">
        <ele>332.4</ele>
      </trkpt>
      <trkpt lat="50.954433" lon="10.304377">
        <ele>331.7</ele>
      </trkpt>
      <trkpt lat="50.95472" lon="10.304439">
        <ele>330.8</ele>
      </trkpt>
      <trkpt lat="50.954945" lon="10.304487">
        <ele>329.8</ele>
      </trkpt>
      <trkpt lat="50.954945" lon="10.304487">
        <ele>329.8</ele>
        <name>50.954945,10.304487</name>
        <extensions>
          <oa:mapZoom>16</oa:mapZoom>
        </extensions>
      </trkpt>
      <trkpt lat="50.955006" lon="10.3045">
        <ele>329.6</ele>
      </trkpt>
      <trkpt lat="50.955213" lon="10.304447">
        <ele>329.1</ele>
      </trkpt>
      <trkpt lat="50.955472" lon="10.304619">
        <ele>327.8</ele>
      </trkpt>
      <trkpt lat="50.955708" lon="10.30467">
        <ele>327.5</ele>
      </trkpt>
      <trkpt lat="50.956102" lon="10.304876">
        <ele>328.2</ele>
      </trkpt>
      <trkpt lat="50.956318" lon="10.304778">
        <ele>328.7</ele>
      </trkpt>
      <trkpt lat="50.956535" lon="10.30468">
        <ele>329.3</ele>
      </trkpt>
      <trkpt lat="50.956899" lon="10.304657">
        <ele>331.3</ele>
      </trkpt>
      <trkpt lat="50.957263" lon="10.304635">
        <ele>334.2</ele>
      </trkpt>
      <trkpt lat="50.957627" lon="10.304613">
        <ele>337.6</ele>
      </trkpt>
      <trkpt lat="50.957991" lon="10.304591">
        <ele>340.9</ele>
      </trkpt>
      <trkpt lat="50.958355" lon="10.304569">
        <ele>343.9</ele>
      </trkpt>
      <trkpt lat="50.958591" lon="10.304578">
        <ele>345.9</ele>
      </trkpt>
      <trkpt lat="50.958591" lon="10.304578">
        <ele>345.9</ele>
        <name>50.958591,10.304578</name>
        <extensions>
          <oa:mapZoom>16</oa:mapZoom>
        </extensions>
      </trkpt>
      <trkpt lat="50.958786" lon="10.304585">
        <ele>347.6</ele>
      </trkpt>
      <trkpt lat="50.959217" lon="10.304602">
        <ele>351.0</ele>
      </trkpt>
      <trkpt lat="50.959649" lon="10.304619">
        <ele>354.7</ele>
      </trkpt>
      <trkpt lat="50.96008" lon="10.304636">
        <ele>358.6</ele>
      </trkpt>
      <trkpt lat="50.960404" lon="10.304664">
        <ele>361.9</ele>
      </trkpt>
      <trkpt lat="50.960729" lon="10.304693">
        <ele>365.3</ele>
      </trkpt>
      <trkpt lat="50.960988" lon="10.304655">
        <ele>366.4</ele>
      </trkpt>
      <trkpt lat="50.961247" lon="10.304617">
        <ele>366.1</ele>
      </trkpt>
      <trkpt lat="50.961369" lon="10.304629">
        <ele>366.2</ele>
      </trkpt>
      <trkpt lat="50.961455" lon="10.304687">
        <ele>367.5</ele>
      </trkpt>
      <trkpt lat="50.961741" lon="10.305013">
        <ele>373.2</ele>
      </trkpt>
      <trkpt lat="50.962115" lon="10.305171">
        <ele>369.7</ele>
      </trkpt>
      <trkpt lat="50.962207" lon="10.305243">
        <ele>368.4</ele>
      </trkpt>
      <trkpt lat="50.96231" lon="10.305388">
        <ele>367.0</ele>
      </trkpt>
      <trkpt lat="50.962303" lon="10.305781">
        <ele>369.3</ele>
      </trkpt>
      <trkpt lat="50.962296" lon="10.306174">
        <ele>369.6</ele>
      </trkpt>
      <trkpt lat="50.962318" lon="10.306575">
        <ele>369.2</ele>
      </trkpt>
      <trkpt lat="50.962393" lon="10.306857">
        <ele>367.6</ele>
      </trkpt>
      <trkpt lat="50.962495" lon="10.307251">
        <ele>368.7</ele>
      </trkpt>
      <trkpt lat="50.962596" lon="10.307644">
        <ele>372.0</ele>
      </trkpt>
      <trkpt lat="50.962614" lon="10.307674">
        <ele>372.0</ele>
      </trkpt>
      <trkpt lat="50.962614" lon="10.307674">
        <ele>372.0</ele>
        <name>50.962614,10.307674</name>
        <extensions>
          <oa:mapZoom>16</oa:mapZoom>
        </extensions>
      </trkpt>
      <trkpt lat="50.96264" lon="10.307717">
        <ele>372.1</ele>
      </trkpt>
      <trkpt lat="50.962898" lon="10.30771">
        <ele>367.5</ele>
      </trkpt>
      <trkpt lat="50.963158" lon="10.307569">
        <ele>361.8</ele>
      </trkpt>
      <trkpt lat="50.963417" lon="10.307428">
        <ele>356.7</ele>
      </trkpt>
      <trkpt lat="50.963655" lon="10.307299">
        <ele>353.1</ele>
      </trkpt>
      <trkpt lat="50.963998" lon="10.307251">
        <ele>351.1</ele>
      </trkpt>
      <trkpt lat="50.96434" lon="10.307203">
        <ele>352.2</ele>
      </trkpt>
      <trkpt lat="50.96458" lon="10.307334">
        <ele>352.0</ele>
      </trkpt>
      <trkpt lat="50.964617" lon="10.307347">
        <ele>351.9</ele>
      </trkpt>
      <trkpt lat="50.964617" lon="10.307347">
        <ele>351.9</ele>
        <name>50.964617,10.307347</name>
        <extensions>
          <oa:mapZoom>16</oa:mapZoom>
        </extensions>
      </trkpt>
      <trkpt lat="50.964944" lon="10.307461">
        <ele>351.6</ele>
      </trkpt>
      <trkpt lat="50.965106" lon="10.307393">
        <ele>355.1</ele>
      </trkpt>
      <trkpt lat="50.965326" lon="10.307279">
        <ele>361.2</ele>
      </trkpt>
      <trkpt lat="50.965546" lon="10.307164">
        <ele>368.1</ele>
      </trkpt>
      <trkpt lat="50.965662" lon="10.307167">
        <ele>370.1</ele>
      </trkpt>
      <trkpt lat="50.965937" lon="10.307001">
        <ele>380.1</ele>
      </trkpt>
      <trkpt lat="50.96609" lon="10.306962">
        <ele>383.9</ele>
      </trkpt>
      <trkpt lat="50.966294" lon="10.307158">
        <ele>385.3</ele>
      </trkpt>
      <trkpt lat="50.966315" lon="10.307136">
        <ele>386.0</ele>
      </trkpt>
      <trkpt lat="50.966247" lon="10.306827">
        <ele>388.2</ele>
      </trkpt>
      <trkpt lat="50.966264" lon="10.306813">
        <ele>388.5</ele>
      </trkpt>
      <trkpt lat="50.966439" lon="10.307078">
        <ele>387.9</ele>
      </trkpt>
      <trkpt lat="50.966464" lon="10.307057">
        <ele>388.2</ele>
      </trkpt>
      <trkpt lat="50.966434" lon="10.306767">
        <ele>390.0</ele>
      </trkpt>
      <trkpt lat="50.966477" lon="10.306758">
        <ele>390.0</ele>
      </trkpt>
      <trkpt lat="50.966505" lon="10.306835">
        <ele>389.4</ele>
      </trkpt>
      <trkpt lat="50.966505" lon="10.306835">
        <ele>389.4</ele>
        <name>50.966505,10.306835</name>
        <extensions>
          <oa:mapZoom>16</oa:mapZoom>
        </extensions>
      </trkpt>
      <trkpt lat="50.966543" lon="10.306939">
        <ele>388.7</ele>
      </trkpt>
      <trkpt lat="50.966569" lon="10.306938">
        <ele>388.5</ele>
      </trkpt>
      <trkpt lat="50.966609" lon="10.306719">
        <ele>389.0</ele>
      </trkpt>
      <trkpt lat="50.966745" lon="10.306609">
        <ele>386.7</ele>
      </trkpt>
      <trkpt lat="50.966779" lon="10.306814">
        <ele>385.0</ele>
      </trkpt>
      <trkpt lat="50.966679" lon="10.307495">
        <ele>383.8</ele>
      </trkpt>
      <trkpt lat="50.966663" lon="10.30761">
        <ele>383.3</ele>
      </trkpt>
      <trkpt lat="50.966614" lon="10.307865">
        <ele>381.6</ele>
      </trkpt>
      <trkpt lat="50.966598" lon="10.308226">
        <ele>377.5</ele>
      </trkpt>
      <trkpt lat="50.966556" lon="10.308393">
        <ele>374.8</ele>
      </trkpt>
      <trkpt lat="50.966537" lon="10.308516">
        <ele>372.5</ele>
      </trkpt>
      <trkpt lat="50.96658" lon="10.308739">
        <ele>368.6</ele>
      </trkpt>
      <trkpt lat="50.96655" lon="10.308738">
        <ele>368.2</ele>
      </trkpt>
      <trkpt lat="50.96655" lon="10.308738">
        <ele>368.2</ele>
        <name>50.966550,10.308738</name>
        <extensions>
          <oa:mapZoom>16</oa:mapZoom>
        </extensions>
      </trkpt>
      <trkpt lat="50.96658" lon="10.308739">
        <ele>368.6</ele>
      </trkpt>
      <trkpt lat="50.966639" lon="10.308815">
        <ele>367.7</ele>
      </trkpt>
      <trkpt lat="50.966693" lon="10.308793">
        <ele>368.3</ele>
      </trkpt>
      <trkpt lat="50.966736" lon="10.308708">
        <ele>369.7</ele>
      </trkpt>
      <trkpt lat="50.96677" lon="10.308455">
        <ele>373.2</ele>
      </trkpt>
      <trkpt lat="50.966943" lon="10.307838">
        <ele>374.5</ele>
      </trkpt>
      <trkpt lat="50.967157" lon="10.307439">
        <ele>366.9</ele>
      </trkpt>
      <trkpt lat="50.967372" lon="10.307041">
        <ele>360.9</ele>
      </trkpt>
      <trkpt lat="50.967435" lon="10.306968">
        <ele>359.9</ele>
      </trkpt>
      <trkpt lat="50.967744" lon="10.307245">
        <ele>349.1</ele>
      </trkpt>
      <trkpt lat="50.967972" lon="10.307289">
        <ele>343.9</ele>
      </trkpt>
      <trkpt lat="50.968035" lon="10.307287">
        <ele>342.7</ele>
      </trkpt>
      <trkpt lat="50.968035" lon="10.307287">
        <ele>342.7</ele>
        <name>50.968035,10.307287</name>
        <extensions>
          <oa:mapZoom>16</oa:mapZoom>
        </extensions>
      </trkpt>
      <trkpt lat="50.968209" lon="10.307281">
        <ele>339.3</ele>
      </trkpt>
      <trkpt lat="50.968445" lon="10.307273">
        <ele>335.2</ele>
      </trkpt>
      <trkpt lat="50.968661" lon="10.30725">
        <ele>332.6</ele>
      </trkpt>
      <trkpt lat="50.968661" lon="10.30735">
        <ele>332.1</ele>
      </trkpt>
      <trkpt lat="50.968775" lon="10.307385">
        <ele>331.5</ele>
      </trkpt>
      <trkpt lat="50.968862" lon="10.307411">
        <ele>331.6</ele>
      </trkpt>
      <trkpt lat="50.969143" lon="10.307773">
        <ele>334.1</ele>
      </trkpt>
      <trkpt lat="50.969256" lon="10.308014">
        <ele>335.4</ele>
      </trkpt>
      <trkpt lat="50.969392" lon="10.308459">
        <ele>335.3</ele>
      </trkpt>
      <trkpt lat="50.969529" lon="10.308903">
        <ele>334.3</ele>
      </trkpt>
      <trkpt lat="50.969666" lon="10.309348">
        <ele>332.6</ele>
      </trkpt>
      <trkpt lat="50.969815" lon="10.309656">
        <ele>332.4</ele>
      </trkpt>
      <trkpt lat="50.969964" lon="10.309963">
        <ele>331.9</ele>
      </trkpt>
      <trkpt lat="50.970094" lon="10.310167">
        <ele>331.4</ele>
      </trkpt>
      <trkpt lat="50.970171" lon="10.310287">
        <ele>330.8</ele>
      </trkpt>
      <trkpt lat="50.970437" lon="10.310688">
        <ele>327.0</ele>
      </trkpt>
      <trkpt lat="50.970661" lon="10.311143">
        <ele>320.1</ele>
      </trkpt>
      <trkpt lat="50.970885" lon="10.311599">
        <ele>311.1</ele>
      </trkpt>
      <trkpt lat="50.971109" lon="10.312055">
        <ele>299.6</ele>
      </trkpt>
      <trkpt lat="50.97128" lon="10.312435">
        <ele>289.1</ele>
      </trkpt>
      <trkpt lat="50.971327" lon="10.312542">
        <ele>286.9</ele>
      </trkpt>
      <trkpt lat="50.971327" lon="10.312542">
        <ele>286.9</ele>
        <name>50.971327,10.312542</name>
        <extensions>
          <oa:mapZoom>16</oa:mapZoom>
        </extensions>
      </trkpt>
      <trkpt lat="50.97145" lon="10.312816">
        <ele>281.1</ele>
      </trkpt>
      <trkpt lat="50.971634" lon="10.313173">
        <ele>274.3</ele>
      </trkpt>
      <trkpt lat="50.971819" lon="10.313529">
        <ele>268.9</ele>
      </trkpt>
      <trkpt lat="50.972117" lon="10.31392">
        <ele>262.4</ele>
      </trkpt>
      <trkpt lat="50.972416" lon="10.314311">
        <ele>256.8</ele>
      </trkpt>
      <trkpt lat="50.972698" lon="10.314648">
        <ele>251.7</ele>
      </trkpt>
      <trkpt lat="50.972979" lon="10.314985">
        <ele>247.6</ele>
      </trkpt>
      <trkpt lat="50.973261" lon="10.315322">
        <ele>244.0</ele>
      </trkpt>
      <trkpt lat="50.973543" lon="10.315659">
        <ele>239.9</ele>
      </trkpt>
      <trkpt lat="50.973714" lon="10.315974">
        <ele>236.6</ele>
      </trkpt>
      <trkpt lat="50.973843" lon="10.316359">
        <ele>232.9</ele>
      </trkpt>
      <trkpt lat="50.973908" lon="10.316503">
        <ele>231.0</ele>
      </trkpt>
      <trkpt lat="50.973986" lon="10.316657">
        <ele>229.2</ele>
      </trkpt>
      <trkpt lat="50.974219" lon="10.31687">
        <ele>226.6</ele>
      </trkpt>
      <trkpt lat="50.974459" lon="10.317006">
        <ele>225.4</ele>
      </trkpt>
      <trkpt lat="50.974501" lon="10.317021">
        <ele>225.2</ele>
      </trkpt>
      <trkpt lat="50.974501" lon="10.317021">
        <ele>225.2</ele>
        <name>50.974501,10.317021</name>
        <extensions>
          <oa:mapZoom>16</oa:mapZoom>
        </extensions>
      </trkpt>
      <trkpt lat="50.974806" lon="10.317126">
        <ele>223.5</ele>
      </trkpt>
      <trkpt lat="50.974676" lon="10.317688">
        <ele>224.5</ele>
      </trkpt>
      <trkpt lat="50.974546" lon="10.31825">
        <ele>226.0</ele>
      </trkpt>
      <trkpt lat="50.974439" lon="10.31861">
        <ele>225.9</ele>
      </trkpt>
      <trkpt lat="50.974402" lon="10.318746">
        <ele>225.4</ele>
      </trkpt>
      <trkpt lat="50.974369" lon="10.318852">
        <ele>225.3</ele>
      </trkpt>
      <trkpt lat="50.974369" lon="10.318852">
        <ele>225.3</ele>
        <name>50.974369,10.318852</name>
        <extensions>
          <oa:mapZoom>16</oa:mapZoom>
        </extensions>
      </trkpt>
      <trkpt lat="50.974273" lon="10.319163">
        <ele>225.3</ele>
      </trkpt>
      <trkpt lat="50.974238" lon="10.319424">
        <ele>225.6</ele>
      </trkpt>
      <trkpt lat="50.974203" lon="10.319998">
        <ele>224.8</ele>
      </trkpt>
      <trkpt lat="50.97424" lon="10.320199">
        <ele>224.4</ele>
      </trkpt>
      <trkpt lat="50.974369" lon="10.320269">
        <ele>223.5</ele>
      </trkpt>
      <trkpt lat="50.974595" lon="10.320312">
        <ele>222.4</ele>
      </trkpt>
      <trkpt lat="50.974894" lon="10.320277">
        <ele>221.9</ele>
      </trkpt>
      <trkpt lat="50.975032" lon="10.320358">
        <ele>221.7</ele>
      </trkpt>
      <trkpt lat="50.975038" lon="10.320941">
        <ele>221.2</ele>
      </trkpt>
      <trkpt lat="50.975031" lon="10.321233">
        <ele>221.0</ele>
      </trkpt>
      <trkpt lat="50.975031" lon="10.321233">
        <ele>221.0</ele>
        <name>50.975031,10.321233</name>
        <extensions>
          <oa:mapZoom>16</oa:mapZoom>
        </extensions>
      </trkpt>
      <trkpt lat="50.975024" lon="10.321572">
        <ele>220.7</ele>
      </trkpt>
      <trkpt lat="50.97501" lon="10.322204">
        <ele>220.1</ele>
      </trkpt>
      <trkpt lat="50.975003" lon="10.322518">
        <ele>219.7</ele>
      </trkpt>
      <trkpt lat="50.975003" lon="10.322518">
        <ele>219.7</ele>
        <name>50.975003,10.322518</name>
        <extensions>
          <oa:mapZoom>16</oa:mapZoom>
        </extensions>
      </trkpt>
      <trkpt lat="50.974996" lon="10.322835">
        <ele>219.4</ele>
      </trkpt>
      <trkpt lat="50.974982" lon="10.323467">
        <ele>219.1</ele>
      </trkpt>
      <trkpt lat="50.974976" lon="10.323942">
        <ele>219.3</ele>
      </trkpt>
      <trkpt lat="50.974974" lon="10.324104">
        <ele>219.5</ele>
      </trkpt>
      <trkpt lat="50.974974" lon="10.324104">
        <ele>219.5</ele>
        <name>50.974974,10.324104</name>
        <extensions>
          <oa:mapZoom>16</oa:mapZoom>
        </extensions>
      </trkpt>
      <trkpt lat="50.97497" lon="10.324417">
        <ele>219.9</ele>
      </trkpt>
      <trkpt lat="50.974964" lon="10.324892">
        <ele>220.5</ele>
      </trkpt>
      <trkpt lat="50.975121" lon="10.325125">
        <ele>220.3</ele>
      </trkpt>
      <trkpt lat="50.975443" lon="10.325589">
        <ele>219.5</ele>
      </trkpt>
      <trkpt lat="50.975635" lon="10.32592">
        <ele>218.7</ele>
      </trkpt>
      <trkpt lat="50.975807" lon="10.325567">
        <ele>218.8</ele>
      </trkpt>
      <trkpt lat="50.97583" lon="10.325345">
        <ele>218.9</ele>
        <name>50.975830,10.325345</name>
        <extensions>
          <oa:mapZoom>16</oa:mapZoom>
        </extensions>
      </trkpt>
    </trkseg>
  </trk>
</gpx>