<?xml version="1.0" encoding="UTF-8" standalone="yes"?>
<gpx version="1.1" creator="outdooractive - http://www.outdooractive.com" xmlns="http://www.topografix.com/GPX/1/1" xmlns:xsi="http://www.w3.org/2001/XMLSchema-instance" xsi:schemaLocation="http://www.topografix.com/GPX/1/1 http://www.topografix.com/GPX/1/1/gpx.xsd" xmlns:oa="http://www.outdooractive.com/GPX/Extensions/1">
  <metadata>
    <name>IVV PW + GTW &quot;Auf Luthers Spuren - Luther, Drachen, Landgrafen, Rosenwunder...&quot;</name>
    <author>
      <name>Werner Wolf - Thüringer Wald</name>
    </author>
    <link href="https://www.outdooractive.com/r/67801866"/>
    <time>2022-11-02T03:45:27.902</time>
    <extensions>
      <oa:oaCategory>hikingTourTrail</oa:oaCategory>
    </extensions>
  </metadata>
  <trk>
    <name>IVV PW + GTW &quot;Auf Luthers Spuren - Luther, Drachen, Landgrafen, Rosenwunder...&quot;</name>
    <desc>Mit dieser Wartburg-Tour wird auf dem Hinweg zur Hohen Sonne die Drachenschlucht und anschließend die Landgrafenschlucht durchwandert oder umgekehrt.</desc>
    <type>hikingTourTrail</type>
    <trkseg>
      <trkpt lat="50.975724" lon="10.325738">
        <ele>218.7</ele>
        <name>50.975724,10.325738</name>
        <extensions>
          <oa:mapZoom>16</oa:mapZoom>
        </extensions>
      </trkpt>
      <trkpt lat="50.97564" lon="10.325911">
        <ele>218.7</ele>
      </trkpt>
      <trkpt lat="50.97564" lon="10.325911">
        <ele>218.7</ele>
        <name>50.975640,10.325911</name>
        <extensions>
          <oa:mapZoom>17</oa:mapZoom>
        </extensions>
      </trkpt>
      <trkpt lat="50.975635" lon="10.32592">
        <ele>218.7</ele>
      </trkpt>
      <trkpt lat="50.975443" lon="10.325589">
        <ele>219.5</ele>
      </trkpt>
      <trkpt lat="50.975121" lon="10.325125">
        <ele>220.3</ele>
      </trkpt>
      <trkpt lat="50.974967" lon="10.324896">
        <ele>220.5</ele>
      </trkpt>
      <trkpt lat="50.974967" lon="10.324896">
        <ele>220.5</ele>
        <name>50.974967,10.324896</name>
        <extensions>
          <oa:mapZoom>17</oa:mapZoom>
        </extensions>
      </trkpt>
      <trkpt lat="50.974964" lon="10.324892">
        <ele>220.5</ele>
      </trkpt>
      <trkpt lat="50.974703" lon="10.324718">
        <ele>220.9</ele>
      </trkpt>
      <trkpt lat="50.974443" lon="10.324545">
        <ele>221.2</ele>
      </trkpt>
      <trkpt lat="50.974281" lon="10.324361">
        <ele>221.0</ele>
      </trkpt>
      <trkpt lat="50.974061" lon="10.323872">
        <ele>220.5</ele>
      </trkpt>
      <trkpt lat="50.973898" lon="10.323836">
        <ele>221.0</ele>
      </trkpt>
      <trkpt lat="50.973898" lon="10.323836">
        <ele>221.0</ele>
        <name>50.973898,10.323836</name>
        <extensions>
          <oa:mapZoom>17</oa:mapZoom>
        </extensions>
      </trkpt>
      <trkpt lat="50.973678" lon="10.323788">
        <ele>221.6</ele>
      </trkpt>
      <trkpt lat="50.973448" lon="10.323674">
        <ele>223.0</ele>
      </trkpt>
      <trkpt lat="50.973218" lon="10.323561">
        <ele>224.7</ele>
      </trkpt>
      <trkpt lat="50.972998" lon="10.323496">
        <ele>226.0</ele>
      </trkpt>
      <trkpt lat="50.972687" lon="10.323441">
        <ele>227.2</ele>
      </trkpt>
      <trkpt lat="50.972275" lon="10.323448">
        <ele>228.5</ele>
      </trkpt>
      <trkpt lat="50.971863" lon="10.323455">
        <ele>229.9</ele>
      </trkpt>
      <trkpt lat="50.971699" lon="10.323479">
        <ele>230.0</ele>
      </trkpt>
      <trkpt lat="50.971355" lon="10.323567">
        <ele>229.4</ele>
      </trkpt>
      <trkpt lat="50.970932" lon="10.323657">
        <ele>228.5</ele>
      </trkpt>
      <trkpt lat="50.970711" lon="10.323681">
        <ele>228.4</ele>
      </trkpt>
      <trkpt lat="50.970373" lon="10.323636">
        <ele>228.9</ele>
      </trkpt>
      <trkpt lat="50.970296" lon="10.323591">
        <ele>229.1</ele>
      </trkpt>
      <trkpt lat="50.970296" lon="10.323591">
        <ele>229.1</ele>
        <name>50.970296,10.323591</name>
        <extensions>
          <oa:mapZoom>17</oa:mapZoom>
        </extensions>
      </trkpt>
      <trkpt lat="50.97016" lon="10.323512">
        <ele>229.6</ele>
      </trkpt>
      <trkpt lat="50.969946" lon="10.323388">
        <ele>230.3</ele>
      </trkpt>
      <trkpt lat="50.969659" lon="10.323124">
        <ele>231.0</ele>
      </trkpt>
      <trkpt lat="50.969373" lon="10.322861">
        <ele>231.8</ele>
      </trkpt>
      <trkpt lat="50.969037" lon="10.322609">
        <ele>233.3</ele>
      </trkpt>
      <trkpt lat="50.968784" lon="10.322417">
        <ele>234.5</ele>
      </trkpt>
      <trkpt lat="50.96853" lon="10.322225">
        <ele>235.2</ele>
      </trkpt>
      <trkpt lat="50.968199" lon="10.321837">
        <ele>235.7</ele>
      </trkpt>
      <trkpt lat="50.968109" lon="10.321814">
        <ele>235.2</ele>
      </trkpt>
      <trkpt lat="50.968075" lon="10.321821">
        <ele>234.9</ele>
      </trkpt>
      <trkpt lat="50.968039" lon="10.321641">
        <ele>235.4</ele>
      </trkpt>
      <trkpt lat="50.967972" lon="10.321495">
        <ele>235.4</ele>
      </trkpt>
      <trkpt lat="50.967878" lon="10.321354">
        <ele>235.2</ele>
      </trkpt>
      <trkpt lat="50.96771" lon="10.321177">
        <ele>235.1</ele>
      </trkpt>
      <trkpt lat="50.967448" lon="10.320952">
        <ele>235.8</ele>
      </trkpt>
      <trkpt lat="50.967221" lon="10.320757">
        <ele>236.4</ele>
      </trkpt>
      <trkpt lat="50.967221" lon="10.320757">
        <ele>236.4</ele>
        <name>50.967221,10.320757</name>
        <extensions>
          <oa:mapZoom>17</oa:mapZoom>
        </extensions>
      </trkpt>
      <trkpt lat="50.967186" lon="10.320727">
        <ele>236.5</ele>
      </trkpt>
      <trkpt lat="50.966921" lon="10.320407">
        <ele>237.4</ele>
      </trkpt>
      <trkpt lat="50.966656" lon="10.320087">
        <ele>237.9</ele>
      </trkpt>
      <trkpt lat="50.966453" lon="10.319828">
        <ele>238.1</ele>
      </trkpt>
      <trkpt lat="50.966269" lon="10.319584">
        <ele>237.7</ele>
      </trkpt>
      <trkpt lat="50.966117" lon="10.319333">
        <ele>237.8</ele>
      </trkpt>
      <trkpt lat="50.965907" lon="10.318903">
        <ele>239.0</ele>
      </trkpt>
      <trkpt lat="50.965674" lon="10.31842">
        <ele>239.5</ele>
      </trkpt>
      <trkpt lat="50.965442" lon="10.317937">
        <ele>239.0</ele>
      </trkpt>
      <trkpt lat="50.965209" lon="10.317454">
        <ele>240.7</ele>
      </trkpt>
      <trkpt lat="50.964918" lon="10.316914">
        <ele>242.1</ele>
      </trkpt>
      <trkpt lat="50.96468" lon="10.316588">
        <ele>242.2</ele>
      </trkpt>
      <trkpt lat="50.964608" lon="10.316719">
        <ele>241.2</ele>
      </trkpt>
      <trkpt lat="50.964583" lon="10.316737">
        <ele>241.2</ele>
      </trkpt>
      <trkpt lat="50.964538" lon="10.316772">
        <ele>241.7</ele>
      </trkpt>
      <trkpt lat="50.96424" lon="10.316637">
        <ele>245.9</ele>
      </trkpt>
      <trkpt lat="50.963943" lon="10.316502">
        <ele>249.2</ele>
      </trkpt>
      <trkpt lat="50.963889" lon="10.3165">
        <ele>249.8</ele>
      </trkpt>
      <trkpt lat="50.963853" lon="10.316377">
        <ele>248.8</ele>
      </trkpt>
      <trkpt lat="50.963711" lon="10.316278">
        <ele>249.0</ele>
      </trkpt>
      <trkpt lat="50.963315" lon="10.316113">
        <ele>251.3</ele>
      </trkpt>
      <trkpt lat="50.963016" lon="10.316044">
        <ele>255.2</ele>
      </trkpt>
      <trkpt lat="50.962717" lon="10.315974">
        <ele>258.2</ele>
      </trkpt>
      <trkpt lat="50.962307" lon="10.315842">
        <ele>258.7</ele>
      </trkpt>
      <trkpt lat="50.961898" lon="10.31571">
        <ele>259.1</ele>
      </trkpt>
      <trkpt lat="50.961473" lon="10.315488">
        <ele>257.1</ele>
      </trkpt>
      <trkpt lat="50.96125" lon="10.315344">
        <ele>256.2</ele>
      </trkpt>
      <trkpt lat="50.961026" lon="10.3152">
        <ele>257.5</ele>
      </trkpt>
      <trkpt lat="50.960735" lon="10.314919">
        <ele>257.5</ele>
      </trkpt>
      <trkpt lat="50.960471" lon="10.314547">
        <ele>255.7</ele>
      </trkpt>
      <trkpt lat="50.960206" lon="10.314175">
        <ele>253.1</ele>
      </trkpt>
      <trkpt lat="50.95997" lon="10.313765">
        <ele>250.9</ele>
      </trkpt>
      <trkpt lat="50.95983" lon="10.31347">
        <ele>249.6</ele>
      </trkpt>
      <trkpt lat="50.959666" lon="10.313204">
        <ele>249.3</ele>
      </trkpt>
      <trkpt lat="50.959588" lon="10.313083">
        <ele>249.3</ele>
      </trkpt>
      <trkpt lat="50.959487" lon="10.312965">
        <ele>249.5</ele>
      </trkpt>
      <trkpt lat="50.959366" lon="10.312835">
        <ele>249.9</ele>
      </trkpt>
      <trkpt lat="50.959353" lon="10.312824">
        <ele>249.9</ele>
      </trkpt>
      <trkpt lat="50.959353" lon="10.312825">
        <ele>249.9</ele>
        <name>50.959353,10.312824</name>
        <extensions>
          <oa:mapZoom>17</oa:mapZoom>
        </extensions>
      </trkpt>
      <trkpt lat="50.959264" lon="10.312751">
        <ele>250.3</ele>
      </trkpt>
      <trkpt lat="50.959129" lon="10.312535">
        <ele>250.2</ele>
      </trkpt>
      <trkpt lat="50.958764" lon="10.312172">
        <ele>252.2</ele>
      </trkpt>
      <trkpt lat="50.958598" lon="10.31192">
        <ele>253.2</ele>
      </trkpt>
      <trkpt lat="50.958433" lon="10.311668">
        <ele>254.9</ele>
      </trkpt>
      <trkpt lat="50.958124" lon="10.311277">
        <ele>258.4</ele>
      </trkpt>
      <trkpt lat="50.957819" lon="10.311115">
        <ele>262.7</ele>
      </trkpt>
      <trkpt lat="50.957514" lon="10.310954">
        <ele>265.3</ele>
      </trkpt>
      <trkpt lat="50.957208" lon="10.310793">
        <ele>266.5</ele>
      </trkpt>
      <trkpt lat="50.957039" lon="10.310724">
        <ele>267.2</ele>
      </trkpt>
      <trkpt lat="50.957039" lon="10.310724">
        <ele>267.2</ele>
        <name>50.957039,10.310724</name>
        <extensions>
          <oa:mapZoom>17</oa:mapZoom>
        </extensions>
      </trkpt>
      <trkpt lat="50.956908" lon="10.310671">
        <ele>267.8</ele>
      </trkpt>
      <trkpt lat="50.956608" lon="10.310549">
        <ele>268.7</ele>
      </trkpt>
      <trkpt lat="50.956324" lon="10.310397">
        <ele>268.7</ele>
      </trkpt>
      <trkpt lat="50.95604" lon="10.310244">
        <ele>268.6</ele>
      </trkpt>
      <trkpt lat="50.955756" lon="10.310092">
        <ele>268.7</ele>
      </trkpt>
      <trkpt lat="50.955355" lon="10.30992">
        <ele>269.8</ele>
      </trkpt>
      <trkpt lat="50.954953" lon="10.309748">
        <ele>271.6</ele>
      </trkpt>
      <trkpt lat="50.954591" lon="10.309566">
        <ele>273.3</ele>
      </trkpt>
      <trkpt lat="50.954364" lon="10.309452">
        <ele>273.6</ele>
      </trkpt>
      <trkpt lat="50.954364" lon="10.309452">
        <ele>273.6</ele>
        <name>50.954364,10.309452</name>
        <extensions>
          <oa:mapZoom>17</oa:mapZoom>
        </extensions>
      </trkpt>
      <trkpt lat="50.954228" lon="10.309384">
        <ele>273.8</ele>
      </trkpt>
      <trkpt lat="50.954458" lon="10.309262">
        <ele>270.3</ele>
      </trkpt>
      <trkpt lat="50.954688" lon="10.309139">
        <ele>268.9</ele>
      </trkpt>
      <trkpt lat="50.954383" lon="10.30898">
        <ele>269.8</ele>
      </trkpt>
      <trkpt lat="50.954286" lon="10.308927">
        <ele>270.0</ele>
      </trkpt>
      <trkpt lat="50.95419" lon="10.308876">
        <ele>270.3</ele>
      </trkpt>
      <trkpt lat="50.953768" lon="10.308652">
        <ele>273.7</ele>
      </trkpt>
      <trkpt lat="50.953347" lon="10.308428">
        <ele>275.2</ele>
      </trkpt>
      <trkpt lat="50.953166" lon="10.308373">
        <ele>275.4</ele>
      </trkpt>
      <trkpt lat="50.953139" lon="10.308207">
        <ele>275.6</ele>
      </trkpt>
      <trkpt lat="50.953088" lon="10.308084">
        <ele>276.9</ele>
      </trkpt>
      <trkpt lat="50.953001" lon="10.30792">
        <ele>279.6</ele>
      </trkpt>
      <trkpt lat="50.952991" lon="10.307905">
        <ele>279.9</ele>
      </trkpt>
      <trkpt lat="50.952991" lon="10.307905">
        <ele>279.9</ele>
        <name>50.952991,10.307905</name>
        <extensions>
          <oa:mapZoom>17</oa:mapZoom>
        </extensions>
      </trkpt>
      <trkpt lat="50.953001" lon="10.30792">
        <ele>279.6</ele>
      </trkpt>
      <trkpt lat="50.952569" lon="10.307966">
        <ele>280.3</ele>
      </trkpt>
      <trkpt lat="50.952228" lon="10.308135">
        <ele>280.6</ele>
      </trkpt>
      <trkpt lat="50.95199" lon="10.308424">
        <ele>280.1</ele>
      </trkpt>
      <trkpt lat="50.95185" lon="10.308648">
        <ele>280.9</ele>
      </trkpt>
      <trkpt lat="50.951814" lon="10.308694">
        <ele>281.3</ele>
      </trkpt>
      <trkpt lat="50.951788" lon="10.308728">
        <ele>281.7</ele>
      </trkpt>
      <trkpt lat="50.951628" lon="10.308731">
        <ele>282.7</ele>
      </trkpt>
      <trkpt lat="50.951611" lon="10.308699">
        <ele>282.8</ele>
      </trkpt>
      <trkpt lat="50.951549" lon="10.308572">
        <ele>283.8</ele>
      </trkpt>
      <trkpt lat="50.951395" lon="10.308561">
        <ele>285.3</ele>
      </trkpt>
      <trkpt lat="50.951275" lon="10.30858">
        <ele>286.0</ele>
      </trkpt>
      <trkpt lat="50.950921" lon="10.308624">
        <ele>287.8</ele>
      </trkpt>
      <trkpt lat="50.950679" lon="10.308655">
        <ele>288.7</ele>
      </trkpt>
      <trkpt lat="50.950316" lon="10.308704">
        <ele>290.0</ele>
      </trkpt>
      <trkpt lat="50.950234" lon="10.308714">
        <ele>290.3</ele>
      </trkpt>
      <trkpt lat="50.949852" lon="10.308698">
        <ele>291.8</ele>
      </trkpt>
      <trkpt lat="50.94971" lon="10.30868">
        <ele>292.2</ele>
      </trkpt>
      <trkpt lat="50.949693" lon="10.30867">
        <ele>292.2</ele>
      </trkpt>
      <trkpt lat="50.949693" lon="10.30867">
        <ele>292.2</ele>
        <name>50.949693,10.308670</name>
        <extensions>
          <oa:mapZoom>17</oa:mapZoom>
        </extensions>
      </trkpt>
      <trkpt lat="50.949487" lon="10.308542">
        <ele>292.6</ele>
      </trkpt>
      <trkpt lat="50.949364" lon="10.308429">
        <ele>292.7</ele>
      </trkpt>
      <trkpt lat="50.949312" lon="10.308379">
        <ele>292.8</ele>
      </trkpt>
      <trkpt lat="50.949244" lon="10.308219">
        <ele>292.8</ele>
      </trkpt>
      <trkpt lat="50.949203" lon="10.308126">
        <ele>292.9</ele>
      </trkpt>
      <trkpt lat="50.949101" lon="10.307944">
        <ele>293.1</ele>
      </trkpt>
      <trkpt lat="50.948957" lon="10.307661">
        <ele>293.7</ele>
      </trkpt>
      <trkpt lat="50.948911" lon="10.307574">
        <ele>294.0</ele>
      </trkpt>
      <trkpt lat="50.948677" lon="10.307316">
        <ele>294.4</ele>
      </trkpt>
      <trkpt lat="50.948375" lon="10.306966">
        <ele>295.3</ele>
      </trkpt>
      <trkpt lat="50.948266" lon="10.306871">
        <ele>295.2</ele>
      </trkpt>
      <trkpt lat="50.948116" lon="10.306786">
        <ele>294.5</ele>
      </trkpt>
      <trkpt lat="50.948023" lon="10.306741">
        <ele>294.2</ele>
      </trkpt>
      <trkpt lat="50.947952" lon="10.306741">
        <ele>294.2</ele>
      </trkpt>
      <trkpt lat="50.947683" lon="10.30674">
        <ele>296.8</ele>
      </trkpt>
      <trkpt lat="50.947389" lon="10.30691">
        <ele>300.0</ele>
      </trkpt>
      <trkpt lat="50.947145" lon="10.307086">
        <ele>300.5</ele>
      </trkpt>
      <trkpt lat="50.946901" lon="10.307263">
        <ele>301.2</ele>
      </trkpt>
      <trkpt lat="50.946708" lon="10.307328">
        <ele>302.5</ele>
      </trkpt>
      <trkpt lat="50.946708" lon="10.307328">
        <ele>302.5</ele>
        <name>50.946708,10.307328</name>
        <extensions>
          <oa:mapZoom>17</oa:mapZoom>
        </extensions>
      </trkpt>
      <trkpt lat="50.946541" lon="10.307383">
        <ele>303.7</ele>
      </trkpt>
      <trkpt lat="50.946181" lon="10.307503">
        <ele>306.1</ele>
      </trkpt>
      <trkpt lat="50.945942" lon="10.307671">
        <ele>306.7</ele>
      </trkpt>
      <trkpt lat="50.945703" lon="10.307839">
        <ele>307.1</ele>
      </trkpt>
      <trkpt lat="50.945608" lon="10.307936">
        <ele>307.2</ele>
      </trkpt>
      <trkpt lat="50.945415" lon="10.308131">
        <ele>307.5</ele>
      </trkpt>
      <trkpt lat="50.945285" lon="10.308384">
        <ele>307.6</ele>
      </trkpt>
      <trkpt lat="50.945181" lon="10.308663">
        <ele>307.8</ele>
      </trkpt>
      <trkpt lat="50.945114" lon="10.309232">
        <ele>308.5</ele>
      </trkpt>
      <trkpt lat="50.945024" lon="10.309732">
        <ele>309.6</ele>
      </trkpt>
      <trkpt lat="50.944923" lon="10.310137">
        <ele>310.4</ele>
      </trkpt>
      <trkpt lat="50.944769" lon="10.310575">
        <ele>311.8</ele>
      </trkpt>
      <trkpt lat="50.944553" lon="10.311002">
        <ele>313.9</ele>
      </trkpt>
      <trkpt lat="50.944337" lon="10.311429">
        <ele>315.7</ele>
      </trkpt>
      <trkpt lat="50.944166" lon="10.311627">
        <ele>316.5</ele>
      </trkpt>
      <trkpt lat="50.943943" lon="10.311765">
        <ele>317.7</ele>
      </trkpt>
      <trkpt lat="50.943579" lon="10.311846">
        <ele>320.5</ele>
      </trkpt>
      <trkpt lat="50.943579" lon="10.311846">
        <ele>320.5</ele>
        <name>50.943579,10.311846</name>
        <extensions>
          <oa:mapZoom>17</oa:mapZoom>
        </extensions>
      </trkpt>
      <trkpt lat="50.943501" lon="10.311864">
        <ele>321.1</ele>
      </trkpt>
      <trkpt lat="50.943059" lon="10.311962">
        <ele>324.6</ele>
      </trkpt>
      <trkpt lat="50.942617" lon="10.31206">
        <ele>327.4</ele>
      </trkpt>
      <trkpt lat="50.942329" lon="10.31218">
        <ele>329.1</ele>
      </trkpt>
      <trkpt lat="50.942064" lon="10.312394">
        <ele>330.4</ele>
      </trkpt>
      <trkpt lat="50.9418" lon="10.312607">
        <ele>331.3</ele>
      </trkpt>
      <trkpt lat="50.941671" lon="10.312681">
        <ele>331.4</ele>
      </trkpt>
      <trkpt lat="50.941437" lon="10.312783">
        <ele>331.5</ele>
      </trkpt>
      <trkpt lat="50.941363" lon="10.312853">
        <ele>331.4</ele>
      </trkpt>
      <trkpt lat="50.941295" lon="10.312932">
        <ele>331.2</ele>
      </trkpt>
      <trkpt lat="50.940875" lon="10.313141">
        <ele>330.8</ele>
      </trkpt>
      <trkpt lat="50.94075" lon="10.313296">
        <ele>330.8</ele>
      </trkpt>
      <trkpt lat="50.940676" lon="10.313454">
        <ele>331.0</ele>
      </trkpt>
      <trkpt lat="50.940617" lon="10.313738">
        <ele>331.3</ele>
      </trkpt>
      <trkpt lat="50.940583" lon="10.31429">
        <ele>332.9</ele>
      </trkpt>
      <trkpt lat="50.940572" lon="10.314518">
        <ele>334.0</ele>
      </trkpt>
      <trkpt lat="50.940503" lon="10.314933">
        <ele>336.6</ele>
      </trkpt>
      <trkpt lat="50.940372" lon="10.315425">
        <ele>339.6</ele>
      </trkpt>
      <trkpt lat="50.940364" lon="10.315439">
        <ele>339.6</ele>
      </trkpt>
      <trkpt lat="50.940364" lon="10.315439">
        <ele>339.6</ele>
        <name>50.940364,10.315439</name>
        <extensions>
          <oa:mapZoom>17</oa:mapZoom>
        </extensions>
      </trkpt>
      <trkpt lat="50.940292" lon="10.315567">
        <ele>340.0</ele>
      </trkpt>
      <trkpt lat="50.940157" lon="10.315695">
        <ele>340.0</ele>
      </trkpt>
      <trkpt lat="50.939835" lon="10.315699">
        <ele>340.0</ele>
      </trkpt>
      <trkpt lat="50.939513" lon="10.315704">
        <ele>340.7</ele>
      </trkpt>
      <trkpt lat="50.939253" lon="10.315946">
        <ele>341.3</ele>
      </trkpt>
      <trkpt lat="50.939075" lon="10.316258">
        <ele>342.4</ele>
      </trkpt>
      <trkpt lat="50.938877" lon="10.316775">
        <ele>345.3</ele>
      </trkpt>
      <trkpt lat="50.938774" lon="10.316909">
        <ele>346.6</ele>
      </trkpt>
      <trkpt lat="50.938491" lon="10.317102">
        <ele>349.6</ele>
      </trkpt>
      <trkpt lat="50.938208" lon="10.317295">
        <ele>353.3</ele>
      </trkpt>
      <trkpt lat="50.937925" lon="10.317488">
        <ele>356.6</ele>
      </trkpt>
      <trkpt lat="50.937818" lon="10.317532">
        <ele>357.8</ele>
      </trkpt>
      <trkpt lat="50.937477" lon="10.317435">
        <ele>360.8</ele>
      </trkpt>
      <trkpt lat="50.937137" lon="10.317339">
        <ele>364.6</ele>
      </trkpt>
      <trkpt lat="50.936796" lon="10.317242">
        <ele>369.1</ele>
      </trkpt>
      <trkpt lat="50.936703" lon="10.31725">
        <ele>370.4</ele>
      </trkpt>
      <trkpt lat="50.936703" lon="10.31725">
        <ele>370.4</ele>
        <name>50.936703,10.317250</name>
        <extensions>
          <oa:mapZoom>17</oa:mapZoom>
        </extensions>
      </trkpt>
      <trkpt lat="50.936611" lon="10.317259">
        <ele>371.7</ele>
      </trkpt>
      <trkpt lat="50.93648" lon="10.317364">
        <ele>373.4</ele>
      </trkpt>
      <trkpt lat="50.936409" lon="10.317363">
        <ele>374.6</ele>
      </trkpt>
      <trkpt lat="50.935994" lon="10.31722">
        <ele>381.3</ele>
      </trkpt>
      <trkpt lat="50.93558" lon="10.317078">
        <ele>386.7</ele>
      </trkpt>
      <trkpt lat="50.935206" lon="10.317081">
        <ele>390.7</ele>
      </trkpt>
      <trkpt lat="50.934833" lon="10.317084">
        <ele>394.4</ele>
      </trkpt>
      <trkpt lat="50.93446" lon="10.317087">
        <ele>398.1</ele>
      </trkpt>
      <trkpt lat="50.934256" lon="10.317101">
        <ele>400.2</ele>
      </trkpt>
      <trkpt lat="50.934024" lon="10.317164">
        <ele>402.8</ele>
      </trkpt>
      <trkpt lat="50.933793" lon="10.317226">
        <ele>405.4</ele>
      </trkpt>
      <trkpt lat="50.933493" lon="10.317223">
        <ele>408.5</ele>
      </trkpt>
      <trkpt lat="50.933422" lon="10.317222">
        <ele>409.3</ele>
      </trkpt>
      <trkpt lat="50.933422" lon="10.317222">
        <ele>409.3</ele>
        <name>50.933422,10.317222</name>
        <extensions>
          <oa:mapZoom>17</oa:mapZoom>
        </extensions>
      </trkpt>
      <trkpt lat="50.933192" lon="10.317219">
        <ele>411.9</ele>
      </trkpt>
      <trkpt lat="50.932861" lon="10.317295">
        <ele>416.3</ele>
      </trkpt>
      <trkpt lat="50.93253" lon="10.317371">
        <ele>420.4</ele>
      </trkpt>
      <trkpt lat="50.932449" lon="10.317653">
        <ele>422.6</ele>
      </trkpt>
      <trkpt lat="50.932296" lon="10.317916">
        <ele>425.2</ele>
      </trkpt>
      <trkpt lat="50.93216" lon="10.317957">
        <ele>426.4</ele>
      </trkpt>
      <trkpt lat="50.932143" lon="10.318243">
        <ele>428.1</ele>
      </trkpt>
      <trkpt lat="50.932197" lon="10.318617">
        <ele>430.3</ele>
      </trkpt>
      <trkpt lat="50.932197" lon="10.318617">
        <ele>430.3</ele>
        <name>50.932197,10.318617</name>
        <extensions>
          <oa:mapZoom>17</oa:mapZoom>
        </extensions>
      </trkpt>
      <trkpt lat="50.932224" lon="10.3188">
        <ele>431.4</ele>
      </trkpt>
      <trkpt lat="50.932186" lon="10.31903">
        <ele>433.4</ele>
      </trkpt>
      <trkpt lat="50.932238" lon="10.319185">
        <ele>434.3</ele>
      </trkpt>
      <trkpt lat="50.932556" lon="10.319501">
        <ele>434.9</ele>
      </trkpt>
      <trkpt lat="50.932873" lon="10.319817">
        <ele>434.9</ele>
      </trkpt>
      <trkpt lat="50.933191" lon="10.320134">
        <ele>434.4</ele>
      </trkpt>
      <trkpt lat="50.933509" lon="10.32045">
        <ele>433.4</ele>
      </trkpt>
      <trkpt lat="50.933615" lon="10.320561">
        <ele>432.9</ele>
      </trkpt>
      <trkpt lat="50.933929" lon="10.320901">
        <ele>431.6</ele>
      </trkpt>
      <trkpt lat="50.934244" lon="10.321242">
        <ele>429.9</ele>
      </trkpt>
      <trkpt lat="50.934488" lon="10.321482">
        <ele>428.3</ele>
      </trkpt>
      <trkpt lat="50.934802" lon="10.321824">
        <ele>426.2</ele>
      </trkpt>
      <trkpt lat="50.93484" lon="10.321865">
        <ele>426.0</ele>
      </trkpt>
      <trkpt lat="50.93484" lon="10.321865">
        <ele>426.0</ele>
        <name>50.934840,10.321865</name>
        <extensions>
          <oa:mapZoom>17</oa:mapZoom>
        </extensions>
      </trkpt>
      <trkpt lat="50.935116" lon="10.322165">
        <ele>424.3</ele>
      </trkpt>
      <trkpt lat="50.935431" lon="10.322507">
        <ele>423.1</ele>
      </trkpt>
      <trkpt lat="50.935721" lon="10.322782">
        <ele>422.5</ele>
      </trkpt>
      <trkpt lat="50.935882" lon="10.322879">
        <ele>422.6</ele>
      </trkpt>
      <trkpt lat="50.936107" lon="10.322949">
        <ele>423.4</ele>
      </trkpt>
      <trkpt lat="50.936515" lon="10.322978">
        <ele>425.8</ele>
      </trkpt>
      <trkpt lat="50.936874" lon="10.323066">
        <ele>428.2</ele>
      </trkpt>
      <trkpt lat="50.937233" lon="10.323154">
        <ele>431.3</ele>
      </trkpt>
      <trkpt lat="50.937573" lon="10.323323">
        <ele>435.2</ele>
      </trkpt>
      <trkpt lat="50.937829" lon="10.323502">
        <ele>439.2</ele>
      </trkpt>
      <trkpt lat="50.937869" lon="10.323529">
        <ele>439.8</ele>
      </trkpt>
      <trkpt lat="50.937869" lon="10.323529">
        <ele>439.7</ele>
        <name>50.937869,10.323529</name>
        <extensions>
          <oa:mapZoom>17</oa:mapZoom>
        </extensions>
      </trkpt>
      <trkpt lat="50.938086" lon="10.32368">
        <ele>443.0</ele>
      </trkpt>
      <trkpt lat="50.93847" lon="10.324037">
        <ele>447.8</ele>
      </trkpt>
      <trkpt lat="50.938853" lon="10.324393">
        <ele>451.3</ele>
      </trkpt>
      <trkpt lat="50.939193" lon="10.324587">
        <ele>452.8</ele>
      </trkpt>
      <trkpt lat="50.939532" lon="10.324781">
        <ele>454.3</ele>
      </trkpt>
      <trkpt lat="50.939871" lon="10.324975">
        <ele>455.8</ele>
      </trkpt>
      <trkpt lat="50.94021" lon="10.325169">
        <ele>457.1</ele>
      </trkpt>
      <trkpt lat="50.940371" lon="10.325182">
        <ele>457.1</ele>
      </trkpt>
      <trkpt lat="50.940637" lon="10.32514">
        <ele>456.7</ele>
      </trkpt>
      <trkpt lat="50.940902" lon="10.325099">
        <ele>455.7</ele>
      </trkpt>
      <trkpt lat="50.941091" lon="10.325105">
        <ele>454.8</ele>
      </trkpt>
      <trkpt lat="50.941277" lon="10.325141">
        <ele>453.7</ele>
      </trkpt>
      <trkpt lat="50.941323" lon="10.325164">
        <ele>453.4</ele>
      </trkpt>
      <trkpt lat="50.941323" lon="10.325163">
        <ele>453.4</ele>
        <name>50.941323,10.325164</name>
        <extensions>
          <oa:locType>routingNode</oa:locType>
          <oa:mapZoom>17</oa:mapZoom>
        </extensions>
      </trkpt>
      <trkpt lat="50.941575" lon="10.325287">
        <ele>451.7</ele>
      </trkpt>
      <trkpt lat="50.941872" lon="10.325434">
        <ele>448.4</ele>
      </trkpt>
      <trkpt lat="50.94217" lon="10.325581">
        <ele>444.9</ele>
      </trkpt>
      <trkpt lat="50.942422" lon="10.3258">
        <ele>443.1</ele>
      </trkpt>
      <trkpt lat="50.942674" lon="10.32602">
        <ele>441.9</ele>
      </trkpt>
      <trkpt lat="50.942972" lon="10.326324">
        <ele>441.0</ele>
      </trkpt>
      <trkpt lat="50.943187" lon="10.326885">
        <ele>440.7</ele>
      </trkpt>
      <trkpt lat="50.943335" lon="10.327395">
        <ele>441.5</ele>
      </trkpt>
      <trkpt lat="50.943354" lon="10.327636">
        <ele>442.1</ele>
      </trkpt>
      <trkpt lat="50.943308" lon="10.328233">
        <ele>443.1</ele>
      </trkpt>
      <trkpt lat="50.943313" lon="10.328277">
        <ele>443.3</ele>
      </trkpt>
      <trkpt lat="50.943313" lon="10.328277">
        <ele>443.3</ele>
        <name>50.943313,10.328277</name>
        <extensions>
          <oa:locType>routingNode</oa:locType>
          <oa:mapZoom>17</oa:mapZoom>
        </extensions>
      </trkpt>
      <trkpt lat="50.943327" lon="10.328399">
        <ele>443.8</ele>
      </trkpt>
      <trkpt lat="50.943199" lon="10.328984">
        <ele>446.1</ele>
      </trkpt>
      <trkpt lat="50.943071" lon="10.329568">
        <ele>450.4</ele>
      </trkpt>
      <trkpt lat="50.94295" lon="10.329881">
        <ele>452.3</ele>
      </trkpt>
      <trkpt lat="50.942842" lon="10.330078">
        <ele>452.8</ele>
      </trkpt>
      <trkpt lat="50.942606" lon="10.330409">
        <ele>451.5</ele>
      </trkpt>
      <trkpt lat="50.942613" lon="10.330638">
        <ele>453.3</ele>
      </trkpt>
      <trkpt lat="50.942658" lon="10.330965">
        <ele>455.4</ele>
      </trkpt>
      <trkpt lat="50.942849" lon="10.331521">
        <ele>456.9</ele>
      </trkpt>
      <trkpt lat="50.943158" lon="10.331963">
        <ele>456.9</ele>
      </trkpt>
      <trkpt lat="50.943495" lon="10.332165">
        <ele>457.4</ele>
      </trkpt>
      <trkpt lat="50.943832" lon="10.332367">
        <ele>456.1</ele>
      </trkpt>
      <trkpt lat="50.944025" lon="10.332609">
        <ele>454.3</ele>
      </trkpt>
      <trkpt lat="50.944209" lon="10.333135">
        <ele>451.6</ele>
      </trkpt>
      <trkpt lat="50.944372" lon="10.333599">
        <ele>449.6</ele>
      </trkpt>
      <trkpt lat="50.944372" lon="10.333599">
        <ele>449.6</ele>
        <name>50.944375,10.333597</name>
        <extensions>
          <oa:locType>routingNode</oa:locType>
          <oa:mapZoom>17</oa:mapZoom>
        </extensions>
      </trkpt>
      <trkpt lat="50.944394" lon="10.333661">
        <ele>449.4</ele>
      </trkpt>
      <trkpt lat="50.944579" lon="10.334187">
        <ele>444.5</ele>
      </trkpt>
      <trkpt lat="50.944688" lon="10.334336">
        <ele>443.5</ele>
      </trkpt>
      <trkpt lat="50.944828" lon="10.334426">
        <ele>443.8</ele>
      </trkpt>
      <trkpt lat="50.944997" lon="10.334462">
        <ele>445.2</ele>
      </trkpt>
      <trkpt lat="50.945169" lon="10.334411">
        <ele>447.6</ele>
      </trkpt>
      <trkpt lat="50.945435" lon="10.33424">
        <ele>450.4</ele>
      </trkpt>
      <trkpt lat="50.945435" lon="10.33424">
        <ele>450.4</ele>
        <name>50.945429,10.334219</name>
        <extensions>
          <oa:locType>routingNode</oa:locType>
          <oa:mapZoom>17</oa:mapZoom>
        </extensions>
      </trkpt>
      <trkpt lat="50.945475" lon="10.334215">
        <ele>450.8</ele>
      </trkpt>
      <trkpt lat="50.945692" lon="10.333986">
        <ele>450.9</ele>
      </trkpt>
      <trkpt lat="50.945917" lon="10.333662">
        <ele>448.5</ele>
      </trkpt>
      <trkpt lat="50.945936" lon="10.333661">
        <ele>448.5</ele>
      </trkpt>
      <trkpt lat="50.945936" lon="10.333661">
        <ele>448.5</ele>
        <name>50.945936,10.333661</name>
        <extensions>
          <oa:locType>routingNode</oa:locType>
          <oa:mapZoom>17</oa:mapZoom>
        </extensions>
      </trkpt>
      <trkpt lat="50.945917" lon="10.333662">
        <ele>448.5</ele>
      </trkpt>
      <trkpt lat="50.945937" lon="10.333341">
        <ele>445.6</ele>
      </trkpt>
      <trkpt lat="50.945992" lon="10.333052">
        <ele>442.5</ele>
      </trkpt>
      <trkpt lat="50.94604" lon="10.332875">
        <ele>440.4</ele>
      </trkpt>
      <trkpt lat="50.946144" lon="10.332724">
        <ele>438.8</ele>
      </trkpt>
      <trkpt lat="50.946283" lon="10.332667">
        <ele>439.0</ele>
      </trkpt>
      <trkpt lat="50.946429" lon="10.332684">
        <ele>440.2</ele>
      </trkpt>
      <trkpt lat="50.946599" lon="10.332611">
        <ele>440.4</ele>
      </trkpt>
      <trkpt lat="50.946702" lon="10.33254">
        <ele>439.9</ele>
      </trkpt>
      <trkpt lat="50.946797" lon="10.332429">
        <ele>438.8</ele>
      </trkpt>
      <trkpt lat="50.946844" lon="10.332228">
        <ele>436.5</ele>
      </trkpt>
      <trkpt lat="50.946886" lon="10.33206">
        <ele>434.3</ele>
      </trkpt>
      <trkpt lat="50.946979" lon="10.331841">
        <ele>431.2</ele>
      </trkpt>
      <trkpt lat="50.947055" lon="10.331532">
        <ele>427.0</ele>
      </trkpt>
      <trkpt lat="50.947068" lon="10.331239">
        <ele>423.9</ele>
      </trkpt>
      <trkpt lat="50.947038" lon="10.330737">
        <ele>419.0</ele>
      </trkpt>
      <trkpt lat="50.947064" lon="10.330332">
        <ele>415.4</ele>
      </trkpt>
      <trkpt lat="50.94713" lon="10.329802">
        <ele>412.0</ele>
      </trkpt>
      <trkpt lat="50.947145" lon="10.329338">
        <ele>409.1</ele>
      </trkpt>
      <trkpt lat="50.947245" lon="10.328935">
        <ele>406.7</ele>
      </trkpt>
      <trkpt lat="50.947326" lon="10.328836">
        <ele>406.2</ele>
      </trkpt>
      <trkpt lat="50.947598" lon="10.328635">
        <ele>402.0</ele>
      </trkpt>
      <trkpt lat="50.947871" lon="10.328434">
        <ele>392.8</ele>
      </trkpt>
      <trkpt lat="50.947964" lon="10.328459">
        <ele>389.6</ele>
      </trkpt>
      <trkpt lat="50.948001" lon="10.328573">
        <ele>389.0</ele>
      </trkpt>
      <trkpt lat="50.947997" lon="10.328641">
        <ele>389.7</ele>
      </trkpt>
      <trkpt lat="50.947867" lon="10.328944">
        <ele>396.1</ele>
      </trkpt>
      <trkpt lat="50.947738" lon="10.329247">
        <ele>401.5</ele>
      </trkpt>
      <trkpt lat="50.947736" lon="10.329366">
        <ele>402.1</ele>
      </trkpt>
      <trkpt lat="50.947766" lon="10.329444">
        <ele>401.6</ele>
      </trkpt>
      <trkpt lat="50.94782" lon="10.329496">
        <ele>400.3</ele>
      </trkpt>
      <trkpt lat="50.948235" lon="10.329764">
        <ele>389.4</ele>
      </trkpt>
      <trkpt lat="50.948307" lon="10.329832">
        <ele>387.7</ele>
      </trkpt>
      <trkpt lat="50.948344" lon="10.329915">
        <ele>387.3</ele>
      </trkpt>
      <trkpt lat="50.948349" lon="10.329994">
        <ele>387.7</ele>
      </trkpt>
      <trkpt lat="50.948321" lon="10.330088">
        <ele>389.2</ele>
      </trkpt>
      <trkpt lat="50.948127" lon="10.330447">
        <ele>396.8</ele>
      </trkpt>
      <trkpt lat="50.948132" lon="10.330543">
        <ele>397.3</ele>
      </trkpt>
      <trkpt lat="50.948169" lon="10.330635">
        <ele>397.0</ele>
      </trkpt>
      <trkpt lat="50.948322" lon="10.330689">
        <ele>393.6</ele>
      </trkpt>
      <trkpt lat="50.948371" lon="10.330758">
        <ele>392.9</ele>
      </trkpt>
      <trkpt lat="50.948384" lon="10.330896">
        <ele>393.7</ele>
      </trkpt>
      <trkpt lat="50.948366" lon="10.331295">
        <ele>397.9</ele>
      </trkpt>
      <trkpt lat="50.948435" lon="10.331361">
        <ele>397.4</ele>
      </trkpt>
      <trkpt lat="50.948534" lon="10.331386">
        <ele>396.4</ele>
      </trkpt>
      <trkpt lat="50.948618" lon="10.331317">
        <ele>394.5</ele>
      </trkpt>
      <trkpt lat="50.948905" lon="10.3309">
        <ele>385.8</ele>
      </trkpt>
      <trkpt lat="50.949193" lon="10.330484">
        <ele>376.9</ele>
      </trkpt>
      <trkpt lat="50.949407" lon="10.330126">
        <ele>368.6</ele>
      </trkpt>
      <trkpt lat="50.949515" lon="10.330111">
        <ele>367.3</ele>
      </trkpt>
      <trkpt lat="50.949817" lon="10.33033">
        <ele>370.4</ele>
      </trkpt>
      <trkpt lat="50.949936" lon="10.330314">
        <ele>369.6</ele>
      </trkpt>
      <trkpt lat="50.950177" lon="10.330483">
        <ele>373.9</ele>
      </trkpt>
      <trkpt lat="50.950444" lon="10.330611">
        <ele>377.7</ele>
      </trkpt>
      <trkpt lat="50.950408" lon="10.33046">
        <ele>375.1</ele>
      </trkpt>
      <trkpt lat="50.950268" lon="10.330177">
        <ele>369.3</ele>
      </trkpt>
      <trkpt lat="50.949949" lon="10.329742">
        <ele>359.9</ele>
      </trkpt>
      <trkpt lat="50.949771" lon="10.329426">
        <ele>355.8</ele>
      </trkpt>
      <trkpt lat="50.94967" lon="10.329211">
        <ele>353.4</ele>
      </trkpt>
      <trkpt lat="50.949637" lon="10.328942">
        <ele>352.2</ele>
      </trkpt>
      <trkpt lat="50.949579" lon="10.32878">
        <ele>351.4</ele>
      </trkpt>
      <trkpt lat="50.949334" lon="10.328415">
        <ele>348.4</ele>
      </trkpt>
      <trkpt lat="50.949213" lon="10.328266">
        <ele>347.3</ele>
      </trkpt>
      <trkpt lat="50.949147" lon="10.328136">
        <ele>346.6</ele>
      </trkpt>
      <trkpt lat="50.949147" lon="10.328136">
        <ele>346.6</ele>
        <name>50.949147,10.328136</name>
        <extensions>
          <oa:locType>routingNode</oa:locType>
          <oa:mapZoom>17</oa:mapZoom>
        </extensions>
      </trkpt>
      <trkpt lat="50.949141" lon="10.328123">
        <ele>346.5</ele>
      </trkpt>
      <trkpt lat="50.949141" lon="10.327605">
        <ele>344.0</ele>
      </trkpt>
      <trkpt lat="50.949261" lon="10.326949">
        <ele>345.4</ele>
      </trkpt>
      <trkpt lat="50.949264" lon="10.32688">
        <ele>345.5</ele>
      </trkpt>
      <trkpt lat="50.949264" lon="10.32688">
        <ele>345.5</ele>
        <name>50.949262,10.326880</name>
        <extensions>
          <oa:locType>routingNode</oa:locType>
          <oa:mapZoom>17</oa:mapZoom>
        </extensions>
      </trkpt>
      <trkpt lat="50.949265" lon="10.326831">
        <ele>345.6</ele>
      </trkpt>
      <trkpt lat="50.949252" lon="10.326695">
        <ele>345.6</ele>
      </trkpt>
      <trkpt lat="50.949191" lon="10.326566">
        <ele>344.5</ele>
      </trkpt>
      <trkpt lat="50.948871" lon="10.326222">
        <ele>341.0</ele>
      </trkpt>
      <trkpt lat="50.94884" lon="10.326109">
        <ele>340.7</ele>
      </trkpt>
      <trkpt lat="50.948857" lon="10.325815">
        <ele>340.3</ele>
      </trkpt>
      <trkpt lat="50.94886" lon="10.325785">
        <ele>340.4</ele>
      </trkpt>
      <trkpt lat="50.94886" lon="10.325785">
        <ele>340.4</ele>
        <name>50.948860,10.325785</name>
        <extensions>
          <oa:mapZoom>17</oa:mapZoom>
        </extensions>
      </trkpt>
      <trkpt lat="50.948865" lon="10.325731">
        <ele>340.5</ele>
      </trkpt>
      <trkpt lat="50.948895" lon="10.325447">
        <ele>342.3</ele>
      </trkpt>
      <trkpt lat="50.948877" lon="10.325276">
        <ele>342.4</ele>
      </trkpt>
      <trkpt lat="50.948753" lon="10.324967">
        <ele>338.9</ele>
      </trkpt>
      <trkpt lat="50.948729" lon="10.324735">
        <ele>337.8</ele>
      </trkpt>
      <trkpt lat="50.948746" lon="10.324473">
        <ele>337.0</ele>
      </trkpt>
      <trkpt lat="50.948863" lon="10.32387">
        <ele>335.7</ele>
      </trkpt>
      <trkpt lat="50.94898" lon="10.323266">
        <ele>334.7</ele>
      </trkpt>
      <trkpt lat="50.949176" lon="10.322638">
        <ele>332.9</ele>
      </trkpt>
      <trkpt lat="50.949182" lon="10.322486">
        <ele>331.3</ele>
      </trkpt>
      <trkpt lat="50.949163" lon="10.322374">
        <ele>330.0</ele>
      </trkpt>
      <trkpt lat="50.94892" lon="10.322043">
        <ele>327.7</ele>
      </trkpt>
      <trkpt lat="50.948677" lon="10.321713">
        <ele>326.2</ele>
      </trkpt>
      <trkpt lat="50.948589" lon="10.32165">
        <ele>325.8</ele>
      </trkpt>
      <trkpt lat="50.948284" lon="10.32165">
        <ele>323.1</ele>
      </trkpt>
      <trkpt lat="50.948194" lon="10.321567">
        <ele>322.9</ele>
      </trkpt>
      <trkpt lat="50.948104" lon="10.321683">
        <ele>323.6</ele>
      </trkpt>
      <trkpt lat="50.948065" lon="10.32162">
        <ele>323.5</ele>
      </trkpt>
      <trkpt lat="50.947938" lon="10.321266">
        <ele>323.8</ele>
      </trkpt>
      <trkpt lat="50.947811" lon="10.320912">
        <ele>325.8</ele>
      </trkpt>
      <trkpt lat="50.947778" lon="10.320518">
        <ele>326.6</ele>
      </trkpt>
      <trkpt lat="50.947852" lon="10.320149">
        <ele>323.9</ele>
      </trkpt>
      <trkpt lat="50.947883" lon="10.319912">
        <ele>322.0</ele>
      </trkpt>
      <trkpt lat="50.947964" lon="10.319515">
        <ele>317.9</ele>
      </trkpt>
      <trkpt lat="50.948044" lon="10.319118">
        <ele>315.4</ele>
      </trkpt>
      <trkpt lat="50.948125" lon="10.31897">
        <ele>314.7</ele>
      </trkpt>
      <trkpt lat="50.948228" lon="10.318729">
        <ele>314.0</ele>
      </trkpt>
      <trkpt lat="50.948302" lon="10.318281">
        <ele>312.5</ele>
      </trkpt>
      <trkpt lat="50.948375" lon="10.317832">
        <ele>311.1</ele>
      </trkpt>
      <trkpt lat="50.94859" lon="10.317375">
        <ele>308.1</ele>
      </trkpt>
      <trkpt lat="50.948682" lon="10.317091">
        <ele>307.2</ele>
      </trkpt>
      <trkpt lat="50.948753" lon="10.316839">
        <ele>307.8</ele>
      </trkpt>
      <trkpt lat="50.948828" lon="10.316891">
        <ele>306.6</ele>
      </trkpt>
      <trkpt lat="50.948994" lon="10.316797">
        <ele>306.5</ele>
      </trkpt>
      <trkpt lat="50.949289" lon="10.316482">
        <ele>307.5</ele>
      </trkpt>
      <trkpt lat="50.949297" lon="10.316479">
        <ele>307.5</ele>
      </trkpt>
      <trkpt lat="50.949297" lon="10.316479">
        <ele>307.5</ele>
        <name>50.949297,10.316479</name>
        <extensions>
          <oa:mapZoom>17</oa:mapZoom>
        </extensions>
      </trkpt>
      <trkpt lat="50.949567" lon="10.316351">
        <ele>308.5</ele>
      </trkpt>
      <trkpt lat="50.949845" lon="10.31622">
        <ele>307.1</ele>
      </trkpt>
      <trkpt lat="50.950073" lon="10.316255">
        <ele>306.7</ele>
      </trkpt>
      <trkpt lat="50.950302" lon="10.31629">
        <ele>306.0</ele>
      </trkpt>
      <trkpt lat="50.950524" lon="10.316362">
        <ele>306.5</ele>
      </trkpt>
      <trkpt lat="50.950643" lon="10.316351">
        <ele>306.4</ele>
      </trkpt>
      <trkpt lat="50.950749" lon="10.316256">
        <ele>305.7</ele>
      </trkpt>
      <trkpt lat="50.950865" lon="10.316098">
        <ele>305.1</ele>
      </trkpt>
      <trkpt lat="50.950962" lon="10.315849">
        <ele>304.1</ele>
      </trkpt>
      <trkpt lat="50.951005" lon="10.315247">
        <ele>301.5</ele>
      </trkpt>
      <trkpt lat="50.950969" lon="10.31487">
        <ele>300.0</ele>
      </trkpt>
      <trkpt lat="50.950843" lon="10.31425">
        <ele>297.8</ele>
      </trkpt>
      <trkpt lat="50.950811" lon="10.313947">
        <ele>297.6</ele>
      </trkpt>
      <trkpt lat="50.950868" lon="10.313578">
        <ele>296.9</ele>
      </trkpt>
      <trkpt lat="50.950985" lon="10.313252">
        <ele>295.9</ele>
      </trkpt>
      <trkpt lat="50.951102" lon="10.312925">
        <ele>295.1</ele>
      </trkpt>
      <trkpt lat="50.951172" lon="10.312729">
        <ele>294.7</ele>
      </trkpt>
      <trkpt lat="50.951425" lon="10.312157">
        <ele>293.7</ele>
      </trkpt>
      <trkpt lat="50.951542" lon="10.311806">
        <ele>292.9</ele>
      </trkpt>
      <trkpt lat="50.951659" lon="10.311455">
        <ele>291.9</ele>
      </trkpt>
      <trkpt lat="50.951952" lon="10.310939">
        <ele>289.4</ele>
      </trkpt>
      <trkpt lat="50.95198" lon="10.310907">
        <ele>289.1</ele>
      </trkpt>
      <trkpt lat="50.95198" lon="10.310907">
        <ele>289.1</ele>
        <name>50.951980,10.310907</name>
        <extensions>
          <oa:mapZoom>17</oa:mapZoom>
        </extensions>
      </trkpt>
      <trkpt lat="50.952089" lon="10.310783">
        <ele>288.2</ele>
      </trkpt>
      <trkpt lat="50.952312" lon="10.310625">
        <ele>286.3</ele>
      </trkpt>
      <trkpt lat="50.952534" lon="10.310467">
        <ele>284.8</ele>
      </trkpt>
      <trkpt lat="50.952879" lon="10.310179">
        <ele>282.3</ele>
      </trkpt>
      <trkpt lat="50.953224" lon="10.309891">
        <ele>279.4</ele>
      </trkpt>
      <trkpt lat="50.95356" lon="10.309704">
        <ele>277.6</ele>
      </trkpt>
      <trkpt lat="50.953766" lon="10.309627">
        <ele>277.7</ele>
      </trkpt>
      <trkpt lat="50.954066" lon="10.309448">
        <ele>275.3</ele>
      </trkpt>
      <trkpt lat="50.954066" lon="10.309448">
        <ele>275.3</ele>
        <name>50.954066,10.309448</name>
        <extensions>
          <oa:mapZoom>17</oa:mapZoom>
        </extensions>
      </trkpt>
      <trkpt lat="50.954131" lon="10.30941">
        <ele>274.8</ele>
      </trkpt>
      <trkpt lat="50.954228" lon="10.309384">
        <ele>273.8</ele>
      </trkpt>
      <trkpt lat="50.954458" lon="10.309262">
        <ele>270.3</ele>
      </trkpt>
      <trkpt lat="50.954688" lon="10.309139">
        <ele>268.9</ele>
      </trkpt>
      <trkpt lat="50.954383" lon="10.30898">
        <ele>269.8</ele>
      </trkpt>
      <trkpt lat="50.954286" lon="10.308927">
        <ele>270.0</ele>
      </trkpt>
      <trkpt lat="50.95419" lon="10.308876">
        <ele>270.3</ele>
      </trkpt>
      <trkpt lat="50.953768" lon="10.308652">
        <ele>273.7</ele>
      </trkpt>
      <trkpt lat="50.953347" lon="10.308428">
        <ele>275.2</ele>
      </trkpt>
      <trkpt lat="50.953166" lon="10.308373">
        <ele>275.4</ele>
      </trkpt>
      <trkpt lat="50.953139" lon="10.308207">
        <ele>275.6</ele>
      </trkpt>
      <trkpt lat="50.953088" lon="10.308084">
        <ele>276.9</ele>
      </trkpt>
      <trkpt lat="50.953001" lon="10.30792">
        <ele>279.6</ele>
      </trkpt>
      <trkpt lat="50.953013" lon="10.307805">
        <ele>281.8</ele>
      </trkpt>
      <trkpt lat="50.953117" lon="10.307762">
        <ele>282.8</ele>
      </trkpt>
      <trkpt lat="50.953164" lon="10.307623">
        <ele>285.6</ele>
      </trkpt>
      <trkpt lat="50.953164" lon="10.307623">
        <ele>285.6</ele>
        <name>50.953164,10.307623</name>
        <extensions>
          <oa:mapZoom>17</oa:mapZoom>
        </extensions>
      </trkpt>
      <trkpt lat="50.953282" lon="10.307273">
        <ele>292.6</ele>
      </trkpt>
      <trkpt lat="50.953446" lon="10.306784">
        <ele>301.7</ele>
      </trkpt>
      <trkpt lat="50.95355" lon="10.306559">
        <ele>305.5</ele>
      </trkpt>
      <trkpt lat="50.953759" lon="10.306281">
        <ele>309.6</ele>
      </trkpt>
      <trkpt lat="50.953882" lon="10.30598">
        <ele>313.5</ele>
      </trkpt>
      <trkpt lat="50.954163" lon="10.305653">
        <ele>317.8</ele>
      </trkpt>
      <trkpt lat="50.954272" lon="10.305488">
        <ele>319.9</ele>
      </trkpt>
      <trkpt lat="50.954272" lon="10.305488">
        <ele>319.9</ele>
        <name>50.954272,10.305488</name>
        <extensions>
          <oa:mapZoom>17</oa:mapZoom>
        </extensions>
      </trkpt>
      <trkpt lat="50.954321" lon="10.305413">
        <ele>320.8</ele>
      </trkpt>
      <trkpt lat="50.954731" lon="10.30519">
        <ele>324.1</ele>
      </trkpt>
      <trkpt lat="50.955141" lon="10.304966">
        <ele>326.4</ele>
      </trkpt>
      <trkpt lat="50.955417" lon="10.30488">
        <ele>327.0</ele>
      </trkpt>
      <trkpt lat="50.955486" lon="10.304878">
        <ele>327.1</ele>
      </trkpt>
      <trkpt lat="50.955486" lon="10.304878">
        <ele>327.1</ele>
        <name>50.955486,10.304878</name>
        <extensions>
          <oa:mapZoom>17</oa:mapZoom>
        </extensions>
      </trkpt>
      <trkpt lat="50.955698" lon="10.304873">
        <ele>327.3</ele>
      </trkpt>
      <trkpt lat="50.95584" lon="10.304887">
        <ele>327.5</ele>
      </trkpt>
      <trkpt lat="50.956001" lon="10.304894">
        <ele>327.9</ele>
      </trkpt>
      <trkpt lat="50.956102" lon="10.304876">
        <ele>328.2</ele>
      </trkpt>
      <trkpt lat="50.956334" lon="10.304864">
        <ele>329.0</ele>
      </trkpt>
      <trkpt lat="50.956372" lon="10.304862">
        <ele>329.1</ele>
      </trkpt>
      <trkpt lat="50.956372" lon="10.304862">
        <ele>329.1</ele>
        <name>50.956372,10.304862</name>
        <extensions>
          <oa:mapZoom>17</oa:mapZoom>
        </extensions>
      </trkpt>
      <trkpt lat="50.956565" lon="10.304852">
        <ele>330.0</ele>
      </trkpt>
      <trkpt lat="50.956987" lon="10.304821">
        <ele>332.6</ele>
      </trkpt>
      <trkpt lat="50.957408" lon="10.304791">
        <ele>336.2</ele>
      </trkpt>
      <trkpt lat="50.95771" lon="10.304772">
        <ele>338.9</ele>
      </trkpt>
      <trkpt lat="50.958012" lon="10.304752">
        <ele>341.6</ele>
      </trkpt>
      <trkpt lat="50.958314" lon="10.304733">
        <ele>344.2</ele>
      </trkpt>
      <trkpt lat="50.958755" lon="10.304709">
        <ele>347.9</ele>
      </trkpt>
      <trkpt lat="50.959197" lon="10.304684">
        <ele>351.4</ele>
      </trkpt>
      <trkpt lat="50.959441" lon="10.304671">
        <ele>353.3</ele>
      </trkpt>
      <trkpt lat="50.959441" lon="10.304671">
        <ele>353.3</ele>
        <name>50.959441,10.304671</name>
        <extensions>
          <oa:mapZoom>17</oa:mapZoom>
        </extensions>
      </trkpt>
      <trkpt lat="50.959638" lon="10.30466">
        <ele>354.9</ele>
      </trkpt>
      <trkpt lat="50.96008" lon="10.304636">
        <ele>358.6</ele>
      </trkpt>
      <trkpt lat="50.960404" lon="10.304664">
        <ele>361.9</ele>
      </trkpt>
      <trkpt lat="50.960729" lon="10.304693">
        <ele>365.3</ele>
      </trkpt>
      <trkpt lat="50.960988" lon="10.304655">
        <ele>366.4</ele>
      </trkpt>
      <trkpt lat="50.961247" lon="10.304617">
        <ele>366.1</ele>
      </trkpt>
      <trkpt lat="50.961369" lon="10.304629">
        <ele>366.2</ele>
      </trkpt>
      <trkpt lat="50.961455" lon="10.304687">
        <ele>367.5</ele>
      </trkpt>
      <trkpt lat="50.961741" lon="10.305013">
        <ele>373.2</ele>
      </trkpt>
      <trkpt lat="50.961775" lon="10.305028">
        <ele>372.9</ele>
      </trkpt>
      <trkpt lat="50.961775" lon="10.305028">
        <ele>372.9</ele>
        <name>50.961775,10.305028</name>
        <extensions>
          <oa:mapZoom>17</oa:mapZoom>
        </extensions>
      </trkpt>
      <trkpt lat="50.962115" lon="10.305171">
        <ele>369.7</ele>
      </trkpt>
      <trkpt lat="50.962207" lon="10.305243">
        <ele>368.4</ele>
      </trkpt>
      <trkpt lat="50.96231" lon="10.305388">
        <ele>367.0</ele>
      </trkpt>
      <trkpt lat="50.962303" lon="10.305781">
        <ele>369.3</ele>
      </trkpt>
      <trkpt lat="50.962296" lon="10.306174">
        <ele>369.6</ele>
      </trkpt>
      <trkpt lat="50.962318" lon="10.306575">
        <ele>369.2</ele>
      </trkpt>
      <trkpt lat="50.962393" lon="10.306857">
        <ele>367.6</ele>
      </trkpt>
      <trkpt lat="50.962495" lon="10.307251">
        <ele>368.7</ele>
      </trkpt>
      <trkpt lat="50.96258" lon="10.307579">
        <ele>371.5</ele>
      </trkpt>
      <trkpt lat="50.96258" lon="10.307579">
        <ele>371.5</ele>
        <name>50.962580,10.307579</name>
        <extensions>
          <oa:mapZoom>17</oa:mapZoom>
        </extensions>
      </trkpt>
      <trkpt lat="50.962596" lon="10.307644">
        <ele>372.0</ele>
      </trkpt>
      <trkpt lat="50.96264" lon="10.307717">
        <ele>372.1</ele>
      </trkpt>
      <trkpt lat="50.962898" lon="10.30771">
        <ele>367.5</ele>
      </trkpt>
      <trkpt lat="50.963158" lon="10.307569">
        <ele>361.8</ele>
      </trkpt>
      <trkpt lat="50.963417" lon="10.307428">
        <ele>356.7</ele>
      </trkpt>
      <trkpt lat="50.963711" lon="10.307357">
        <ele>353.1</ele>
      </trkpt>
      <trkpt lat="50.96414" lon="10.30729">
        <ele>350.9</ele>
      </trkpt>
      <trkpt lat="50.964191" lon="10.30729">
        <ele>350.9</ele>
      </trkpt>
      <trkpt lat="50.964191" lon="10.30729">
        <ele>350.9</ele>
        <name>50.964191,10.307290</name>
        <extensions>
          <oa:mapZoom>17</oa:mapZoom>
        </extensions>
      </trkpt>
      <trkpt lat="50.96429" lon="10.307291">
        <ele>351.1</ele>
      </trkpt>
      <trkpt lat="50.964435" lon="10.307347">
        <ele>350.8</ele>
      </trkpt>
      <trkpt lat="50.964529" lon="10.307407">
        <ele>350.2</ele>
      </trkpt>
      <trkpt lat="50.964631" lon="10.307466">
        <ele>349.4</ele>
      </trkpt>
      <trkpt lat="50.964721" lon="10.307499">
        <ele>349.0</ele>
      </trkpt>
      <trkpt lat="50.964853" lon="10.307499">
        <ele>349.9</ele>
      </trkpt>
      <trkpt lat="50.964944" lon="10.307461">
        <ele>351.6</ele>
      </trkpt>
      <trkpt lat="50.965106" lon="10.307393">
        <ele>355.1</ele>
      </trkpt>
      <trkpt lat="50.965326" lon="10.307279">
        <ele>361.2</ele>
      </trkpt>
      <trkpt lat="50.965546" lon="10.307164">
        <ele>368.1</ele>
      </trkpt>
      <trkpt lat="50.965662" lon="10.307167">
        <ele>370.1</ele>
      </trkpt>
      <trkpt lat="50.965937" lon="10.307001">
        <ele>380.1</ele>
      </trkpt>
      <trkpt lat="50.96609" lon="10.306962">
        <ele>383.9</ele>
      </trkpt>
      <trkpt lat="50.966294" lon="10.307158">
        <ele>385.3</ele>
      </trkpt>
      <trkpt lat="50.966315" lon="10.307136">
        <ele>386.0</ele>
      </trkpt>
      <trkpt lat="50.966309" lon="10.307109">
        <ele>386.2</ele>
      </trkpt>
      <trkpt lat="50.966309" lon="10.307109">
        <ele>386.2</ele>
        <name>50.966309,10.307109</name>
        <extensions>
          <oa:mapZoom>17</oa:mapZoom>
        </extensions>
      </trkpt>
      <trkpt lat="50.966247" lon="10.306827">
        <ele>388.2</ele>
      </trkpt>
      <trkpt lat="50.966264" lon="10.306813">
        <ele>388.5</ele>
      </trkpt>
      <trkpt lat="50.966439" lon="10.307078">
        <ele>387.9</ele>
      </trkpt>
      <trkpt lat="50.966464" lon="10.307057">
        <ele>388.2</ele>
      </trkpt>
      <trkpt lat="50.966434" lon="10.306767">
        <ele>390.0</ele>
      </trkpt>
      <trkpt lat="50.966477" lon="10.306758">
        <ele>390.0</ele>
      </trkpt>
      <trkpt lat="50.966543" lon="10.306939">
        <ele>388.7</ele>
      </trkpt>
      <trkpt lat="50.966569" lon="10.306938">
        <ele>388.5</ele>
      </trkpt>
      <trkpt lat="50.966609" lon="10.306719">
        <ele>389.0</ele>
      </trkpt>
      <trkpt lat="50.966745" lon="10.306609">
        <ele>386.7</ele>
      </trkpt>
      <trkpt lat="50.966755" lon="10.306668">
        <ele>386.2</ele>
      </trkpt>
      <trkpt lat="50.966755" lon="10.306668">
        <ele>386.2</ele>
        <name>50.966755,10.306668</name>
        <extensions>
          <oa:mapZoom>17</oa:mapZoom>
        </extensions>
      </trkpt>
      <trkpt lat="50.966779" lon="10.306814">
        <ele>385.0</ele>
      </trkpt>
      <trkpt lat="50.966757" lon="10.306996">
        <ele>384.7</ele>
      </trkpt>
      <trkpt lat="50.966712" lon="10.307186">
        <ele>384.8</ele>
      </trkpt>
      <trkpt lat="50.966655" lon="10.30748">
        <ele>384.3</ele>
      </trkpt>
      <trkpt lat="50.966625" lon="10.307725">
        <ele>382.8</ele>
      </trkpt>
      <trkpt lat="50.966577" lon="10.308167">
        <ele>378.2</ele>
      </trkpt>
      <trkpt lat="50.966556" lon="10.308393">
        <ele>374.8</ele>
      </trkpt>
      <trkpt lat="50.966634" lon="10.308349">
        <ele>375.8</ele>
      </trkpt>
      <trkpt lat="50.966783" lon="10.307975">
        <ele>378.2</ele>
      </trkpt>
      <trkpt lat="50.966932" lon="10.307602">
        <ele>375.9</ele>
      </trkpt>
      <trkpt lat="50.967157" lon="10.307235">
        <ele>367.2</ele>
      </trkpt>
      <trkpt lat="50.967382" lon="10.306868">
        <ele>363.0</ele>
      </trkpt>
      <trkpt lat="50.967389" lon="10.306871">
        <ele>362.8</ele>
      </trkpt>
      <trkpt lat="50.967389" lon="10.306871">
        <ele>362.8</ele>
        <name>50.967387,10.306882</name>
        <extensions>
          <oa:mapZoom>17</oa:mapZoom>
        </extensions>
      </trkpt>
      <trkpt lat="50.967527" lon="10.306935">
        <ele>357.7</ele>
      </trkpt>
      <trkpt lat="50.967744" lon="10.307245">
        <ele>349.1</ele>
      </trkpt>
      <trkpt lat="50.967972" lon="10.307289">
        <ele>343.9</ele>
      </trkpt>
      <trkpt lat="50.968209" lon="10.307281">
        <ele>339.3</ele>
      </trkpt>
      <trkpt lat="50.968445" lon="10.307273">
        <ele>335.2</ele>
      </trkpt>
      <trkpt lat="50.968661" lon="10.30725">
        <ele>332.6</ele>
      </trkpt>
      <trkpt lat="50.968661" lon="10.30735">
        <ele>332.1</ele>
      </trkpt>
      <trkpt lat="50.96869" lon="10.307399">
        <ele>331.6</ele>
      </trkpt>
      <trkpt lat="50.968721" lon="10.307429">
        <ele>331.3</ele>
      </trkpt>
      <trkpt lat="50.968763" lon="10.307456">
        <ele>331.1</ele>
      </trkpt>
      <trkpt lat="50.968858" lon="10.307509">
        <ele>331.1</ele>
      </trkpt>
      <trkpt lat="50.969066" lon="10.307702">
        <ele>332.9</ele>
      </trkpt>
      <trkpt lat="50.96916" lon="10.307835">
        <ele>334.2</ele>
      </trkpt>
      <trkpt lat="50.96916" lon="10.307835">
        <ele>334.2</ele>
        <name>50.969160,10.307835</name>
        <extensions>
          <oa:mapZoom>17</oa:mapZoom>
        </extensions>
      </trkpt>
      <trkpt lat="50.969186" lon="10.307871">
        <ele>334.6</ele>
      </trkpt>
      <trkpt lat="50.969256" lon="10.308014">
        <ele>335.4</ele>
      </trkpt>
      <trkpt lat="50.969393" lon="10.308522">
        <ele>334.8</ele>
      </trkpt>
      <trkpt lat="50.96953" lon="10.309031">
        <ele>333.1</ele>
      </trkpt>
      <trkpt lat="50.969599" lon="10.309235">
        <ele>332.5</ele>
      </trkpt>
      <trkpt lat="50.969694" lon="10.309483">
        <ele>331.9</ele>
      </trkpt>
      <trkpt lat="50.969929" lon="10.310017">
        <ele>331.0</ele>
      </trkpt>
      <trkpt lat="50.970101" lon="10.31029">
        <ele>330.3</ele>
      </trkpt>
      <trkpt lat="50.970223" lon="10.310443">
        <ele>329.5</ele>
      </trkpt>
      <trkpt lat="50.970407" lon="10.310685">
        <ele>327.2</ele>
      </trkpt>
      <trkpt lat="50.970556" lon="10.310929">
        <ele>323.7</ele>
      </trkpt>
      <trkpt lat="50.97074" lon="10.311304">
        <ele>317.1</ele>
      </trkpt>
      <trkpt lat="50.970925" lon="10.31168">
        <ele>309.3</ele>
      </trkpt>
      <trkpt lat="50.971109" lon="10.312055">
        <ele>299.6</ele>
      </trkpt>
      <trkpt lat="50.971196" lon="10.312248">
        <ele>294.3</ele>
      </trkpt>
      <trkpt lat="50.971196" lon="10.312248">
        <ele>294.3</ele>
        <name>50.971196,10.312248</name>
        <extensions>
          <oa:mapZoom>17</oa:mapZoom>
        </extensions>
      </trkpt>
      <trkpt lat="50.97128" lon="10.312435">
        <ele>289.1</ele>
      </trkpt>
      <trkpt lat="50.97145" lon="10.312816">
        <ele>281.1</ele>
      </trkpt>
      <trkpt lat="50.971634" lon="10.313173">
        <ele>274.3</ele>
      </trkpt>
      <trkpt lat="50.971819" lon="10.313529">
        <ele>268.9</ele>
      </trkpt>
      <trkpt lat="50.972117" lon="10.31392">
        <ele>262.4</ele>
      </trkpt>
      <trkpt lat="50.972416" lon="10.314311">
        <ele>256.8</ele>
      </trkpt>
      <trkpt lat="50.97253" lon="10.314449">
        <ele>254.7</ele>
      </trkpt>
      <trkpt lat="50.97253" lon="10.314449">
        <ele>254.7</ele>
        <name>50.972530,10.314449</name>
        <extensions>
          <oa:mapZoom>17</oa:mapZoom>
        </extensions>
      </trkpt>
      <trkpt lat="50.972695" lon="10.314649">
        <ele>251.7</ele>
      </trkpt>
      <trkpt lat="50.972974" lon="10.314987">
        <ele>247.7</ele>
      </trkpt>
      <trkpt lat="50.973252" lon="10.315325">
        <ele>244.1</ele>
      </trkpt>
      <trkpt lat="50.973531" lon="10.315663">
        <ele>240.0</ele>
      </trkpt>
      <trkpt lat="50.973714" lon="10.315974">
        <ele>236.6</ele>
      </trkpt>
      <trkpt lat="50.973843" lon="10.316359">
        <ele>232.9</ele>
      </trkpt>
      <trkpt lat="50.973908" lon="10.316503">
        <ele>231.0</ele>
      </trkpt>
      <trkpt lat="50.973986" lon="10.316657">
        <ele>229.2</ele>
      </trkpt>
      <trkpt lat="50.974193" lon="10.316871">
        <ele>226.8</ele>
      </trkpt>
      <trkpt lat="50.974459" lon="10.317006">
        <ele>225.4</ele>
      </trkpt>
      <trkpt lat="50.974779" lon="10.317118">
        <ele>223.6</ele>
      </trkpt>
      <trkpt lat="50.974779" lon="10.317118">
        <ele>223.6</ele>
        <name>50.974779,10.317118</name>
        <extensions>
          <oa:mapZoom>17</oa:mapZoom>
        </extensions>
      </trkpt>
      <trkpt lat="50.974786" lon="10.317121">
        <ele>223.6</ele>
      </trkpt>
      <trkpt lat="50.974728" lon="10.317411">
        <ele>223.9</ele>
      </trkpt>
      <trkpt lat="50.974665" lon="10.317757">
        <ele>224.7</ele>
      </trkpt>
      <trkpt lat="50.974602" lon="10.318104">
        <ele>225.5</ele>
      </trkpt>
      <trkpt lat="50.97455" lon="10.318301">
        <ele>225.9</ele>
      </trkpt>
      <trkpt lat="50.974439" lon="10.31861">
        <ele>225.9</ele>
      </trkpt>
      <trkpt lat="50.974402" lon="10.318746">
        <ele>225.4</ele>
      </trkpt>
      <trkpt lat="50.974466" lon="10.318792">
        <ele>224.8</ele>
      </trkpt>
      <trkpt lat="50.974466" lon="10.318792">
        <ele>224.8</ele>
        <name>50.974466,10.318792</name>
        <extensions>
          <oa:mapZoom>17</oa:mapZoom>
        </extensions>
      </trkpt>
      <trkpt lat="50.974661" lon="10.31893">
        <ele>223.2</ele>
      </trkpt>
      <trkpt lat="50.97492" lon="10.319115">
        <ele>222.3</ele>
      </trkpt>
      <trkpt lat="50.97492" lon="10.319123">
        <ele>222.2</ele>
      </trkpt>
      <trkpt lat="50.97492" lon="10.319123">
        <ele>222.2</ele>
        <name>50.974920,10.319123</name>
        <extensions>
          <oa:mapZoom>17</oa:mapZoom>
        </extensions>
      </trkpt>
      <trkpt lat="50.97495" lon="10.319668">
        <ele>222.0</ele>
      </trkpt>
      <trkpt lat="50.974937" lon="10.320294">
        <ele>221.8</ele>
      </trkpt>
      <trkpt lat="50.97493" lon="10.320301">
        <ele>221.8</ele>
      </trkpt>
      <trkpt lat="50.97493" lon="10.320301">
        <ele>221.8</ele>
        <name>50.974930,10.320301</name>
        <extensions>
          <oa:mapZoom>17</oa:mapZoom>
        </extensions>
      </trkpt>
      <trkpt lat="50.974937" lon="10.320294">
        <ele>221.8</ele>
      </trkpt>
      <trkpt lat="50.974982" lon="10.320312">
        <ele>221.8</ele>
      </trkpt>
      <trkpt lat="50.975007" lon="10.32094">
        <ele>221.2</ele>
      </trkpt>
      <trkpt lat="50.975003" lon="10.321344">
        <ele>220.9</ele>
      </trkpt>
      <trkpt lat="50.975003" lon="10.321344">
        <ele>220.9</ele>
        <name>50.975003,10.321344</name>
        <extensions>
          <oa:mapZoom>17</oa:mapZoom>
        </extensions>
      </trkpt>
      <trkpt lat="50.975001" lon="10.321572">
        <ele>220.7</ele>
      </trkpt>
      <trkpt lat="50.974995" lon="10.322203">
        <ele>220.1</ele>
      </trkpt>
      <trkpt lat="50.974992" lon="10.32247">
        <ele>219.8</ele>
      </trkpt>
      <trkpt lat="50.974992" lon="10.32247">
        <ele>219.8</ele>
        <name>50.974992,10.322470</name>
        <extensions>
          <oa:mapZoom>16</oa:mapZoom>
        </extensions>
      </trkpt>
      <trkpt lat="50.974988" lon="10.322835">
        <ele>219.4</ele>
      </trkpt>
      <trkpt lat="50.974982" lon="10.323467">
        <ele>219.1</ele>
      </trkpt>
      <trkpt lat="50.975327" lon="10.323301">
        <ele>219.1</ele>
      </trkpt>
      <trkpt lat="50.975672" lon="10.323136">
        <ele>219.8</ele>
      </trkpt>
      <trkpt lat="50.976016" lon="10.32297">
        <ele>220.0</ele>
      </trkpt>
      <trkpt lat="50.976257" lon="10.322865">
        <ele>219.1</ele>
      </trkpt>
      <trkpt lat="50.976414" lon="10.322797">
        <ele>218.5</ele>
      </trkpt>
      <trkpt lat="50.976414" lon="10.322797">
        <ele>218.5</ele>
        <name>50.976414,10.322797</name>
        <extensions>
          <oa:mapZoom>16</oa:mapZoom>
        </extensions>
      </trkpt>
      <trkpt lat="50.976498" lon="10.32276">
        <ele>218.3</ele>
      </trkpt>
      <trkpt lat="50.976556" lon="10.323137">
        <ele>217.6</ele>
      </trkpt>
      <trkpt lat="50.976614" lon="10.323513">
        <ele>217.3</ele>
      </trkpt>
      <trkpt lat="50.976681" lon="10.32389">
        <ele>217.2</ele>
      </trkpt>
      <trkpt lat="50.976749" lon="10.324266">
        <ele>217.1</ele>
      </trkpt>
      <trkpt lat="50.976822" lon="10.324789">
        <ele>217.1</ele>
      </trkpt>
      <trkpt lat="50.976822" lon="10.324789">
        <ele>217.1</ele>
        <name>50.976822,10.324789</name>
        <extensions>
          <oa:mapZoom>16</oa:mapZoom>
        </extensions>
      </trkpt>
      <trkpt lat="50.97683" lon="10.324846">
        <ele>217.1</ele>
      </trkpt>
      <trkpt lat="50.976789" lon="10.324977">
        <ele>217.2</ele>
      </trkpt>
      <trkpt lat="50.976751" lon="10.325101">
        <ele>217.2</ele>
      </trkpt>
      <trkpt lat="50.976457" lon="10.325221">
        <ele>217.4</ele>
      </trkpt>
      <trkpt lat="50.976163" lon="10.325341">
        <ele>218.0</ele>
      </trkpt>
      <trkpt lat="50.976105" lon="10.325378">
        <ele>218.1</ele>
        <name>50.976105,10.325378</name>
        <extensions>
          <oa:mapZoom>16</oa:mapZoom>
        </extensions>
      </trkpt>
    </trkseg>
  </trk>
</gpx>