<?xml version='1.0' encoding='UTF-8'?>
<gpx version="1.1" creator="https://www.komoot.de" xmlns="http://www.topografix.com/GPX/1/1" xmlns:xsi="http://www.w3.org/2001/XMLSchema-instance" xsi:schemaLocation="http://www.topografix.com/GPX/1/1 http://www.topografix.com/GPX/1/1/gpx.xsd">
  <metadata>
    <name>DVV PW Greifenstein Dreiburgenwanderweg am 07.09.2021</name>
    <author>
      <link href="https://www.komoot.de">
        <text>komoot</text>
        <type>text/html</type>
      </link>
    </author>
  </metadata>
  <trk>
    <name>DVV PW Greifenstein Dreiburgenwanderweg am 07.09.2021</name>
    <trkseg>
      <trkpt lat="50.609942" lon="8.236078">
        <ele>382.273063</ele>
        <time>2022-11-01T07:21:14.907Z</time>
      </trkpt>
      <trkpt lat="50.609779" lon="8.236453">
        <ele>382.273063</ele>
        <time>2022-11-01T07:21:45.791Z</time>
      </trkpt>
      <trkpt lat="50.609676" lon="8.236875">
        <ele>382.273063</ele>
        <time>2022-11-01T07:22:17.005Z</time>
      </trkpt>
      <trkpt lat="50.609605" lon="8.237594">
        <ele>381.518991</ele>
        <time>2022-11-01T07:23:07.549Z</time>
      </trkpt>
      <trkpt lat="50.608782" lon="8.237481">
        <ele>376.998882</ele>
        <time>2022-11-01T07:24:39.883Z</time>
      </trkpt>
      <trkpt lat="50.608744" lon="8.237659">
        <ele>376.346781</ele>
        <time>2022-11-01T07:24:53.289Z</time>
      </trkpt>
      <trkpt lat="50.608636" lon="8.238168">
        <ele>374.483215</ele>
        <time>2022-11-01T07:25:31.523Z</time>
      </trkpt>
      <trkpt lat="50.608664" lon="8.238670">
        <ele>372.733405</ele>
        <time>2022-11-01T07:26:07.294Z</time>
      </trkpt>
      <trkpt lat="50.608815" lon="8.239399">
        <ele>370.956728</ele>
        <time>2022-11-01T07:27:00.913Z</time>
      </trkpt>
      <trkpt lat="50.609009" lon="8.239946">
        <ele>369.597423</ele>
        <time>2022-11-01T07:27:43.307Z</time>
      </trkpt>
      <trkpt lat="50.609004" lon="8.240312">
        <ele>368.803298</ele>
        <time>2022-11-01T07:28:07.908Z</time>
      </trkpt>
      <trkpt lat="50.609101" lon="8.240541">
        <ele>368.206052</ele>
        <time>2022-11-01T07:28:26.624Z</time>
      </trkpt>
      <trkpt lat="50.609176" lon="8.241519">
        <ele>366.145902</ele>
        <time>2022-11-01T07:29:32.333Z</time>
      </trkpt>
      <trkpt lat="50.609227" lon="8.241595">
        <ele>365.991864</ele>
        <time>2022-11-01T07:29:39.667Z</time>
      </trkpt>
      <trkpt lat="50.609473" lon="8.241639">
        <ele>365.448556</ele>
        <time>2022-11-01T07:30:05.033Z</time>
      </trkpt>
      <trkpt lat="50.609490" lon="8.242215">
        <ele>364.645540</ele>
        <time>2022-11-01T07:30:43.000Z</time>
      </trkpt>
      <trkpt lat="50.609594" lon="8.242546">
        <ele>364.131179</ele>
        <time>2022-11-01T07:31:07.476Z</time>
      </trkpt>
      <trkpt lat="50.609868" lon="8.242831">
        <ele>363.410713</ele>
        <time>2022-11-01T07:31:42.031Z</time>
      </trkpt>
      <trkpt lat="50.610064" lon="8.243237">
        <ele>362.700308</ele>
        <time>2022-11-01T07:32:16.104Z</time>
      </trkpt>
      <trkpt lat="50.610135" lon="8.243252">
        <ele>362.543106</ele>
        <time>2022-11-01T07:32:23.617Z</time>
      </trkpt>
      <trkpt lat="50.610304" lon="8.243971">
        <ele>361.889163</ele>
        <time>2022-11-01T07:33:15.296Z</time>
      </trkpt>
      <trkpt lat="50.610865" lon="8.246361">
        <ele>360.994453</ele>
        <time>2022-11-01T07:36:00.196Z</time>
      </trkpt>
      <trkpt lat="50.610959" lon="8.246360">
        <ele>361.310211</ele>
        <time>2022-11-01T07:36:11.214Z</time>
      </trkpt>
      <trkpt lat="50.611192" lon="8.246649">
        <ele>362.306226</ele>
        <time>2022-11-01T07:36:42.731Z</time>
      </trkpt>
      <trkpt lat="50.611438" lon="8.246802">
        <ele>363.194581</ele>
        <time>2022-11-01T07:37:11.742Z</time>
      </trkpt>
      <trkpt lat="50.612068" lon="8.246764">
        <ele>365.312332</ele>
        <time>2022-11-01T07:38:24.750Z</time>
      </trkpt>
      <trkpt lat="50.612351" lon="8.246832">
        <ele>366.273929</ele>
        <time>2022-11-01T07:39:00.396Z</time>
      </trkpt>
      <trkpt lat="50.612486" lon="8.247039">
        <ele>367.256870</ele>
        <time>2022-11-01T07:39:22.785Z</time>
      </trkpt>
      <trkpt lat="50.612586" lon="8.247313">
        <ele>368.338293</ele>
        <time>2022-11-01T07:39:47.041Z</time>
      </trkpt>
      <trkpt lat="50.612788" lon="8.248316">
        <ele>371.938521</ele>
        <time>2022-11-01T07:41:07.944Z</time>
      </trkpt>
      <trkpt lat="50.613065" lon="8.248596">
        <ele>373.712817</ele>
        <time>2022-11-01T07:41:47.571Z</time>
      </trkpt>
      <trkpt lat="50.613133" lon="8.248779">
        <ele>374.438354</ele>
        <time>2022-11-01T07:42:03.115Z</time>
      </trkpt>
      <trkpt lat="50.613199" lon="8.249359">
        <ele>376.487145</ele>
        <time>2022-11-01T07:42:44.261Z</time>
      </trkpt>
      <trkpt lat="50.613216" lon="8.249820">
        <ele>378.187849</ele>
        <time>2022-11-01T07:43:17.774Z</time>
      </trkpt>
      <trkpt lat="50.613064" lon="8.250643">
        <ele>381.344698</ele>
        <time>2022-11-01T07:44:21.756Z</time>
      </trkpt>
      <trkpt lat="50.612942" lon="8.251339">
        <ele>384.004044</ele>
        <time>2022-11-01T07:45:17.302Z</time>
      </trkpt>
      <trkpt lat="50.612900" lon="8.251533">
        <ele>384.758980</ele>
        <time>2022-11-01T07:45:33.248Z</time>
      </trkpt>
      <trkpt lat="50.613320" lon="8.251450">
        <ele>387.325242</ele>
        <time>2022-11-01T07:46:28.450Z</time>
      </trkpt>
      <trkpt lat="50.613318" lon="8.251800">
        <ele>388.802242</ele>
        <time>2022-11-01T07:46:56.236Z</time>
      </trkpt>
      <trkpt lat="50.614584" lon="8.251898">
        <ele>397.231420</ele>
        <time>2022-11-01T07:49:34.081Z</time>
      </trkpt>
      <trkpt lat="50.614497" lon="8.252429">
        <ele>398.502519</ele>
        <time>2022-11-01T07:50:14.383Z</time>
      </trkpt>
      <trkpt lat="50.614504" lon="8.253083">
        <ele>398.691459</ele>
        <time>2022-11-01T07:51:00.018Z</time>
      </trkpt>
      <trkpt lat="50.614558" lon="8.253813">
        <ele>398.903753</ele>
        <time>2022-11-01T07:51:46.812Z</time>
      </trkpt>
      <trkpt lat="50.614674" lon="8.254446">
        <ele>399.094072</ele>
        <time>2022-11-01T07:52:31.077Z</time>
      </trkpt>
      <trkpt lat="50.614946" lon="8.255068">
        <ele>399.209927</ele>
        <time>2022-11-01T07:53:21.482Z</time>
      </trkpt>
      <trkpt lat="50.615249" lon="8.255622">
        <ele>399.101389</ele>
        <time>2022-11-01T07:54:09.026Z</time>
      </trkpt>
      <trkpt lat="50.615409" lon="8.255916">
        <ele>399.043911</ele>
        <time>2022-11-01T07:54:34.139Z</time>
      </trkpt>
      <trkpt lat="50.616471" lon="8.257353">
        <ele>398.865679</ele>
        <time>2022-11-01T07:56:59.352Z</time>
      </trkpt>
      <trkpt lat="50.616880" lon="8.258287">
        <ele>398.930980</ele>
        <time>2022-11-01T07:58:13.095Z</time>
      </trkpt>
      <trkpt lat="50.616927" lon="8.258726">
        <ele>398.956597</ele>
        <time>2022-11-01T07:58:41.526Z</time>
      </trkpt>
      <trkpt lat="50.616914" lon="8.258995">
        <ele>398.972121</ele>
        <time>2022-11-01T07:58:58.829Z</time>
      </trkpt>
      <trkpt lat="50.616839" lon="8.259220">
        <ele>398.986746</ele>
        <time>2022-11-01T07:59:15.750Z</time>
      </trkpt>
      <trkpt lat="50.616750" lon="8.259317">
        <ele>398.897507</ele>
        <time>2022-11-01T07:59:27.222Z</time>
      </trkpt>
      <trkpt lat="50.616192" lon="8.259488">
        <ele>398.407723</ele>
        <time>2022-11-01T08:00:26.523Z</time>
      </trkpt>
      <trkpt lat="50.615920" lon="8.259724">
        <ele>398.140195</ele>
        <time>2022-11-01T08:00:59.100Z</time>
      </trkpt>
      <trkpt lat="50.615716" lon="8.260025">
        <ele>397.899416</ele>
        <time>2022-11-01T08:01:27.923Z</time>
      </trkpt>
      <trkpt lat="50.615527" lon="8.260637">
        <ele>397.527305</ele>
        <time>2022-11-01T08:02:11.271Z</time>
      </trkpt>
      <trkpt lat="50.615489" lon="8.261235">
        <ele>398.857146</ele>
        <time>2022-11-01T08:02:51.789Z</time>
      </trkpt>
      <trkpt lat="50.615559" lon="8.261806">
        <ele>400.748593</ele>
        <time>2022-11-01T08:03:33.599Z</time>
      </trkpt>
      <trkpt lat="50.615805" lon="8.262446">
        <ele>403.182236</ele>
        <time>2022-11-01T08:04:29.633Z</time>
      </trkpt>
      <trkpt lat="50.615886" lon="8.262610">
        <ele>403.858162</ele>
        <time>2022-11-01T08:04:46.689Z</time>
      </trkpt>
      <trkpt lat="50.616070" lon="8.262793">
        <ele>404.973389</ele>
        <time>2022-11-01T08:05:13.680Z</time>
      </trkpt>
      <trkpt lat="50.616321" lon="8.262868">
        <ele>406.282862</ele>
        <time>2022-11-01T08:05:46.800Z</time>
      </trkpt>
      <trkpt lat="50.616733" lon="8.262844">
        <ele>409.468594</ele>
        <time>2022-11-01T08:06:39.121Z</time>
      </trkpt>
      <trkpt lat="50.617520" lon="8.262965">
        <ele>416.020795</ele>
        <time>2022-11-01T08:08:20.850Z</time>
      </trkpt>
      <trkpt lat="50.617724" lon="8.263072">
        <ele>417.802333</ele>
        <time>2022-11-01T08:08:47.614Z</time>
      </trkpt>
      <trkpt lat="50.617901" lon="8.263319">
        <ele>419.761278</ele>
        <time>2022-11-01T08:09:17.634Z</time>
      </trkpt>
      <trkpt lat="50.618207" lon="8.263544">
        <ele>422.771150</ele>
        <time>2022-11-01T08:10:01.146Z</time>
      </trkpt>
      <trkpt lat="50.619357" lon="8.263254">
        <ele>434.469559</ele>
        <time>2022-11-01T08:12:35.522Z</time>
      </trkpt>
      <trkpt lat="50.620031" lon="8.263158">
        <ele>441.311576</ele>
        <time>2022-11-01T08:14:10.142Z</time>
      </trkpt>
      <trkpt lat="50.620746" lon="8.262911">
        <ele>448.862500</ele>
        <time>2022-11-01T08:15:54.046Z</time>
      </trkpt>
      <trkpt lat="50.622263" lon="8.262157">
        <ele>462.261158</ele>
        <time>2022-11-01T08:19:21.724Z</time>
      </trkpt>
      <trkpt lat="50.622910" lon="8.262662">
        <ele>466.546560</ele>
        <time>2022-11-01T08:20:46.309Z</time>
      </trkpt>
      <trkpt lat="50.623446" lon="8.263561">
        <ele>469.874563</ele>
        <time>2022-11-01T08:22:12.185Z</time>
      </trkpt>
      <trkpt lat="50.623590" lon="8.263625">
        <ele>470.261263</ele>
        <time>2022-11-01T08:22:27.763Z</time>
      </trkpt>
      <trkpt lat="50.623688" lon="8.263661">
        <ele>470.521345</ele>
        <time>2022-11-01T08:22:38.680Z</time>
      </trkpt>
      <trkpt lat="50.624257" lon="8.264577">
        <ele>472.623434</ele>
        <time>2022-11-01T08:24:05.982Z</time>
      </trkpt>
      <trkpt lat="50.624088" lon="8.264807">
        <ele>473.200519</ele>
        <time>2022-11-01T08:24:30.247Z</time>
      </trkpt>
      <trkpt lat="50.624987" lon="8.268683">
        <ele>482.978422</ele>
        <time>2022-11-01T08:29:27.146Z</time>
      </trkpt>
      <trkpt lat="50.624901" lon="8.269268">
        <ele>484.528201</ele>
        <time>2022-11-01T08:30:11.074Z</time>
      </trkpt>
      <trkpt lat="50.624870" lon="8.270241">
        <ele>487.042495</ele>
        <time>2022-11-01T08:31:21.393Z</time>
      </trkpt>
      <trkpt lat="50.624869" lon="8.270913">
        <ele>488.907020</ele>
        <time>2022-11-01T08:32:10.890Z</time>
      </trkpt>
      <trkpt lat="50.624802" lon="8.271326">
        <ele>490.114706</ele>
        <time>2022-11-01T08:32:42.218Z</time>
      </trkpt>
      <trkpt lat="50.624807" lon="8.272307">
        <ele>492.893989</ele>
        <time>2022-11-01T08:33:55.232Z</time>
      </trkpt>
      <trkpt lat="50.624749" lon="8.272992">
        <ele>494.851817</ele>
        <time>2022-11-01T08:34:47.083Z</time>
      </trkpt>
      <trkpt lat="50.624509" lon="8.274995">
        <ele>497.477533</ele>
        <time>2022-11-01T08:37:10.200Z</time>
      </trkpt>
      <trkpt lat="50.624844" lon="8.276348">
        <ele>497.438320</ele>
        <time>2022-11-01T08:38:43.468Z</time>
      </trkpt>
      <trkpt lat="50.624916" lon="8.277274">
        <ele>494.953358</ele>
        <time>2022-11-01T08:39:46.661Z</time>
      </trkpt>
      <trkpt lat="50.625058" lon="8.278256">
        <ele>492.270606</ele>
        <time>2022-11-01T08:40:57.762Z</time>
      </trkpt>
      <trkpt lat="50.625064" lon="8.279073">
        <ele>489.250075</ele>
        <time>2022-11-01T08:41:56.815Z</time>
      </trkpt>
      <trkpt lat="50.624697" lon="8.280197">
        <ele>482.894070</ele>
        <time>2022-11-01T08:43:30.338Z</time>
      </trkpt>
      <trkpt lat="50.624190" lon="8.281992">
        <ele>473.346793</ele>
        <time>2022-11-01T08:45:55.701Z</time>
      </trkpt>
      <trkpt lat="50.623804" lon="8.283939">
        <ele>463.992430</ele>
        <time>2022-11-01T08:48:23.788Z</time>
      </trkpt>
      <trkpt lat="50.623692" lon="8.284499">
        <ele>462.107209</ele>
        <time>2022-11-01T08:49:05.042Z</time>
      </trkpt>
      <trkpt lat="50.623680" lon="8.284873">
        <ele>460.947032</ele>
        <time>2022-11-01T08:49:31.013Z</time>
      </trkpt>
      <trkpt lat="50.623763" lon="8.285639">
        <ele>458.539512</ele>
        <time>2022-11-01T08:50:25.301Z</time>
      </trkpt>
      <trkpt lat="50.623937" lon="8.286398">
        <ele>456.039232</ele>
        <time>2022-11-01T08:51:21.477Z</time>
      </trkpt>
      <trkpt lat="50.623942" lon="8.286699">
        <ele>455.106385</ele>
        <time>2022-11-01T08:51:42.257Z</time>
      </trkpt>
      <trkpt lat="50.623884" lon="8.287031">
        <ele>454.453170</ele>
        <time>2022-11-01T08:52:05.686Z</time>
      </trkpt>
      <trkpt lat="50.623756" lon="8.287191">
        <ele>453.997166</ele>
        <time>2022-11-01T08:52:23.015Z</time>
      </trkpt>
      <trkpt lat="50.623581" lon="8.287276">
        <ele>453.486011</ele>
        <time>2022-11-01T08:52:42.375Z</time>
      </trkpt>
      <trkpt lat="50.623248" lon="8.287767">
        <ele>452.213200</ele>
        <time>2022-11-01T08:53:30.443Z</time>
      </trkpt>
      <trkpt lat="50.623967" lon="8.288771">
        <ele>449.573242</ele>
        <time>2022-11-01T08:55:11.103Z</time>
      </trkpt>
      <trkpt lat="50.624240" lon="8.289828">
        <ele>447.736743</ele>
        <time>2022-11-01T08:56:26.895Z</time>
      </trkpt>
      <trkpt lat="50.624431" lon="8.290300">
        <ele>446.835835</ele>
        <time>2022-11-01T08:57:03.759Z</time>
      </trkpt>
      <trkpt lat="50.624507" lon="8.290438">
        <ele>446.541762</ele>
        <time>2022-11-01T08:57:15.987Z</time>
      </trkpt>
      <trkpt lat="50.624673" lon="8.290740">
        <ele>445.898742</ele>
        <time>2022-11-01T08:57:42.888Z</time>
      </trkpt>
      <trkpt lat="50.624949" lon="8.291095">
        <ele>444.733384</ele>
        <time>2022-11-01T08:58:21.347Z</time>
      </trkpt>
      <trkpt lat="50.625186" lon="8.290563">
        <ele>443.045805</ele>
        <time>2022-11-01T08:59:06.032Z</time>
      </trkpt>
      <trkpt lat="50.625374" lon="8.290494">
        <ele>442.255913</ele>
        <time>2022-11-01T08:59:26.835Z</time>
      </trkpt>
      <trkpt lat="50.625350" lon="8.290941">
        <ele>441.091361</ele>
        <time>2022-11-01T08:59:57.905Z</time>
      </trkpt>
      <trkpt lat="50.625323" lon="8.291108">
        <ele>440.643974</ele>
        <time>2022-11-01T09:00:09.881Z</time>
      </trkpt>
      <trkpt lat="50.625141" lon="8.291532">
        <ele>439.314986</ele>
        <time>2022-11-01T09:00:45.381Z</time>
      </trkpt>
      <trkpt lat="50.624959" lon="8.291987">
        <ele>437.880555</ele>
        <time>2022-11-01T09:01:22.380Z</time>
      </trkpt>
      <trkpt lat="50.624903" lon="8.292126">
        <ele>437.339466</ele>
        <time>2022-11-01T09:01:33.683Z</time>
      </trkpt>
      <trkpt lat="50.624780" lon="8.292462">
        <ele>436.064702</ele>
        <time>2022-11-01T09:02:00.401Z</time>
      </trkpt>
      <trkpt lat="50.624722" lon="8.292873">
        <ele>434.681105</ele>
        <time>2022-11-01T09:02:29.714Z</time>
      </trkpt>
      <trkpt lat="50.624671" lon="8.293766">
        <ele>431.734750</ele>
        <time>2022-11-01T09:03:32.477Z</time>
      </trkpt>
      <trkpt lat="50.624552" lon="8.294109">
        <ele>430.450075</ele>
        <time>2022-11-01T09:04:00.536Z</time>
      </trkpt>
      <trkpt lat="50.624375" lon="8.294251">
        <ele>429.421322</ele>
        <time>2022-11-01T09:04:22.799Z</time>
      </trkpt>
      <trkpt lat="50.624025" lon="8.294343">
        <ele>427.696562</ele>
        <time>2022-11-01T09:05:02.677Z</time>
      </trkpt>
      <trkpt lat="50.624128" lon="8.295287">
        <ele>424.855700</ele>
        <time>2022-11-01T09:06:10.730Z</time>
      </trkpt>
      <trkpt lat="50.624290" lon="8.295706">
        <ele>423.400419</ele>
        <time>2022-11-01T09:06:45.583Z</time>
      </trkpt>
      <trkpt lat="50.624225" lon="8.295778">
        <ele>423.029018</ele>
        <time>2022-11-01T09:06:54.143Z</time>
      </trkpt>
      <trkpt lat="50.623686" lon="8.295872">
        <ele>420.493821</ele>
        <time>2022-11-01T09:07:51.875Z</time>
      </trkpt>
      <trkpt lat="50.623255" lon="8.295931">
        <ele>421.086120</ele>
        <time>2022-11-01T09:08:37.100Z</time>
      </trkpt>
      <trkpt lat="50.623030" lon="8.295962">
        <ele>421.510566</ele>
        <time>2022-11-01T09:08:59.808Z</time>
      </trkpt>
      <trkpt lat="50.622871" lon="8.295986">
        <ele>421.810735</ele>
        <time>2022-11-01T09:09:15.797Z</time>
      </trkpt>
      <trkpt lat="50.622864" lon="8.295939">
        <ele>421.868294</ele>
        <time>2022-11-01T09:09:19.327Z</time>
      </trkpt>
      <trkpt lat="50.622815" lon="8.295647">
        <ele>422.228402</ele>
        <time>2022-11-01T09:09:40.586Z</time>
      </trkpt>
      <trkpt lat="50.622787" lon="8.295390">
        <ele>422.539294</ele>
        <time>2022-11-01T09:09:59.941Z</time>
      </trkpt>
      <trkpt lat="50.622247" lon="8.295586">
        <ele>423.580652</ele>
        <time>2022-11-01T09:11:06.486Z</time>
      </trkpt>
      <trkpt lat="50.621969" lon="8.295280">
        <ele>424.829619</ele>
        <time>2022-11-01T09:11:45.398Z</time>
      </trkpt>
      <trkpt lat="50.621849" lon="8.295307">
        <ele>425.335375</ele>
        <time>2022-11-01T09:11:58.349Z</time>
      </trkpt>
      <trkpt lat="50.621648" lon="8.294910">
        <ele>426.679881</ele>
        <time>2022-11-01T09:12:36.053Z</time>
      </trkpt>
      <trkpt lat="50.621611" lon="8.294845">
        <ele>426.911046</ele>
        <time>2022-11-01T09:12:42.572Z</time>
      </trkpt>
      <trkpt lat="50.621520" lon="8.294708">
        <ele>427.436094</ele>
        <time>2022-11-01T09:12:57.346Z</time>
      </trkpt>
      <trkpt lat="50.621361" lon="8.294447">
        <ele>428.393924</ele>
        <time>2022-11-01T09:13:24.302Z</time>
      </trkpt>
      <trkpt lat="50.621160" lon="8.294562">
        <ele>429.286105</ele>
        <time>2022-11-01T09:13:49.611Z</time>
      </trkpt>
      <trkpt lat="50.620958" lon="8.294701">
        <ele>430.205736</ele>
        <time>2022-11-01T09:14:14.478Z</time>
      </trkpt>
      <trkpt lat="50.620685" lon="8.294955">
        <ele>431.115505</ele>
        <time>2022-11-01T09:14:50.094Z</time>
      </trkpt>
      <trkpt lat="50.620635" lon="8.295003">
        <ele>431.031618</ele>
        <time>2022-11-01T09:14:56.369Z</time>
      </trkpt>
      <trkpt lat="50.620685" lon="8.294955">
        <ele>430.947732</ele>
        <time>2022-11-01T09:15:03.298Z</time>
      </trkpt>
      <trkpt lat="50.620958" lon="8.294701">
        <ele>430.493487</ele>
        <time>2022-11-01T09:15:35.913Z</time>
      </trkpt>
      <trkpt lat="50.621160" lon="8.294562">
        <ele>430.177664</ele>
        <time>2022-11-01T09:15:58.485Z</time>
      </trkpt>
      <trkpt lat="50.621361" lon="8.294447">
        <ele>429.871268</ele>
        <time>2022-11-01T09:16:21.300Z</time>
      </trkpt>
      <trkpt lat="50.621313" lon="8.294205">
        <ele>429.640770</ele>
        <time>2022-11-01T09:16:39.644Z</time>
      </trkpt>
      <trkpt lat="50.621348" lon="8.293957">
        <ele>429.409808</ele>
        <time>2022-11-01T09:16:57.220Z</time>
      </trkpt>
      <trkpt lat="50.621317" lon="8.293838">
        <ele>429.292863</ele>
        <time>2022-11-01T09:17:06.164Z</time>
      </trkpt>
      <trkpt lat="50.621173" lon="8.293287">
        <ele>428.751126</ele>
        <time>2022-11-01T09:17:46.009Z</time>
      </trkpt>
      <trkpt lat="50.621237" lon="8.293152">
        <ele>428.532458</ele>
        <time>2022-11-01T09:17:57.069Z</time>
      </trkpt>
      <trkpt lat="50.620909" lon="8.292950">
        <ele>427.308223</ele>
        <time>2022-11-01T09:18:33.469Z</time>
      </trkpt>
      <trkpt lat="50.620906" lon="8.292626">
        <ele>426.593517</ele>
        <time>2022-11-01T09:18:54.998Z</time>
      </trkpt>
      <trkpt lat="50.620776" lon="8.292352">
        <ele>425.838874</ele>
        <time>2022-11-01T09:19:19.333Z</time>
      </trkpt>
      <trkpt lat="50.621027" lon="8.291826">
        <ele>424.387179</ele>
        <time>2022-11-01T09:20:04.819Z</time>
      </trkpt>
      <trkpt lat="50.621054" lon="8.291766">
        <ele>424.224933</ele>
        <time>2022-11-01T09:20:09.642Z</time>
      </trkpt>
      <trkpt lat="50.621208" lon="8.291756">
        <ele>423.689101</ele>
        <time>2022-11-01T09:20:26.727Z</time>
      </trkpt>
      <trkpt lat="50.621365" lon="8.291816">
        <ele>423.127480</ele>
        <time>2022-11-01T09:20:44.593Z</time>
      </trkpt>
      <trkpt lat="50.621479" lon="8.291687">
        <ele>422.639604</ele>
        <time>2022-11-01T09:20:59.587Z</time>
      </trkpt>
      <trkpt lat="50.621612" lon="8.291390">
        <ele>422.427236</ele>
        <time>2022-11-01T09:21:24.396Z</time>
      </trkpt>
      <trkpt lat="50.621301" lon="8.290884">
        <ele>422.529367</ele>
        <time>2022-11-01T09:22:10.188Z</time>
      </trkpt>
      <trkpt lat="50.621211" lon="8.290612">
        <ele>422.573839</ele>
        <time>2022-11-01T09:22:30.351Z</time>
      </trkpt>
      <trkpt lat="50.621106" lon="8.289969">
        <ele>422.670093</ele>
        <time>2022-11-01T09:23:14.866Z</time>
      </trkpt>
      <trkpt lat="50.621038" lon="8.289390">
        <ele>422.755456</ele>
        <time>2022-11-01T09:23:54.172Z</time>
      </trkpt>
      <trkpt lat="50.620942" lon="8.288516">
        <ele>424.152672</ele>
        <time>2022-11-01T09:24:54.638Z</time>
      </trkpt>
      <trkpt lat="50.620744" lon="8.286571">
        <ele>428.846968</ele>
        <time>2022-11-01T09:27:17.711Z</time>
      </trkpt>
      <trkpt lat="50.620215" lon="8.285459">
        <ele>432.871498</ele>
        <time>2022-11-01T09:29:01.388Z</time>
      </trkpt>
      <trkpt lat="50.620065" lon="8.285140">
        <ele>434.076839</ele>
        <time>2022-11-01T09:29:30.744Z</time>
      </trkpt>
      <trkpt lat="50.619686" lon="8.284279">
        <ele>437.258023</ele>
        <time>2022-11-01T09:30:47.840Z</time>
      </trkpt>
      <trkpt lat="50.619609" lon="8.283693">
        <ele>439.049548</ele>
        <time>2022-11-01T09:31:32.231Z</time>
      </trkpt>
      <trkpt lat="50.619671" lon="8.283314">
        <ele>440.204915</ele>
        <time>2022-11-01T09:32:01.539Z</time>
      </trkpt>
      <trkpt lat="50.619098" lon="8.283177">
        <ele>442.901359</ele>
        <time>2022-11-01T09:33:09.586Z</time>
      </trkpt>
      <trkpt lat="50.618846" lon="8.283117">
        <ele>444.087119</ele>
        <time>2022-11-01T09:33:40.426Z</time>
      </trkpt>
      <trkpt lat="50.618725" lon="8.283091">
        <ele>444.655292</ele>
        <time>2022-11-01T09:33:54.595Z</time>
      </trkpt>
      <trkpt lat="50.618693" lon="8.283028">
        <ele>444.893521</ele>
        <time>2022-11-01T09:34:00.555Z</time>
      </trkpt>
      <trkpt lat="50.618587" lon="8.282845">
        <ele>445.624994</ele>
        <time>2022-11-01T09:34:18.903Z</time>
      </trkpt>
      <trkpt lat="50.618296" lon="8.282343">
        <ele>446.523750</ele>
        <time>2022-11-01T09:35:07.304Z</time>
      </trkpt>
      <trkpt lat="50.618248" lon="8.281764">
        <ele>446.510856</ele>
        <time>2022-11-01T09:35:46.745Z</time>
      </trkpt>
      <trkpt lat="50.618043" lon="8.281358">
        <ele>446.499398</ele>
        <time>2022-11-01T09:36:21.219Z</time>
      </trkpt>
      <trkpt lat="50.617137" lon="8.280537">
        <ele>445.319636</ele>
        <time>2022-11-01T09:38:10.573Z</time>
      </trkpt>
      <trkpt lat="50.616760" lon="8.280409">
        <ele>442.891756</ele>
        <time>2022-11-01T09:38:53.567Z</time>
      </trkpt>
      <trkpt lat="50.616679" lon="8.280458">
        <ele>442.345540</ele>
        <time>2022-11-01T09:39:03.098Z</time>
      </trkpt>
      <trkpt lat="50.616315" lon="8.281092">
        <ele>438.930093</ele>
        <time>2022-11-01T09:40:06.608Z</time>
      </trkpt>
      <trkpt lat="50.616124" lon="8.281136">
        <ele>437.714861</ele>
        <time>2022-11-01T09:40:28.128Z</time>
      </trkpt>
      <trkpt lat="50.615928" lon="8.281290">
        <ele>436.336084</ele>
        <time>2022-11-01T09:40:54.107Z</time>
      </trkpt>
      <trkpt lat="50.615642" lon="8.280364">
        <ele>432.361985</ele>
        <time>2022-11-01T09:42:08.480Z</time>
      </trkpt>
      <trkpt lat="50.614631" lon="8.277518">
        <ele>420.691646</ele>
        <time>2022-11-01T09:45:58.762Z</time>
      </trkpt>
      <trkpt lat="50.614421" lon="8.276735">
        <ele>417.997872</ele>
        <time>2022-11-01T09:46:56.820Z</time>
      </trkpt>
      <trkpt lat="50.614260" lon="8.276835">
        <ele>417.133639</ele>
        <time>2022-11-01T09:47:16.709Z</time>
      </trkpt>
      <trkpt lat="50.613395" lon="8.277081">
        <ele>411.060048</ele>
        <time>2022-11-01T09:48:52.692Z</time>
      </trkpt>
      <trkpt lat="50.613279" lon="8.277204">
        <ele>409.916038</ele>
        <time>2022-11-01T09:49:09.296Z</time>
      </trkpt>
      <trkpt lat="50.613199" lon="8.277400">
        <ele>408.706025</ele>
        <time>2022-11-01T09:49:26.302Z</time>
      </trkpt>
      <trkpt lat="50.613105" lon="8.278069">
        <ele>405.148326</ele>
        <time>2022-11-01T09:50:17.565Z</time>
      </trkpt>
      <trkpt lat="50.612968" lon="8.278144">
        <ele>403.961624</ele>
        <time>2022-11-01T09:50:34.686Z</time>
      </trkpt>
      <trkpt lat="50.612699" lon="8.278080">
        <ele>401.735614</ele>
        <time>2022-11-01T09:51:07.206Z</time>
      </trkpt>
      <trkpt lat="50.612012" lon="8.277371">
        <ele>391.395565</ele>
        <time>2022-11-01T09:52:48.918Z</time>
      </trkpt>
      <trkpt lat="50.611800" lon="8.277448">
        <ele>388.474335</ele>
        <time>2022-11-01T09:53:16.118Z</time>
      </trkpt>
      <trkpt lat="50.611724" lon="8.277167">
        <ele>385.871639</ele>
        <time>2022-11-01T09:53:40.825Z</time>
      </trkpt>
      <trkpt lat="50.611671" lon="8.276512">
        <ele>380.245432</ele>
        <time>2022-11-01T09:54:35.175Z</time>
      </trkpt>
      <trkpt lat="50.611583" lon="8.276386">
        <ele>378.648931</ele>
        <time>2022-11-01T09:54:50.352Z</time>
      </trkpt>
      <trkpt lat="50.611351" lon="8.276233">
        <ele>375.329210</ele>
        <time>2022-11-01T09:55:23.360Z</time>
      </trkpt>
      <trkpt lat="50.611230" lon="8.275844">
        <ele>371.807995</ele>
        <time>2022-11-01T09:55:58.621Z</time>
      </trkpt>
      <trkpt lat="50.611121" lon="8.274379">
        <ele>359.818853</ele>
        <time>2022-11-01T09:57:55.863Z</time>
      </trkpt>
      <trkpt lat="50.610956" lon="8.273655">
        <ele>353.566143</ele>
        <time>2022-11-01T09:58:54.841Z</time>
      </trkpt>
      <trkpt lat="50.611024" lon="8.272796">
        <ele>348.436793</ele>
        <time>2022-11-01T10:00:01.016Z</time>
      </trkpt>
      <trkpt lat="50.611020" lon="8.271590">
        <ele>341.325388</ele>
        <time>2022-11-01T10:01:32.614Z</time>
      </trkpt>
      <trkpt lat="50.611075" lon="8.271301">
        <ele>339.546285</ele>
        <time>2022-11-01T10:01:53.766Z</time>
      </trkpt>
      <trkpt lat="50.611316" lon="8.271232">
        <ele>337.270225</ele>
        <time>2022-11-01T10:02:23.226Z</time>
      </trkpt>
      <trkpt lat="50.611410" lon="8.271122">
        <ele>336.455878</ele>
        <time>2022-11-01T10:02:35.396Z</time>
      </trkpt>
      <trkpt lat="50.611191" lon="8.271076">
        <ele>335.371420</ele>
        <time>2022-11-01T10:03:01.614Z</time>
      </trkpt>
      <trkpt lat="50.610927" lon="8.271185">
        <ele>334.031850</ele>
        <time>2022-11-01T10:03:31.962Z</time>
      </trkpt>
      <trkpt lat="50.610813" lon="8.271308">
        <ele>333.353695</ele>
        <time>2022-11-01T10:03:47.664Z</time>
      </trkpt>
      <trkpt lat="50.610732" lon="8.271395">
        <ele>332.872541</ele>
        <time>2022-11-01T10:03:57.841Z</time>
      </trkpt>
      <trkpt lat="50.610650" lon="8.272054">
        <ele>330.780775</ele>
        <time>2022-11-01T10:04:45.295Z</time>
      </trkpt>
      <trkpt lat="50.610531" lon="8.272435">
        <ele>329.458063</ele>
        <time>2022-11-01T10:05:12.643Z</time>
      </trkpt>
      <trkpt lat="50.610276" lon="8.272568">
        <ele>328.139631</ele>
        <time>2022-11-01T10:05:41.562Z</time>
      </trkpt>
      <trkpt lat="50.610048" lon="8.272803">
        <ele>327.172578</ele>
        <time>2022-11-01T10:06:10.197Z</time>
      </trkpt>
      <trkpt lat="50.609876" lon="8.273254">
        <ele>326.069928</ele>
        <time>2022-11-01T10:06:45.601Z</time>
      </trkpt>
      <trkpt lat="50.609774" lon="8.273872">
        <ele>324.731769</ele>
        <time>2022-11-01T10:07:29.680Z</time>
      </trkpt>
      <trkpt lat="50.609688" lon="8.273982">
        <ele>324.365998</ele>
        <time>2022-11-01T10:07:41.254Z</time>
      </trkpt>
      <trkpt lat="50.609374" lon="8.273724">
        <ele>323.196603</ele>
        <time>2022-11-01T10:08:19.407Z</time>
      </trkpt>
      <trkpt lat="50.609018" lon="8.272719">
        <ele>320.434797</ele>
        <time>2022-11-01T10:09:38.024Z</time>
      </trkpt>
      <trkpt lat="50.608951" lon="8.272730">
        <ele>320.148013</ele>
        <time>2022-11-01T10:09:45.235Z</time>
      </trkpt>
      <trkpt lat="50.609018" lon="8.272719">
        <ele>319.861229</ele>
        <time>2022-11-01T10:09:53.152Z</time>
      </trkpt>
      <trkpt lat="50.609438" lon="8.272640">
        <ele>318.060465</ele>
        <time>2022-11-01T10:10:39.258Z</time>
      </trkpt>
      <trkpt lat="50.609870" lon="8.272127">
        <ele>315.757551</ele>
        <time>2022-11-01T10:11:40.379Z</time>
      </trkpt>
      <trkpt lat="50.610152" lon="8.271473">
        <ele>314.345443</ele>
        <time>2022-11-01T10:12:33.753Z</time>
      </trkpt>
      <trkpt lat="50.610416" lon="8.270324">
        <ele>314.385502</ele>
        <time>2022-11-01T10:13:51.487Z</time>
      </trkpt>
      <trkpt lat="50.610405" lon="8.269578">
        <ele>314.409964</ele>
        <time>2022-11-01T10:14:41.028Z</time>
      </trkpt>
      <trkpt lat="50.610547" lon="8.269066">
        <ele>314.428281</ele>
        <time>2022-11-01T10:15:19.226Z</time>
      </trkpt>
      <trkpt lat="50.610684" lon="8.268777">
        <ele>314.667632</ele>
        <time>2022-11-01T10:15:44.102Z</time>
      </trkpt>
      <trkpt lat="50.611308" lon="8.267867">
        <ele>315.669685</ele>
        <time>2022-11-01T10:17:13.783Z</time>
      </trkpt>
      <trkpt lat="50.611494" lon="8.267349">
        <ele>316.114827</ele>
        <time>2022-11-01T10:17:52.322Z</time>
      </trkpt>
      <trkpt lat="50.611476" lon="8.266677">
        <ele>316.528113</ele>
        <time>2022-11-01T10:18:36.090Z</time>
      </trkpt>
      <trkpt lat="50.611381" lon="8.266134">
        <ele>316.395828</ele>
        <time>2022-11-01T10:19:12.222Z</time>
      </trkpt>
      <trkpt lat="50.611250" lon="8.265510">
        <ele>316.241467</ele>
        <time>2022-11-01T10:19:54.271Z</time>
      </trkpt>
      <trkpt lat="50.611205" lon="8.265365">
        <ele>316.203558</ele>
        <time>2022-11-01T10:20:04.608Z</time>
      </trkpt>
      <trkpt lat="50.610959" lon="8.264465">
        <ele>315.973413</ele>
        <time>2022-11-01T10:21:08.445Z</time>
      </trkpt>
      <trkpt lat="50.610875" lon="8.263445">
        <ele>316.134234</ele>
        <time>2022-11-01T10:22:14.720Z</time>
      </trkpt>
      <trkpt lat="50.610950" lon="8.262711">
        <ele>316.421737</ele>
        <time>2022-11-01T10:23:03.142Z</time>
      </trkpt>
      <trkpt lat="50.610430" lon="8.259385">
        <ele>319.282487</ele>
        <time>2022-11-01T10:26:50.938Z</time>
      </trkpt>
      <trkpt lat="50.610262" lon="8.258261">
        <ele>320.976508</ele>
        <time>2022-11-01T10:28:11.352Z</time>
      </trkpt>
      <trkpt lat="50.609889" lon="8.257294">
        <ele>323.610500</ele>
        <time>2022-11-01T10:29:31.668Z</time>
      </trkpt>
      <trkpt lat="50.609707" lon="8.256390">
        <ele>325.818038</ele>
        <time>2022-11-01T10:30:40.007Z</time>
      </trkpt>
      <trkpt lat="50.609682" lon="8.256230">
        <ele>326.201583</ele>
        <time>2022-11-01T10:30:52.284Z</time>
      </trkpt>
      <trkpt lat="50.609687" lon="8.256020">
        <ele>326.690732</ele>
        <time>2022-11-01T10:31:07.945Z</time>
      </trkpt>
      <trkpt lat="50.609776" lon="8.256036">
        <ele>327.103243</ele>
        <time>2022-11-01T10:31:18.109Z</time>
      </trkpt>
      <trkpt lat="50.609843" lon="8.255613">
        <ele>328.688850</ele>
        <time>2022-11-01T10:31:50.405Z</time>
      </trkpt>
      <trkpt lat="50.609722" lon="8.255137">
        <ele>330.553741</ele>
        <time>2022-11-01T10:32:28.936Z</time>
      </trkpt>
      <trkpt lat="50.609644" lon="8.254976">
        <ele>331.290415</ele>
        <time>2022-11-01T10:32:43.933Z</time>
      </trkpt>
      <trkpt lat="50.609017" lon="8.254375">
        <ele>335.496357</ele>
        <time>2022-11-01T10:34:11.941Z</time>
      </trkpt>
      <trkpt lat="50.608969" lon="8.254243">
        <ele>336.049666</ele>
        <time>2022-11-01T10:34:23.909Z</time>
      </trkpt>
      <trkpt lat="50.609013" lon="8.253900">
        <ele>337.375035</ele>
        <time>2022-11-01T10:34:51.692Z</time>
      </trkpt>
      <trkpt lat="50.608945" lon="8.253892">
        <ele>337.908490</ele>
        <time>2022-11-01T10:35:01.342Z</time>
      </trkpt>
      <trkpt lat="50.608777" lon="8.254126">
        <ele>339.662620</ele>
        <time>2022-11-01T10:35:28.650Z</time>
      </trkpt>
      <trkpt lat="50.608195" lon="8.255440">
        <ele>347.617993</ele>
        <time>2022-11-01T10:37:38.008Z</time>
      </trkpt>
      <trkpt lat="50.608113" lon="8.255747">
        <ele>349.271663</ele>
        <time>2022-11-01T10:38:06.406Z</time>
      </trkpt>
      <trkpt lat="50.608021" lon="8.256815">
        <ele>354.166417</ele>
        <time>2022-11-01T10:39:32.234Z</time>
      </trkpt>
      <trkpt lat="50.608011" lon="8.256864">
        <ele>354.387400</ele>
        <time>2022-11-01T10:39:36.474Z</time>
      </trkpt>
      <trkpt lat="50.607969" lon="8.257077">
        <ele>355.345006</ele>
        <time>2022-11-01T10:39:52.910Z</time>
      </trkpt>
      <trkpt lat="50.607890" lon="8.257196">
        <ele>356.084372</ele>
        <time>2022-11-01T10:40:07.535Z</time>
      </trkpt>
      <trkpt lat="50.607831" lon="8.257231">
        <ele>356.510866</ele>
        <time>2022-11-01T10:40:15.680Z</time>
      </trkpt>
      <trkpt lat="50.607621" lon="8.257377">
        <ele>358.063692</ele>
        <time>2022-11-01T10:40:43.667Z</time>
      </trkpt>
      <trkpt lat="50.607549" lon="8.257232">
        <ele>358.854143</ele>
        <time>2022-11-01T10:40:59.142Z</time>
      </trkpt>
      <trkpt lat="50.607528" lon="8.256659">
        <ele>361.318346</ele>
        <time>2022-11-01T10:41:43.240Z</time>
      </trkpt>
      <trkpt lat="50.607450" lon="8.256315">
        <ele>362.886706</ele>
        <time>2022-11-01T10:42:10.449Z</time>
      </trkpt>
      <trkpt lat="50.607339" lon="8.256081">
        <ele>363.762973</ele>
        <time>2022-11-01T10:42:32.490Z</time>
      </trkpt>
      <trkpt lat="50.607321" lon="8.256054">
        <ele>363.843277</ele>
        <time>2022-11-01T10:42:35.398Z</time>
      </trkpt>
      <trkpt lat="50.607080" lon="8.255103">
        <ele>365.943225</ele>
        <time>2022-11-01T10:43:49.756Z</time>
      </trkpt>
      <trkpt lat="50.606885" lon="8.254544">
        <ele>367.251332</ele>
        <time>2022-11-01T10:44:33.497Z</time>
      </trkpt>
      <trkpt lat="50.606819" lon="8.254389">
        <ele>367.634109</ele>
        <time>2022-11-01T10:44:46.416Z</time>
      </trkpt>
      <trkpt lat="50.606884" lon="8.253712">
        <ele>369.038241</ele>
        <time>2022-11-01T10:45:33.195Z</time>
      </trkpt>
      <trkpt lat="50.606811" lon="8.252890">
        <ele>369.725680</ele>
        <time>2022-11-01T10:46:29.052Z</time>
      </trkpt>
      <trkpt lat="50.606823" lon="8.252366">
        <ele>370.078908</ele>
        <time>2022-11-01T10:47:03.902Z</time>
      </trkpt>
      <trkpt lat="50.607348" lon="8.248960">
        <ele>371.253048</ele>
        <time>2022-11-01T10:50:50.909Z</time>
      </trkpt>
      <trkpt lat="50.607441" lon="8.248812">
        <ele>371.265392</ele>
        <time>2022-11-01T10:51:04.263Z</time>
      </trkpt>
      <trkpt lat="50.607822" lon="8.248132">
        <ele>371.109705</ele>
        <time>2022-11-01T10:52:02.884Z</time>
      </trkpt>
      <trkpt lat="50.607814" lon="8.246889">
        <ele>369.962741</ele>
        <time>2022-11-01T10:53:23.614Z</time>
      </trkpt>
      <trkpt lat="50.607648" lon="8.246269">
        <ele>369.341843</ele>
        <time>2022-11-01T10:54:07.806Z</time>
      </trkpt>
      <trkpt lat="50.607746" lon="8.246110">
        <ele>369.137332</ele>
        <time>2022-11-01T10:54:23.172Z</time>
      </trkpt>
      <trkpt lat="50.607785" lon="8.246046">
        <ele>369.055464</ele>
        <time>2022-11-01T10:54:29.097Z</time>
      </trkpt>
      <trkpt lat="50.607754" lon="8.245940">
        <ele>368.947773</ele>
        <time>2022-11-01T10:54:36.658Z</time>
      </trkpt>
      <trkpt lat="50.607642" lon="8.245228">
        <ele>368.286595</ele>
        <time>2022-11-01T10:55:24.864Z</time>
      </trkpt>
      <trkpt lat="50.607736" lon="8.245152">
        <ele>368.138707</ele>
        <time>2022-11-01T10:55:36.394Z</time>
      </trkpt>
      <trkpt lat="50.607872" lon="8.244309">
        <ele>367.366027</ele>
        <time>2022-11-01T10:56:32.812Z</time>
      </trkpt>
      <trkpt lat="50.607953" lon="8.244087">
        <ele>367.138548</ele>
        <time>2022-11-01T10:56:50.194Z</time>
      </trkpt>
      <trkpt lat="50.608076" lon="8.243371">
        <ele>366.479616</ele>
        <time>2022-11-01T10:57:37.840Z</time>
      </trkpt>
      <trkpt lat="50.608256" lon="8.242523">
        <ele>366.305290</ele>
        <time>2022-11-01T10:58:35.630Z</time>
      </trkpt>
      <trkpt lat="50.608383" lon="8.241928">
        <ele>366.455464</ele>
        <time>2022-11-01T10:59:15.991Z</time>
      </trkpt>
      <trkpt lat="50.608441" lon="8.241828">
        <ele>366.487872</ele>
        <time>2022-11-01T10:59:24.845Z</time>
      </trkpt>
      <trkpt lat="50.608389" lon="8.241237">
        <ele>366.630606</ele>
        <time>2022-11-01T11:00:03.845Z</time>
      </trkpt>
      <trkpt lat="50.608296" lon="8.240866">
        <ele>366.726031</ele>
        <time>2022-11-01T11:00:30.005Z</time>
      </trkpt>
      <trkpt lat="50.608112" lon="8.240494">
        <ele>366.838860</ele>
        <time>2022-11-01T11:01:01.404Z</time>
      </trkpt>
      <trkpt lat="50.608141" lon="8.240390">
        <ele>366.929258</ele>
        <time>2022-11-01T11:01:08.847Z</time>
      </trkpt>
      <trkpt lat="50.608139" lon="8.240118">
        <ele>367.282595</ele>
        <time>2022-11-01T11:01:27.241Z</time>
      </trkpt>
      <trkpt lat="50.607960" lon="8.239720">
        <ele>367.916238</ele>
        <time>2022-11-01T11:02:00.601Z</time>
      </trkpt>
      <trkpt lat="50.607898" lon="8.238522">
        <ele>369.477548</ele>
        <time>2022-11-01T11:03:22.461Z</time>
      </trkpt>
      <trkpt lat="50.607810" lon="8.238018">
        <ele>370.156547</ele>
        <time>2022-11-01T11:03:58.213Z</time>
      </trkpt>
      <trkpt lat="50.607664" lon="8.237604">
        <ele>370.886729</ele>
        <time>2022-11-01T11:04:31.055Z</time>
      </trkpt>
      <trkpt lat="50.607626" lon="8.237667">
        <ele>371.054042</ele>
        <time>2022-11-01T11:04:37.038Z</time>
      </trkpt>
      <trkpt lat="50.607664" lon="8.237604">
        <ele>371.221355</ele>
        <time>2022-11-01T11:04:42.933Z</time>
      </trkpt>
      <trkpt lat="50.608042" lon="8.236952">
        <ele>372.921332</ele>
        <time>2022-11-01T11:05:44.287Z</time>
      </trkpt>
      <trkpt lat="50.608209" lon="8.236854">
        <ele>373.461878</ele>
        <time>2022-11-01T11:06:03.853Z</time>
      </trkpt>
      <trkpt lat="50.608389" lon="8.236853">
        <ele>374.007872</ele>
        <time>2022-11-01T11:06:23.760Z</time>
      </trkpt>
      <trkpt lat="50.608526" lon="8.236589">
        <ele>374.664340</ele>
        <time>2022-11-01T11:06:48.021Z</time>
      </trkpt>
      <trkpt lat="50.608533" lon="8.236093">
        <ele>375.619361</ele>
        <time>2022-11-01T11:07:23.610Z</time>
      </trkpt>
      <trkpt lat="50.608602" lon="8.235917">
        <ele>375.989036</ele>
        <time>2022-11-01T11:07:38.400Z</time>
      </trkpt>
      <trkpt lat="50.608733" lon="8.235806">
        <ele>375.989036</ele>
        <time>2022-11-01T11:07:55.327Z</time>
      </trkpt>
      <trkpt lat="50.608812" lon="8.235591">
        <ele>375.989036</ele>
        <time>2022-11-01T11:08:13.241Z</time>
      </trkpt>
      <trkpt lat="50.608786" lon="8.234943">
        <ele>375.989036</ele>
        <time>2022-11-01T11:09:00.687Z</time>
      </trkpt>
      <trkpt lat="50.609164" lon="8.235040">
        <ele>375.989036</ele>
        <time>2022-11-01T11:09:45.078Z</time>
      </trkpt>
      <trkpt lat="50.609439" lon="8.235429">
        <ele>375.989036</ele>
        <time>2022-11-01T11:10:27.351Z</time>
      </trkpt>
      <trkpt lat="50.609502" lon="8.235290">
        <ele>375.989036</ele>
        <time>2022-11-01T11:10:39.703Z</time>
      </trkpt>
      <trkpt lat="50.609960" lon="8.235544">
        <ele>375.989036</ele>
        <time>2022-11-01T11:11:34.455Z</time>
      </trkpt>
      <trkpt lat="50.610092" lon="8.235849">
        <ele>375.989036</ele>
        <time>2022-11-01T11:12:01.105Z</time>
      </trkpt>
      <trkpt lat="50.609990" lon="8.235983">
        <ele>375.989036</ele>
        <time>2022-11-01T11:12:15.785Z</time>
      </trkpt>
    </trkseg>
  </trk>
</gpx>