<?xml version='1.0' encoding='UTF-8'?>
<gpx version="1.1" creator="https://www.komoot.de" xmlns="http://www.topografix.com/GPX/1/1" xmlns:xsi="http://www.w3.org/2001/XMLSchema-instance" xsi:schemaLocation="http://www.topografix.com/GPX/1/1 http://www.topografix.com/GPX/1/1/gpx.xsd">
  <metadata>
    <name>PW " In den Steilhängen der Lahn ". Runkel an der Lahn. 12km</name>
    <author>
      <link href="https://www.komoot.de">
        <text>komoot</text>
        <type>text/html</type>
      </link>
    </author>
  </metadata>
  <trk>
    <name>PW " In den Steilhängen der Lahn ". Runkel an der Lahn. 12km</name>
    <trkseg>
      <trkpt lat="50.405889" lon="8.154551">
        <ele>140.007524</ele>
        <time>2023-01-08T15:58:25.825Z</time>
      </trkpt>
      <trkpt lat="50.405863" lon="8.154453">
        <ele>140.007524</ele>
        <time>2023-01-08T15:58:31.999Z</time>
      </trkpt>
      <trkpt lat="50.405429" lon="8.154510">
        <ele>140.007524</ele>
        <time>2023-01-08T15:59:12.250Z</time>
      </trkpt>
      <trkpt lat="50.405231" lon="8.154586">
        <ele>140.007524</ele>
        <time>2023-01-08T15:59:30.966Z</time>
      </trkpt>
      <trkpt lat="50.405158" lon="8.154673">
        <ele>140.007524</ele>
        <time>2023-01-08T15:59:39.454Z</time>
      </trkpt>
      <trkpt lat="50.405128" lon="8.154795">
        <ele>140.007524</ele>
        <time>2023-01-08T15:59:47.417Z</time>
      </trkpt>
      <trkpt lat="50.405100" lon="8.154934">
        <ele>140.577500</ele>
        <time>2023-01-08T15:59:55.961Z</time>
      </trkpt>
      <trkpt lat="50.405100" lon="8.155161">
        <ele>141.668039</ele>
        <time>2023-01-08T16:00:10.721Z</time>
      </trkpt>
      <trkpt lat="50.405054" lon="8.155266">
        <ele>142.280147</ele>
        <time>2023-01-08T16:00:18.652Z</time>
      </trkpt>
      <trkpt lat="50.404997" lon="8.155249">
        <ele>142.717485</ele>
        <time>2023-01-08T16:00:24.657Z</time>
      </trkpt>
      <trkpt lat="50.404964" lon="8.155150">
        <ele>143.254214</ele>
        <time>2023-01-08T16:00:31.551Z</time>
      </trkpt>
      <trkpt lat="50.404882" lon="8.154778">
        <ele>145.145224</ele>
        <time>2023-01-08T16:00:58.430Z</time>
      </trkpt>
      <trkpt lat="50.404664" lon="8.153787">
        <ele>150.181750</ele>
        <time>2023-01-08T16:02:08.837Z</time>
      </trkpt>
      <trkpt lat="50.404601" lon="8.153751">
        <ele>150.687134</ele>
        <time>2023-01-08T16:02:15.701Z</time>
      </trkpt>
      <trkpt lat="50.404546" lon="8.153637">
        <ele>151.374024</ele>
        <time>2023-01-08T16:02:24.868Z</time>
      </trkpt>
      <trkpt lat="50.404460" lon="8.153704">
        <ele>152.097775</ele>
        <time>2023-01-08T16:02:35.260Z</time>
      </trkpt>
      <trkpt lat="50.404331" lon="8.153805">
        <ele>153.184473</ele>
        <time>2023-01-08T16:02:49.423Z</time>
      </trkpt>
      <trkpt lat="50.404126" lon="8.153933">
        <ele>153.953735</ele>
        <time>2023-01-08T16:03:10.129Z</time>
      </trkpt>
      <trkpt lat="50.403980" lon="8.154080">
        <ele>154.350065</ele>
        <time>2023-01-08T16:03:25.679Z</time>
      </trkpt>
      <trkpt lat="50.403927" lon="8.154179">
        <ele>154.538329</ele>
        <time>2023-01-08T16:03:32.324Z</time>
      </trkpt>
      <trkpt lat="50.403880" lon="8.154360">
        <ele>154.822926</ele>
        <time>2023-01-08T16:03:43.819Z</time>
      </trkpt>
      <trkpt lat="50.403885" lon="8.154567">
        <ele>155.124566</ele>
        <time>2023-01-08T16:03:55.491Z</time>
      </trkpt>
      <trkpt lat="50.403892" lon="8.154891">
        <ele>155.596630</ele>
        <time>2023-01-08T16:04:13.494Z</time>
      </trkpt>
      <trkpt lat="50.403954" lon="8.155509">
        <ele>156.507610</ele>
        <time>2023-01-08T16:04:48.190Z</time>
      </trkpt>
      <trkpt lat="50.403937" lon="8.155718">
        <ele>156.814414</ele>
        <time>2023-01-08T16:04:59.710Z</time>
      </trkpt>
      <trkpt lat="50.404001" lon="8.155747">
        <ele>156.966605</ele>
        <time>2023-01-08T16:05:05.299Z</time>
      </trkpt>
      <trkpt lat="50.404041" lon="8.155812">
        <ele>157.098172</ele>
        <time>2023-01-08T16:05:10.152Z</time>
      </trkpt>
      <trkpt lat="50.404092" lon="8.155998">
        <ele>157.393014</ele>
        <time>2023-01-08T16:05:20.830Z</time>
      </trkpt>
      <trkpt lat="50.404031" lon="8.156487">
        <ele>157.184069</ele>
        <time>2023-01-08T16:05:47.307Z</time>
      </trkpt>
      <trkpt lat="50.403788" lon="8.156712">
        <ele>156.473026</ele>
        <time>2023-01-08T16:06:11.709Z</time>
      </trkpt>
      <trkpt lat="50.403773" lon="8.156726">
        <ele>156.429044</ele>
        <time>2023-01-08T16:06:13.175Z</time>
      </trkpt>
      <trkpt lat="50.403480" lon="8.157229">
        <ele>155.334566</ele>
        <time>2023-01-08T16:06:50.486Z</time>
      </trkpt>
      <trkpt lat="50.402795" lon="8.157856">
        <ele>153.336080</ele>
        <time>2023-01-08T16:07:58.025Z</time>
      </trkpt>
      <trkpt lat="50.402497" lon="8.158406">
        <ele>152.643886</ele>
        <time>2023-01-08T16:08:35.894Z</time>
      </trkpt>
      <trkpt lat="50.402124" lon="8.158865">
        <ele>152.027708</ele>
        <time>2023-01-08T16:09:14.676Z</time>
      </trkpt>
      <trkpt lat="50.401659" lon="8.159634">
        <ele>151.149505</ele>
        <time>2023-01-08T16:10:09.887Z</time>
      </trkpt>
      <trkpt lat="50.401484" lon="8.159816">
        <ele>150.876597</ele>
        <time>2023-01-08T16:10:27.135Z</time>
      </trkpt>
      <trkpt lat="50.401014" lon="8.160094">
        <ele>150.907306</ele>
        <time>2023-01-08T16:11:08.369Z</time>
      </trkpt>
      <trkpt lat="50.400457" lon="8.160242">
        <ele>151.038407</ele>
        <time>2023-01-08T16:11:53.602Z</time>
      </trkpt>
      <trkpt lat="50.400321" lon="8.160279">
        <ele>151.070438</ele>
        <time>2023-01-08T16:12:04.781Z</time>
      </trkpt>
      <trkpt lat="50.400406" lon="8.160799">
        <ele>151.149847</ele>
        <time>2023-01-08T16:12:33.394Z</time>
      </trkpt>
      <trkpt lat="50.400443" lon="8.160951">
        <ele>151.173915</ele>
        <time>2023-01-08T16:12:41.728Z</time>
      </trkpt>
      <trkpt lat="50.400104" lon="8.161372">
        <ele>151.511337</ele>
        <time>2023-01-08T16:13:18.271Z</time>
      </trkpt>
      <trkpt lat="50.400013" lon="8.161486">
        <ele>151.659021</ele>
        <time>2023-01-08T16:13:28.656Z</time>
      </trkpt>
      <trkpt lat="50.399965" lon="8.161828">
        <ele>151.942105</ele>
        <time>2023-01-08T16:13:47.380Z</time>
      </trkpt>
      <trkpt lat="50.399915" lon="8.162225">
        <ele>152.269232</ele>
        <time>2023-01-08T16:14:09.778Z</time>
      </trkpt>
      <trkpt lat="50.399852" lon="8.162386">
        <ele>152.421947</ele>
        <time>2023-01-08T16:14:20.010Z</time>
      </trkpt>
      <trkpt lat="50.399484" lon="8.162789">
        <ele>152.991094</ele>
        <time>2023-01-08T16:14:58.385Z</time>
      </trkpt>
      <trkpt lat="50.399540" lon="8.162997">
        <ele>153.173619</ele>
        <time>2023-01-08T16:15:10.437Z</time>
      </trkpt>
      <trkpt lat="50.399485" lon="8.163191">
        <ele>153.345256</ele>
        <time>2023-01-08T16:15:21.268Z</time>
      </trkpt>
      <trkpt lat="50.399355" lon="8.163440">
        <ele>153.300686</ele>
        <time>2023-01-08T16:15:38.095Z</time>
      </trkpt>
      <trkpt lat="50.399261" lon="8.163733">
        <ele>152.783480</ele>
        <time>2023-01-08T16:15:55.105Z</time>
      </trkpt>
      <trkpt lat="50.399202" lon="8.164175">
        <ele>152.071432</ele>
        <time>2023-01-08T16:16:18.844Z</time>
      </trkpt>
      <trkpt lat="50.399164" lon="8.164453">
        <ele>151.623126</ele>
        <time>2023-01-08T16:16:34.408Z</time>
      </trkpt>
      <trkpt lat="50.399137" lon="8.164654">
        <ele>151.299235</ele>
        <time>2023-01-08T16:16:45.695Z</time>
      </trkpt>
      <trkpt lat="50.399106" lon="8.164799">
        <ele>151.058086</ele>
        <time>2023-01-08T16:16:54.687Z</time>
      </trkpt>
      <trkpt lat="50.398751" lon="8.165291">
        <ele>149.886360</ele>
        <time>2023-01-08T16:17:35.362Z</time>
      </trkpt>
      <trkpt lat="50.398364" lon="8.165718">
        <ele>149.005554</ele>
        <time>2023-01-08T16:18:14.989Z</time>
      </trkpt>
      <trkpt lat="50.397911" lon="8.166376">
        <ele>148.790531</ele>
        <time>2023-01-08T16:19:08.053Z</time>
      </trkpt>
      <trkpt lat="50.397675" lon="8.165949">
        <ele>148.665057</ele>
        <time>2023-01-08T16:19:37.326Z</time>
      </trkpt>
      <trkpt lat="50.397669" lon="8.166155">
        <ele>148.619273</ele>
        <time>2023-01-08T16:19:48.488Z</time>
      </trkpt>
      <trkpt lat="50.397452" lon="8.165422">
        <ele>148.439838</ele>
        <time>2023-01-08T16:20:32.458Z</time>
      </trkpt>
      <trkpt lat="50.397431" lon="8.165507">
        <ele>148.489219</ele>
        <time>2023-01-08T16:20:37.568Z</time>
      </trkpt>
      <trkpt lat="50.397218" lon="8.165052">
        <ele>149.618758</ele>
        <time>2023-01-08T16:21:10.870Z</time>
      </trkpt>
      <trkpt lat="50.397178" lon="8.165349">
        <ele>150.226149</ele>
        <time>2023-01-08T16:21:29.725Z</time>
      </trkpt>
      <trkpt lat="50.397001" lon="8.165083">
        <ele>150.995536</ele>
        <time>2023-01-08T16:21:54.300Z</time>
      </trkpt>
      <trkpt lat="50.396699" lon="8.164630">
        <ele>152.307099</ele>
        <time>2023-01-08T16:22:30.628Z</time>
      </trkpt>
      <trkpt lat="50.396430" lon="8.164224">
        <ele>153.478812</ele>
        <time>2023-01-08T16:23:01.689Z</time>
      </trkpt>
      <trkpt lat="50.396111" lon="8.163916">
        <ele>154.248261</ele>
        <time>2023-01-08T16:23:32.680Z</time>
      </trkpt>
      <trkpt lat="50.395910" lon="8.163559">
        <ele>154.536293</ele>
        <time>2023-01-08T16:23:59.159Z</time>
      </trkpt>
      <trkpt lat="50.395794" lon="8.162935">
        <ele>154.929358</ele>
        <time>2023-01-08T16:24:33.334Z</time>
      </trkpt>
      <trkpt lat="50.395801" lon="8.162522">
        <ele>155.179197</ele>
        <time>2023-01-08T16:24:55.135Z</time>
      </trkpt>
      <trkpt lat="50.395690" lon="8.162215">
        <ele>155.392629</ele>
        <time>2023-01-08T16:25:13.166Z</time>
      </trkpt>
      <trkpt lat="50.395429" lon="8.162022">
        <ele>155.666348</ele>
        <time>2023-01-08T16:25:36.833Z</time>
      </trkpt>
      <trkpt lat="50.394728" lon="8.162312">
        <ele>156.924899</ele>
        <time>2023-01-08T16:26:35.735Z</time>
      </trkpt>
      <trkpt lat="50.393995" lon="8.161910">
        <ele>158.392069</ele>
        <time>2023-01-08T16:27:42.991Z</time>
      </trkpt>
      <trkpt lat="50.393551" lon="8.161786">
        <ele>159.268985</ele>
        <time>2023-01-08T16:28:23.501Z</time>
      </trkpt>
      <trkpt lat="50.393444" lon="8.161812">
        <ele>159.549062</ele>
        <time>2023-01-08T16:28:33.371Z</time>
      </trkpt>
      <trkpt lat="50.393379" lon="8.161957">
        <ele>159.841369</ele>
        <time>2023-01-08T16:28:43.556Z</time>
      </trkpt>
      <trkpt lat="50.393386" lon="8.162252">
        <ele>160.328174</ele>
        <time>2023-01-08T16:28:59.547Z</time>
      </trkpt>
      <trkpt lat="50.393459" lon="8.162975">
        <ele>161.535293</ele>
        <time>2023-01-08T16:29:40.256Z</time>
      </trkpt>
      <trkpt lat="50.393537" lon="8.163279">
        <ele>162.075680</ele>
        <time>2023-01-08T16:29:57.601Z</time>
      </trkpt>
      <trkpt lat="50.393537" lon="8.163362">
        <ele>162.212550</ele>
        <time>2023-01-08T16:30:02.562Z</time>
      </trkpt>
      <trkpt lat="50.393441" lon="8.163582">
        <ele>162.652186</ele>
        <time>2023-01-08T16:30:17.835Z</time>
      </trkpt>
      <trkpt lat="50.393443" lon="8.163753">
        <ele>162.934220</ele>
        <time>2023-01-08T16:30:26.772Z</time>
      </trkpt>
      <trkpt lat="50.393532" lon="8.163850">
        <ele>163.214550</ele>
        <time>2023-01-08T16:30:36.576Z</time>
      </trkpt>
      <trkpt lat="50.393874" lon="8.163879">
        <ele>163.981292</ele>
        <time>2023-01-08T16:31:06.405Z</time>
      </trkpt>
      <trkpt lat="50.394075" lon="8.163462">
        <ele>164.464229</ele>
        <time>2023-01-08T16:31:35.271Z</time>
      </trkpt>
      <trkpt lat="50.394146" lon="8.163524">
        <ele>164.581980</ele>
        <time>2023-01-08T16:31:43.037Z</time>
      </trkpt>
      <trkpt lat="50.394144" lon="8.164511">
        <ele>165.493761</ele>
        <time>2023-01-08T16:32:36.499Z</time>
      </trkpt>
      <trkpt lat="50.395049" lon="8.164609">
        <ele>166.160302</ele>
        <time>2023-01-08T16:33:50.047Z</time>
      </trkpt>
      <trkpt lat="50.395410" lon="8.164968">
        <ele>165.702147</ele>
        <time>2023-01-08T16:34:25.044Z</time>
      </trkpt>
      <trkpt lat="50.395855" lon="8.165850">
        <ele>164.933554</ele>
        <time>2023-01-08T16:35:24.503Z</time>
      </trkpt>
      <trkpt lat="50.395977" lon="8.166808">
        <ele>164.357553</ele>
        <time>2023-01-08T16:36:16.066Z</time>
      </trkpt>
      <trkpt lat="50.395977" lon="8.166808">
        <ele>164.357553</ele>
        <time>2023-01-08T16:36:16.107Z</time>
      </trkpt>
      <trkpt lat="50.396032" lon="8.166918">
        <ele>164.298179</ele>
        <time>2023-01-08T16:36:23.385Z</time>
      </trkpt>
      <trkpt lat="50.396050" lon="8.167371">
        <ele>164.105414</ele>
        <time>2023-01-08T16:36:47.000Z</time>
      </trkpt>
      <trkpt lat="50.396005" lon="8.167859">
        <ele>163.896001</ele>
        <time>2023-01-08T16:37:12.598Z</time>
      </trkpt>
      <trkpt lat="50.395455" lon="8.168278">
        <ele>163.488650</ele>
        <time>2023-01-08T16:38:02.252Z</time>
      </trkpt>
      <trkpt lat="50.395114" lon="8.168690">
        <ele>163.411067</ele>
        <time>2023-01-08T16:38:37.297Z</time>
      </trkpt>
      <trkpt lat="50.394759" lon="8.169193">
        <ele>163.711418</ele>
        <time>2023-01-08T16:39:16.722Z</time>
      </trkpt>
      <trkpt lat="50.394318" lon="8.169706">
        <ele>164.056126</ele>
        <time>2023-01-08T16:40:02.410Z</time>
      </trkpt>
      <trkpt lat="50.394180" lon="8.169814">
        <ele>164.152955</ele>
        <time>2023-01-08T16:40:15.198Z</time>
      </trkpt>
      <trkpt lat="50.393827" lon="8.169995">
        <ele>164.386126</ele>
        <time>2023-01-08T16:40:45.907Z</time>
      </trkpt>
      <trkpt lat="50.393028" lon="8.171979">
        <ele>163.238618</ele>
        <time>2023-01-08T16:42:46.465Z</time>
      </trkpt>
      <trkpt lat="50.392687" lon="8.172776">
        <ele>162.300120</ele>
        <time>2023-01-08T16:43:38.335Z</time>
      </trkpt>
      <trkpt lat="50.392630" lon="8.173037">
        <ele>161.824074</ele>
        <time>2023-01-08T16:43:53.134Z</time>
      </trkpt>
      <trkpt lat="50.392010" lon="8.174302">
        <ele>159.070821</ele>
        <time>2023-01-08T16:45:19.591Z</time>
      </trkpt>
      <trkpt lat="50.391842" lon="8.174534">
        <ele>158.465006</ele>
        <time>2023-01-08T16:45:38.488Z</time>
      </trkpt>
      <trkpt lat="50.391057" lon="8.174880">
        <ele>157.299978</ele>
        <time>2023-01-08T16:46:47.303Z</time>
      </trkpt>
      <trkpt lat="50.390971" lon="8.174849">
        <ele>157.200646</ele>
        <time>2023-01-08T16:46:54.649Z</time>
      </trkpt>
      <trkpt lat="50.390866" lon="8.174811">
        <ele>157.079344</ele>
        <time>2023-01-08T16:47:03.528Z</time>
      </trkpt>
      <trkpt lat="50.390937" lon="8.175265">
        <ele>156.743860</ele>
        <time>2023-01-08T16:47:27.801Z</time>
      </trkpt>
      <trkpt lat="50.391106" lon="8.175565">
        <ele>156.456552</ele>
        <time>2023-01-08T16:47:48.259Z</time>
      </trkpt>
      <trkpt lat="50.391292" lon="8.175756">
        <ele>156.206295</ele>
        <time>2023-01-08T16:48:06.157Z</time>
      </trkpt>
      <trkpt lat="50.391440" lon="8.175909">
        <ele>156.037035</ele>
        <time>2023-01-08T16:48:21.278Z</time>
      </trkpt>
      <trkpt lat="50.391659" lon="8.176222">
        <ele>156.672419</ele>
        <time>2023-01-08T16:48:45.202Z</time>
      </trkpt>
      <trkpt lat="50.391725" lon="8.176505">
        <ele>157.084421</ele>
        <time>2023-01-08T16:49:01.541Z</time>
      </trkpt>
      <trkpt lat="50.391734" lon="8.176675">
        <ele>157.317649</ele>
        <time>2023-01-08T16:49:10.481Z</time>
      </trkpt>
      <trkpt lat="50.391648" lon="8.176574">
        <ele>157.548049</ele>
        <time>2023-01-08T16:49:20.859Z</time>
      </trkpt>
      <trkpt lat="50.391556" lon="8.176537">
        <ele>157.751730</ele>
        <time>2023-01-08T16:49:28.677Z</time>
      </trkpt>
      <trkpt lat="50.391248" lon="8.176962">
        <ele>158.631467</ele>
        <time>2023-01-08T16:50:04.763Z</time>
      </trkpt>
      <trkpt lat="50.390857" lon="8.177274">
        <ele>159.572257</ele>
        <time>2023-01-08T16:50:42.994Z</time>
      </trkpt>
      <trkpt lat="50.390578" lon="8.177570">
        <ele>160.246002</ele>
        <time>2023-01-08T16:51:13.502Z</time>
      </trkpt>
      <trkpt lat="50.390385" lon="8.177913">
        <ele>160.799138</ele>
        <time>2023-01-08T16:51:40.274Z</time>
      </trkpt>
      <trkpt lat="50.390274" lon="8.178461">
        <ele>161.494358</ele>
        <time>2023-01-08T16:52:12.143Z</time>
      </trkpt>
      <trkpt lat="50.390145" lon="8.178959">
        <ele>162.144290</ele>
        <time>2023-01-08T16:52:41.237Z</time>
      </trkpt>
      <trkpt lat="50.390031" lon="8.179808">
        <ele>163.193337</ele>
        <time>2023-01-08T16:53:26.597Z</time>
      </trkpt>
      <trkpt lat="50.390009" lon="8.180153">
        <ele>163.210920</ele>
        <time>2023-01-08T16:53:44.704Z</time>
      </trkpt>
      <trkpt lat="50.389903" lon="8.180814">
        <ele>163.022933</ele>
        <time>2023-01-08T16:54:19.927Z</time>
      </trkpt>
      <trkpt lat="50.389878" lon="8.181367">
        <ele>162.870028</ele>
        <time>2023-01-08T16:54:49.067Z</time>
      </trkpt>
      <trkpt lat="50.389839" lon="8.182203">
        <ele>162.638835</ele>
        <time>2023-01-08T16:55:32.860Z</time>
      </trkpt>
      <trkpt lat="50.389716" lon="8.182319">
        <ele>162.576748</ele>
        <time>2023-01-08T16:55:44.445Z</time>
      </trkpt>
      <trkpt lat="50.389605" lon="8.182360">
        <ele>162.527415</ele>
        <time>2023-01-08T16:55:53.636Z</time>
      </trkpt>
      <trkpt lat="50.389568" lon="8.182640">
        <ele>162.660985</ele>
        <time>2023-01-08T16:56:08.260Z</time>
      </trkpt>
      <trkpt lat="50.389675" lon="8.182967">
        <ele>162.925365</ele>
        <time>2023-01-08T16:56:27.012Z</time>
      </trkpt>
      <trkpt lat="50.389622" lon="8.183218">
        <ele>163.115552</ele>
        <time>2023-01-08T16:56:41.202Z</time>
      </trkpt>
      <trkpt lat="50.389479" lon="8.183505">
        <ele>163.377554</ele>
        <time>2023-01-08T16:57:00.120Z</time>
      </trkpt>
      <trkpt lat="50.389440" lon="8.183583">
        <ele>163.448855</ele>
        <time>2023-01-08T16:57:05.479Z</time>
      </trkpt>
      <trkpt lat="50.389414" lon="8.183562">
        <ele>163.481849</ele>
        <time>2023-01-08T16:57:08.101Z</time>
      </trkpt>
      <trkpt lat="50.389251" lon="8.184346">
        <ele>164.075009</ele>
        <time>2023-01-08T16:57:52.583Z</time>
      </trkpt>
      <trkpt lat="50.389250" lon="8.184458">
        <ele>164.155579</ele>
        <time>2023-01-08T16:57:58.478Z</time>
      </trkpt>
      <trkpt lat="50.389453" lon="8.184875">
        <ele>164.532966</ele>
        <time>2023-01-08T16:58:26.592Z</time>
      </trkpt>
      <trkpt lat="50.389404" lon="8.184890">
        <ele>164.641273</ele>
        <time>2023-01-08T16:58:30.996Z</time>
      </trkpt>
      <trkpt lat="50.389453" lon="8.184875">
        <ele>164.753222</ele>
        <time>2023-01-08T16:58:35.140Z</time>
      </trkpt>
      <trkpt lat="50.389519" lon="8.184930">
        <ele>164.920808</ele>
        <time>2023-01-08T16:58:42.024Z</time>
      </trkpt>
      <trkpt lat="50.389848" lon="8.185556">
        <ele>166.080632</ele>
        <time>2023-01-08T16:59:26.966Z</time>
      </trkpt>
      <trkpt lat="50.389882" lon="8.185619">
        <ele>166.198635</ele>
        <time>2023-01-08T16:59:31.589Z</time>
      </trkpt>
      <trkpt lat="50.389948" lon="8.185829">
        <ele>166.533353</ele>
        <time>2023-01-08T16:59:44.444Z</time>
      </trkpt>
      <trkpt lat="50.389948" lon="8.185945">
        <ele>166.699190</ele>
        <time>2023-01-08T16:59:50.694Z</time>
      </trkpt>
      <trkpt lat="50.389637" lon="8.186627">
        <ele>167.897928</ele>
        <time>2023-01-08T17:00:37.033Z</time>
      </trkpt>
      <trkpt lat="50.389398" lon="8.187137">
        <ele>168.782284</ele>
        <time>2023-01-08T17:01:12.046Z</time>
      </trkpt>
      <trkpt lat="50.389114" lon="8.187741">
        <ele>169.760659</ele>
        <time>2023-01-08T17:01:53.407Z</time>
      </trkpt>
      <trkpt lat="50.388873" lon="8.188287">
        <ele>170.626386</ele>
        <time>2023-01-08T17:02:30.464Z</time>
      </trkpt>
      <trkpt lat="50.388970" lon="8.188771">
        <ele>171.287795</ele>
        <time>2023-01-08T17:02:58.192Z</time>
      </trkpt>
      <trkpt lat="50.388967" lon="8.188925">
        <ele>171.488652</ele>
        <time>2023-01-08T17:03:06.601Z</time>
      </trkpt>
      <trkpt lat="50.388874" lon="8.189086">
        <ele>171.771872</ele>
        <time>2023-01-08T17:03:18.602Z</time>
      </trkpt>
      <trkpt lat="50.388374" lon="8.189539">
        <ele>171.606980</ele>
        <time>2023-01-08T17:04:06.742Z</time>
      </trkpt>
      <trkpt lat="50.388283" lon="8.189622">
        <ele>171.411398</ele>
        <time>2023-01-08T17:04:15.542Z</time>
      </trkpt>
      <trkpt lat="50.388032" lon="8.189888">
        <ele>170.848581</ele>
        <time>2023-01-08T17:04:40.073Z</time>
      </trkpt>
      <trkpt lat="50.388173" lon="8.190063">
        <ele>170.514511</ele>
        <time>2023-01-08T17:04:55.030Z</time>
      </trkpt>
      <trkpt lat="50.388355" lon="8.190578">
        <ele>169.817004</ele>
        <time>2023-01-08T17:05:26.611Z</time>
      </trkpt>
      <trkpt lat="50.388587" lon="8.190991">
        <ele>169.164973</ele>
        <time>2023-01-08T17:05:57.193Z</time>
      </trkpt>
      <trkpt lat="50.388731" lon="8.191247">
        <ele>168.378382</ele>
        <time>2023-01-08T17:06:16.403Z</time>
      </trkpt>
      <trkpt lat="50.388976" lon="8.191587">
        <ele>166.171072</ele>
        <time>2023-01-08T17:06:45.738Z</time>
      </trkpt>
      <trkpt lat="50.389209" lon="8.191697">
        <ele>164.529247</ele>
        <time>2023-01-08T17:07:08.181Z</time>
      </trkpt>
      <trkpt lat="50.389381" lon="8.191752">
        <ele>163.344816</ele>
        <time>2023-01-08T17:07:24.166Z</time>
      </trkpt>
      <trkpt lat="50.389435" lon="8.191770">
        <ele>162.972318</ele>
        <time>2023-01-08T17:07:29.263Z</time>
      </trkpt>
      <trkpt lat="50.389692" lon="8.191846">
        <ele>161.207677</ele>
        <time>2023-01-08T17:07:53.254Z</time>
      </trkpt>
      <trkpt lat="50.389730" lon="8.191859">
        <ele>160.945247</ele>
        <time>2023-01-08T17:07:56.845Z</time>
      </trkpt>
      <trkpt lat="50.389889" lon="8.191918">
        <ele>159.842792</ele>
        <time>2023-01-08T17:08:11.945Z</time>
      </trkpt>
      <trkpt lat="50.389958" lon="8.191890">
        <ele>159.361890</ele>
        <time>2023-01-08T17:08:18.517Z</time>
      </trkpt>
      <trkpt lat="50.390087" lon="8.192170">
        <ele>157.875785</ele>
        <time>2023-01-08T17:08:38.831Z</time>
      </trkpt>
      <trkpt lat="50.390202" lon="8.192478">
        <ele>156.442118</ele>
        <time>2023-01-08T17:08:59.901Z</time>
      </trkpt>
      <trkpt lat="50.390222" lon="8.192472">
        <ele>156.337306</ele>
        <time>2023-01-08T17:09:01.810Z</time>
      </trkpt>
      <trkpt lat="50.390335" lon="8.192439">
        <ele>155.745668</ele>
        <time>2023-01-08T17:09:12.307Z</time>
      </trkpt>
      <trkpt lat="50.390488" lon="8.192405">
        <ele>154.950270</ele>
        <time>2023-01-08T17:09:26.334Z</time>
      </trkpt>
      <trkpt lat="50.390724" lon="8.192347">
        <ele>153.720692</ele>
        <time>2023-01-08T17:09:47.757Z</time>
      </trkpt>
      <trkpt lat="50.390939" lon="8.192294">
        <ele>152.600444</ele>
        <time>2023-01-08T17:10:07.046Z</time>
      </trkpt>
      <trkpt lat="50.391046" lon="8.192257">
        <ele>152.036460</ele>
        <time>2023-01-08T17:10:16.795Z</time>
      </trkpt>
      <trkpt lat="50.391181" lon="8.192210">
        <ele>151.324666</ele>
        <time>2023-01-08T17:10:28.856Z</time>
      </trkpt>
      <trkpt lat="50.391441" lon="8.192078">
        <ele>149.918017</ele>
        <time>2023-01-08T17:10:52.640Z</time>
      </trkpt>
      <trkpt lat="50.391638" lon="8.191978">
        <ele>148.852225</ele>
        <time>2023-01-08T17:11:10.469Z</time>
      </trkpt>
      <trkpt lat="50.391620" lon="8.191834">
        <ele>148.370681</ele>
        <time>2023-01-08T17:11:18.523Z</time>
      </trkpt>
      <trkpt lat="50.391520" lon="8.191633">
        <ele>147.534013</ele>
        <time>2023-01-08T17:11:32.335Z</time>
      </trkpt>
      <trkpt lat="50.391255" lon="8.191340">
        <ele>146.198617</ele>
        <time>2023-01-08T17:12:00.011Z</time>
      </trkpt>
      <trkpt lat="50.391170" lon="8.191247">
        <ele>145.773221</ele>
        <time>2023-01-08T17:12:08.889Z</time>
      </trkpt>
      <trkpt lat="50.391230" lon="8.191102">
        <ele>145.320849</ele>
        <time>2023-01-08T17:12:18.487Z</time>
      </trkpt>
      <trkpt lat="50.391446" lon="8.190582">
        <ele>143.696701</ele>
        <time>2023-01-08T17:12:52.409Z</time>
      </trkpt>
      <trkpt lat="50.391449" lon="8.190496">
        <ele>143.471310</ele>
        <time>2023-01-08T17:12:57.092Z</time>
      </trkpt>
      <trkpt lat="50.391463" lon="8.190170">
        <ele>142.616264</ele>
        <time>2023-01-08T17:13:15.153Z</time>
      </trkpt>
      <trkpt lat="50.391470" lon="8.189970">
        <ele>142.092094</ele>
        <time>2023-01-08T17:13:26.180Z</time>
      </trkpt>
      <trkpt lat="50.391472" lon="8.189919">
        <ele>141.958380</ele>
        <time>2023-01-08T17:13:28.974Z</time>
      </trkpt>
      <trkpt lat="50.391490" lon="8.189742">
        <ele>141.489331</ele>
        <time>2023-01-08T17:13:38.877Z</time>
      </trkpt>
      <trkpt lat="50.391606" lon="8.189275">
        <ele>140.177756</ele>
        <time>2023-01-08T17:14:07.134Z</time>
      </trkpt>
      <trkpt lat="50.391633" lon="8.189048">
        <ele>139.407090</ele>
        <time>2023-01-08T17:14:20.524Z</time>
      </trkpt>
      <trkpt lat="50.391648" lon="8.188253">
        <ele>136.701907</ele>
        <time>2023-01-08T17:15:05.863Z</time>
      </trkpt>
      <trkpt lat="50.391828" lon="8.187821">
        <ele>134.946590</ele>
        <time>2023-01-08T17:15:35.182Z</time>
      </trkpt>
      <trkpt lat="50.391924" lon="8.187465">
        <ele>133.631887</ele>
        <time>2023-01-08T17:15:57.290Z</time>
      </trkpt>
      <trkpt lat="50.391972" lon="8.187366">
        <ele>133.208851</ele>
        <time>2023-01-08T17:16:04.334Z</time>
      </trkpt>
      <trkpt lat="50.391929" lon="8.187293">
        <ele>132.870806</ele>
        <time>2023-01-08T17:16:09.720Z</time>
      </trkpt>
      <trkpt lat="50.391951" lon="8.187136">
        <ele>132.324065</ele>
        <time>2023-01-08T17:16:18.895Z</time>
      </trkpt>
      <trkpt lat="50.392092" lon="8.187229">
        <ele>131.508031</ele>
        <time>2023-01-08T17:16:32.690Z</time>
      </trkpt>
      <trkpt lat="50.392533" lon="8.187426">
        <ele>129.947830</ele>
        <time>2023-01-08T17:17:12.633Z</time>
      </trkpt>
      <trkpt lat="50.392749" lon="8.187647">
        <ele>129.400719</ele>
        <time>2023-01-08T17:17:35.142Z</time>
      </trkpt>
      <trkpt lat="50.392823" lon="8.187764">
        <ele>129.177813</ele>
        <time>2023-01-08T17:17:44.013Z</time>
      </trkpt>
      <trkpt lat="50.392866" lon="8.187830">
        <ele>129.050180</ele>
        <time>2023-01-08T17:17:49.028Z</time>
      </trkpt>
      <trkpt lat="50.392913" lon="8.187731">
        <ele>128.883235</ele>
        <time>2023-01-08T17:17:55.931Z</time>
      </trkpt>
      <trkpt lat="50.392959" lon="8.187697">
        <ele>128.775355</ele>
        <time>2023-01-08T17:18:00.329Z</time>
      </trkpt>
      <trkpt lat="50.393501" lon="8.187923">
        <ele>127.585569</ele>
        <time>2023-01-08T17:18:45.583Z</time>
      </trkpt>
      <trkpt lat="50.394425" lon="8.188181">
        <ele>126.213397</ele>
        <time>2023-01-08T17:20:00.924Z</time>
      </trkpt>
      <trkpt lat="50.394426" lon="8.188581">
        <ele>125.970692</ele>
        <time>2023-01-08T17:20:21.957Z</time>
      </trkpt>
      <trkpt lat="50.394427" lon="8.188769">
        <ele>125.856618</ele>
        <time>2023-01-08T17:20:31.897Z</time>
      </trkpt>
      <trkpt lat="50.394762" lon="8.188757">
        <ele>125.537689</ele>
        <time>2023-01-08T17:20:59.419Z</time>
      </trkpt>
      <trkpt lat="50.394854" lon="8.188697">
        <ele>125.442859</ele>
        <time>2023-01-08T17:21:07.684Z</time>
      </trkpt>
      <trkpt lat="50.394965" lon="8.188416">
        <ele>125.242283</ele>
        <time>2023-01-08T17:21:24.931Z</time>
      </trkpt>
      <trkpt lat="50.395012" lon="8.187932">
        <ele>124.926593</ele>
        <time>2023-01-08T17:21:50.622Z</time>
      </trkpt>
      <trkpt lat="50.395081" lon="8.187220">
        <ele>124.353568</ele>
        <time>2023-01-08T17:22:27.930Z</time>
      </trkpt>
      <trkpt lat="50.395080" lon="8.187170">
        <ele>124.313765</ele>
        <time>2023-01-08T17:22:30.736Z</time>
      </trkpt>
      <trkpt lat="50.395049" lon="8.187147">
        <ele>124.270964</ele>
        <time>2023-01-08T17:22:33.631Z</time>
      </trkpt>
      <trkpt lat="50.395002" lon="8.187139">
        <ele>124.211957</ele>
        <time>2023-01-08T17:22:37.527Z</time>
      </trkpt>
      <trkpt lat="50.394483" lon="8.187044">
        <ele>123.559784</ele>
        <time>2023-01-08T17:23:21.201Z</time>
      </trkpt>
      <trkpt lat="50.394373" lon="8.186996">
        <ele>123.417277</ele>
        <time>2023-01-08T17:23:30.832Z</time>
      </trkpt>
      <trkpt lat="50.394257" lon="8.186889">
        <ele>123.249317</ele>
        <time>2023-01-08T17:23:41.922Z</time>
      </trkpt>
      <trkpt lat="50.394305" lon="8.186635">
        <ele>123.038522</ele>
        <time>2023-01-08T17:23:55.689Z</time>
      </trkpt>
      <trkpt lat="50.394369" lon="8.186600">
        <ele>122.953926</ele>
        <time>2023-01-08T17:24:01.384Z</time>
      </trkpt>
      <trkpt lat="50.394450" lon="8.186615">
        <ele>122.852126</ele>
        <time>2023-01-08T17:24:07.944Z</time>
      </trkpt>
      <trkpt lat="50.394795" lon="8.186648">
        <ele>123.164288</ele>
        <time>2023-01-08T17:24:35.641Z</time>
      </trkpt>
      <trkpt lat="50.395583" lon="8.186754">
        <ele>124.339647</ele>
        <time>2023-01-08T17:25:43.224Z</time>
      </trkpt>
      <trkpt lat="50.396183" lon="8.186835">
        <ele>125.234614</ele>
        <time>2023-01-08T17:26:35.574Z</time>
      </trkpt>
      <trkpt lat="50.396176" lon="8.186480">
        <ele>125.696312</ele>
        <time>2023-01-08T17:26:55.228Z</time>
      </trkpt>
      <trkpt lat="50.396093" lon="8.186333">
        <ele>126.051221</ele>
        <time>2023-01-08T17:27:05.617Z</time>
      </trkpt>
      <trkpt lat="50.395639" lon="8.185984">
        <ele>127.484625</ele>
        <time>2023-01-08T17:27:48.890Z</time>
      </trkpt>
      <trkpt lat="50.395506" lon="8.185865">
        <ele>127.918727</ele>
        <time>2023-01-08T17:28:02.281Z</time>
      </trkpt>
      <trkpt lat="50.395276" lon="8.185773">
        <ele>128.591678</ele>
        <time>2023-01-08T17:28:23.326Z</time>
      </trkpt>
      <trkpt lat="50.394298" lon="8.185504">
        <ele>130.914499</ele>
        <time>2023-01-08T17:29:53.554Z</time>
      </trkpt>
      <trkpt lat="50.394281" lon="8.185377">
        <ele>131.016971</ele>
        <time>2023-01-08T17:30:01.397Z</time>
      </trkpt>
      <trkpt lat="50.394100" lon="8.185054">
        <ele>131.356555</ele>
        <time>2023-01-08T17:30:24.442Z</time>
      </trkpt>
      <trkpt lat="50.394123" lon="8.184434">
        <ele>131.846964</ele>
        <time>2023-01-08T17:30:56.762Z</time>
      </trkpt>
      <trkpt lat="50.394078" lon="8.184112">
        <ele>132.107267</ele>
        <time>2023-01-08T17:31:13.780Z</time>
      </trkpt>
      <trkpt lat="50.394171" lon="8.184039">
        <ele>132.236080</ele>
        <time>2023-01-08T17:31:22.107Z</time>
      </trkpt>
      <trkpt lat="50.394238" lon="8.184063">
        <ele>132.321206</ele>
        <time>2023-01-08T17:31:27.854Z</time>
      </trkpt>
      <trkpt lat="50.394249" lon="8.184160">
        <ele>132.399004</ele>
        <time>2023-01-08T17:31:33.582Z</time>
      </trkpt>
      <trkpt lat="50.394238" lon="8.184063">
        <ele>132.476802</ele>
        <time>2023-01-08T17:31:39.018Z</time>
      </trkpt>
      <trkpt lat="50.394171" lon="8.184039">
        <ele>132.561928</ele>
        <time>2023-01-08T17:31:44.665Z</time>
      </trkpt>
      <trkpt lat="50.394078" lon="8.184112">
        <ele>132.690741</ele>
        <time>2023-01-08T17:31:53.001Z</time>
      </trkpt>
      <trkpt lat="50.394123" lon="8.184434">
        <ele>132.407041</ele>
        <time>2023-01-08T17:32:10.151Z</time>
      </trkpt>
      <trkpt lat="50.394100" lon="8.185054">
        <ele>131.497549</ele>
        <time>2023-01-08T17:32:42.208Z</time>
      </trkpt>
      <trkpt lat="50.394281" lon="8.185377">
        <ele>130.867771</ele>
        <time>2023-01-08T17:33:04.807Z</time>
      </trkpt>
      <trkpt lat="50.394298" lon="8.185504">
        <ele>130.677731</ele>
        <time>2023-01-08T17:33:12.143Z</time>
      </trkpt>
      <trkpt lat="50.395276" lon="8.185773">
        <ele>128.375564</ele>
        <time>2023-01-08T17:34:37.915Z</time>
      </trkpt>
      <trkpt lat="50.395506" lon="8.185865">
        <ele>127.780291</ele>
        <time>2023-01-08T17:34:58.096Z</time>
      </trkpt>
      <trkpt lat="50.395639" lon="8.185984">
        <ele>127.396297</ele>
        <time>2023-01-08T17:35:11.014Z</time>
      </trkpt>
      <trkpt lat="50.396093" lon="8.186333">
        <ele>126.128349</ele>
        <time>2023-01-08T17:35:53.136Z</time>
      </trkpt>
      <trkpt lat="50.396176" lon="8.186480">
        <ele>125.814407</ele>
        <time>2023-01-08T17:36:03.376Z</time>
      </trkpt>
      <trkpt lat="50.396183" lon="8.186835">
        <ele>125.246589</ele>
        <time>2023-01-08T17:36:22.392Z</time>
      </trkpt>
      <trkpt lat="50.395583" lon="8.186754">
        <ele>123.843378</ele>
        <time>2023-01-08T17:37:12.935Z</time>
      </trkpt>
      <trkpt lat="50.394795" lon="8.186648">
        <ele>122.416519</ele>
        <time>2023-01-08T17:38:19.539Z</time>
      </trkpt>
      <trkpt lat="50.394450" lon="8.186615">
        <ele>121.792944</ele>
        <time>2023-01-08T17:38:47.930Z</time>
      </trkpt>
      <trkpt lat="50.394395" lon="8.186509">
        <ele>121.635755</ele>
        <time>2023-01-08T17:38:55.147Z</time>
      </trkpt>
      <trkpt lat="50.394167" lon="8.186409">
        <ele>121.208640</ele>
        <time>2023-01-08T17:39:14.500Z</time>
      </trkpt>
      <trkpt lat="50.394080" lon="8.186403">
        <ele>121.051531</ele>
        <time>2023-01-08T17:39:21.647Z</time>
      </trkpt>
      <trkpt lat="50.394000" lon="8.186396">
        <ele>120.906978</ele>
        <time>2023-01-08T17:39:28.169Z</time>
      </trkpt>
      <trkpt lat="50.393929" lon="8.186480">
        <ele>120.859371</ele>
        <time>2023-01-08T17:39:35.555Z</time>
      </trkpt>
      <trkpt lat="50.393889" lon="8.186618">
        <ele>120.840659</ele>
        <time>2023-01-08T17:39:43.386Z</time>
      </trkpt>
      <trkpt lat="50.393890" lon="8.186804">
        <ele>120.817698</ele>
        <time>2023-01-08T17:39:53.074Z</time>
      </trkpt>
      <trkpt lat="50.393807" lon="8.186809">
        <ele>120.801615</ele>
        <time>2023-01-08T17:39:59.851Z</time>
      </trkpt>
      <trkpt lat="50.393638" lon="8.186653">
        <ele>120.763646</ele>
        <time>2023-01-08T17:40:15.781Z</time>
      </trkpt>
      <trkpt lat="50.391788" lon="8.184793">
        <ele>121.688189</ele>
        <time>2023-01-08T17:43:12.950Z</time>
      </trkpt>
      <trkpt lat="50.391747" lon="8.184664">
        <ele>121.799196</ele>
        <time>2023-01-08T17:43:20.714Z</time>
      </trkpt>
      <trkpt lat="50.391585" lon="8.184164">
        <ele>122.231131</ele>
        <time>2023-01-08T17:43:51.462Z</time>
      </trkpt>
      <trkpt lat="50.392043" lon="8.183701">
        <ele>123.699145</ele>
        <time>2023-01-08T17:44:38.320Z</time>
      </trkpt>
      <trkpt lat="50.392241" lon="8.183544">
        <ele>125.097801</ele>
        <time>2023-01-08T17:44:58.810Z</time>
      </trkpt>
      <trkpt lat="50.392490" lon="8.184242">
        <ele>128.312448</ele>
        <time>2023-01-08T17:45:44.280Z</time>
      </trkpt>
      <trkpt lat="50.392549" lon="8.184211">
        <ele>128.704708</ele>
        <time>2023-01-08T17:45:50.281Z</time>
      </trkpt>
      <trkpt lat="50.392568" lon="8.184190">
        <ele>128.851236</ele>
        <time>2023-01-08T17:45:52.515Z</time>
      </trkpt>
      <trkpt lat="50.392643" lon="8.184156">
        <ele>129.343401</ele>
        <time>2023-01-08T17:46:01.045Z</time>
      </trkpt>
      <trkpt lat="50.392799" lon="8.183647">
        <ele>131.613221</ele>
        <time>2023-01-08T17:46:38.448Z</time>
      </trkpt>
      <trkpt lat="50.393043" lon="8.183140">
        <ele>134.210558</ele>
        <time>2023-01-08T17:47:21.385Z</time>
      </trkpt>
      <trkpt lat="50.393285" lon="8.182837">
        <ele>136.827699</ele>
        <time>2023-01-08T17:47:55.781Z</time>
      </trkpt>
      <trkpt lat="50.393594" lon="8.182588">
        <ele>139.763898</ele>
        <time>2023-01-08T17:48:33.407Z</time>
      </trkpt>
      <trkpt lat="50.393654" lon="8.182626">
        <ele>140.310805</ele>
        <time>2023-01-08T17:48:40.153Z</time>
      </trkpt>
      <trkpt lat="50.393811" lon="8.182650">
        <ele>141.644083</ele>
        <time>2023-01-08T17:48:57.254Z</time>
      </trkpt>
      <trkpt lat="50.394440" lon="8.182451">
        <ele>147.067558</ele>
        <time>2023-01-08T17:50:01.497Z</time>
      </trkpt>
      <trkpt lat="50.394571" lon="8.182364">
        <ele>148.269939</ele>
        <time>2023-01-08T17:50:14.894Z</time>
      </trkpt>
      <trkpt lat="50.394599" lon="8.182325">
        <ele>148.586432</ele>
        <time>2023-01-08T17:50:19.147Z</time>
      </trkpt>
      <trkpt lat="50.394726" lon="8.182151">
        <ele>149.417486</ele>
        <time>2023-01-08T17:50:35.933Z</time>
      </trkpt>
      <trkpt lat="50.394383" lon="8.182305">
        <ele>150.114607</ele>
        <time>2023-01-08T17:51:09.673Z</time>
      </trkpt>
      <trkpt lat="50.394352" lon="8.182214">
        <ele>150.243130</ele>
        <time>2023-01-08T17:51:15.710Z</time>
      </trkpt>
      <trkpt lat="50.394001" lon="8.180861">
        <ele>152.062703</ele>
        <time>2023-01-08T17:52:30.904Z</time>
      </trkpt>
      <trkpt lat="50.393864" lon="8.180126">
        <ele>152.975733</ele>
        <time>2023-01-08T17:53:10.786Z</time>
      </trkpt>
      <trkpt lat="50.393802" lon="8.179559">
        <ele>153.581125</ele>
        <time>2023-01-08T17:53:41.199Z</time>
      </trkpt>
      <trkpt lat="50.393721" lon="8.179140">
        <ele>154.041883</ele>
        <time>2023-01-08T17:54:04.724Z</time>
      </trkpt>
      <trkpt lat="50.393940" lon="8.178786">
        <ele>154.560983</ele>
        <time>2023-01-08T17:54:32.005Z</time>
      </trkpt>
      <trkpt lat="50.394348" lon="8.178292">
        <ele>155.411770</ele>
        <time>2023-01-08T17:55:16.624Z</time>
      </trkpt>
      <trkpt lat="50.394324" lon="8.178023">
        <ele>155.697605</ele>
        <time>2023-01-08T17:55:31.984Z</time>
      </trkpt>
      <trkpt lat="50.394928" lon="8.177220">
        <ele>157.175535</ele>
        <time>2023-01-08T17:56:41.760Z</time>
      </trkpt>
      <trkpt lat="50.394984" lon="8.177373">
        <ele>157.385945</ele>
        <time>2023-01-08T17:56:51.390Z</time>
      </trkpt>
      <trkpt lat="50.395302" lon="8.176947">
        <ele>158.168289</ele>
        <time>2023-01-08T17:57:26.833Z</time>
      </trkpt>
      <trkpt lat="50.395669" lon="8.176570">
        <ele>158.989001</ele>
        <time>2023-01-08T17:58:03.705Z</time>
      </trkpt>
      <trkpt lat="50.396151" lon="8.175994">
        <ele>158.808523</ele>
        <time>2023-01-08T17:58:52.216Z</time>
      </trkpt>
      <trkpt lat="50.396222" lon="8.175909">
        <ele>158.763529</ele>
        <time>2023-01-08T17:58:59.461Z</time>
      </trkpt>
      <trkpt lat="50.396421" lon="8.175825">
        <ele>158.659713</ele>
        <time>2023-01-08T17:59:16.394Z</time>
      </trkpt>
      <trkpt lat="50.396667" lon="8.175834">
        <ele>158.535752</ele>
        <time>2023-01-08T17:59:36.343Z</time>
      </trkpt>
      <trkpt lat="50.396749" lon="8.175932">
        <ele>158.483821</ele>
        <time>2023-01-08T17:59:44.892Z</time>
      </trkpt>
      <trkpt lat="50.396834" lon="8.175846">
        <ele>158.432867</ele>
        <time>2023-01-08T17:59:53.024Z</time>
      </trkpt>
      <trkpt lat="50.396893" lon="8.175777">
        <ele>158.395794</ele>
        <time>2023-01-08T17:59:58.989Z</time>
      </trkpt>
      <trkpt lat="50.396938" lon="8.175658">
        <ele>158.351360</ele>
        <time>2023-01-08T18:00:06.211Z</time>
      </trkpt>
      <trkpt lat="50.396921" lon="8.175573">
        <ele>158.322752</ele>
        <time>2023-01-08T18:00:11.146Z</time>
      </trkpt>
      <trkpt lat="50.396575" lon="8.175443">
        <ele>158.116589</ele>
        <time>2023-01-08T18:00:40.267Z</time>
      </trkpt>
      <trkpt lat="50.396540" lon="8.175356">
        <ele>158.059942</ele>
        <time>2023-01-08T18:00:45.580Z</time>
      </trkpt>
      <trkpt lat="50.396989" lon="8.172879">
        <ele>156.641965</ele>
        <time>2023-01-08T18:02:59.501Z</time>
      </trkpt>
      <trkpt lat="50.398003" lon="8.171537">
        <ele>154.583310</ele>
        <time>2023-01-08T18:04:46.375Z</time>
      </trkpt>
      <trkpt lat="50.398747" lon="8.170919">
        <ele>151.773883</ele>
        <time>2023-01-08T18:05:59.540Z</time>
      </trkpt>
      <trkpt lat="50.398952" lon="8.170749">
        <ele>150.430141</ele>
        <time>2023-01-08T18:06:19.550Z</time>
      </trkpt>
      <trkpt lat="50.398912" lon="8.170452">
        <ele>149.308813</ele>
        <time>2023-01-08T18:06:37.445Z</time>
      </trkpt>
      <trkpt lat="50.398984" lon="8.170132">
        <ele>148.055267</ele>
        <time>2023-01-08T18:06:56.131Z</time>
      </trkpt>
      <trkpt lat="50.399468" lon="8.169079">
        <ele>143.308435</ele>
        <time>2023-01-08T18:08:12.269Z</time>
      </trkpt>
      <trkpt lat="50.399582" lon="8.168876">
        <ele>142.661866</ele>
        <time>2023-01-08T18:08:27.936Z</time>
      </trkpt>
      <trkpt lat="50.399940" lon="8.168561">
        <ele>141.122934</ele>
        <time>2023-01-08T18:09:06.610Z</time>
      </trkpt>
      <trkpt lat="50.400780" lon="8.166716">
        <ele>137.208114</ele>
        <time>2023-01-08T18:11:06.679Z</time>
      </trkpt>
      <trkpt lat="50.400849" lon="8.166603">
        <ele>137.426309</ele>
        <time>2023-01-08T18:11:15.402Z</time>
      </trkpt>
      <trkpt lat="50.401005" lon="8.166593">
        <ele>137.767851</ele>
        <time>2023-01-08T18:11:28.539Z</time>
      </trkpt>
      <trkpt lat="50.401275" lon="8.166461">
        <ele>138.386501</ele>
        <time>2023-01-08T18:11:53.459Z</time>
      </trkpt>
      <trkpt lat="50.401311" lon="8.166366">
        <ele>138.540606</ele>
        <time>2023-01-08T18:11:59.665Z</time>
      </trkpt>
      <trkpt lat="50.401300" lon="8.166254">
        <ele>138.698617</ele>
        <time>2023-01-08T18:12:06.176Z</time>
      </trkpt>
      <trkpt lat="50.401367" lon="8.166207">
        <ele>138.859167</ele>
        <time>2023-01-08T18:12:13.075Z</time>
      </trkpt>
      <trkpt lat="50.401433" lon="8.166294">
        <ele>139.047742</ele>
        <time>2023-01-08T18:12:20.423Z</time>
      </trkpt>
      <trkpt lat="50.401551" lon="8.166225">
        <ele>139.323219</ele>
        <time>2023-01-08T18:12:31.790Z</time>
      </trkpt>
      <trkpt lat="50.401562" lon="8.166016">
        <ele>139.615629</ele>
        <time>2023-01-08T18:12:46.301Z</time>
      </trkpt>
      <trkpt lat="50.401759" lon="8.166041">
        <ele>140.047983</ele>
        <time>2023-01-08T18:13:02.197Z</time>
      </trkpt>
      <trkpt lat="50.401850" lon="8.165975">
        <ele>140.267292</ele>
        <time>2023-01-08T18:13:12.107Z</time>
      </trkpt>
      <trkpt lat="50.402027" lon="8.165755">
        <ele>140.659635</ele>
        <time>2023-01-08T18:13:30.825Z</time>
      </trkpt>
      <trkpt lat="50.402228" lon="8.165635">
        <ele>140.853077</ele>
        <time>2023-01-08T18:13:52.323Z</time>
      </trkpt>
      <trkpt lat="50.402293" lon="8.165539">
        <ele>140.933373</ele>
        <time>2023-01-08T18:14:00.610Z</time>
      </trkpt>
      <trkpt lat="50.402324" lon="8.165429">
        <ele>141.002328</ele>
        <time>2023-01-08T18:14:07.139Z</time>
      </trkpt>
      <trkpt lat="50.402532" lon="8.165388">
        <ele>141.190889</ele>
        <time>2023-01-08T18:14:27.390Z</time>
      </trkpt>
      <trkpt lat="50.402612" lon="8.165304">
        <ele>141.277476</ele>
        <time>2023-01-08T18:14:36.055Z</time>
      </trkpt>
      <trkpt lat="50.402652" lon="8.165216">
        <ele>141.339442</ele>
        <time>2023-01-08T18:14:42.078Z</time>
      </trkpt>
      <trkpt lat="50.402703" lon="8.165222">
        <ele>141.385444</ele>
        <time>2023-01-08T18:14:46.831Z</time>
      </trkpt>
      <trkpt lat="50.402791" lon="8.165159">
        <ele>141.472449</ele>
        <time>2023-01-08T18:14:58.618Z</time>
      </trkpt>
      <trkpt lat="50.402750" lon="8.164984">
        <ele>141.579342</ele>
        <time>2023-01-08T18:15:09.583Z</time>
      </trkpt>
      <trkpt lat="50.402801" lon="8.164593">
        <ele>141.808153</ele>
        <time>2023-01-08T18:15:31.399Z</time>
      </trkpt>
      <trkpt lat="50.402743" lon="8.164532">
        <ele>141.870960</ele>
        <time>2023-01-08T18:15:37.984Z</time>
      </trkpt>
      <trkpt lat="50.402741" lon="8.164392">
        <ele>141.951244</ele>
        <time>2023-01-08T18:15:46.007Z</time>
      </trkpt>
      <trkpt lat="50.402860" lon="8.164415">
        <ele>142.059091</ele>
        <time>2023-01-08T18:15:56.323Z</time>
      </trkpt>
      <trkpt lat="50.402972" lon="8.164384">
        <ele>142.161388</ele>
        <time>2023-01-08T18:16:05.728Z</time>
      </trkpt>
      <trkpt lat="50.403021" lon="8.164305">
        <ele>142.146446</ele>
        <time>2023-01-08T18:16:12.275Z</time>
      </trkpt>
      <trkpt lat="50.403027" lon="8.164127">
        <ele>141.807261</ele>
        <time>2023-01-08T18:16:21.985Z</time>
      </trkpt>
      <trkpt lat="50.403074" lon="8.164082">
        <ele>141.642881</ele>
        <time>2023-01-08T18:16:26.717Z</time>
      </trkpt>
      <trkpt lat="50.403124" lon="8.163942">
        <ele>141.337508</ele>
        <time>2023-01-08T18:16:35.343Z</time>
      </trkpt>
      <trkpt lat="50.403080" lon="8.163769">
        <ele>140.983071</ele>
        <time>2023-01-08T18:16:46.523Z</time>
      </trkpt>
      <trkpt lat="50.403084" lon="8.163609">
        <ele>140.678377</ele>
        <time>2023-01-08T18:16:55.246Z</time>
      </trkpt>
      <trkpt lat="50.403166" lon="8.163537">
        <ele>140.397840</ele>
        <time>2023-01-08T18:17:03.986Z</time>
      </trkpt>
      <trkpt lat="50.403198" lon="8.163287">
        <ele>139.912625</ele>
        <time>2023-01-08T18:17:19.076Z</time>
      </trkpt>
      <trkpt lat="50.403438" lon="8.163241">
        <ele>139.190790</ele>
        <time>2023-01-08T18:17:39.746Z</time>
      </trkpt>
      <trkpt lat="50.403478" lon="8.163122">
        <ele>138.934791</ele>
        <time>2023-01-08T18:17:47.421Z</time>
      </trkpt>
      <trkpt lat="50.403552" lon="8.163067">
        <ele>138.690332</ele>
        <time>2023-01-08T18:17:54.426Z</time>
      </trkpt>
      <trkpt lat="50.403620" lon="8.162804">
        <ele>138.150273</ele>
        <time>2023-01-08T18:18:09.428Z</time>
      </trkpt>
      <trkpt lat="50.403731" lon="8.162662">
        <ele>137.722691</ele>
        <time>2023-01-08T18:18:21.382Z</time>
      </trkpt>
      <trkpt lat="50.403860" lon="8.162189">
        <ele>136.720719</ele>
        <time>2023-01-08T18:18:49.121Z</time>
      </trkpt>
      <trkpt lat="50.404176" lon="8.161524">
        <ele>134.752255</ele>
        <time>2023-01-08T18:19:34.008Z</time>
      </trkpt>
      <trkpt lat="50.404237" lon="8.161001">
        <ele>133.490497</ele>
        <time>2023-01-08T18:20:03.099Z</time>
      </trkpt>
      <trkpt lat="50.404364" lon="8.160664">
        <ele>132.561416</ele>
        <time>2023-01-08T18:20:24.607Z</time>
      </trkpt>
      <trkpt lat="50.404719" lon="8.160246">
        <ele>130.908811</ele>
        <time>2023-01-08T18:21:03.607Z</time>
      </trkpt>
      <trkpt lat="50.405266" lon="8.159878">
        <ele>129.211428</ele>
        <time>2023-01-08T18:21:55.888Z</time>
      </trkpt>
      <trkpt lat="50.405447" lon="8.159756">
        <ele>128.740838</ele>
        <time>2023-01-08T18:22:12.959Z</time>
      </trkpt>
      <trkpt lat="50.405535" lon="8.159698">
        <ele>128.512825</ele>
        <time>2023-01-08T18:22:21.111Z</time>
      </trkpt>
      <trkpt lat="50.405563" lon="8.159637">
        <ele>128.398372</ele>
        <time>2023-01-08T18:22:25.278Z</time>
      </trkpt>
      <trkpt lat="50.405580" lon="8.159634">
        <ele>128.357506</ele>
        <time>2023-01-08T18:22:26.665Z</time>
      </trkpt>
      <trkpt lat="50.405594" lon="8.159636">
        <ele>128.323924</ele>
        <time>2023-01-08T18:22:27.857Z</time>
      </trkpt>
      <trkpt lat="50.405613" lon="8.159639">
        <ele>128.278307</ele>
        <time>2023-01-08T18:22:29.454Z</time>
      </trkpt>
      <trkpt lat="50.405687" lon="8.159647">
        <ele>128.101113</ele>
        <time>2023-01-08T18:22:35.764Z</time>
      </trkpt>
      <trkpt lat="50.405710" lon="8.159649">
        <ele>128.046086</ele>
        <time>2023-01-08T18:22:37.769Z</time>
      </trkpt>
      <trkpt lat="50.405758" lon="8.159656">
        <ele>127.930927</ele>
        <time>2023-01-08T18:22:41.859Z</time>
      </trkpt>
      <trkpt lat="50.405777" lon="8.159018">
        <ele>126.958501</ele>
        <time>2023-01-08T18:23:15.944Z</time>
      </trkpt>
      <trkpt lat="50.405785" lon="8.158591">
        <ele>126.308105</ele>
        <time>2023-01-08T18:23:37.900Z</time>
      </trkpt>
      <trkpt lat="50.405771" lon="8.158431">
        <ele>126.062217</ele>
        <time>2023-01-08T18:23:46.127Z</time>
      </trkpt>
      <trkpt lat="50.405767" lon="8.158410">
        <ele>126.028847</ele>
        <time>2023-01-08T18:23:47.270Z</time>
      </trkpt>
      <trkpt lat="50.405687" lon="8.157306">
        <ele>125.843116</ele>
        <time>2023-01-08T18:24:46.402Z</time>
      </trkpt>
      <trkpt lat="50.405660" lon="8.157189">
        <ele>125.843116</ele>
        <time>2023-01-08T18:24:53.180Z</time>
      </trkpt>
      <trkpt lat="50.405947" lon="8.156887">
        <ele>125.843116</ele>
        <time>2023-01-08T18:25:22.562Z</time>
      </trkpt>
      <trkpt lat="50.406246" lon="8.156476">
        <ele>125.843116</ele>
        <time>2023-01-08T18:25:57.806Z</time>
      </trkpt>
      <trkpt lat="50.406286" lon="8.156351">
        <ele>125.843116</ele>
        <time>2023-01-08T18:26:06.112Z</time>
      </trkpt>
      <trkpt lat="50.406301" lon="8.156156">
        <ele>125.843116</ele>
        <time>2023-01-08T18:26:17.168Z</time>
      </trkpt>
      <trkpt lat="50.406165" lon="8.155751">
        <ele>125.843116</ele>
        <time>2023-01-08T18:26:43.405Z</time>
      </trkpt>
      <trkpt lat="50.406051" lon="8.155146">
        <ele>125.843116</ele>
        <time>2023-01-08T18:27:18.874Z</time>
      </trkpt>
      <trkpt lat="50.405970" lon="8.154848">
        <ele>125.843116</ele>
        <time>2023-01-08T18:27:36.745Z</time>
      </trkpt>
      <trkpt lat="50.405919" lon="8.154661">
        <ele>125.843116</ele>
        <time>2023-01-08T18:27:47.819Z</time>
      </trkpt>
    </trkseg>
  </trk>
</gpx>