<?xml version="1.0" encoding="UTF-8"?>
<!-- track-length = 15288 filtered ascend = 37 plain-ascend = 13 cost=18487 energy=0.0kwh time=2h 56m 3.947753329295665s -->
<gpx 
 xmlns="http://www.topografix.com/GPX/1/1" 
 xmlns:xsi="http://www.w3.org/2001/XMLSchema-instance" 
 xsi:schemaLocation="http://www.topografix.com/GPX/1/1 http://www.topografix.com/GPX/1/1/gpx.xsd" 
 version="1.1" 
 creator="BRouter-Web 0.18.1">
 <trk>
  <name>PW-385-HE-15km-gpx.gpx</name>
  <trkseg>
   <trkpt lat="50.01696758450128" lon="8.292660572012657"/>
   <trkpt lat="50.016212540881035" lon="8.29389991647979"/>
   <trkpt lat="50.01503018547436" lon="8.29552531566931"/>
   <trkpt lat="50.014225" lon="8.296468"><ele>98.25</ele></trkpt>
   <trkpt lat="50.014153" lon="8.296549"><ele>98.75</ele></trkpt>
   <trkpt lat="50.01385" lon="8.296873"><ele>96.75</ele></trkpt>
   <trkpt lat="50.013717" lon="8.297011"><ele>96</ele></trkpt>
   <trkpt lat="50.01367" lon="8.296903"><ele>96</ele></trkpt>
   <trkpt lat="50.013618" lon="8.296783"><ele>96</ele></trkpt>
   <trkpt lat="50.013462" lon="8.29638"><ele>95.25</ele></trkpt>
   <trkpt lat="50.013442" lon="8.296331"><ele>95</ele></trkpt>
   <trkpt lat="50.013206" lon="8.295737"><ele>93.5</ele></trkpt>
   <trkpt lat="50.013194" lon="8.295708"><ele>93.5</ele></trkpt>
   <trkpt lat="50.013039" lon="8.295317"><ele>93</ele></trkpt>
   <trkpt lat="50.01298" lon="8.295187"><ele>92.75</ele></trkpt>
   <trkpt lat="50.012817" lon="8.294822"><ele>92</ele></trkpt>
   <trkpt lat="50.012706" lon="8.294576"><ele>91.5</ele></trkpt>
   <trkpt lat="50.012558" lon="8.294247"><ele>91</ele></trkpt>
   <trkpt lat="50.012492" lon="8.294108"><ele>90.75</ele></trkpt>
   <trkpt lat="50.012434" lon="8.293979"><ele>90.75</ele></trkpt>
   <trkpt lat="50.012233" lon="8.293528"><ele>90</ele></trkpt>
   <trkpt lat="50.011855" lon="8.292766"><ele>90.25</ele></trkpt>
   <trkpt lat="50.011602" lon="8.292286"><ele>91</ele></trkpt>
   <trkpt lat="50.011523" lon="8.292156"><ele>91</ele></trkpt>
   <trkpt lat="50.01129" lon="8.291768"><ele>91</ele></trkpt>
   <trkpt lat="50.01104" lon="8.291314"><ele>90.5</ele></trkpt>
   <trkpt lat="50.01084" lon="8.290982"><ele>90</ele></trkpt>
   <trkpt lat="50.010517" lon="8.290439"><ele>90.25</ele></trkpt>
   <trkpt lat="50.010289" lon="8.290078"><ele>90.5</ele></trkpt>
   <trkpt lat="50.009925" lon="8.289518"><ele>90.25</ele></trkpt>
   <trkpt lat="50.009549" lon="8.288973"><ele>89.25</ele></trkpt>
   <trkpt lat="50.009348" lon="8.288733"><ele>89</ele></trkpt>
   <trkpt lat="50.009048" lon="8.288416"><ele>89</ele></trkpt>
   <trkpt lat="50.008755" lon="8.288153"><ele>89.5</ele></trkpt>
   <trkpt lat="50.008645" lon="8.288061"><ele>89.5</ele></trkpt>
   <trkpt lat="50.008577" lon="8.288016"><ele>89.75</ele></trkpt>
   <trkpt lat="50.008111" lon="8.287691"><ele>90.5</ele></trkpt>
   <trkpt lat="50.008198" lon="8.287615"><ele>90.25</ele></trkpt>
   <trkpt lat="50.008249" lon="8.287568"><ele>90</ele></trkpt>
   <trkpt lat="50.008468" lon="8.287369"><ele>90</ele></trkpt>
   <trkpt lat="50.008586" lon="8.287262"><ele>90</ele></trkpt>
   <trkpt lat="50.008644" lon="8.287206"><ele>90</ele></trkpt>
   <trkpt lat="50.008602" lon="8.287083"><ele>90</ele></trkpt>
   <trkpt lat="50.008596" lon="8.28702"><ele>90</ele></trkpt>
   <trkpt lat="50.008689" lon="8.286665"><ele>90</ele></trkpt>
   <trkpt lat="50.008713" lon="8.286576"><ele>90</ele></trkpt>
   <trkpt lat="50.008687" lon="8.286538"><ele>90</ele></trkpt>
   <trkpt lat="50.008686" lon="8.286525"><ele>90</ele></trkpt>
   <trkpt lat="50.008701" lon="8.28648"><ele>90</ele></trkpt>
   <trkpt lat="50.00872" lon="8.286451"><ele>90.25</ele></trkpt>
   <trkpt lat="50.008767" lon="8.286379"><ele>90.25</ele></trkpt>
   <trkpt lat="50.008691" lon="8.286223"><ele>90.5</ele></trkpt>
   <trkpt lat="50.008693" lon="8.28622"><ele>90.5</ele></trkpt>
   <trkpt lat="50.008763" lon="8.286124"><ele>90.5</ele></trkpt>
   <trkpt lat="50.008682" lon="8.285972"><ele>90.75</ele></trkpt>
   <trkpt lat="50.00853" lon="8.285619"><ele>90.75</ele></trkpt>
   <trkpt lat="50.0083" lon="8.285079"><ele>91</ele></trkpt>
   <trkpt lat="50.008659" lon="8.284822"><ele>91.25</ele></trkpt>
   <trkpt lat="50.008666" lon="8.284818"><ele>91.25</ele></trkpt>
   <trkpt lat="50.008973" lon="8.284644"><ele>91.5</ele></trkpt>
   <trkpt lat="50.009067" lon="8.284401"><ele>91.75</ele></trkpt>
   <trkpt lat="50.008796" lon="8.283666"><ele>91</ele></trkpt>
   <trkpt lat="50.008782" lon="8.283629"><ele>91</ele></trkpt>
   <trkpt lat="50.008665" lon="8.283299"><ele>90.75</ele></trkpt>
   <trkpt lat="50.008515" lon="8.282879"><ele>90.5</ele></trkpt>
   <trkpt lat="50.008353" lon="8.282422"><ele>90.5</ele></trkpt>
   <trkpt lat="50.008306" lon="8.28229"><ele>90.75</ele></trkpt>
   <trkpt lat="50.008653" lon="8.281815"><ele>89.75</ele></trkpt>
   <trkpt lat="50.008774" lon="8.28167"><ele>89.25</ele></trkpt>
   <trkpt lat="50.008797" lon="8.28164"><ele>89.25</ele></trkpt>
   <trkpt lat="50.008802" lon="8.281635"><ele>89.25</ele></trkpt>
   <trkpt lat="50.008715" lon="8.281408"><ele>89.25</ele></trkpt>
   <trkpt lat="50.008622" lon="8.281184"><ele>89.25</ele></trkpt>
   <trkpt lat="50.008586" lon="8.281076"><ele>89.25</ele></trkpt>
   <trkpt lat="50.008426" lon="8.280685"><ele>88.75</ele></trkpt>
   <trkpt lat="50.008364" lon="8.280534"><ele>88.5</ele></trkpt>
   <trkpt lat="50.008265" lon="8.280217"><ele>87.75</ele></trkpt>
   <trkpt lat="50.008165" lon="8.279951"><ele>87</ele></trkpt>
   <trkpt lat="50.008054" lon="8.279801"><ele>86</ele></trkpt>
   <trkpt lat="50.008042" lon="8.279698"><ele>85.75</ele></trkpt>
   <trkpt lat="50.008011" lon="8.279569"><ele>85.25</ele></trkpt>
   <trkpt lat="50.007938" lon="8.2796"><ele>85</ele></trkpt>
   <trkpt lat="50.007684" lon="8.279802"><ele>84.5</ele></trkpt>
   <trkpt lat="50.007639" lon="8.279835"><ele>84.25</ele></trkpt>
   <trkpt lat="50.007353" lon="8.280014"><ele>83.5</ele></trkpt>
   <trkpt lat="50.007202" lon="8.280108"><ele>83.25</ele></trkpt>
   <trkpt lat="50.007019" lon="8.280309"><ele>83.25</ele></trkpt>
   <trkpt lat="50.006655" lon="8.280698"><ele>83.5</ele></trkpt>
   <trkpt lat="50.006481" lon="8.280838"><ele>83.75</ele></trkpt>
   <trkpt lat="50.006395" lon="8.280909"><ele>84</ele></trkpt>
   <trkpt lat="50.006242" lon="8.281017"><ele>84.25</ele></trkpt>
   <trkpt lat="50.006058" lon="8.281133"><ele>84.5</ele></trkpt>
   <trkpt lat="50.005927" lon="8.281216"><ele>84.5</ele></trkpt>
   <trkpt lat="50.005802" lon="8.281303"><ele>84.5</ele></trkpt>
   <trkpt lat="50.005715" lon="8.281406"><ele>84.75</ele></trkpt>
   <trkpt lat="50.005695" lon="8.281451"><ele>85</ele></trkpt>
   <trkpt lat="50.00568" lon="8.281494"><ele>85</ele></trkpt>
   <trkpt lat="50.00558" lon="8.281486"><ele>85.25</ele></trkpt>
   <trkpt lat="50.005504" lon="8.281375"><ele>85.25</ele></trkpt>
   <trkpt lat="50.005411" lon="8.281532"><ele>85.5</ele></trkpt>
   <trkpt lat="50.005149" lon="8.281979"><ele>86.5</ele></trkpt>
   <trkpt lat="50.004563" lon="8.283076"><ele>85.75</ele></trkpt>
   <trkpt lat="50.004524" lon="8.283281"><ele>85.75</ele></trkpt>
   <trkpt lat="50.004508" lon="8.283372"><ele>85.75</ele></trkpt>
   <trkpt lat="50.004457" lon="8.283656"><ele>85.75</ele></trkpt>
   <trkpt lat="50.004443" lon="8.283738"><ele>85.75</ele></trkpt>
   <trkpt lat="50.004255" lon="8.283985"><ele>85.75</ele></trkpt>
   <trkpt lat="50.004214" lon="8.284015"><ele>85.75</ele></trkpt>
   <trkpt lat="50.00418" lon="8.284025"><ele>85.75</ele></trkpt>
   <trkpt lat="50.004117" lon="8.284005"><ele>85.75</ele></trkpt>
   <trkpt lat="50.004151" lon="8.283918"><ele>85.75</ele></trkpt>
   <trkpt lat="50.004168" lon="8.283876"/>
   <trkpt lat="50.004191" lon="8.283897"/>
   <trkpt lat="50.004197" lon="8.283881"/>
   <trkpt lat="50.003846" lon="8.283565"/>
   <trkpt lat="50.003777" lon="8.283504"/>
   <trkpt lat="50.003604" lon="8.283657"/>
   <trkpt lat="50.003563" lon="8.283689"/>
   <trkpt lat="50.003167" lon="8.283988"/>
   <trkpt lat="50.003151" lon="8.284002"><ele>87.25</ele></trkpt>
   <trkpt lat="50.003063" lon="8.284049"><ele>87</ele></trkpt>
   <trkpt lat="50.002898" lon="8.284201"><ele>87</ele></trkpt>
   <trkpt lat="50.002255" lon="8.284728"><ele>85.5</ele></trkpt>
   <trkpt lat="50.001367" lon="8.285457"><ele>83.75</ele></trkpt>
   <trkpt lat="50.001287" lon="8.285519"><ele>84</ele></trkpt>
   <trkpt lat="50.001193" lon="8.28559"><ele>84.25</ele></trkpt>
   <trkpt lat="50.001139" lon="8.285616"><ele>84.25</ele></trkpt>
   <trkpt lat="50.000969" lon="8.285751"><ele>84.75</ele></trkpt>
   <trkpt lat="50.000611" lon="8.286089"><ele>85.5</ele></trkpt>
   <trkpt lat="50.00033" lon="8.286371"><ele>86.5</ele></trkpt>
   <trkpt lat="50.000168" lon="8.286533"><ele>87.25</ele></trkpt>
   <trkpt lat="49.999958" lon="8.286743"><ele>87.75</ele></trkpt>
   <trkpt lat="49.999807" lon="8.286894"><ele>87</ele></trkpt>
   <trkpt lat="49.999326" lon="8.28737"><ele>87.25</ele></trkpt>
   <trkpt lat="49.999288" lon="8.287402"><ele>87.25</ele></trkpt>
   <trkpt lat="49.999019" lon="8.287669"><ele>86.75</ele></trkpt>
   <trkpt lat="49.998164" lon="8.288617"><ele>85.5</ele></trkpt>
   <trkpt lat="49.997599" lon="8.289318"><ele>84.25</ele></trkpt>
   <trkpt lat="49.996738" lon="8.290446"><ele>85.25</ele></trkpt>
   <trkpt lat="49.99654" lon="8.290707"><ele>85.75</ele></trkpt>
   <trkpt lat="49.996147" lon="8.291331"><ele>84.5</ele></trkpt>
   <trkpt lat="49.995934" lon="8.29176"><ele>84</ele></trkpt>
   <trkpt lat="49.995734" lon="8.292189"><ele>86.75</ele></trkpt>
   <trkpt lat="49.995575" lon="8.292654"><ele>87.25</ele></trkpt>
   <trkpt lat="49.995444" lon="8.293102"><ele>85</ele></trkpt>
   <trkpt lat="49.995374" lon="8.293406"><ele>84.25</ele></trkpt>
   <trkpt lat="49.99531" lon="8.293741"><ele>85</ele></trkpt>
   <trkpt lat="49.995246" lon="8.294144"><ele>86</ele></trkpt>
   <trkpt lat="49.995155" lon="8.294975"><ele>89.5</ele></trkpt>
   <trkpt lat="49.995149" lon="8.295248"><ele>89.5</ele></trkpt>
   <trkpt lat="49.995167" lon="8.295432"><ele>89.25</ele></trkpt>
   <trkpt lat="49.995197" lon="8.295606"><ele>88.5</ele></trkpt>
   <trkpt lat="49.995296" lon="8.296183"><ele>86.75</ele></trkpt>
   <trkpt lat="49.995345" lon="8.296488"><ele>85</ele></trkpt>
   <trkpt lat="49.995464" lon="8.297069"><ele>85</ele></trkpt>
   <trkpt lat="49.995529" lon="8.297446"><ele>86</ele></trkpt>
   <trkpt lat="49.995562" lon="8.297642"><ele>86.25</ele></trkpt>
   <trkpt lat="49.995672" lon="8.298023"><ele>87</ele></trkpt>
   <trkpt lat="49.995767" lon="8.298267"><ele>87.5</ele></trkpt>
   <trkpt lat="49.995899" lon="8.298539"><ele>87</ele></trkpt>
   <trkpt lat="49.996121" lon="8.29898"><ele>86.75</ele></trkpt>
   <trkpt lat="49.996201" lon="8.29918"><ele>87</ele></trkpt>
   <trkpt lat="49.996348" lon="8.299613"><ele>87.25</ele></trkpt>
   <trkpt lat="49.996364" lon="8.299783"><ele>87</ele></trkpt>
   <trkpt lat="49.996376" lon="8.299915"><ele>87</ele></trkpt>
   <trkpt lat="49.996398" lon="8.300055"><ele>87</ele></trkpt>
   <trkpt lat="49.9966" lon="8.300752"><ele>88.5</ele></trkpt>
   <trkpt lat="49.99664" lon="8.300885"><ele>88.25</ele></trkpt>
   <trkpt lat="49.996812" lon="8.301399"><ele>86.5</ele></trkpt>
   <trkpt lat="49.997062" lon="8.302139"><ele>84.5</ele></trkpt>
   <trkpt lat="49.997666" lon="8.303763"><ele>85.75</ele></trkpt>
   <trkpt lat="49.99777" lon="8.303958"><ele>86</ele></trkpt>
   <trkpt lat="49.997845" lon="8.304074"><ele>86.25</ele></trkpt>
   <trkpt lat="49.997924" lon="8.304154"><ele>86.5</ele></trkpt>
   <trkpt lat="49.997997" lon="8.304206"><ele>86.5</ele></trkpt>
   <trkpt lat="49.998084" lon="8.304256"><ele>86.5</ele></trkpt>
   <trkpt lat="49.998368" lon="8.304379"><ele>86.75</ele></trkpt>
   <trkpt lat="49.998577" lon="8.304448"><ele>86.25</ele></trkpt>
   <trkpt lat="49.998674" lon="8.304466"><ele>86</ele></trkpt>
   <trkpt lat="49.998779" lon="8.304512"><ele>85.75</ele></trkpt>
   <trkpt lat="49.998847" lon="8.304542"><ele>85.75</ele></trkpt>
   <trkpt lat="49.999021" lon="8.304618"><ele>85.5</ele></trkpt>
   <trkpt lat="49.999079" lon="8.304643"><ele>85.25</ele></trkpt>
   <trkpt lat="49.999076" lon="8.304664"><ele>85</ele></trkpt>
   <trkpt lat="49.999052" lon="8.304853"><ele>85</ele></trkpt>
   <trkpt lat="49.998988" lon="8.305396"><ele>84.5</ele></trkpt>
   <trkpt lat="49.998972" lon="8.305619"><ele>84.25</ele></trkpt>
   <trkpt lat="49.998943" lon="8.306055"><ele>84.25</ele></trkpt>
   <trkpt lat="49.998944" lon="8.30611"><ele>84.25</ele></trkpt>
   <trkpt lat="49.998964" lon="8.306184"><ele>84.5</ele></trkpt>
   <trkpt lat="49.998996" lon="8.30626"><ele>84.5</ele></trkpt>
   <trkpt lat="49.999165" lon="8.306315"><ele>84.75</ele></trkpt>
   <trkpt lat="49.999139" lon="8.306669"><ele>84.75</ele></trkpt>
   <trkpt lat="49.999153" lon="8.306899"><ele>84.25</ele></trkpt>
   <trkpt lat="49.999189" lon="8.307124"><ele>84</ele></trkpt>
   <trkpt lat="49.999217" lon="8.307264"><ele>84</ele></trkpt>
   <trkpt lat="49.999264" lon="8.307443"><ele>84</ele></trkpt>
   <trkpt lat="49.999327" lon="8.307614"><ele>84.5</ele></trkpt>
   <trkpt lat="49.999333" lon="8.307687"><ele>84.5</ele></trkpt>
   <trkpt lat="49.999417" lon="8.307785"><ele>85.25</ele></trkpt>
   <trkpt lat="49.999414" lon="8.307748"><ele>85</ele></trkpt>
   <trkpt lat="49.999417" lon="8.307785"><ele>85.25</ele></trkpt>
   <trkpt lat="49.999595" lon="8.30816"><ele>86.5</ele></trkpt>
   <trkpt lat="49.999953" lon="8.308616"><ele>88.5</ele></trkpt>
   <trkpt lat="50.000038" lon="8.308519"><ele>89.25</ele></trkpt>
   <trkpt lat="50.000067" lon="8.308574"><ele>89</ele></trkpt>
   <trkpt lat="50.000132" lon="8.308692"><ele>88.5</ele></trkpt>
   <trkpt lat="50.000154" lon="8.30871"><ele>88.5</ele></trkpt>
   <trkpt lat="50.000246" lon="8.308736"><ele>88.5</ele></trkpt>
   <trkpt lat="50.000334" lon="8.308748"><ele>88.5</ele></trkpt>
   <trkpt lat="50.00042" lon="8.308733"><ele>88.5</ele></trkpt>
   <trkpt lat="50.000485" lon="8.30871"><ele>88.5</ele></trkpt>
   <trkpt lat="50.00053" lon="8.3087"><ele>88.5</ele></trkpt>
   <trkpt lat="50.000581" lon="8.308694"><ele>88.5</ele></trkpt>
   <trkpt lat="50.000642" lon="8.308724"><ele>88.5</ele></trkpt>
   <trkpt lat="50.000593" lon="8.308739"><ele>88.25</ele></trkpt>
   <trkpt lat="50.000526" lon="8.30876"><ele>88.25</ele></trkpt>
   <trkpt lat="50.000451" lon="8.308873"><ele>88</ele></trkpt>
   <trkpt lat="50.000337" lon="8.309011"><ele>87.5</ele></trkpt>
   <trkpt lat="50.000298" lon="8.30906"><ele>87.5</ele></trkpt>
   <trkpt lat="49.998026" lon="8.311804"><ele>85.75</ele></trkpt>
   <trkpt lat="49.997712" lon="8.31218"><ele>87.75</ele></trkpt>
   <trkpt lat="49.997547" lon="8.311884"><ele>86.75</ele></trkpt>
   <trkpt lat="49.9973" lon="8.311438"><ele>85.25</ele></trkpt>
   <trkpt lat="49.997285" lon="8.311407"><ele>85.25</ele></trkpt>
   <trkpt lat="49.997229" lon="8.311299"><ele>85</ele></trkpt>
   <trkpt lat="49.997201" lon="8.311236"><ele>84.75</ele></trkpt>
   <trkpt lat="49.996176" lon="8.309288"><ele>86.25</ele></trkpt>
   <trkpt lat="49.996106" lon="8.30917"><ele>86.25</ele></trkpt>
   <trkpt lat="49.995955" lon="8.308921"><ele>86</ele></trkpt>
   <trkpt lat="49.995915" lon="8.308855"><ele>86</ele></trkpt>
   <trkpt lat="49.995861" lon="8.308775"><ele>86</ele></trkpt>
   <trkpt lat="49.995797" lon="8.308697"><ele>86</ele></trkpt>
   <trkpt lat="49.995723" lon="8.308632"><ele>86</ele></trkpt>
   <trkpt lat="49.995524" lon="8.308484"><ele>86.5</ele></trkpt>
   <trkpt lat="49.994975" lon="8.308096"><ele>86.75</ele></trkpt>
   <trkpt lat="49.994934" lon="8.308088"><ele>86.75</ele></trkpt>
   <trkpt lat="49.994906" lon="8.307789"><ele>86.25</ele></trkpt>
   <trkpt lat="49.994705" lon="8.305561"><ele>83.25</ele></trkpt>
   <trkpt lat="49.994685" lon="8.305336"><ele>83</ele></trkpt>
   <trkpt lat="49.994649" lon="8.304597"><ele>83.5</ele></trkpt>
   <trkpt lat="49.994583" lon="8.304235"><ele>83.5</ele></trkpt>
   <trkpt lat="49.994439" lon="8.303804"><ele>83.5</ele></trkpt>
   <trkpt lat="49.99437" lon="8.303623"><ele>83.25</ele></trkpt>
   <trkpt lat="49.994326" lon="8.303508"><ele>83.25</ele></trkpt>
   <trkpt lat="49.994147" lon="8.303901"><ele>83.5</ele></trkpt>
   <trkpt lat="49.993971" lon="8.304279"><ele>83.5</ele></trkpt>
   <trkpt lat="49.993834" lon="8.304576"><ele>83.5</ele></trkpt>
   <trkpt lat="49.99376" lon="8.30454"><ele>83.75</ele></trkpt>
   <trkpt lat="49.993736" lon="8.304657"><ele>83.5</ele></trkpt>
   <trkpt lat="49.993723" lon="8.304618"><ele>83.5</ele></trkpt>
   <trkpt lat="49.993576" lon="8.302478"><ele>87</ele></trkpt>
   <trkpt lat="49.993489" lon="8.301465"><ele>87</ele></trkpt>
   <trkpt lat="49.993386" lon="8.300714"><ele>87</ele></trkpt>
   <trkpt lat="49.993295" lon="8.300167"><ele>87</ele></trkpt>
   <trkpt lat="49.993176" lon="8.299621"><ele>87</ele></trkpt>
   <trkpt lat="49.993064" lon="8.299185"><ele>87</ele></trkpt>
   <trkpt lat="49.992871" lon="8.298432"/>
   <trkpt lat="49.990796" lon="8.290695"><ele>90.5</ele></trkpt>
   <trkpt lat="49.990708" lon="8.290371"><ele>90.5</ele></trkpt>
   <trkpt lat="49.990697" lon="8.29031"><ele>90.5</ele></trkpt>
   <trkpt lat="49.990708" lon="8.290371"/>
   <trkpt lat="49.990734" lon="8.290374"/>
   <trkpt lat="49.990787" lon="8.290463"/>
   <trkpt lat="49.990867" lon="8.290564"/>
   <trkpt lat="49.990892" lon="8.290586"/>
   <trkpt lat="49.990919" lon="8.290588"/>
   <trkpt lat="49.990948" lon="8.290575"/>
   <trkpt lat="49.990971" lon="8.290545"/>
   <trkpt lat="49.991143" lon="8.290184"/>
   <trkpt lat="49.991195" lon="8.290155"><ele>87.25</ele></trkpt>
   <trkpt lat="49.991983" lon="8.288738"><ele>84.5</ele></trkpt>
   <trkpt lat="49.99202" lon="8.288672"><ele>84.25</ele></trkpt>
   <trkpt lat="49.992187" lon="8.288371"><ele>82.25</ele></trkpt>
   <trkpt lat="49.992322" lon="8.288131"><ele>80.75</ele></trkpt>
   <trkpt lat="49.992392" lon="8.287994"><ele>80</ele></trkpt>
   <trkpt lat="49.992515" lon="8.287751"><ele>79</ele></trkpt>
   <trkpt lat="49.992546" lon="8.287695"><ele>79</ele></trkpt>
   <trkpt lat="49.99266" lon="8.287497"><ele>79.75</ele></trkpt>
   <trkpt lat="49.992709" lon="8.287406"><ele>80.25</ele></trkpt>
   <trkpt lat="49.992946" lon="8.286965"><ele>81.5</ele></trkpt>
   <trkpt lat="49.993101" lon="8.286698"><ele>81</ele></trkpt>
   <trkpt lat="49.993533" lon="8.285973"><ele>83.75</ele></trkpt>
   <trkpt lat="49.993866" lon="8.285429"><ele>85</ele></trkpt>
   <trkpt lat="49.994519" lon="8.28443"><ele>83.75</ele></trkpt>
   <trkpt lat="49.99479" lon="8.284029"><ele>84.5</ele></trkpt>
   <trkpt lat="49.994846" lon="8.283947"><ele>84.75</ele></trkpt>
   <trkpt lat="49.994919" lon="8.283845"><ele>84.75</ele></trkpt>
   <trkpt lat="49.995014" lon="8.283729"><ele>85</ele></trkpt>
   <trkpt lat="49.995072" lon="8.283672"><ele>85</ele></trkpt>
   <trkpt lat="49.995138" lon="8.283627"><ele>85.5</ele></trkpt>
   <trkpt lat="49.995222" lon="8.283614"><ele>85.75</ele></trkpt>
   <trkpt lat="49.995276" lon="8.283543"><ele>86.25</ele></trkpt>
   <trkpt lat="49.995315" lon="8.283472"><ele>86.75</ele></trkpt>
   <trkpt lat="49.995334" lon="8.283414"><ele>87</ele></trkpt>
   <trkpt lat="49.995346" lon="8.28333"><ele>87.25</ele></trkpt>
   <trkpt lat="49.995371" lon="8.282798"><ele>88</ele></trkpt>
   <trkpt lat="49.995382" lon="8.282575"><ele>88.25</ele></trkpt>
   <trkpt lat="49.995633" lon="8.282574"><ele>88.75</ele></trkpt>
   <trkpt lat="49.995671" lon="8.282578"><ele>88.75</ele></trkpt>
   <trkpt lat="49.995736" lon="8.282681"><ele>89</ele></trkpt>
   <trkpt lat="49.995917" lon="8.282713"><ele>88.5</ele></trkpt>
   <trkpt lat="49.996091" lon="8.282745"><ele>88.5</ele></trkpt>
   <trkpt lat="49.996188" lon="8.282758"><ele>88.25</ele></trkpt>
   <trkpt lat="49.996236" lon="8.282756"><ele>88</ele></trkpt>
   <trkpt lat="49.996331" lon="8.282705"><ele>87.75</ele></trkpt>
   <trkpt lat="49.996419" lon="8.282629"><ele>87.75</ele></trkpt>
   <trkpt lat="49.996844" lon="8.282211"><ele>87.25</ele></trkpt>
   <trkpt lat="49.997254" lon="8.281806"><ele>89.5</ele></trkpt>
   <trkpt lat="49.998005" lon="8.281069"><ele>89.75</ele></trkpt>
   <trkpt lat="49.999155" lon="8.279941"><ele>88.25</ele></trkpt>
   <trkpt lat="49.999641" lon="8.279454"><ele>87.75</ele></trkpt>
   <trkpt lat="49.999711" lon="8.279365"><ele>87.75</ele></trkpt>
   <trkpt lat="49.999901" lon="8.279083"><ele>87.75</ele></trkpt>
   <trkpt lat="49.999992" lon="8.278997"><ele>87.75</ele></trkpt>
   <trkpt lat="50.000105" lon="8.278886"><ele>87.75</ele></trkpt>
   <trkpt lat="50.000213" lon="8.278781"><ele>87.5</ele></trkpt>
   <trkpt lat="50.000257" lon="8.278738"><ele>87.5</ele></trkpt>
   <trkpt lat="50.000878" lon="8.278139"><ele>85.75</ele></trkpt>
   <trkpt lat="50.001262" lon="8.277753"><ele>86</ele></trkpt>
   <trkpt lat="50.001509" lon="8.277507"><ele>86.5</ele></trkpt>
   <trkpt lat="50.00171" lon="8.277221"><ele>86.75</ele></trkpt>
   <trkpt lat="50.001852" lon="8.277086"><ele>86.75</ele></trkpt>
   <trkpt lat="50.00225664401307" lon="8.27668347161085"/>
   <trkpt lat="50.00298802796191" lon="8.27606369389562"/>
   <trkpt lat="50.00367627769454" lon="8.275419768996658"/>
   <trkpt lat="50.00397468867653" lon="8.275119270710485"/>
   <trkpt lat="50.004010911848845" lon="8.275044146138962"/>
   <trkpt lat="50.00401608658554" lon="8.274960972506179"/>
   <trkpt lat="50.003978" lon="8.274855"><ele>86.25</ele></trkpt>
   <trkpt lat="50.003968" lon="8.274825"><ele>86.5</ele></trkpt>
   <trkpt lat="50.004006" lon="8.274792"><ele>86.25</ele></trkpt>
   <trkpt lat="50.004889" lon="8.273893"><ele>86.75</ele></trkpt>
   <trkpt lat="50.004898" lon="8.273885"><ele>87</ele></trkpt>
   <trkpt lat="50.004965" lon="8.273834"><ele>87.25</ele></trkpt>
   <trkpt lat="50.004909" lon="8.273699"><ele>87.75</ele></trkpt>
   <trkpt lat="50.004885" lon="8.273639"><ele>88</ele></trkpt>
   <trkpt lat="50.004862" lon="8.273588"><ele>88.25</ele></trkpt>
   <trkpt lat="50.004862" lon="8.273578"><ele>88.25</ele></trkpt>
   <trkpt lat="50.004863" lon="8.273526"><ele>88.5</ele></trkpt>
   <trkpt lat="50.004877" lon="8.273472"><ele>88.5</ele></trkpt>
   <trkpt lat="50.004907" lon="8.273426"><ele>88.75</ele></trkpt>
   <trkpt lat="50.004961" lon="8.273379"><ele>88.75</ele></trkpt>
   <trkpt lat="50.00502" lon="8.273364"><ele>88.75</ele></trkpt>
   <trkpt lat="50.005062" lon="8.273333"><ele>88.5</ele></trkpt>
   <trkpt lat="50.005089" lon="8.273353"><ele>88.25</ele></trkpt>
   <trkpt lat="50.005089" lon="8.273353"><ele>88.25</ele></trkpt>
   <trkpt lat="50.005154" lon="8.273417"/>
   <trkpt lat="50.005194" lon="8.273489"/>
   <trkpt lat="50.005243" lon="8.273607"/>
   <trkpt lat="50.006298" lon="8.276215"/>
   <trkpt lat="50.007775" lon="8.279829"/>
   <trkpt lat="50.00784" lon="8.280028"/>
   <trkpt lat="50.007859" lon="8.280102"/>
   <trkpt lat="50.0079" lon="8.280251"/>
   <trkpt lat="50.007961" lon="8.280412"><ele>86.5</ele></trkpt>
   <trkpt lat="50.007996" lon="8.280503"><ele>86.75</ele></trkpt>
   <trkpt lat="50.007923" lon="8.280591"><ele>86.5</ele></trkpt>
   <trkpt lat="50.007855" lon="8.280386"><ele>86</ele></trkpt>
   <trkpt lat="50.007789" lon="8.280228"><ele>85.5</ele></trkpt>
   <trkpt lat="50.007782" lon="8.280207"><ele>85.25</ele></trkpt>
   <trkpt lat="50.007763" lon="8.28015"><ele>85.25</ele></trkpt>
   <trkpt lat="50.007804" lon="8.280096"><ele>85.5</ele></trkpt>
   <trkpt lat="50.008027" lon="8.279853"><ele>86</ele></trkpt>
   <trkpt lat="50.008054" lon="8.279801"><ele>86</ele></trkpt>
   <trkpt lat="50.008252" lon="8.27967"><ele>86.25</ele></trkpt>
   <trkpt lat="50.008807" lon="8.279319"><ele>85.75</ele></trkpt>
   <trkpt lat="50.009164" lon="8.279094"><ele>85.5</ele></trkpt>
   <trkpt lat="50.009344" lon="8.278927"><ele>86</ele></trkpt>
   <trkpt lat="50.009591" lon="8.278622"><ele>87</ele></trkpt>
   <trkpt lat="50.009862" lon="8.278422"><ele>88.75</ele></trkpt>
   <trkpt lat="50.009997" lon="8.27832"><ele>89.75</ele></trkpt>
   <trkpt lat="50.010302" lon="8.278108"><ele>88.75</ele></trkpt>
   <trkpt lat="50.010665" lon="8.277852"><ele>87.5</ele></trkpt>
   <trkpt lat="50.010742" lon="8.277804"><ele>87.25</ele></trkpt>
   <trkpt lat="50.010782" lon="8.277798"><ele>87.25</ele></trkpt>
   <trkpt lat="50.010825" lon="8.277761"><ele>87.25</ele></trkpt>
   <trkpt lat="50.01089" lon="8.277707"><ele>86.75</ele></trkpt>
   <trkpt lat="50.011266" lon="8.277424"><ele>86.5</ele></trkpt>
   <trkpt lat="50.012819" lon="8.276259"><ele>85.75</ele></trkpt>
   <trkpt lat="50.013001" lon="8.276119"><ele>85.75</ele></trkpt>
   <trkpt lat="50.013315" lon="8.275891"><ele>86</ele></trkpt>
   <trkpt lat="50.014915" lon="8.274582"><ele>85.75</ele></trkpt>
   <trkpt lat="50.016279" lon="8.273425"><ele>88</ele></trkpt>
   <trkpt lat="50.016355" lon="8.273377"><ele>88.25</ele></trkpt>
   <trkpt lat="50.016827" lon="8.272904"><ele>87.75</ele></trkpt>
   <trkpt lat="50.017558" lon="8.272238"><ele>91.25</ele></trkpt>
   <trkpt lat="50.019075" lon="8.270832"><ele>85.75</ele></trkpt>
   <trkpt lat="50.019141" lon="8.270771"><ele>85.75</ele></trkpt>
   <trkpt lat="50.019484" lon="8.270375"><ele>85.5</ele></trkpt>
   <trkpt lat="50.019713" lon="8.270085"><ele>86</ele></trkpt>
   <trkpt lat="50.020351" lon="8.269232"><ele>86.25</ele></trkpt>
   <trkpt lat="50.020679" lon="8.268847"><ele>86.5</ele></trkpt>
   <trkpt lat="50.021004" lon="8.268509"><ele>86.75</ele></trkpt>
   <trkpt lat="50.021085" lon="8.268442"><ele>87</ele></trkpt>
   <trkpt lat="50.021426" lon="8.268006"><ele>86.5</ele></trkpt>
   <trkpt lat="50.021686" lon="8.267676"><ele>86.5</ele></trkpt>
   <trkpt lat="50.021802" lon="8.267626"><ele>86.5</ele></trkpt>
   <trkpt lat="50.02187" lon="8.267626"><ele>86.5</ele></trkpt>
   <trkpt lat="50.021955" lon="8.267577"><ele>86.5</ele></trkpt>
   <trkpt lat="50.022856" lon="8.266051"><ele>86.25</ele></trkpt>
   <trkpt lat="50.022939" lon="8.265892"><ele>86.5</ele></trkpt>
   <trkpt lat="50.023663" lon="8.264515"><ele>87.25</ele></trkpt>
   <trkpt lat="50.023692" lon="8.264461"><ele>87.5</ele></trkpt>
   <trkpt lat="50.02394" lon="8.264814"><ele>88.25</ele></trkpt>
   <trkpt lat="50.023962" lon="8.264845"><ele>88</ele></trkpt>
   <trkpt lat="50.024147" lon="8.265096"><ele>88</ele></trkpt>
   <trkpt lat="50.024221" lon="8.265152"><ele>88</ele></trkpt>
   <trkpt lat="50.024202" lon="8.265254"><ele>88.25</ele></trkpt>
   <trkpt lat="50.024189" lon="8.265371"><ele>88.25</ele></trkpt>
   <trkpt lat="50.024179" lon="8.265538"><ele>88.5</ele></trkpt>
   <trkpt lat="50.024112" lon="8.266628"><ele>89.75</ele></trkpt>
   <trkpt lat="50.024077" lon="8.267327"><ele>89.75</ele></trkpt>
   <trkpt lat="50.024065" lon="8.267509"><ele>89.75</ele></trkpt>
   <trkpt lat="50.024049" lon="8.267729"><ele>89.5</ele></trkpt>
   <trkpt lat="50.024048" lon="8.267841"><ele>89.5</ele></trkpt>
   <trkpt lat="50.023972" lon="8.267911"><ele>89.5</ele></trkpt>
   <trkpt lat="50.023987" lon="8.268096"><ele>89.25</ele></trkpt>
   <trkpt lat="50.024003" lon="8.268203"><ele>89.25</ele></trkpt>
   <trkpt lat="50.023994" lon="8.26823"><ele>89.25</ele></trkpt>
   <trkpt lat="50.023977" lon="8.268286"><ele>89.25</ele></trkpt>
   <trkpt lat="50.024015" lon="8.268325"><ele>89</ele></trkpt>
   <trkpt lat="50.024045" lon="8.268422"><ele>89</ele></trkpt>
   <trkpt lat="50.024067" lon="8.268491"><ele>89</ele></trkpt>
   <trkpt lat="50.024287" lon="8.269838"><ele>88.75</ele></trkpt>
   <trkpt lat="50.024338" lon="8.270227"><ele>88.5</ele></trkpt>
   <trkpt lat="50.024397" lon="8.270745"><ele>88</ele></trkpt>
   <trkpt lat="50.024472" lon="8.271781"><ele>86.25</ele></trkpt>
   <trkpt lat="50.024493" lon="8.272297"><ele>86.75</ele></trkpt>
   <trkpt lat="50.024503" lon="8.27273"><ele>87</ele></trkpt>
   <trkpt lat="50.0245" lon="8.272849"><ele>87</ele></trkpt>
   <trkpt lat="50.024489" lon="8.2733"/>
   <trkpt lat="50.02447" lon="8.273624"><ele>87.25</ele></trkpt>
   <trkpt lat="50.024419" lon="8.274357"><ele>87.25</ele></trkpt>
   <trkpt lat="50.024376" lon="8.274741"><ele>87.25</ele></trkpt>
   <trkpt lat="50.024326" lon="8.275095"><ele>87.25</ele></trkpt>
   <trkpt lat="50.024168" lon="8.27601"><ele>87.75</ele></trkpt>
   <trkpt lat="50.024089" lon="8.27638"><ele>87</ele></trkpt>
   <trkpt lat="50.023884" lon="8.277218"><ele>86.25</ele></trkpt>
   <trkpt lat="50.023764" lon="8.277579"><ele>86</ele></trkpt>
   <trkpt lat="50.023694" lon="8.27779"><ele>86</ele></trkpt>
   <trkpt lat="50.023628" lon="8.277943"><ele>86</ele></trkpt>
   <trkpt lat="50.023523" lon="8.278283"><ele>86</ele></trkpt>
   <trkpt lat="50.023512" lon="8.278323"><ele>86</ele></trkpt>
   <trkpt lat="50.023341" lon="8.278802"><ele>86</ele></trkpt>
   <trkpt lat="50.023086" lon="8.279511"><ele>86</ele></trkpt>
   <trkpt lat="50.02288" lon="8.280071"><ele>86.25</ele></trkpt>
   <trkpt lat="50.022816" lon="8.280238"><ele>86.25</ele></trkpt>
   <trkpt lat="50.022717" lon="8.2805"><ele>86.25</ele></trkpt>
   <trkpt lat="50.022344" lon="8.281444"><ele>85.25</ele></trkpt>
   <trkpt lat="50.022327" lon="8.281488"><ele>85.25</ele></trkpt>
   <trkpt lat="50.021977" lon="8.282345"><ele>86.25</ele></trkpt>
   <trkpt lat="50.020802" lon="8.28502"><ele>88</ele></trkpt>
   <trkpt lat="50.020769" lon="8.285078"><ele>88</ele></trkpt>
   <trkpt lat="50.01965073935274" lon="8.287706382935518"/>
   <trkpt lat="50.01802292439095" lon="8.291044060328266"/>
   <trkpt lat="50.01719520071643" lon="8.29233191012615"/>
   <trkpt lat="50.01695708338793" lon="8.292649604625819"/>
  </trkseg>
 </trk>
</gpx>