<?xml version='1.0' encoding='UTF-8'?>
<gpx version="1.1" creator="https://www.komoot.de" xmlns="http://www.topografix.com/GPX/1/1" xmlns:xsi="http://www.w3.org/2001/XMLSchema-instance" xsi:schemaLocation="http://www.topografix.com/GPX/1/1 http://www.topografix.com/GPX/1/1/gpx.xsd">
  <metadata>
    <name>Wanderung</name>
    <author>
      <link href="https://www.komoot.de">
        <text>komoot</text>
        <type>text/html</type>
      </link>
    </author>
  </metadata>
  <trk>
    <name>Wanderung</name>
    <trkseg>
      <trkpt lat="48.663873" lon="11.963017">
        <ele>441.274913</ele>
        <time>2022-11-20T09:15:17.743Z</time>
      </trkpt>
      <trkpt lat="48.663930" lon="11.963018">
        <ele>441.274913</ele>
        <time>2022-11-20T09:15:23.556Z</time>
      </trkpt>
      <trkpt lat="48.663989" lon="11.963019">
        <ele>441.274913</ele>
        <time>2022-11-20T09:15:29.691Z</time>
      </trkpt>
      <trkpt lat="48.664193" lon="11.963083">
        <ele>441.274913</ele>
        <time>2022-11-20T09:15:50.649Z</time>
      </trkpt>
      <trkpt lat="48.664247" lon="11.963112">
        <ele>441.274913</ele>
        <time>2022-11-20T09:15:56.474Z</time>
      </trkpt>
      <trkpt lat="48.664125" lon="11.963444">
        <ele>441.274913</ele>
        <time>2022-11-20T09:16:21.784Z</time>
      </trkpt>
      <trkpt lat="48.664097" lon="11.963556">
        <ele>441.274913</ele>
        <time>2022-11-20T09:16:29.738Z</time>
      </trkpt>
      <trkpt lat="48.664150" lon="11.963727">
        <ele>441.274913</ele>
        <time>2022-11-20T09:16:42.561Z</time>
      </trkpt>
      <trkpt lat="48.664060" lon="11.963969">
        <ele>441.242708</ele>
        <time>2022-11-20T09:17:01.187Z</time>
      </trkpt>
      <trkpt lat="48.664178" lon="11.964303">
        <ele>441.175864</ele>
        <time>2022-11-20T09:17:26.495Z</time>
      </trkpt>
      <trkpt lat="48.664187" lon="11.964534">
        <ele>441.135028</ele>
        <time>2022-11-20T09:17:41.990Z</time>
      </trkpt>
      <trkpt lat="48.664232" lon="11.964586">
        <ele>441.119903</ele>
        <time>2022-11-20T09:17:47.806Z</time>
      </trkpt>
      <trkpt lat="48.664310" lon="11.964674">
        <ele>441.093913</ele>
        <time>2022-11-20T09:17:57.796Z</time>
      </trkpt>
      <trkpt lat="48.664041" lon="11.965349">
        <ele>440.954790</ele>
        <time>2022-11-20T09:18:50.060Z</time>
      </trkpt>
      <trkpt lat="48.663615" lon="11.965768">
        <ele>440.819059</ele>
        <time>2022-11-20T09:19:41.286Z</time>
      </trkpt>
      <trkpt lat="48.663768" lon="11.966361">
        <ele>440.820626</ele>
        <time>2022-11-20T09:20:23.635Z</time>
      </trkpt>
      <trkpt lat="48.663839" lon="11.966637">
        <ele>440.836311</ele>
        <time>2022-11-20T09:20:43.258Z</time>
      </trkpt>
      <trkpt lat="48.663906" lon="11.966765">
        <ele>440.844959</ele>
        <time>2022-11-20T09:20:54.184Z</time>
      </trkpt>
      <trkpt lat="48.662949" lon="11.967458">
        <ele>440.930010</ele>
        <time>2022-11-20T09:22:40.900Z</time>
      </trkpt>
      <trkpt lat="48.662921" lon="11.967450">
        <ele>440.932294</ele>
        <time>2022-11-20T09:22:43.798Z</time>
      </trkpt>
      <trkpt lat="48.662747" lon="11.967400">
        <ele>441.014306</ele>
        <time>2022-11-20T09:23:01.953Z</time>
      </trkpt>
      <trkpt lat="48.662694" lon="11.967310">
        <ele>441.075115</ele>
        <time>2022-11-20T09:23:09.982Z</time>
      </trkpt>
      <trkpt lat="48.662485" lon="11.967452">
        <ele>441.250028</ele>
        <time>2022-11-20T09:23:33.330Z</time>
      </trkpt>
      <trkpt lat="48.661901" lon="11.967977">
        <ele>441.768620</ele>
        <time>2022-11-20T09:24:42.565Z</time>
      </trkpt>
      <trkpt lat="48.662215" lon="11.968482">
        <ele>442.118397</ele>
        <time>2022-11-20T09:25:30.269Z</time>
      </trkpt>
      <trkpt lat="48.661604" lon="11.968700">
        <ele>443.217167</ele>
        <time>2022-11-20T09:26:35.926Z</time>
      </trkpt>
      <trkpt lat="48.661262" lon="11.969107">
        <ele>444.269186</ele>
        <time>2022-11-20T09:27:22.533Z</time>
      </trkpt>
      <trkpt lat="48.660958" lon="11.969489">
        <ele>445.224617</ele>
        <time>2022-11-20T09:28:05.456Z</time>
      </trkpt>
      <trkpt lat="48.659970" lon="11.970601">
        <ele>450.220822</ele>
        <time>2022-11-20T09:30:23.734Z</time>
      </trkpt>
      <trkpt lat="48.659743" lon="11.970700">
        <ele>451.540975</ele>
        <time>2022-11-20T09:30:52.477Z</time>
      </trkpt>
      <trkpt lat="48.659377" lon="11.970689">
        <ele>453.586731</ele>
        <time>2022-11-20T09:31:37.373Z</time>
      </trkpt>
      <trkpt lat="48.659331" lon="11.970665">
        <ele>453.858634</ele>
        <time>2022-11-20T09:31:46.657Z</time>
      </trkpt>
      <trkpt lat="48.659377" lon="11.970689">
        <ele>454.130538</ele>
        <time>2022-11-20T09:31:52.324Z</time>
      </trkpt>
      <trkpt lat="48.659382" lon="11.970919">
        <ele>454.980003</ele>
        <time>2022-11-20T09:32:11.597Z</time>
      </trkpt>
      <trkpt lat="48.658921" lon="11.971249">
        <ele>458.104458</ele>
        <time>2022-11-20T09:33:16.019Z</time>
      </trkpt>
      <trkpt lat="48.658712" lon="11.971557">
        <ele>460.135506</ele>
        <time>2022-11-20T09:33:50.539Z</time>
      </trkpt>
      <trkpt lat="48.658499" lon="11.972115">
        <ele>463.099890</ele>
        <time>2022-11-20T09:34:44.545Z</time>
      </trkpt>
      <trkpt lat="48.658329" lon="11.972801">
        <ele>466.470049</ele>
        <time>2022-11-20T09:35:43.675Z</time>
      </trkpt>
      <trkpt lat="48.657847" lon="11.973080">
        <ele>469.889444</ele>
        <time>2022-11-20T09:36:48.279Z</time>
      </trkpt>
      <trkpt lat="48.657377" lon="11.973640">
        <ele>473.176367</ele>
        <time>2022-11-20T09:38:01.345Z</time>
      </trkpt>
      <trkpt lat="48.657027" lon="11.974159">
        <ele>475.868801</ele>
        <time>2022-11-20T09:38:59.176Z</time>
      </trkpt>
      <trkpt lat="48.656532" lon="11.974653">
        <ele>479.123975</ele>
        <time>2022-11-20T09:40:08.144Z</time>
      </trkpt>
      <trkpt lat="48.656152" lon="11.975261">
        <ele>480.082728</ele>
        <time>2022-11-20T09:41:11.249Z</time>
      </trkpt>
      <trkpt lat="48.655500" lon="11.976988">
        <ele>482.034522</ele>
        <time>2022-11-20T09:43:27.575Z</time>
      </trkpt>
      <trkpt lat="48.655318" lon="11.977605">
        <ele>480.696972</ele>
        <time>2022-11-20T09:44:14.310Z</time>
      </trkpt>
      <trkpt lat="48.655298" lon="11.977734">
        <ele>480.434684</ele>
        <time>2022-11-20T09:44:23.933Z</time>
      </trkpt>
      <trkpt lat="48.655318" lon="11.977605">
        <ele>480.172396</ele>
        <time>2022-11-20T09:44:32.805Z</time>
      </trkpt>
      <trkpt lat="48.656143" lon="11.978806">
        <ele>476.699926</ele>
        <time>2022-11-20T09:46:36.756Z</time>
      </trkpt>
      <trkpt lat="48.656428" lon="11.979556">
        <ele>474.316262</ele>
        <time>2022-11-20T09:47:39.654Z</time>
      </trkpt>
      <trkpt lat="48.657042" lon="11.981464">
        <ele>468.707031</ele>
        <time>2022-11-20T09:50:11.607Z</time>
      </trkpt>
      <trkpt lat="48.657305" lon="11.981964">
        <ele>467.421083</ele>
        <time>2022-11-20T09:50:56.087Z</time>
      </trkpt>
      <trkpt lat="48.658151" lon="11.983114">
        <ele>463.958002</ele>
        <time>2022-11-20T09:52:56.097Z</time>
      </trkpt>
      <trkpt lat="48.658827" lon="11.984546">
        <ele>459.586334</ele>
        <time>2022-11-20T09:55:01.391Z</time>
      </trkpt>
      <trkpt lat="48.659732" lon="11.986234">
        <ele>455.017976</ele>
        <time>2022-11-20T09:57:37.367Z</time>
      </trkpt>
      <trkpt lat="48.659951" lon="11.986747">
        <ele>453.941605</ele>
        <time>2022-11-20T09:58:20.109Z</time>
      </trkpt>
      <trkpt lat="48.660079" lon="11.987205">
        <ele>453.065256</ele>
        <time>2022-11-20T09:58:54.109Z</time>
      </trkpt>
      <trkpt lat="48.660258" lon="11.987447">
        <ele>452.425018</ele>
        <time>2022-11-20T09:59:18.616Z</time>
      </trkpt>
      <trkpt lat="48.660326" lon="11.987512">
        <ele>452.293571</ele>
        <time>2022-11-20T09:59:26.778Z</time>
      </trkpt>
      <trkpt lat="48.660517" lon="11.987826">
        <ele>452.456686</ele>
        <time>2022-11-20T09:59:55.192Z</time>
      </trkpt>
      <trkpt lat="48.660979" lon="11.988874">
        <ele>452.938151</ele>
        <time>2022-11-20T10:01:21.262Z</time>
      </trkpt>
      <trkpt lat="48.661257" lon="11.989140">
        <ele>453.128407</ele>
        <time>2022-11-20T10:01:55.334Z</time>
      </trkpt>
      <trkpt lat="48.661548" lon="11.989230">
        <ele>453.300234</ele>
        <time>2022-11-20T10:02:26.561Z</time>
      </trkpt>
      <trkpt lat="48.662176" lon="11.989018">
        <ele>453.246930</ele>
        <time>2022-11-20T10:03:32.274Z</time>
      </trkpt>
      <trkpt lat="48.662794" lon="11.989075">
        <ele>453.173514</ele>
        <time>2022-11-20T10:04:34.378Z</time>
      </trkpt>
      <trkpt lat="48.662873" lon="11.989083">
        <ele>453.164125</ele>
        <time>2022-11-20T10:04:42.495Z</time>
      </trkpt>
      <trkpt lat="48.663032" lon="11.988902">
        <ele>453.140537</ele>
        <time>2022-11-20T10:05:02.682Z</time>
      </trkpt>
      <trkpt lat="48.663499" lon="11.988018">
        <ele>452.193189</ele>
        <time>2022-11-20T10:06:19.288Z</time>
      </trkpt>
      <trkpt lat="48.664302" lon="11.986891">
        <ele>450.004668</ele>
        <time>2022-11-20T10:08:14.456Z</time>
      </trkpt>
      <trkpt lat="48.664515" lon="11.986645">
        <ele>449.507832</ele>
        <time>2022-11-20T10:08:42.649Z</time>
      </trkpt>
      <trkpt lat="48.664839" lon="11.986398">
        <ele>449.453638</ele>
        <time>2022-11-20T10:09:20.513Z</time>
      </trkpt>
      <trkpt lat="48.664951" lon="11.986313">
        <ele>449.434921</ele>
        <time>2022-11-20T10:09:33.708Z</time>
      </trkpt>
      <trkpt lat="48.665752" lon="11.985820">
        <ele>449.305743</ele>
        <time>2022-11-20T10:11:00.957Z</time>
      </trkpt>
      <trkpt lat="48.665849" lon="11.987210">
        <ele>451.991445</ele>
        <time>2022-11-20T10:12:40.907Z</time>
      </trkpt>
      <trkpt lat="48.666341" lon="11.989562">
        <ele>461.618265</ele>
        <time>2022-11-20T10:16:02.687Z</time>
      </trkpt>
      <trkpt lat="48.666843" lon="11.991749">
        <ele>472.870672</ele>
        <time>2022-11-20T10:19:16.466Z</time>
      </trkpt>
      <trkpt lat="48.667086" lon="11.993080">
        <ele>477.657710</ele>
        <time>2022-11-20T10:21:07.588Z</time>
      </trkpt>
      <trkpt lat="48.667159" lon="11.994499">
        <ele>482.056041</ele>
        <time>2022-11-20T10:22:54.957Z</time>
      </trkpt>
      <trkpt lat="48.667090" lon="11.995441">
        <ele>482.366452</ele>
        <time>2022-11-20T10:24:00.704Z</time>
      </trkpt>
      <trkpt lat="48.667073" lon="11.995529">
        <ele>482.396481</ele>
        <time>2022-11-20T10:24:08.015Z</time>
      </trkpt>
      <trkpt lat="48.667090" lon="11.995441">
        <ele>482.426510</ele>
        <time>2022-11-20T10:24:14.682Z</time>
      </trkpt>
      <trkpt lat="48.667681" lon="11.995748">
        <ele>482.736360</ele>
        <time>2022-11-20T10:25:17.643Z</time>
      </trkpt>
      <trkpt lat="48.667840" lon="11.995738">
        <ele>482.815278</ele>
        <time>2022-11-20T10:25:34.207Z</time>
      </trkpt>
      <trkpt lat="48.668019" lon="11.995617">
        <ele>482.737373</ele>
        <time>2022-11-20T10:25:54.413Z</time>
      </trkpt>
      <trkpt lat="48.668898" lon="11.994364">
        <ele>478.188402</ele>
        <time>2022-11-20T10:28:04.818Z</time>
      </trkpt>
      <trkpt lat="48.669379" lon="11.993795">
        <ele>475.786737</ele>
        <time>2022-11-20T10:29:11.322Z</time>
      </trkpt>
      <trkpt lat="48.670273" lon="11.992958">
        <ele>470.045918</ele>
        <time>2022-11-20T10:31:08.394Z</time>
      </trkpt>
      <trkpt lat="48.671441" lon="11.991542">
        <ele>461.320105</ele>
        <time>2022-11-20T10:33:55.387Z</time>
      </trkpt>
      <trkpt lat="48.671901" lon="11.992605">
        <ele>456.161441</ele>
        <time>2022-11-20T10:35:30.772Z</time>
      </trkpt>
      <trkpt lat="48.672015" lon="11.992629">
        <ele>455.453986</ele>
        <time>2022-11-20T10:35:43.731Z</time>
      </trkpt>
      <trkpt lat="48.672101" lon="11.992547">
        <ele>454.902735</ele>
        <time>2022-11-20T10:35:55.234Z</time>
      </trkpt>
      <trkpt lat="48.672405" lon="11.992787">
        <ele>453.176658</ele>
        <time>2022-11-20T10:36:33.740Z</time>
      </trkpt>
      <trkpt lat="48.673328" lon="11.994210">
        <ele>446.545026</ele>
        <time>2022-11-20T10:38:58.555Z</time>
      </trkpt>
      <trkpt lat="48.673587" lon="11.994704">
        <ele>445.293226</ele>
        <time>2022-11-20T10:39:43.434Z</time>
      </trkpt>
      <trkpt lat="48.673624" lon="11.994714">
        <ele>445.196376</ele>
        <time>2022-11-20T10:39:47.474Z</time>
      </trkpt>
      <trkpt lat="48.673723" lon="11.994742">
        <ele>444.936855</ele>
        <time>2022-11-20T10:39:58.160Z</time>
      </trkpt>
      <trkpt lat="48.674078" lon="11.994261">
        <ele>443.709359</ele>
        <time>2022-11-20T10:40:48.600Z</time>
      </trkpt>
      <trkpt lat="48.675515" lon="11.992143">
        <ele>439.556867</ele>
        <time>2022-11-20T10:44:15.474Z</time>
      </trkpt>
      <trkpt lat="48.676138" lon="11.991048">
        <ele>437.698091</ele>
        <time>2022-11-20T10:45:55.074Z</time>
      </trkpt>
      <trkpt lat="48.677876" lon="11.987046">
        <ele>430.080513</ele>
        <time>2022-11-20T10:51:28.211Z</time>
      </trkpt>
      <trkpt lat="48.678598" lon="11.985611">
        <ele>428.504270</ele>
        <time>2022-11-20T10:53:31.275Z</time>
      </trkpt>
      <trkpt lat="48.678693" lon="11.985452">
        <ele>428.332896</ele>
        <time>2022-11-20T10:53:45.623Z</time>
      </trkpt>
      <trkpt lat="48.679269" lon="11.984691">
        <ele>427.553640</ele>
        <time>2022-11-20T10:55:02.823Z</time>
      </trkpt>
      <trkpt lat="48.679700" lon="11.984150">
        <ele>427.317452</ele>
        <time>2022-11-20T10:55:59.271Z</time>
      </trkpt>
      <trkpt lat="48.679830" lon="11.983927">
        <ele>427.234578</ele>
        <time>2022-11-20T10:56:19.236Z</time>
      </trkpt>
      <trkpt lat="48.679887" lon="11.983721">
        <ele>427.172354</ele>
        <time>2022-11-20T10:56:34.060Z</time>
      </trkpt>
      <trkpt lat="48.679822" lon="11.983639">
        <ele>427.136661</ele>
        <time>2022-11-20T10:56:42.665Z</time>
      </trkpt>
      <trkpt lat="48.679887" lon="11.983721">
        <ele>427.100968</ele>
        <time>2022-11-20T10:56:51.310Z</time>
      </trkpt>
      <trkpt lat="48.680652" lon="11.984433">
        <ele>426.762746</ele>
        <time>2022-11-20T10:58:21.709Z</time>
      </trkpt>
      <trkpt lat="48.681202" lon="11.985052">
        <ele>426.551569</ele>
        <time>2022-11-20T10:59:30.904Z</time>
      </trkpt>
      <trkpt lat="48.682046" lon="11.986442">
        <ele>426.945885</ele>
        <time>2022-11-20T11:01:36.257Z</time>
      </trkpt>
      <trkpt lat="48.682415" lon="11.986871">
        <ele>427.540746</ele>
        <time>2022-11-20T11:02:23.854Z</time>
      </trkpt>
      <trkpt lat="48.683484" lon="11.987748">
        <ele>430.056985</ele>
        <time>2022-11-20T11:04:35.714Z</time>
      </trkpt>
      <trkpt lat="48.683764" lon="11.987018">
        <ele>432.207176</ele>
        <time>2022-11-20T11:05:38.849Z</time>
      </trkpt>
      <trkpt lat="48.684169" lon="11.984733">
        <ele>438.469093</ele>
        <time>2022-11-20T11:08:40.676Z</time>
      </trkpt>
      <trkpt lat="48.684452" lon="11.983903">
        <ele>441.058347</ele>
        <time>2022-11-20T11:09:51.856Z</time>
      </trkpt>
      <trkpt lat="48.684972" lon="11.981734">
        <ele>445.838216</ele>
        <time>2022-11-20T11:12:41.836Z</time>
      </trkpt>
      <trkpt lat="48.685583" lon="11.980630">
        <ele>448.179535</ele>
        <time>2022-11-20T11:14:23.203Z</time>
      </trkpt>
      <trkpt lat="48.685962" lon="11.979459">
        <ele>449.684729</ele>
        <time>2022-11-20T11:15:53.139Z</time>
      </trkpt>
      <trkpt lat="48.686154" lon="11.978866">
        <ele>450.447019</ele>
        <time>2022-11-20T11:16:39.356Z</time>
      </trkpt>
      <trkpt lat="48.685915" lon="11.978164">
        <ele>451.699675</ele>
        <time>2022-11-20T11:17:35.675Z</time>
      </trkpt>
      <trkpt lat="48.687038" lon="11.966916">
        <ele>474.218976</ele>
        <time>2022-11-20T11:31:38.882Z</time>
      </trkpt>
      <trkpt lat="48.685572" lon="11.966809">
        <ele>471.047947</ele>
        <time>2022-11-20T11:34:18.979Z</time>
      </trkpt>
      <trkpt lat="48.685189" lon="11.967152">
        <ele>469.605450</ele>
        <time>2022-11-20T11:35:07.973Z</time>
      </trkpt>
      <trkpt lat="48.684948" lon="11.967163">
        <ele>468.823763</ele>
        <time>2022-11-20T11:35:34.666Z</time>
      </trkpt>
      <trkpt lat="48.684339" lon="11.967066">
        <ele>466.838473</ele>
        <time>2022-11-20T11:36:39.418Z</time>
      </trkpt>
      <trkpt lat="48.683135" lon="11.966594">
        <ele>465.492557</ele>
        <time>2022-11-20T11:38:44.784Z</time>
      </trkpt>
      <trkpt lat="48.682533" lon="11.966283">
        <ele>465.256788</ele>
        <time>2022-11-20T11:39:49.528Z</time>
      </trkpt>
      <trkpt lat="48.681487" lon="11.966041">
        <ele>464.174478</ele>
        <time>2022-11-20T11:41:37.781Z</time>
      </trkpt>
      <trkpt lat="48.681215" lon="11.965650">
        <ele>463.724069</ele>
        <time>2022-11-20T11:42:17.047Z</time>
      </trkpt>
      <trkpt lat="48.680167" lon="11.965092">
        <ele>463.103210</ele>
        <time>2022-11-20T11:44:11.089Z</time>
      </trkpt>
      <trkpt lat="48.679616" lon="11.964690">
        <ele>463.210491</ele>
        <time>2022-11-20T11:45:13.667Z</time>
      </trkpt>
      <trkpt lat="48.679441" lon="11.964562">
        <ele>463.244580</ele>
        <time>2022-11-20T11:45:34.504Z</time>
      </trkpt>
      <trkpt lat="48.678969" lon="11.964217">
        <ele>463.293373</ele>
        <time>2022-11-20T11:46:28.345Z</time>
      </trkpt>
      <trkpt lat="48.678688" lon="11.964155">
        <ele>463.096466</ele>
        <time>2022-11-20T11:46:57.896Z</time>
      </trkpt>
      <trkpt lat="48.678329" lon="11.963933">
        <ele>462.827580</ele>
        <time>2022-11-20T11:47:36.988Z</time>
      </trkpt>
      <trkpt lat="48.677482" lon="11.963504">
        <ele>462.208284</ele>
        <time>2022-11-20T11:49:09.300Z</time>
      </trkpt>
      <trkpt lat="48.675265" lon="11.963193">
        <ele>460.870554</ele>
        <time>2022-11-20T11:52:59.854Z</time>
      </trkpt>
      <trkpt lat="48.674803" lon="11.962966">
        <ele>462.886336</ele>
        <time>2022-11-20T11:53:55.909Z</time>
      </trkpt>
      <trkpt lat="48.674670" lon="11.963043">
        <ele>463.477272</ele>
        <time>2022-11-20T11:54:13.326Z</time>
      </trkpt>
      <trkpt lat="48.674570" lon="11.962850">
        <ele>464.149579</ele>
        <time>2022-11-20T11:54:32.867Z</time>
      </trkpt>
      <trkpt lat="48.673642" lon="11.962635">
        <ele>467.059687</ele>
        <time>2022-11-20T11:56:28.958Z</time>
      </trkpt>
      <trkpt lat="48.673387" lon="11.962721">
        <ele>466.662975</ele>
        <time>2022-11-20T11:56:59.178Z</time>
      </trkpt>
      <trkpt lat="48.672735" lon="11.963344">
        <ele>465.492274</ele>
        <time>2022-11-20T11:58:18.706Z</time>
      </trkpt>
      <trkpt lat="48.671991" lon="11.963579">
        <ele>463.078960</ele>
        <time>2022-11-20T11:59:45.491Z</time>
      </trkpt>
      <trkpt lat="48.671662" lon="11.963616">
        <ele>460.098025</ele>
        <time>2022-11-20T12:00:24.232Z</time>
      </trkpt>
      <trkpt lat="48.671162" lon="11.964214">
        <ele>454.340996</ele>
        <time>2022-11-20T12:01:40.885Z</time>
      </trkpt>
      <trkpt lat="48.670110" lon="11.965146">
        <ele>444.848334</ele>
        <time>2022-11-20T12:04:05.404Z</time>
      </trkpt>
      <trkpt lat="48.670065" lon="11.965112">
        <ele>444.531742</ele>
        <time>2022-11-20T12:04:11.154Z</time>
      </trkpt>
      <trkpt lat="48.669858" lon="11.965429">
        <ele>442.678388</ele>
        <time>2022-11-20T12:04:44.622Z</time>
      </trkpt>
      <trkpt lat="48.669407" lon="11.965836">
        <ele>439.373263</ele>
        <time>2022-11-20T12:05:42.311Z</time>
      </trkpt>
      <trkpt lat="48.669039" lon="11.966035">
        <ele>436.999360</ele>
        <time>2022-11-20T12:06:24.751Z</time>
      </trkpt>
      <trkpt lat="48.668592" lon="11.965085">
        <ele>436.150013</ele>
        <time>2022-11-20T12:07:45.882Z</time>
      </trkpt>
      <trkpt lat="48.668438" lon="11.964781">
        <ele>435.871036</ele>
        <time>2022-11-20T12:08:11.703Z</time>
      </trkpt>
      <trkpt lat="48.667987" lon="11.965151">
        <ele>435.305487</ele>
        <time>2022-11-20T12:09:03.484Z</time>
      </trkpt>
      <trkpt lat="48.667717" lon="11.965372">
        <ele>435.177370</ele>
        <time>2022-11-20T12:09:36.322Z</time>
      </trkpt>
      <trkpt lat="48.667611" lon="11.965453">
        <ele>435.454675</ele>
        <time>2022-11-20T12:09:49.098Z</time>
      </trkpt>
      <trkpt lat="48.667374" lon="11.965634">
        <ele>436.074615</ele>
        <time>2022-11-20T12:10:17.817Z</time>
      </trkpt>
      <trkpt lat="48.666522" lon="11.966190">
        <ele>438.241420</ele>
        <time>2022-11-20T12:12:00.215Z</time>
      </trkpt>
      <trkpt lat="48.666489" lon="11.966227">
        <ele>438.337323</ele>
        <time>2022-11-20T12:12:05.204Z</time>
      </trkpt>
      <trkpt lat="48.666282" lon="11.966456">
        <ele>438.936068</ele>
        <time>2022-11-20T12:12:32.898Z</time>
      </trkpt>
      <trkpt lat="48.666044" lon="11.966616">
        <ele>439.377460</ele>
        <time>2022-11-20T12:13:00.993Z</time>
      </trkpt>
      <trkpt lat="48.665667" lon="11.966825">
        <ele>439.808931</ele>
        <time>2022-11-20T12:13:42.856Z</time>
      </trkpt>
      <trkpt lat="48.665403" lon="11.966892">
        <ele>440.096614</ele>
        <time>2022-11-20T12:14:11.232Z</time>
      </trkpt>
      <trkpt lat="48.665115" lon="11.966709">
        <ele>440.432283</ele>
        <time>2022-11-20T12:14:43.841Z</time>
      </trkpt>
      <trkpt lat="48.664759" lon="11.966427">
        <ele>440.864079</ele>
        <time>2022-11-20T12:15:24.349Z</time>
      </trkpt>
      <trkpt lat="48.664459" lon="11.966090">
        <ele>441.165062</ele>
        <time>2022-11-20T12:16:02.037Z</time>
      </trkpt>
      <trkpt lat="48.664193" lon="11.965802">
        <ele>441.153296</ele>
        <time>2022-11-20T12:16:35.244Z</time>
      </trkpt>
      <trkpt lat="48.664079" lon="11.965463">
        <ele>441.144255</ele>
        <time>2022-11-20T12:17:00.880Z</time>
      </trkpt>
      <trkpt lat="48.664041" lon="11.965349">
        <ele>441.141220</ele>
        <time>2022-11-20T12:17:09.422Z</time>
      </trkpt>
      <trkpt lat="48.664310" lon="11.964674">
        <ele>441.122484</ele>
        <time>2022-11-20T12:18:02.382Z</time>
      </trkpt>
      <trkpt lat="48.664232" lon="11.964586">
        <ele>441.118984</ele>
        <time>2022-11-20T12:18:12.517Z</time>
      </trkpt>
      <trkpt lat="48.664187" lon="11.964534">
        <ele>441.116947</ele>
        <time>2022-11-20T12:18:18.459Z</time>
      </trkpt>
      <trkpt lat="48.664178" lon="11.964303">
        <ele>441.111448</ele>
        <time>2022-11-20T12:18:33.834Z</time>
      </trkpt>
      <trkpt lat="48.664060" lon="11.963969">
        <ele>441.103597</ele>
        <time>2022-11-20T12:18:59.971Z</time>
      </trkpt>
      <trkpt lat="48.664150" lon="11.963727">
        <ele>441.103597</ele>
        <time>2022-11-20T12:19:18.393Z</time>
      </trkpt>
      <trkpt lat="48.664097" lon="11.963556">
        <ele>441.103597</ele>
        <time>2022-11-20T12:19:31.609Z</time>
      </trkpt>
      <trkpt lat="48.664125" lon="11.963444">
        <ele>441.103597</ele>
        <time>2022-11-20T12:19:39.574Z</time>
      </trkpt>
      <trkpt lat="48.664247" lon="11.963112">
        <ele>441.103597</ele>
        <time>2022-11-20T12:20:05.018Z</time>
      </trkpt>
      <trkpt lat="48.664193" lon="11.963083">
        <ele>441.103597</ele>
        <time>2022-11-20T12:20:10.893Z</time>
      </trkpt>
      <trkpt lat="48.663989" lon="11.963019">
        <ele>441.103597</ele>
        <time>2022-11-20T12:20:31.784Z</time>
      </trkpt>
      <trkpt lat="48.663930" lon="11.963018">
        <ele>441.103597</ele>
        <time>2022-11-20T12:20:38.071Z</time>
      </trkpt>
    </trkseg>
  </trk>
</gpx>