<?xml version="1.0" standalone="yes" ?>
<gpx version="1.1" creator="EADS Geogrid - Navigation" xmlns="http://www.topografix.com/GPX/1/1" xmlns:xsi="http://www.w3.org/2001/XMLSchema-instance" xsi:schemaLocation="http://www.topografix.com/GPX/1/1 http://www.topografix.com/GPX/1/1/gpx.xsd">
    <metadata>
        <name>Tracks</name>
        <time>2022-03-20T17:47:34Z</time>
    </metadata>
    <trk>
        <name>HEROLDSBERG 05 KM</name>
        <number>5</number>
    </trk>
    <trk>
        <name>HEROLDSBERG 05 KM</name>
        <number>7</number>
        <trkseg>
            <trkpt lat="49.526963" lon="11.151325">
                <ele>348.000000</ele>
                <time>1970-01-01T01:00:00Z</time>
                <type>Trackpoint</type>
            </trkpt>
        </trkseg>
    </trk>
    <trk>
        <name>HEROLDSBERG 05 KM</name>
        <number>40</number>
        <trkseg>
            <trkpt lat="49.526963" lon="11.151325">
                <ele>348.000000</ele>
                <time>1970-01-01T01:00:00Z</time>
                <type>Trackpoint</type>
            </trkpt>
        </trkseg>
    </trk>
    <trk>
        <name>HEROLDSBERG 10 KM</name>
        <number>42</number>
        <trkseg>
            <trkpt lat="49.527035" lon="11.151608">
                <ele>348.000000</ele>
                <time>1970-01-01T01:00:00Z</time>
                <type>Trackpoint</type>
            </trkpt>
            <trkpt lat="49.527035" lon="11.151573">
                <ele>348.000000</ele>
                <time>1970-01-01T01:00:00Z</time>
                <type>Trackpoint</type>
            </trkpt>
            <trkpt lat="49.525909" lon="11.151282">
                <ele>346.000000</ele>
                <time>1970-01-01T01:00:00Z</time>
                <type>Trackpoint</type>
            </trkpt>
            <trkpt lat="49.524558" lon="11.151063">
                <ele>341.000000</ele>
                <time>1970-01-01T01:00:00Z</time>
                <type>Trackpoint</type>
            </trkpt>
            <trkpt lat="49.523298" lon="11.150809">
                <ele>339.000000</ele>
                <time>1970-01-01T01:00:00Z</time>
                <type>Trackpoint</type>
            </trkpt>
            <trkpt lat="49.522239" lon="11.150517">
                <ele>338.000000</ele>
                <time>1970-01-01T01:00:00Z</time>
                <type>Trackpoint</type>
            </trkpt>
            <trkpt lat="49.521336" lon="11.149980">
                <ele>339.000000</ele>
                <time>1970-01-01T01:00:00Z</time>
                <type>Trackpoint</type>
            </trkpt>
            <trkpt lat="49.520883" lon="11.149573">
                <ele>340.000000</ele>
                <time>1970-01-01T01:00:00Z</time>
                <type>Trackpoint</type>
            </trkpt>
            <trkpt lat="49.520749" lon="11.149576">
                <ele>340.000000</ele>
                <time>1970-01-01T01:00:00Z</time>
                <type>Trackpoint</type>
            </trkpt>
            <trkpt lat="49.520727" lon="11.149680">
                <ele>340.000000</ele>
                <time>1970-01-01T01:00:00Z</time>
                <type>Trackpoint</type>
            </trkpt>
            <trkpt lat="49.520751" lon="11.149921">
                <ele>340.000000</ele>
                <time>1970-01-01T01:00:00Z</time>
                <type>Trackpoint</type>
            </trkpt>
            <trkpt lat="49.520731" lon="11.150266">
                <ele>341.000000</ele>
                <time>1970-01-01T01:00:00Z</time>
                <type>Trackpoint</type>
            </trkpt>
            <trkpt lat="49.520732" lon="11.150405">
                <ele>341.000000</ele>
                <time>1970-01-01T01:00:00Z</time>
                <type>Trackpoint</type>
            </trkpt>
            <trkpt lat="49.520620" lon="11.150476">
                <ele>341.000000</ele>
                <time>1970-01-01T01:00:00Z</time>
                <type>Trackpoint</type>
            </trkpt>
            <trkpt lat="49.520152" lon="11.151002">
                <ele>344.000000</ele>
                <time>1970-01-01T01:00:00Z</time>
                <type>Trackpoint</type>
            </trkpt>
            <trkpt lat="49.520014" lon="11.150590">
                <ele>344.000000</ele>
                <time>1970-01-01T01:00:00Z</time>
                <type>Trackpoint</type>
            </trkpt>
            <trkpt lat="49.519785" lon="11.149938">
                <ele>344.000000</ele>
                <time>1970-01-01T01:00:00Z</time>
                <type>Trackpoint</type>
            </trkpt>
            <trkpt lat="49.519442" lon="11.149253">
                <ele>344.000000</ele>
                <time>1970-01-01T01:00:00Z</time>
                <type>Trackpoint</type>
            </trkpt>
            <trkpt lat="49.518897" lon="11.148434">
                <ele>345.000000</ele>
                <time>1970-01-01T01:00:00Z</time>
                <type>Trackpoint</type>
            </trkpt>
            <trkpt lat="49.518579" lon="11.147990">
                <ele>348.000000</ele>
                <time>1970-01-01T01:00:00Z</time>
                <type>Trackpoint</type>
            </trkpt>
            <trkpt lat="49.517614" lon="11.146730">
                <ele>352.000000</ele>
                <time>1970-01-01T01:00:00Z</time>
                <type>Trackpoint</type>
            </trkpt>
            <trkpt lat="49.517069" lon="11.145876">
                <ele>355.000000</ele>
                <time>1970-01-01T01:00:00Z</time>
                <type>Trackpoint</type>
            </trkpt>
            <trkpt lat="49.517022" lon="11.145670">
                <ele>356.000000</ele>
                <time>1970-01-01T01:00:00Z</time>
                <type>Trackpoint</type>
            </trkpt>
            <trkpt lat="49.516819" lon="11.145501">
                <ele>357.000000</ele>
                <time>1970-01-01T01:00:00Z</time>
                <type>Trackpoint</type>
            </trkpt>
            <trkpt lat="49.516569" lon="11.145194">
                <ele>359.000000</ele>
                <time>1970-01-01T01:00:00Z</time>
                <type>Trackpoint</type>
            </trkpt>
            <trkpt lat="49.516366" lon="11.145094">
                <ele>359.000000</ele>
                <time>1970-01-01T01:00:00Z</time>
                <type>Trackpoint</type>
            </trkpt>
            <trkpt lat="49.513607" lon="11.142829">
                <ele>387.000000</ele>
                <time>1970-01-01T01:00:00Z</time>
                <type>Trackpoint</type>
            </trkpt>
            <trkpt lat="49.512303" lon="11.142058">
                <ele>393.000000</ele>
                <time>1970-01-01T01:00:00Z</time>
                <type>Trackpoint</type>
            </trkpt>
            <trkpt lat="49.512213" lon="11.142060">
                <ele>393.000000</ele>
                <time>1970-01-01T01:00:00Z</time>
                <type>Trackpoint</type>
            </trkpt>
            <trkpt lat="49.512750" lon="11.150888">
                <ele>388.000000</ele>
                <time>1970-01-01T01:00:00Z</time>
                <type>Trackpoint</type>
            </trkpt>
            <trkpt lat="49.512823" lon="11.151577">
                <ele>388.000000</ele>
                <time>1970-01-01T01:00:00Z</time>
                <type>Trackpoint</type>
            </trkpt>
            <trkpt lat="49.512915" lon="11.151921">
                <ele>389.000000</ele>
                <time>1970-01-01T01:00:00Z</time>
                <type>Trackpoint</type>
            </trkpt>
            <trkpt lat="49.513009" lon="11.152403">
                <ele>389.000000</ele>
                <time>1970-01-01T01:00:00Z</time>
                <type>Trackpoint</type>
            </trkpt>
            <trkpt lat="49.513214" lon="11.152848">
                <ele>390.000000</ele>
                <time>1970-01-01T01:00:00Z</time>
                <type>Trackpoint</type>
            </trkpt>
            <trkpt lat="49.513534" lon="11.153498">
                <ele>391.000000</ele>
                <time>1970-01-01T01:00:00Z</time>
                <type>Trackpoint</type>
            </trkpt>
            <trkpt lat="49.513853" lon="11.154183">
                <ele>391.000000</ele>
                <time>1970-01-01T01:00:00Z</time>
                <type>Trackpoint</type>
            </trkpt>
            <trkpt lat="49.514014" lon="11.154664">
                <ele>390.000000</ele>
                <time>1970-01-01T01:00:00Z</time>
                <type>Trackpoint</type>
            </trkpt>
            <trkpt lat="49.514038" lon="11.154905">
                <ele>390.000000</ele>
                <time>1970-01-01T01:00:00Z</time>
                <type>Trackpoint</type>
            </trkpt>
            <trkpt lat="49.514040" lon="11.155147">
                <ele>391.000000</ele>
                <time>1970-01-01T01:00:00Z</time>
                <type>Trackpoint</type>
            </trkpt>
            <trkpt lat="49.514043" lon="11.155492">
                <ele>391.000000</ele>
                <time>1970-01-01T01:00:00Z</time>
                <type>Trackpoint</type>
            </trkpt>
            <trkpt lat="49.513978" lon="11.155838">
                <ele>391.000000</ele>
                <time>1970-01-01T01:00:00Z</time>
                <type>Trackpoint</type>
            </trkpt>
            <trkpt lat="49.513936" lon="11.156219">
                <ele>393.000000</ele>
                <time>1970-01-01T01:00:00Z</time>
                <type>Trackpoint</type>
            </trkpt>
            <trkpt lat="49.513893" lon="11.156599">
                <ele>393.000000</ele>
                <time>1970-01-01T01:00:00Z</time>
                <type>Trackpoint</type>
            </trkpt>
            <trkpt lat="49.513876" lon="11.157255">
                <ele>393.000000</ele>
                <time>1970-01-01T01:00:00Z</time>
                <type>Trackpoint</type>
            </trkpt>
            <trkpt lat="49.513949" lon="11.158048">
                <ele>392.000000</ele>
                <time>1970-01-01T01:00:00Z</time>
                <type>Trackpoint</type>
            </trkpt>
            <trkpt lat="49.514118" lon="11.159599">
                <ele>391.000000</ele>
                <time>1970-01-01T01:00:00Z</time>
                <type>Trackpoint</type>
            </trkpt>
            <trkpt lat="49.514420" lon="11.161044">
                <ele>391.000000</ele>
                <time>1970-01-01T01:00:00Z</time>
                <type>Trackpoint</type>
            </trkpt>
            <trkpt lat="49.514585" lon="11.162007">
                <ele>390.000000</ele>
                <time>1970-01-01T01:00:00Z</time>
                <type>Trackpoint</type>
            </trkpt>
            <trkpt lat="49.514654" lon="11.162248">
                <ele>390.000000</ele>
                <time>1970-01-01T01:00:00Z</time>
                <type>Trackpoint</type>
            </trkpt>
            <trkpt lat="49.514656" lon="11.162559">
                <ele>390.000000</ele>
                <time>1970-01-01T01:00:00Z</time>
                <type>Trackpoint</type>
            </trkpt>
            <trkpt lat="49.514680" lon="11.162800">
                <ele>391.000000</ele>
                <time>1970-01-01T01:00:00Z</time>
                <type>Trackpoint</type>
            </trkpt>
            <trkpt lat="49.514637" lon="11.163008">
                <ele>391.000000</ele>
                <time>1970-01-01T01:00:00Z</time>
                <type>Trackpoint</type>
            </trkpt>
            <trkpt lat="49.514594" lon="11.163285">
                <ele>391.000000</ele>
                <time>1970-01-01T01:00:00Z</time>
                <type>Trackpoint</type>
            </trkpt>
            <trkpt lat="49.514528" lon="11.163562">
                <ele>391.000000</ele>
                <time>1970-01-01T01:00:00Z</time>
                <type>Trackpoint</type>
            </trkpt>
            <trkpt lat="49.514486" lon="11.163873">
                <ele>392.000000</ele>
                <time>1970-01-01T01:00:00Z</time>
                <type>Trackpoint</type>
            </trkpt>
            <trkpt lat="49.514442" lon="11.164047">
                <ele>394.000000</ele>
                <time>1970-01-01T01:00:00Z</time>
                <type>Trackpoint</type>
            </trkpt>
            <trkpt lat="49.514399" lon="11.164255">
                <ele>394.000000</ele>
                <time>1970-01-01T01:00:00Z</time>
                <type>Trackpoint</type>
            </trkpt>
            <trkpt lat="49.514468" lon="11.164495">
                <ele>394.000000</ele>
                <time>1970-01-01T01:00:00Z</time>
                <type>Trackpoint</type>
            </trkpt>
            <trkpt lat="49.514446" lon="11.164565">
                <ele>394.000000</ele>
                <time>1970-01-01T01:00:00Z</time>
                <type>Trackpoint</type>
            </trkpt>
            <trkpt lat="49.514447" lon="11.164772">
                <ele>394.000000</ele>
                <time>1970-01-01T01:00:00Z</time>
                <type>Trackpoint</type>
            </trkpt>
            <trkpt lat="49.514471" lon="11.164944">
                <ele>394.000000</ele>
                <time>1970-01-01T01:00:00Z</time>
                <type>Trackpoint</type>
            </trkpt>
            <trkpt lat="49.514473" lon="11.165220">
                <ele>395.000000</ele>
                <time>1970-01-01T01:00:00Z</time>
                <type>Trackpoint</type>
            </trkpt>
            <trkpt lat="49.514453" lon="11.165531">
                <ele>395.000000</ele>
                <time>1970-01-01T01:00:00Z</time>
                <type>Trackpoint</type>
            </trkpt>
            <trkpt lat="49.514433" lon="11.165842">
                <ele>394.000000</ele>
                <time>1970-01-01T01:00:00Z</time>
                <type>Trackpoint</type>
            </trkpt>
            <trkpt lat="49.513886" lon="11.167957">
                <ele>396.000000</ele>
                <time>1970-01-01T01:00:00Z</time>
                <type>Trackpoint</type>
            </trkpt>
            <trkpt lat="49.513805" lon="11.169236">
                <ele>396.000000</ele>
                <time>1970-01-01T01:00:00Z</time>
                <type>Trackpoint</type>
            </trkpt>
            <trkpt lat="49.513762" lon="11.169513">
                <ele>395.000000</ele>
                <time>1970-01-01T01:00:00Z</time>
                <type>Trackpoint</type>
            </trkpt>
            <trkpt lat="49.513590" lon="11.170586">
                <ele>393.000000</ele>
                <time>1970-01-01T01:00:00Z</time>
                <type>Trackpoint</type>
            </trkpt>
            <trkpt lat="49.513506" lon="11.171451">
                <ele>392.000000</ele>
                <time>1970-01-01T01:00:00Z</time>
                <type>Trackpoint</type>
            </trkpt>
            <trkpt lat="49.513398" lon="11.171970">
                <ele>391.000000</ele>
                <time>1970-01-01T01:00:00Z</time>
                <type>Trackpoint</type>
            </trkpt>
            <trkpt lat="49.513289" lon="11.172455">
                <ele>390.000000</ele>
                <time>1970-01-01T01:00:00Z</time>
                <type>Trackpoint</type>
            </trkpt>
            <trkpt lat="49.513113" lon="11.172976">
                <ele>387.000000</ele>
                <time>1970-01-01T01:00:00Z</time>
                <type>Trackpoint</type>
            </trkpt>
            <trkpt lat="49.513003" lon="11.173323">
                <ele>386.000000</ele>
                <time>1970-01-01T01:00:00Z</time>
                <type>Trackpoint</type>
            </trkpt>
            <trkpt lat="49.513004" lon="11.173496">
                <ele>386.000000</ele>
                <time>1970-01-01T01:00:00Z</time>
                <type>Trackpoint</type>
            </trkpt>
            <trkpt lat="49.513049" lon="11.173564">
                <ele>386.000000</ele>
                <time>1970-01-01T01:00:00Z</time>
                <type>Trackpoint</type>
            </trkpt>
            <trkpt lat="49.513442" lon="11.175077">
                <ele>378.000000</ele>
                <time>1970-01-01T01:00:00Z</time>
                <type>Trackpoint</type>
            </trkpt>
            <trkpt lat="49.517493" lon="11.172626">
                <ele>361.000000</ele>
                <time>1970-01-01T01:00:00Z</time>
                <type>Trackpoint</type>
            </trkpt>
            <trkpt lat="49.520470" lon="11.170781">
                <ele>353.000000</ele>
                <time>1970-01-01T01:00:00Z</time>
                <type>Trackpoint</type>
            </trkpt>
            <trkpt lat="49.521765" lon="11.169654">
                <ele>347.000000</ele>
                <time>1970-01-01T01:00:00Z</time>
                <type>Trackpoint</type>
            </trkpt>
            <trkpt lat="49.522881" lon="11.168426">
                <ele>345.000000</ele>
                <time>1970-01-01T01:00:00Z</time>
                <type>Trackpoint</type>
            </trkpt>
            <trkpt lat="49.523280" lon="11.167763">
                <ele>343.000000</ele>
                <time>1970-01-01T01:00:00Z</time>
                <type>Trackpoint</type>
            </trkpt>
            <trkpt lat="49.524180" lon="11.167783">
                <ele>343.000000</ele>
                <time>1970-01-01T01:00:00Z</time>
                <type>Trackpoint</type>
            </trkpt>
            <trkpt lat="49.524764" lon="11.167773">
                <ele>344.000000</ele>
                <time>1970-01-01T01:00:00Z</time>
                <type>Trackpoint</type>
            </trkpt>
            <trkpt lat="49.525057" lon="11.167906">
                <ele>344.000000</ele>
                <time>1970-01-01T01:00:00Z</time>
                <type>Trackpoint</type>
            </trkpt>
            <trkpt lat="49.525418" lon="11.168003">
                <ele>345.000000</ele>
                <time>1970-01-01T01:00:00Z</time>
                <type>Trackpoint</type>
            </trkpt>
            <trkpt lat="49.525688" lon="11.168102">
                <ele>346.000000</ele>
                <time>1970-01-01T01:00:00Z</time>
                <type>Trackpoint</type>
            </trkpt>
            <trkpt lat="49.525957" lon="11.168063">
                <ele>347.000000</ele>
                <time>1970-01-01T01:00:00Z</time>
                <type>Trackpoint</type>
            </trkpt>
            <trkpt lat="49.526183" lon="11.168163">
                <ele>349.000000</ele>
                <time>1970-01-01T01:00:00Z</time>
                <type>Trackpoint</type>
            </trkpt>
            <trkpt lat="49.526252" lon="11.168335">
                <ele>350.000000</ele>
                <time>1970-01-01T01:00:00Z</time>
                <type>Trackpoint</type>
            </trkpt>
            <trkpt lat="49.526253" lon="11.168542">
                <ele>350.000000</ele>
                <time>1970-01-01T01:00:00Z</time>
                <type>Trackpoint</type>
            </trkpt>
            <trkpt lat="49.526255" lon="11.168783">
                <ele>349.000000</ele>
                <time>1970-01-01T01:00:00Z</time>
                <type>Trackpoint</type>
            </trkpt>
            <trkpt lat="49.526256" lon="11.168887">
                <ele>349.000000</ele>
                <time>1970-01-01T01:00:00Z</time>
                <type>Trackpoint</type>
            </trkpt>
            <trkpt lat="49.526257" lon="11.169060">
                <ele>349.000000</ele>
                <time>1970-01-01T01:00:00Z</time>
                <type>Trackpoint</type>
            </trkpt>
            <trkpt lat="49.526325" lon="11.169197">
                <ele>349.000000</ele>
                <time>1970-01-01T01:00:00Z</time>
                <type>Trackpoint</type>
            </trkpt>
            <trkpt lat="49.526326" lon="11.169335">
                <ele>349.000000</ele>
                <time>1970-01-01T01:00:00Z</time>
                <type>Trackpoint</type>
            </trkpt>
            <trkpt lat="49.526416" lon="11.169368">
                <ele>349.000000</ele>
                <time>1970-01-01T01:00:00Z</time>
                <type>Trackpoint</type>
            </trkpt>
            <trkpt lat="49.526507" lon="11.169470">
                <ele>350.000000</ele>
                <time>1970-01-01T01:00:00Z</time>
                <type>Trackpoint</type>
            </trkpt>
            <trkpt lat="49.526665" lon="11.169502">
                <ele>350.000000</ele>
                <time>1970-01-01T01:00:00Z</time>
                <type>Trackpoint</type>
            </trkpt>
            <trkpt lat="49.526710" lon="11.169501">
                <ele>350.000000</ele>
                <time>1970-01-01T01:00:00Z</time>
                <type>Trackpoint</type>
            </trkpt>
            <trkpt lat="49.527024" lon="11.169496">
                <ele>350.000000</ele>
                <time>1970-01-01T01:00:00Z</time>
                <type>Trackpoint</type>
            </trkpt>
            <trkpt lat="49.527846" lon="11.171243">
                <ele>352.000000</ele>
                <time>1970-01-01T01:00:00Z</time>
                <type>Trackpoint</type>
            </trkpt>
            <trkpt lat="49.528072" lon="11.171412">
                <ele>353.000000</ele>
                <time>1970-01-01T01:00:00Z</time>
                <type>Trackpoint</type>
            </trkpt>
            <trkpt lat="49.528185" lon="11.171513">
                <ele>353.000000</ele>
                <time>1970-01-01T01:00:00Z</time>
                <type>Trackpoint</type>
            </trkpt>
            <trkpt lat="49.528275" lon="11.171581">
                <ele>353.000000</ele>
                <time>1970-01-01T01:00:00Z</time>
                <type>Trackpoint</type>
            </trkpt>
            <trkpt lat="49.528478" lon="11.171612">
                <ele>354.000000</ele>
                <time>1970-01-01T01:00:00Z</time>
                <type>Trackpoint</type>
            </trkpt>
            <trkpt lat="49.528792" lon="11.171469">
                <ele>354.000000</ele>
                <time>1970-01-01T01:00:00Z</time>
                <type>Trackpoint</type>
            </trkpt>
            <trkpt lat="49.529285" lon="11.171253">
                <ele>354.000000</ele>
                <time>1970-01-01T01:00:00Z</time>
                <type>Trackpoint</type>
            </trkpt>
            <trkpt lat="49.529664" lon="11.170867">
                <ele>356.000000</ele>
                <time>1970-01-01T01:00:00Z</time>
                <type>Trackpoint</type>
            </trkpt>
            <trkpt lat="49.529998" lon="11.170481">
                <ele>356.000000</ele>
                <time>1970-01-01T01:00:00Z</time>
                <type>Trackpoint</type>
            </trkpt>
            <trkpt lat="49.530155" lon="11.170340">
                <ele>357.000000</ele>
                <time>1970-01-01T01:00:00Z</time>
                <type>Trackpoint</type>
            </trkpt>
            <trkpt lat="49.530267" lon="11.170339">
                <ele>357.000000</ele>
                <time>1970-01-01T01:00:00Z</time>
                <type>Trackpoint</type>
            </trkpt>
            <trkpt lat="49.530536" lon="11.170230">
                <ele>358.000000</ele>
                <time>1970-01-01T01:00:00Z</time>
                <type>Trackpoint</type>
            </trkpt>
            <trkpt lat="49.530918" lon="11.170224">
                <ele>358.000000</ele>
                <time>1970-01-01T01:00:00Z</time>
                <type>Trackpoint</type>
            </trkpt>
            <trkpt lat="49.532984" lon="11.169878">
                <ele>362.000000</ele>
                <time>1970-01-01T01:00:00Z</time>
                <type>Trackpoint</type>
            </trkpt>
            <trkpt lat="49.532914" lon="11.166426">
                <ele>382.000000</ele>
                <time>1970-01-01T01:00:00Z</time>
                <type>Trackpoint</type>
            </trkpt>
            <trkpt lat="49.532979" lon="11.166114">
                <ele>384.000000</ele>
                <time>1970-01-01T01:00:00Z</time>
                <type>Trackpoint</type>
            </trkpt>
            <trkpt lat="49.533091" lon="11.165974">
                <ele>385.000000</ele>
                <time>1970-01-01T01:00:00Z</time>
                <type>Trackpoint</type>
            </trkpt>
            <trkpt lat="49.533135" lon="11.165904">
                <ele>385.000000</ele>
                <time>1970-01-01T01:00:00Z</time>
                <type>Trackpoint</type>
            </trkpt>
            <trkpt lat="49.533475" lon="11.166243">
                <ele>383.000000</ele>
                <time>1970-01-01T01:00:00Z</time>
                <type>Trackpoint</type>
            </trkpt>
            <trkpt lat="49.533860" lon="11.166686">
                <ele>380.000000</ele>
                <time>1970-01-01T01:00:00Z</time>
                <type>Trackpoint</type>
            </trkpt>
            <trkpt lat="49.534019" lon="11.166925">
                <ele>379.000000</ele>
                <time>1970-01-01T01:00:00Z</time>
                <type>Trackpoint</type>
            </trkpt>
            <trkpt lat="49.534245" lon="11.167094">
                <ele>377.000000</ele>
                <time>1970-01-01T01:00:00Z</time>
                <type>Trackpoint</type>
            </trkpt>
            <trkpt lat="49.534449" lon="11.167298">
                <ele>377.000000</ele>
                <time>1970-01-01T01:00:00Z</time>
                <type>Trackpoint</type>
            </trkpt>
            <trkpt lat="49.534863" lon="11.165564">
                <ele>380.000000</ele>
                <time>1970-01-01T01:00:00Z</time>
                <type>Trackpoint</type>
            </trkpt>
            <trkpt lat="49.534972" lon="11.165078">
                <ele>379.000000</ele>
                <time>1970-01-01T01:00:00Z</time>
                <type>Trackpoint</type>
            </trkpt>
            <trkpt lat="49.535170" lon="11.164488">
                <ele>378.000000</ele>
                <time>1970-01-01T01:00:00Z</time>
                <type>Trackpoint</type>
            </trkpt>
            <trkpt lat="49.535279" lon="11.163933">
                <ele>376.000000</ele>
                <time>1970-01-01T01:00:00Z</time>
                <type>Trackpoint</type>
            </trkpt>
            <trkpt lat="49.535410" lon="11.163378">
                <ele>376.000000</ele>
                <time>1970-01-01T01:00:00Z</time>
                <type>Trackpoint</type>
            </trkpt>
            <trkpt lat="49.535707" lon="11.163304">
                <ele>376.000000</ele>
                <time>1970-01-01T01:00:00Z</time>
                <type>Trackpoint</type>
            </trkpt>
            <trkpt lat="49.535864" lon="11.163232">
                <ele>375.000000</ele>
                <time>1970-01-01T01:00:00Z</time>
                <type>Trackpoint</type>
            </trkpt>
            <trkpt lat="49.535908" lon="11.163128">
                <ele>375.000000</ele>
                <time>1970-01-01T01:00:00Z</time>
                <type>Trackpoint</type>
            </trkpt>
            <trkpt lat="49.536064" lon="11.162918">
                <ele>375.000000</ele>
                <time>1970-01-01T01:00:00Z</time>
                <type>Trackpoint</type>
            </trkpt>
            <trkpt lat="49.536375" lon="11.162498">
                <ele>373.000000</ele>
                <time>1970-01-01T01:00:00Z</time>
                <type>Trackpoint</type>
            </trkpt>
            <trkpt lat="49.536643" lon="11.162252">
                <ele>373.000000</ele>
                <time>1970-01-01T01:00:00Z</time>
                <type>Trackpoint</type>
            </trkpt>
            <trkpt lat="49.536799" lon="11.162042">
                <ele>372.000000</ele>
                <time>1970-01-01T01:00:00Z</time>
                <type>Trackpoint</type>
            </trkpt>
            <trkpt lat="49.537000" lon="11.161831">
                <ele>372.000000</ele>
                <time>1970-01-01T01:00:00Z</time>
                <type>Trackpoint</type>
            </trkpt>
            <trkpt lat="49.537089" lon="11.161692">
                <ele>372.000000</ele>
                <time>1970-01-01T01:00:00Z</time>
                <type>Trackpoint</type>
            </trkpt>
            <trkpt lat="49.537222" lon="11.161448">
                <ele>371.000000</ele>
                <time>1970-01-01T01:00:00Z</time>
                <type>Trackpoint</type>
            </trkpt>
            <trkpt lat="49.537333" lon="11.161239">
                <ele>371.000000</ele>
                <time>1970-01-01T01:00:00Z</time>
                <type>Trackpoint</type>
            </trkpt>
            <trkpt lat="49.537421" lon="11.160961">
                <ele>371.000000</ele>
                <time>1970-01-01T01:00:00Z</time>
                <type>Trackpoint</type>
            </trkpt>
            <trkpt lat="49.537442" lon="11.160788">
                <ele>370.000000</ele>
                <time>1970-01-01T01:00:00Z</time>
                <type>Trackpoint</type>
            </trkpt>
            <trkpt lat="49.537418" lon="11.160546">
                <ele>370.000000</ele>
                <time>1970-01-01T01:00:00Z</time>
                <type>Trackpoint</type>
            </trkpt>
            <trkpt lat="49.537012" lon="11.160346">
                <ele>368.000000</ele>
                <time>1970-01-01T01:00:00Z</time>
                <type>Trackpoint</type>
            </trkpt>
            <trkpt lat="49.536537" lon="11.160043">
                <ele>366.000000</ele>
                <time>1970-01-01T01:00:00Z</time>
                <type>Trackpoint</type>
            </trkpt>
            <trkpt lat="49.536356" lon="11.159839">
                <ele>366.000000</ele>
                <time>1970-01-01T01:00:00Z</time>
                <type>Trackpoint</type>
            </trkpt>
            <trkpt lat="49.536062" lon="11.159568">
                <ele>365.000000</ele>
                <time>1970-01-01T01:00:00Z</time>
                <type>Trackpoint</type>
            </trkpt>
            <trkpt lat="49.535926" lon="11.159398">
                <ele>364.000000</ele>
                <time>1970-01-01T01:00:00Z</time>
                <type>Trackpoint</type>
            </trkpt>
            <trkpt lat="49.535856" lon="11.159088">
                <ele>362.000000</ele>
                <time>1970-01-01T01:00:00Z</time>
                <type>Trackpoint</type>
            </trkpt>
            <trkpt lat="49.535830" lon="11.158639">
                <ele>361.000000</ele>
                <time>1970-01-01T01:00:00Z</time>
                <type>Trackpoint</type>
            </trkpt>
            <trkpt lat="49.535828" lon="11.158294">
                <ele>359.000000</ele>
                <time>1970-01-01T01:00:00Z</time>
                <type>Trackpoint</type>
            </trkpt>
            <trkpt lat="49.535893" lon="11.157982">
                <ele>356.000000</ele>
                <time>1970-01-01T01:00:00Z</time>
                <type>Trackpoint</type>
            </trkpt>
            <trkpt lat="49.535958" lon="11.157705">
                <ele>354.000000</ele>
                <time>1970-01-01T01:00:00Z</time>
                <type>Trackpoint</type>
            </trkpt>
            <trkpt lat="49.535957" lon="11.157463">
                <ele>354.000000</ele>
                <time>1970-01-01T01:00:00Z</time>
                <type>Trackpoint</type>
            </trkpt>
            <trkpt lat="49.535933" lon="11.157256">
                <ele>352.000000</ele>
                <time>1970-01-01T01:00:00Z</time>
                <type>Trackpoint</type>
            </trkpt>
            <trkpt lat="49.535796" lon="11.157051">
                <ele>352.000000</ele>
                <time>1970-01-01T01:00:00Z</time>
                <type>Trackpoint</type>
            </trkpt>
            <trkpt lat="49.535683" lon="11.156880">
                <ele>351.000000</ele>
                <time>1970-01-01T01:00:00Z</time>
                <type>Trackpoint</type>
            </trkpt>
            <trkpt lat="49.535547" lon="11.156745">
                <ele>351.000000</ele>
                <time>1970-01-01T01:00:00Z</time>
                <type>Trackpoint</type>
            </trkpt>
            <trkpt lat="49.535589" lon="11.156364">
                <ele>350.000000</ele>
                <time>1970-01-01T01:00:00Z</time>
                <type>Trackpoint</type>
            </trkpt>
            <trkpt lat="49.535565" lon="11.156088">
                <ele>349.000000</ele>
                <time>1970-01-01T01:00:00Z</time>
                <type>Trackpoint</type>
            </trkpt>
            <trkpt lat="49.535519" lon="11.155985">
                <ele>348.000000</ele>
                <time>1970-01-01T01:00:00Z</time>
                <type>Trackpoint</type>
            </trkpt>
            <trkpt lat="49.535496" lon="11.155951">
                <ele>348.000000</ele>
                <time>1970-01-01T01:00:00Z</time>
                <type>Trackpoint</type>
            </trkpt>
            <trkpt lat="49.535428" lon="11.155918">
                <ele>348.000000</ele>
                <time>1970-01-01T01:00:00Z</time>
                <type>Trackpoint</type>
            </trkpt>
            <trkpt lat="49.534864" lon="11.155548">
                <ele>348.000000</ele>
                <time>1970-01-01T01:00:00Z</time>
                <type>Trackpoint</type>
            </trkpt>
            <trkpt lat="49.534819" lon="11.155583">
                <ele>348.000000</ele>
                <time>1970-01-01T01:00:00Z</time>
                <type>Trackpoint</type>
            </trkpt>
            <trkpt lat="49.534640" lon="11.155690">
                <ele>351.000000</ele>
                <time>1970-01-01T01:00:00Z</time>
                <type>Trackpoint</type>
            </trkpt>
            <trkpt lat="49.534550" lon="11.155726">
                <ele>351.000000</ele>
                <time>1970-01-01T01:00:00Z</time>
                <type>Trackpoint</type>
            </trkpt>
            <trkpt lat="49.534483" lon="11.155761">
                <ele>351.000000</ele>
                <time>1970-01-01T01:00:00Z</time>
                <type>Trackpoint</type>
            </trkpt>
            <trkpt lat="49.534461" lon="11.155762">
                <ele>351.000000</ele>
                <time>1970-01-01T01:00:00Z</time>
                <type>Trackpoint</type>
            </trkpt>
            <trkpt lat="49.534281" lon="11.155799">
                <ele>353.000000</ele>
                <time>1970-01-01T01:00:00Z</time>
                <type>Trackpoint</type>
            </trkpt>
            <trkpt lat="49.533218" lon="11.154885">
                <ele>350.000000</ele>
                <time>1970-01-01T01:00:00Z</time>
                <type>Trackpoint</type>
            </trkpt>
            <trkpt lat="49.533083" lon="11.154853">
                <ele>350.000000</ele>
                <time>1970-01-01T01:00:00Z</time>
                <type>Trackpoint</type>
            </trkpt>
            <trkpt lat="49.532992" lon="11.154751">
                <ele>352.000000</ele>
                <time>1970-01-01T01:00:00Z</time>
                <type>Trackpoint</type>
            </trkpt>
            <trkpt lat="49.532880" lon="11.154718">
                <ele>352.000000</ele>
                <time>1970-01-01T01:00:00Z</time>
                <type>Trackpoint</type>
            </trkpt>
            <trkpt lat="49.532856" lon="11.154546">
                <ele>349.000000</ele>
                <time>1970-01-01T01:00:00Z</time>
                <type>Trackpoint</type>
            </trkpt>
            <trkpt lat="49.532855" lon="11.154408">
                <ele>349.000000</ele>
                <time>1970-01-01T01:00:00Z</time>
                <type>Trackpoint</type>
            </trkpt>
            <trkpt lat="49.532763" lon="11.154099">
                <ele>349.000000</ele>
                <time>1970-01-01T01:00:00Z</time>
                <type>Trackpoint</type>
            </trkpt>
            <trkpt lat="49.531835" lon="11.153320">
                <ele>348.000000</ele>
                <time>1970-01-01T01:00:00Z</time>
                <type>Trackpoint</type>
            </trkpt>
            <trkpt lat="49.531407" lon="11.153086">
                <ele>348.000000</ele>
                <time>1970-01-01T01:00:00Z</time>
                <type>Trackpoint</type>
            </trkpt>
            <trkpt lat="49.530281" lon="11.152829">
                <ele>345.000000</ele>
                <time>1970-01-01T01:00:00Z</time>
                <type>Trackpoint</type>
            </trkpt>
            <trkpt lat="49.530365" lon="11.151999">
                <ele>344.000000</ele>
                <time>1970-01-01T01:00:00Z</time>
                <type>Trackpoint</type>
            </trkpt>
            <trkpt lat="49.530028" lon="11.152074">
                <ele>343.000000</ele>
                <time>1970-01-01T01:00:00Z</time>
                <type>Trackpoint</type>
            </trkpt>
            <trkpt lat="49.529870" lon="11.151973">
                <ele>343.000000</ele>
                <time>1970-01-01T01:00:00Z</time>
                <type>Trackpoint</type>
            </trkpt>
            <trkpt lat="49.529645" lon="11.151942">
                <ele>343.000000</ele>
                <time>1970-01-01T01:00:00Z</time>
                <type>Trackpoint</type>
            </trkpt>
            <trkpt lat="49.529420" lon="11.151912">
                <ele>344.000000</ele>
                <time>1970-01-01T01:00:00Z</time>
                <type>Trackpoint</type>
            </trkpt>
            <trkpt lat="49.529285" lon="11.151914">
                <ele>344.000000</ele>
                <time>1970-01-01T01:00:00Z</time>
                <type>Trackpoint</type>
            </trkpt>
            <trkpt lat="49.529105" lon="11.151952">
                <ele>344.000000</ele>
                <time>1970-01-01T01:00:00Z</time>
                <type>Trackpoint</type>
            </trkpt>
            <trkpt lat="49.528903" lon="11.151990">
                <ele>343.000000</ele>
                <time>1970-01-01T01:00:00Z</time>
                <type>Trackpoint</type>
            </trkpt>
            <trkpt lat="49.528657" lon="11.152132">
                <ele>343.000000</ele>
                <time>1970-01-01T01:00:00Z</time>
                <type>Trackpoint</type>
            </trkpt>
            <trkpt lat="49.528502" lon="11.152445">
                <ele>343.000000</ele>
                <time>1970-01-01T01:00:00Z</time>
                <type>Trackpoint</type>
            </trkpt>
            <trkpt lat="49.528188" lon="11.152555">
                <ele>343.000000</ele>
                <time>1970-01-01T01:00:00Z</time>
                <type>Trackpoint</type>
            </trkpt>
            <trkpt lat="49.527874" lon="11.152594">
                <ele>343.000000</ele>
                <time>1970-01-01T01:00:00Z</time>
                <type>Trackpoint</type>
            </trkpt>
            <trkpt lat="49.527673" lon="11.152771">
                <ele>343.000000</ele>
                <time>1970-01-01T01:00:00Z</time>
                <type>Trackpoint</type>
            </trkpt>
            <trkpt lat="49.527381" lon="11.152879">
                <ele>343.000000</ele>
                <time>1970-01-01T01:00:00Z</time>
                <type>Trackpoint</type>
            </trkpt>
            <trkpt lat="49.527247" lon="11.152916">
                <ele>343.000000</ele>
                <time>1970-01-01T01:00:00Z</time>
                <type>Trackpoint</type>
            </trkpt>
            <trkpt lat="49.527090" lon="11.153057">
                <ele>342.000000</ele>
                <time>1970-01-01T01:00:00Z</time>
                <type>Trackpoint</type>
            </trkpt>
            <trkpt lat="49.526978" lon="11.152990">
                <ele>343.000000</ele>
                <time>1970-01-01T01:00:00Z</time>
                <type>Trackpoint</type>
            </trkpt>
            <trkpt lat="49.526887" lon="11.152853">
                <ele>343.000000</ele>
                <time>1970-01-01T01:00:00Z</time>
                <type>Trackpoint</type>
            </trkpt>
            <trkpt lat="49.527192" lon="11.151605">
                <ele>348.000000</ele>
                <time>1970-01-01T01:00:00Z</time>
                <type>Trackpoint</type>
            </trkpt>
            <trkpt lat="49.527057" lon="11.151538">
                <ele>348.000000</ele>
                <time>1970-01-01T01:00:00Z</time>
                <type>Trackpoint</type>
            </trkpt>
        </trkseg>
    </trk>
</gpx>
