<?xml version='1.0' encoding='UTF-8'?>
<gpx version="1.1" creator="https://www.komoot.de" xmlns="http://www.topografix.com/GPX/1/1" xmlns:xsi="http://www.w3.org/2001/XMLSchema-instance" xsi:schemaLocation="http://www.topografix.com/GPX/1/1 http://www.topografix.com/GPX/1/1/gpx.xsd">
  <metadata>
    <name>PW Limburg " Nordic-Walking-Weg" " Entlang der Lahn zu den Staffeler Auen". 14km</name>
    <author>
      <link href="https://www.komoot.de">
        <text>komoot</text>
        <type>text/html</type>
      </link>
    </author>
  </metadata>
  <trk>
    <name>PW Limburg " Nordic-Walking-Weg" " Entlang der Lahn zu den Staffeler Auen". 14km</name>
    <trkseg>
      <trkpt lat="50.387900" lon="8.065028">
        <ele>123.287176</ele>
        <time>2023-01-09T07:50:37.093Z</time>
      </trkpt>
      <trkpt lat="50.387995" lon="8.064797">
        <ele>123.287176</ele>
        <time>2023-01-09T07:50:51.508Z</time>
      </trkpt>
      <trkpt lat="50.388023" lon="8.064707">
        <ele>123.287176</ele>
        <time>2023-01-09T07:50:56.705Z</time>
      </trkpt>
      <trkpt lat="50.388188" lon="8.064349">
        <ele>123.287176</ele>
        <time>2023-01-09T07:51:20.366Z</time>
      </trkpt>
      <trkpt lat="50.388484" lon="8.063825">
        <ele>123.175719</ele>
        <time>2023-01-09T07:51:56.889Z</time>
      </trkpt>
      <trkpt lat="50.388658" lon="8.063797">
        <ele>122.888157</ele>
        <time>2023-01-09T07:52:11.030Z</time>
      </trkpt>
      <trkpt lat="50.388732" lon="8.063836">
        <ele>122.759814</ele>
        <time>2023-01-09T07:52:17.493Z</time>
      </trkpt>
      <trkpt lat="50.388909" lon="8.063971">
        <ele>122.436239</ele>
        <time>2023-01-09T07:52:33.809Z</time>
      </trkpt>
      <trkpt lat="50.388943" lon="8.064003">
        <ele>122.371051</ele>
        <time>2023-01-09T07:52:37.012Z</time>
      </trkpt>
      <trkpt lat="50.389179" lon="8.064082">
        <ele>121.974322</ele>
        <time>2023-01-09T07:52:57.068Z</time>
      </trkpt>
      <trkpt lat="50.389233" lon="8.064141">
        <ele>121.866128</ele>
        <time>2023-01-09T07:53:02.523Z</time>
      </trkpt>
      <trkpt lat="50.389335" lon="8.064373">
        <ele>121.570737</ele>
        <time>2023-01-09T07:53:17.275Z</time>
      </trkpt>
      <trkpt lat="50.389469" lon="8.064390">
        <ele>121.349718</ele>
        <time>2023-01-09T07:53:28.724Z</time>
      </trkpt>
      <trkpt lat="50.389479" lon="8.064454">
        <ele>121.280650</ele>
        <time>2023-01-09T07:53:32.221Z</time>
      </trkpt>
      <trkpt lat="50.389568" lon="8.064558">
        <ele>121.098188</ele>
        <time>2023-01-09T07:53:41.263Z</time>
      </trkpt>
      <trkpt lat="50.389725" lon="8.064445">
        <ele>120.814197</ele>
        <time>2023-01-09T07:53:56.086Z</time>
      </trkpt>
      <trkpt lat="50.389892" lon="8.064382">
        <ele>120.531815</ele>
        <time>2023-01-09T07:54:10.341Z</time>
      </trkpt>
      <trkpt lat="50.389954" lon="8.064376">
        <ele>120.429691</ele>
        <time>2023-01-09T07:54:15.613Z</time>
      </trkpt>
      <trkpt lat="50.390174" lon="8.064279">
        <ele>119.753088</ele>
        <time>2023-01-09T07:54:35.143Z</time>
      </trkpt>
      <trkpt lat="50.390192" lon="8.063963">
        <ele>119.058235</ele>
        <time>2023-01-09T07:54:52.492Z</time>
      </trkpt>
      <trkpt lat="50.390198" lon="8.063797">
        <ele>118.694082</ele>
        <time>2023-01-09T07:55:01.779Z</time>
      </trkpt>
      <trkpt lat="50.390209" lon="8.063513">
        <ele>118.070926</ele>
        <time>2023-01-09T07:55:17.144Z</time>
      </trkpt>
      <trkpt lat="50.390224" lon="8.063034">
        <ele>117.020567</ele>
        <time>2023-01-09T07:55:43.690Z</time>
      </trkpt>
      <trkpt lat="50.390363" lon="8.063047">
        <ele>116.542216</ele>
        <time>2023-01-09T07:55:56.013Z</time>
      </trkpt>
      <trkpt lat="50.390590" lon="8.062405">
        <ele>114.934370</ele>
        <time>2023-01-09T07:56:36.676Z</time>
      </trkpt>
      <trkpt lat="50.390657" lon="8.062287">
        <ele>114.588298</ele>
        <time>2023-01-09T07:56:45.126Z</time>
      </trkpt>
      <trkpt lat="50.390825" lon="8.062309">
        <ele>114.089111</ele>
        <time>2023-01-09T07:56:59.292Z</time>
      </trkpt>
      <trkpt lat="50.390842" lon="8.062283">
        <ele>114.053413</ele>
        <time>2023-01-09T07:57:01.374Z</time>
      </trkpt>
      <trkpt lat="50.391361" lon="8.061462">
        <ele>112.945184</ele>
        <time>2023-01-09T07:58:02.607Z</time>
      </trkpt>
      <trkpt lat="50.391679" lon="8.060956">
        <ele>112.264140</ele>
        <time>2023-01-09T07:58:39.470Z</time>
      </trkpt>
      <trkpt lat="50.392336" lon="8.059885">
        <ele>111.121114</ele>
        <time>2023-01-09T07:59:56.695Z</time>
      </trkpt>
      <trkpt lat="50.392691" lon="8.059301">
        <ele>110.706133</ele>
        <time>2023-01-09T08:00:38.536Z</time>
      </trkpt>
      <trkpt lat="50.393736" lon="8.057581">
        <ele>109.416243</ele>
        <time>2023-01-09T08:02:41.937Z</time>
      </trkpt>
      <trkpt lat="50.394461" lon="8.056786">
        <ele>108.607895</ele>
        <time>2023-01-09T08:03:54.378Z</time>
      </trkpt>
      <trkpt lat="50.394832" lon="8.056351">
        <ele>108.301799</ele>
        <time>2023-01-09T08:04:32.086Z</time>
      </trkpt>
      <trkpt lat="50.395178" lon="8.055883">
        <ele>108.175600</ele>
        <time>2023-01-09T08:05:09.094Z</time>
      </trkpt>
      <trkpt lat="50.396060" lon="8.054873">
        <ele>107.873959</ele>
        <time>2023-01-09T08:06:36.666Z</time>
      </trkpt>
      <trkpt lat="50.396220" lon="8.054607">
        <ele>107.918828</ele>
        <time>2023-01-09T08:06:55.477Z</time>
      </trkpt>
      <trkpt lat="50.396823" lon="8.052940">
        <ele>108.380096</ele>
        <time>2023-01-09T08:08:34.900Z</time>
      </trkpt>
      <trkpt lat="50.397205" lon="8.051703">
        <ele>108.668954</ele>
        <time>2023-01-09T08:09:46.083Z</time>
      </trkpt>
      <trkpt lat="50.397255" lon="8.051384">
        <ele>108.729190</ele>
        <time>2023-01-09T08:10:03.030Z</time>
      </trkpt>
      <trkpt lat="50.397293" lon="8.050841">
        <ele>108.829356</ele>
        <time>2023-01-09T08:10:31.235Z</time>
      </trkpt>
      <trkpt lat="50.397310" lon="8.050115">
        <ele>108.962569</ele>
        <time>2023-01-09T08:11:08.684Z</time>
      </trkpt>
      <trkpt lat="50.397258" lon="8.049412">
        <ele>109.054945</ele>
        <time>2023-01-09T08:11:44.982Z</time>
      </trkpt>
      <trkpt lat="50.396974" lon="8.048121">
        <ele>109.072429</ele>
        <time>2023-01-09T08:12:54.938Z</time>
      </trkpt>
      <trkpt lat="50.396905" lon="8.047770">
        <ele>109.077132</ele>
        <time>2023-01-09T08:13:13.659Z</time>
      </trkpt>
      <trkpt lat="50.396861" lon="8.047749">
        <ele>109.078056</ele>
        <time>2023-01-09T08:13:17.393Z</time>
      </trkpt>
      <trkpt lat="50.395928" lon="8.048476">
        <ele>108.910410</ele>
        <time>2023-01-09T08:14:41.007Z</time>
      </trkpt>
      <trkpt lat="50.395724" lon="8.047143">
        <ele>108.619138</ele>
        <time>2023-01-09T08:15:51.618Z</time>
      </trkpt>
      <trkpt lat="50.395304" lon="8.046181">
        <ele>108.352445</ele>
        <time>2023-01-09T08:16:51.738Z</time>
      </trkpt>
      <trkpt lat="50.394444" lon="8.044096">
        <ele>107.786973</ele>
        <time>2023-01-09T08:18:59.575Z</time>
      </trkpt>
      <trkpt lat="50.394017" lon="8.043062">
        <ele>107.755277</ele>
        <time>2023-01-09T08:20:02.496Z</time>
      </trkpt>
      <trkpt lat="50.393218" lon="8.041064">
        <ele>107.838210</ele>
        <time>2023-01-09T08:22:03.382Z</time>
      </trkpt>
      <trkpt lat="50.393548" lon="8.040119">
        <ele>107.967823</ele>
        <time>2023-01-09T08:22:58.878Z</time>
      </trkpt>
      <trkpt lat="50.393570" lon="8.040056">
        <ele>107.976463</ele>
        <time>2023-01-09T08:23:02.579Z</time>
      </trkpt>
      <trkpt lat="50.393577" lon="8.039937">
        <ele>107.990839</ele>
        <time>2023-01-09T08:23:08.722Z</time>
      </trkpt>
      <trkpt lat="50.393347" lon="8.039624">
        <ele>108.048294</ele>
        <time>2023-01-09T08:23:33.289Z</time>
      </trkpt>
      <trkpt lat="50.393278" lon="8.039649">
        <ele>108.059343</ele>
        <time>2023-01-09T08:23:39.037Z</time>
      </trkpt>
      <trkpt lat="50.393160" lon="8.039968">
        <ele>108.060404</ele>
        <time>2023-01-09T08:23:57.986Z</time>
      </trkpt>
      <trkpt lat="50.392908" lon="8.040648">
        <ele>108.062667</ele>
        <time>2023-01-09T08:24:38.298Z</time>
      </trkpt>
      <trkpt lat="50.392861" lon="8.040605">
        <ele>108.062913</ele>
        <time>2023-01-09T08:24:42.728Z</time>
      </trkpt>
      <trkpt lat="50.391655" lon="8.039498">
        <ele>108.052332</ele>
        <time>2023-01-09T08:26:34.979Z</time>
      </trkpt>
      <trkpt lat="50.390876" lon="8.037715">
        <ele>108.000692</ele>
        <time>2023-01-09T08:28:25.377Z</time>
      </trkpt>
      <trkpt lat="50.390562" lon="8.037007">
        <ele>107.971251</ele>
        <time>2023-01-09T08:29:09.445Z</time>
      </trkpt>
      <trkpt lat="50.390203" lon="8.036196">
        <ele>107.937197</ele>
        <time>2023-01-09T08:29:59.912Z</time>
      </trkpt>
      <trkpt lat="50.389698" lon="8.035058">
        <ele>107.862473</ele>
        <time>2023-01-09T08:31:10.743Z</time>
      </trkpt>
      <trkpt lat="50.389007" lon="8.033976">
        <ele>107.703002</ele>
        <time>2023-01-09T08:32:29.582Z</time>
      </trkpt>
      <trkpt lat="50.387031" lon="8.032067">
        <ele>107.637926</ele>
        <time>2023-01-09T08:35:35.483Z</time>
      </trkpt>
      <trkpt lat="50.386542" lon="8.031595">
        <ele>107.676211</ele>
        <time>2023-01-09T08:36:21.776Z</time>
      </trkpt>
      <trkpt lat="50.386380" lon="8.031405">
        <ele>107.690746</ele>
        <time>2023-01-09T08:36:38.054Z</time>
      </trkpt>
      <trkpt lat="50.386021" lon="8.030892">
        <ele>107.725644</ele>
        <time>2023-01-09T08:37:17.126Z</time>
      </trkpt>
      <trkpt lat="50.385762" lon="8.030476">
        <ele>107.752282</ele>
        <time>2023-01-09T08:37:46.862Z</time>
      </trkpt>
      <trkpt lat="50.385600" lon="8.030026">
        <ele>107.756477</ele>
        <time>2023-01-09T08:38:13.263Z</time>
      </trkpt>
      <trkpt lat="50.385314" lon="8.029152">
        <ele>107.690461</ele>
        <time>2023-01-09T08:39:03.611Z</time>
      </trkpt>
      <trkpt lat="50.385169" lon="8.028641">
        <ele>107.652874</ele>
        <time>2023-01-09T08:39:32.205Z</time>
      </trkpt>
      <trkpt lat="50.385067" lon="8.028182">
        <ele>107.620209</ele>
        <time>2023-01-09T08:39:57.113Z</time>
      </trkpt>
      <trkpt lat="50.384974" lon="8.027524">
        <ele>107.578426</ele>
        <time>2023-01-09T08:40:31.594Z</time>
      </trkpt>
      <trkpt lat="50.384951" lon="8.027118">
        <ele>107.577896</ele>
        <time>2023-01-09T08:40:52.448Z</time>
      </trkpt>
      <trkpt lat="50.384926" lon="8.025570">
        <ele>107.575884</ele>
        <time>2023-01-09T08:42:11.615Z</time>
      </trkpt>
      <trkpt lat="50.384534" lon="8.025587">
        <ele>107.575084</ele>
        <time>2023-01-09T08:42:43.143Z</time>
      </trkpt>
      <trkpt lat="50.384926" lon="8.025570">
        <ele>107.628075</ele>
        <time>2023-01-09T08:43:14.736Z</time>
      </trkpt>
      <trkpt lat="50.385081" lon="8.024382">
        <ele>107.782341</ele>
        <time>2023-01-09T08:44:17.274Z</time>
      </trkpt>
      <trkpt lat="50.385694" lon="8.021901">
        <ele>108.043497</ele>
        <time>2023-01-09T08:46:34.039Z</time>
      </trkpt>
      <trkpt lat="50.385739" lon="8.021442">
        <ele>108.078161</ele>
        <time>2023-01-09T08:46:57.716Z</time>
      </trkpt>
      <trkpt lat="50.385681" lon="8.020447">
        <ele>108.210916</ele>
        <time>2023-01-09T08:47:48.797Z</time>
      </trkpt>
      <trkpt lat="50.385426" lon="8.019163">
        <ele>108.999236</ele>
        <time>2023-01-09T08:48:57.778Z</time>
      </trkpt>
      <trkpt lat="50.384701" lon="8.017243">
        <ele>112.160901</ele>
        <time>2023-01-09T08:50:58.249Z</time>
      </trkpt>
      <trkpt lat="50.384297" lon="8.017307">
        <ele>113.892400</ele>
        <time>2023-01-09T08:51:35.785Z</time>
      </trkpt>
      <trkpt lat="50.384264" lon="8.017043">
        <ele>114.623878</ele>
        <time>2023-01-09T08:51:51.825Z</time>
      </trkpt>
      <trkpt lat="50.384144" lon="8.016081">
        <ele>117.289140</ele>
        <time>2023-01-09T08:52:53.138Z</time>
      </trkpt>
      <trkpt lat="50.383981" lon="8.014772">
        <ele>122.047142</ele>
        <time>2023-01-09T08:54:15.169Z</time>
      </trkpt>
      <trkpt lat="50.383966" lon="8.014645">
        <ele>122.513586</ele>
        <time>2023-01-09T08:54:23.311Z</time>
      </trkpt>
      <trkpt lat="50.383960" lon="8.014601">
        <ele>122.676079</ele>
        <time>2023-01-09T08:54:26.151Z</time>
      </trkpt>
      <trkpt lat="50.383949" lon="8.014502">
        <ele>123.038991</ele>
        <time>2023-01-09T08:54:32.487Z</time>
      </trkpt>
      <trkpt lat="50.383891" lon="8.014609">
        <ele>123.546162</ele>
        <time>2023-01-09T08:54:41.261Z</time>
      </trkpt>
      <trkpt lat="50.383783" lon="8.014642">
        <ele>124.169336</ele>
        <time>2023-01-09T08:54:51.420Z</time>
      </trkpt>
      <trkpt lat="50.383642" lon="8.015031">
        <ele>125.785273</ele>
        <time>2023-01-09T08:55:18.366Z</time>
      </trkpt>
      <trkpt lat="50.383583" lon="8.015132">
        <ele>126.279946</ele>
        <time>2023-01-09T08:55:26.391Z</time>
      </trkpt>
      <trkpt lat="50.383044" lon="8.015881">
        <ele>129.500470</ele>
        <time>2023-01-09T08:56:33.504Z</time>
      </trkpt>
      <trkpt lat="50.382943" lon="8.016022">
        <ele>130.023278</ele>
        <time>2023-01-09T08:56:46.498Z</time>
      </trkpt>
      <trkpt lat="50.382824" lon="8.016241">
        <ele>130.732642</ele>
        <time>2023-01-09T08:57:03.639Z</time>
      </trkpt>
      <trkpt lat="50.382586" lon="8.016532">
        <ele>131.899452</ele>
        <time>2023-01-09T08:57:30.435Z</time>
      </trkpt>
      <trkpt lat="50.382031" lon="8.016687">
        <ele>134.079026</ele>
        <time>2023-01-09T08:58:20.099Z</time>
      </trkpt>
      <trkpt lat="50.381864" lon="8.016819">
        <ele>134.731966</ele>
        <time>2023-01-09T08:58:37.095Z</time>
      </trkpt>
      <trkpt lat="50.381817" lon="8.016856">
        <ele>134.861629</ele>
        <time>2023-01-09T08:58:41.444Z</time>
      </trkpt>
      <trkpt lat="50.381639" lon="8.016929">
        <ele>135.315259</ele>
        <time>2023-01-09T08:58:57.583Z</time>
      </trkpt>
      <trkpt lat="50.381513" lon="8.016936">
        <ele>135.626115</ele>
        <time>2023-01-09T08:59:09.345Z</time>
      </trkpt>
      <trkpt lat="50.381442" lon="8.017115">
        <ele>135.957546</ele>
        <time>2023-01-09T08:59:20.845Z</time>
      </trkpt>
      <trkpt lat="50.381428" lon="8.017240">
        <ele>136.157082</ele>
        <time>2023-01-09T08:59:28.075Z</time>
      </trkpt>
      <trkpt lat="50.381142" lon="8.017254">
        <ele>136.862577</ele>
        <time>2023-01-09T08:59:53.738Z</time>
      </trkpt>
      <trkpt lat="50.380942" lon="8.017343">
        <ele>137.375160</ele>
        <time>2023-01-09T09:00:13.267Z</time>
      </trkpt>
      <trkpt lat="50.380856" lon="8.017336">
        <ele>137.587484</ele>
        <time>2023-01-09T09:00:21.089Z</time>
      </trkpt>
      <trkpt lat="50.380751" lon="8.017620">
        <ele>138.103623</ele>
        <time>2023-01-09T09:00:39.092Z</time>
      </trkpt>
      <trkpt lat="50.380559" lon="8.017748">
        <ele>138.618014</ele>
        <time>2023-01-09T09:00:57.408Z</time>
      </trkpt>
      <trkpt lat="50.380182" lon="8.017605">
        <ele>138.552596</ele>
        <time>2023-01-09T09:01:28.726Z</time>
      </trkpt>
      <trkpt lat="50.380003" lon="8.017463">
        <ele>138.095700</ele>
        <time>2023-01-09T09:01:45.552Z</time>
      </trkpt>
      <trkpt lat="50.379752" lon="8.017264">
        <ele>137.455100</ele>
        <time>2023-01-09T09:02:09.490Z</time>
      </trkpt>
      <trkpt lat="50.379549" lon="8.017312">
        <ele>136.987513</ele>
        <time>2023-01-09T09:02:26.684Z</time>
      </trkpt>
      <trkpt lat="50.378716" lon="8.018399">
        <ele>134.333757</ele>
        <time>2023-01-09T09:03:59.128Z</time>
      </trkpt>
      <trkpt lat="50.378556" lon="8.018719">
        <ele>133.486757</ele>
        <time>2023-01-09T09:04:21.611Z</time>
      </trkpt>
      <trkpt lat="50.378473" lon="8.018883">
        <ele>133.050645</ele>
        <time>2023-01-09T09:04:33.223Z</time>
      </trkpt>
      <trkpt lat="50.377745" lon="8.020645">
        <ele>129.055097</ele>
        <time>2023-01-09T09:06:28.191Z</time>
      </trkpt>
      <trkpt lat="50.377465" lon="8.021171">
        <ele>128.995242</ele>
        <time>2023-01-09T09:07:03.595Z</time>
      </trkpt>
      <trkpt lat="50.377297" lon="8.021368">
        <ele>128.966505</ele>
        <time>2023-01-09T09:07:21.343Z</time>
      </trkpt>
      <trkpt lat="50.377144" lon="8.021476">
        <ele>128.943521</ele>
        <time>2023-01-09T09:07:34.953Z</time>
      </trkpt>
      <trkpt lat="50.376982" lon="8.021534">
        <ele>128.920758</ele>
        <time>2023-01-09T09:07:49.182Z</time>
      </trkpt>
      <trkpt lat="50.376192" lon="8.021535">
        <ele>128.809659</ele>
        <time>2023-01-09T09:08:54.131Z</time>
      </trkpt>
      <trkpt lat="50.376029" lon="8.021605">
        <ele>128.781256</ele>
        <time>2023-01-09T09:09:07.779Z</time>
      </trkpt>
      <trkpt lat="50.375893" lon="8.021758">
        <ele>128.753125</ele>
        <time>2023-01-09T09:09:21.945Z</time>
      </trkpt>
      <trkpt lat="50.375562" lon="8.022811">
        <ele>128.627297</ele>
        <time>2023-01-09T09:10:21.991Z</time>
      </trkpt>
      <trkpt lat="50.375359" lon="8.023940">
        <ele>128.254158</ele>
        <time>2023-01-09T09:11:22.728Z</time>
      </trkpt>
      <trkpt lat="50.375223" lon="8.024685">
        <ele>127.210210</ele>
        <time>2023-01-09T09:12:03.594Z</time>
      </trkpt>
      <trkpt lat="50.374765" lon="8.027181">
        <ele>123.050228</ele>
        <time>2023-01-09T09:14:23.411Z</time>
      </trkpt>
      <trkpt lat="50.374657" lon="8.027437">
        <ele>122.366720</ele>
        <time>2023-01-09T09:14:40.173Z</time>
      </trkpt>
      <trkpt lat="50.375766" lon="8.027959">
        <ele>118.333616</ele>
        <time>2023-01-09T09:16:20.248Z</time>
      </trkpt>
      <trkpt lat="50.376458" lon="8.028305">
        <ele>116.006099</ele>
        <time>2023-01-09T09:17:23.041Z</time>
      </trkpt>
      <trkpt lat="50.377215" lon="8.028669">
        <ele>113.468805</ele>
        <time>2023-01-09T09:18:30.480Z</time>
      </trkpt>
      <trkpt lat="50.377461" lon="8.028787">
        <ele>112.664133</ele>
        <time>2023-01-09T09:18:52.036Z</time>
      </trkpt>
      <trkpt lat="50.378037" lon="8.029064">
        <ele>111.814192</ele>
        <time>2023-01-09T09:19:42.033Z</time>
      </trkpt>
      <trkpt lat="50.378487" lon="8.029273">
        <ele>111.152099</ele>
        <time>2023-01-09T09:20:20.581Z</time>
      </trkpt>
      <trkpt lat="50.379166" lon="8.029747">
        <ele>110.131849</ele>
        <time>2023-01-09T09:21:21.343Z</time>
      </trkpt>
      <trkpt lat="50.379818" lon="8.030180">
        <ele>109.864111</ele>
        <time>2023-01-09T09:22:18.755Z</time>
      </trkpt>
      <trkpt lat="50.380285" lon="8.030490">
        <ele>109.672354</ele>
        <time>2023-01-09T09:22:59.400Z</time>
      </trkpt>
      <trkpt lat="50.381621" lon="8.030859">
        <ele>109.230726</ele>
        <time>2023-01-09T09:24:48.294Z</time>
      </trkpt>
      <trkpt lat="50.383010" lon="8.030869">
        <ele>108.761938</ele>
        <time>2023-01-09T09:26:40.466Z</time>
      </trkpt>
      <trkpt lat="50.383882" lon="8.030925">
        <ele>108.359355</ele>
        <time>2023-01-09T09:27:51.519Z</time>
      </trkpt>
      <trkpt lat="50.383899" lon="8.031205">
        <ele>108.276624</ele>
        <time>2023-01-09T09:28:06.193Z</time>
      </trkpt>
      <trkpt lat="50.383882" lon="8.030925">
        <ele>108.193893</ele>
        <time>2023-01-09T09:28:21.026Z</time>
      </trkpt>
      <trkpt lat="50.385136" lon="8.030983">
        <ele>108.524035</ele>
        <time>2023-01-09T09:30:02.483Z</time>
      </trkpt>
      <trkpt lat="50.385084" lon="8.032274">
        <ele>108.864212</ele>
        <time>2023-01-09T09:31:10.009Z</time>
      </trkpt>
      <trkpt lat="50.384996" lon="8.033593">
        <ele>109.392594</ele>
        <time>2023-01-09T09:32:20.077Z</time>
      </trkpt>
      <trkpt lat="50.385019" lon="8.034281">
        <ele>109.667083</ele>
        <time>2023-01-09T09:32:56.202Z</time>
      </trkpt>
      <trkpt lat="50.386392" lon="8.034592">
        <ele>110.101816</ele>
        <time>2023-01-09T09:34:47.903Z</time>
      </trkpt>
      <trkpt lat="50.386888" lon="8.035115">
        <ele>110.211179</ele>
        <time>2023-01-09T09:35:35.996Z</time>
      </trkpt>
      <trkpt lat="50.388180" lon="8.036354">
        <ele>111.614690</ele>
        <time>2023-01-09T09:37:40.092Z</time>
      </trkpt>
      <trkpt lat="50.387545" lon="8.038144">
        <ele>114.170737</ele>
        <time>2023-01-09T09:39:32.659Z</time>
      </trkpt>
      <trkpt lat="50.387436" lon="8.038449">
        <ele>114.734747</ele>
        <time>2023-01-09T09:39:51.675Z</time>
      </trkpt>
      <trkpt lat="50.387243" lon="8.038994">
        <ele>115.740389</ele>
        <time>2023-01-09T09:40:25.921Z</time>
      </trkpt>
      <trkpt lat="50.387186" lon="8.039155">
        <ele>116.037451</ele>
        <time>2023-01-09T09:40:36.609Z</time>
      </trkpt>
      <trkpt lat="50.387189" lon="8.039243">
        <ele>116.179607</ele>
        <time>2023-01-09T09:40:41.671Z</time>
      </trkpt>
      <trkpt lat="50.387240" lon="8.039346">
        <ele>116.389974</ele>
        <time>2023-01-09T09:40:49.320Z</time>
      </trkpt>
      <trkpt lat="50.387928" lon="8.040374">
        <ele>119.427978</ele>
        <time>2023-01-09T09:42:15.863Z</time>
      </trkpt>
      <trkpt lat="50.387993" lon="8.040472">
        <ele>119.725162</ele>
        <time>2023-01-09T09:42:24.760Z</time>
      </trkpt>
      <trkpt lat="50.387988" lon="8.040589">
        <ele>119.971596</ele>
        <time>2023-01-09T09:42:31.470Z</time>
      </trkpt>
      <trkpt lat="50.387872" lon="8.040735">
        <ele>120.461835</ele>
        <time>2023-01-09T09:42:43.867Z</time>
      </trkpt>
      <trkpt lat="50.387705" lon="8.040944">
        <ele>121.166049</ele>
        <time>2023-01-09T09:43:03.290Z</time>
      </trkpt>
      <trkpt lat="50.387519" lon="8.041289">
        <ele>122.115549</ele>
        <time>2023-01-09T09:43:28.128Z</time>
      </trkpt>
      <trkpt lat="50.387356" lon="8.041640">
        <ele>122.894777</ele>
        <time>2023-01-09T09:43:51.108Z</time>
      </trkpt>
      <trkpt lat="50.387331" lon="8.041742">
        <ele>123.047664</ele>
        <time>2023-01-09T09:43:58.135Z</time>
      </trkpt>
      <trkpt lat="50.387133" lon="8.041390">
        <ele>123.704398</ele>
        <time>2023-01-09T09:44:23.639Z</time>
      </trkpt>
      <trkpt lat="50.386811" lon="8.041043">
        <ele>124.561679</ele>
        <time>2023-01-09T09:44:58.907Z</time>
      </trkpt>
      <trkpt lat="50.386265" lon="8.040453">
        <ele>126.016610</ele>
        <time>2023-01-09T09:45:54.647Z</time>
      </trkpt>
      <trkpt lat="50.386246" lon="8.041494">
        <ele>127.767770</ele>
        <time>2023-01-09T09:46:51.146Z</time>
      </trkpt>
      <trkpt lat="50.386159" lon="8.042624">
        <ele>129.881956</ele>
        <time>2023-01-09T09:47:54.909Z</time>
      </trkpt>
      <trkpt lat="50.386143" lon="8.042823">
        <ele>130.254520</ele>
        <time>2023-01-09T09:48:06.635Z</time>
      </trkpt>
      <trkpt lat="50.386021" lon="8.045062">
        <ele>134.266350</ele>
        <time>2023-01-09T09:50:16.512Z</time>
      </trkpt>
      <trkpt lat="50.385989" lon="8.045390">
        <ele>134.844428</ele>
        <time>2023-01-09T09:50:34.412Z</time>
      </trkpt>
      <trkpt lat="50.385987" lon="8.045408">
        <ele>134.876259</ele>
        <time>2023-01-09T09:50:35.459Z</time>
      </trkpt>
      <trkpt lat="50.386462" lon="8.045329">
        <ele>136.181386</ele>
        <time>2023-01-09T09:51:16.115Z</time>
      </trkpt>
      <trkpt lat="50.386941" lon="8.045250">
        <ele>137.222987</ele>
        <time>2023-01-09T09:51:57.136Z</time>
      </trkpt>
      <trkpt lat="50.386945" lon="8.045142">
        <ele>137.344044</ele>
        <time>2023-01-09T09:52:02.885Z</time>
      </trkpt>
      <trkpt lat="50.387010" lon="8.043641">
        <ele>139.027550</ele>
        <time>2023-01-09T09:53:25.154Z</time>
      </trkpt>
      <trkpt lat="50.387014" lon="8.043550">
        <ele>139.129622</ele>
        <time>2023-01-09T09:53:30.133Z</time>
      </trkpt>
      <trkpt lat="50.387256" lon="8.044027">
        <ele>139.811746</ele>
        <time>2023-01-09T09:54:02.426Z</time>
      </trkpt>
      <trkpt lat="50.388036" lon="8.045567">
        <ele>142.597805</ele>
        <time>2023-01-09T09:55:50.604Z</time>
      </trkpt>
      <trkpt lat="50.388263" lon="8.046015">
        <ele>143.414436</ele>
        <time>2023-01-09T09:56:22.696Z</time>
      </trkpt>
      <trkpt lat="50.388301" lon="8.046091">
        <ele>143.552266</ele>
        <time>2023-01-09T09:56:27.982Z</time>
      </trkpt>
      <trkpt lat="50.389184" lon="8.048236">
        <ele>147.013261</ele>
        <time>2023-01-09T09:58:49.877Z</time>
      </trkpt>
      <trkpt lat="50.389030" lon="8.048421">
        <ele>147.423287</ele>
        <time>2023-01-09T09:59:06.541Z</time>
      </trkpt>
      <trkpt lat="50.388879" lon="8.048662">
        <ele>147.727768</ele>
        <time>2023-01-09T09:59:23.816Z</time>
      </trkpt>
      <trkpt lat="50.388842" lon="8.048720">
        <ele>147.736645</ele>
        <time>2023-01-09T09:59:28.787Z</time>
      </trkpt>
      <trkpt lat="50.388581" lon="8.048344">
        <ele>147.796787</ele>
        <time>2023-01-09T09:59:57.200Z</time>
      </trkpt>
      <trkpt lat="50.388310" lon="8.048145">
        <ele>147.847569</ele>
        <time>2023-01-09T10:00:21.745Z</time>
      </trkpt>
      <trkpt lat="50.386951" lon="8.048233">
        <ele>148.944203</ele>
        <time>2023-01-09T10:02:10.889Z</time>
      </trkpt>
      <trkpt lat="50.386947" lon="8.048396">
        <ele>149.222818</ele>
        <time>2023-01-09T10:02:19.405Z</time>
      </trkpt>
      <trkpt lat="50.387099" lon="8.048542">
        <ele>149.700297</ele>
        <time>2023-01-09T10:02:35.026Z</time>
      </trkpt>
      <trkpt lat="50.387152" lon="8.048753">
        <ele>150.087649</ele>
        <time>2023-01-09T10:02:47.293Z</time>
      </trkpt>
      <trkpt lat="50.387156" lon="8.048989">
        <ele>150.490885</ele>
        <time>2023-01-09T10:03:00.784Z</time>
      </trkpt>
      <trkpt lat="50.387178" lon="8.049058">
        <ele>150.622653</ele>
        <time>2023-01-09T10:03:05.257Z</time>
      </trkpt>
      <trkpt lat="50.387241" lon="8.049251">
        <ele>150.992992</ele>
        <time>2023-01-09T10:03:17.271Z</time>
      </trkpt>
      <trkpt lat="50.387250" lon="8.049743">
        <ele>151.833684</ele>
        <time>2023-01-09T10:03:45.847Z</time>
      </trkpt>
      <trkpt lat="50.387286" lon="8.050161">
        <ele>152.554121</ele>
        <time>2023-01-09T10:04:11.380Z</time>
      </trkpt>
      <trkpt lat="50.387538" lon="8.049938">
        <ele>153.214459</ele>
        <time>2023-01-09T10:04:38.524Z</time>
      </trkpt>
      <trkpt lat="50.387804" lon="8.049790">
        <ele>153.793842</ele>
        <time>2023-01-09T10:05:05.202Z</time>
      </trkpt>
      <trkpt lat="50.388102" lon="8.049612">
        <ele>154.448435</ele>
        <time>2023-01-09T10:05:34.261Z</time>
      </trkpt>
      <trkpt lat="50.388557" lon="8.049636">
        <ele>155.382984</ele>
        <time>2023-01-09T10:06:15.933Z</time>
      </trkpt>
      <trkpt lat="50.388701" lon="8.049678">
        <ele>155.683654</ele>
        <time>2023-01-09T10:06:28.310Z</time>
      </trkpt>
      <trkpt lat="50.388731" lon="8.049921">
        <ele>156.007602</ele>
        <time>2023-01-09T10:06:41.045Z</time>
      </trkpt>
      <trkpt lat="50.388780" lon="8.050067">
        <ele>156.223546</ele>
        <time>2023-01-09T10:06:49.552Z</time>
      </trkpt>
      <trkpt lat="50.389032" lon="8.050419">
        <ele>154.839055</ele>
        <time>2023-01-09T10:07:18.659Z</time>
      </trkpt>
      <trkpt lat="50.389142" lon="8.050616">
        <ele>153.336860</ele>
        <time>2023-01-09T10:07:34.095Z</time>
      </trkpt>
      <trkpt lat="50.389279" lon="8.051458">
        <ele>148.351994</ele>
        <time>2023-01-09T10:08:26.105Z</time>
      </trkpt>
      <trkpt lat="50.389396" lon="8.052456">
        <ele>142.531087</ele>
        <time>2023-01-09T10:09:29.898Z</time>
      </trkpt>
      <trkpt lat="50.389518" lon="8.052537">
        <ele>141.339120</ele>
        <time>2023-01-09T10:09:43.213Z</time>
      </trkpt>
      <trkpt lat="50.389801" lon="8.052726">
        <ele>138.380511</ele>
        <time>2023-01-09T10:10:13.467Z</time>
      </trkpt>
      <trkpt lat="50.389959" lon="8.052831">
        <ele>136.670395</ele>
        <time>2023-01-09T10:10:30.753Z</time>
      </trkpt>
      <trkpt lat="50.390644" lon="8.053258">
        <ele>129.324393</ele>
        <time>2023-01-09T10:11:43.135Z</time>
      </trkpt>
      <trkpt lat="50.390620" lon="8.053358">
        <ele>128.645489</ele>
        <time>2023-01-09T10:11:49.466Z</time>
      </trkpt>
      <trkpt lat="50.390512" lon="8.053789">
        <ele>125.703094</ele>
        <time>2023-01-09T10:12:17.432Z</time>
      </trkpt>
      <trkpt lat="50.390437" lon="8.054088">
        <ele>123.661567</ele>
        <time>2023-01-09T10:12:35.787Z</time>
      </trkpt>
      <trkpt lat="50.390558" lon="8.054172">
        <ele>122.387146</ele>
        <time>2023-01-09T10:12:47.930Z</time>
      </trkpt>
      <trkpt lat="50.390349" lon="8.055062">
        <ele>119.720201</ele>
        <time>2023-01-09T10:13:40.996Z</time>
      </trkpt>
      <trkpt lat="50.390321" lon="8.055174">
        <ele>119.381922</ele>
        <time>2023-01-09T10:13:47.833Z</time>
      </trkpt>
      <trkpt lat="50.390625" lon="8.055379">
        <ele>117.922485</ele>
        <time>2023-01-09T10:14:16.197Z</time>
      </trkpt>
      <trkpt lat="50.390969" lon="8.055610">
        <ele>116.272097</ele>
        <time>2023-01-09T10:14:48.442Z</time>
      </trkpt>
      <trkpt lat="50.391456" lon="8.055894">
        <ele>114.237822</ele>
        <time>2023-01-09T10:15:33.198Z</time>
      </trkpt>
      <trkpt lat="50.391614" lon="8.055994">
        <ele>113.866229</ele>
        <time>2023-01-09T10:15:47.755Z</time>
      </trkpt>
      <trkpt lat="50.392324" lon="8.056442">
        <ele>112.197126</ele>
        <time>2023-01-09T10:16:52.954Z</time>
      </trkpt>
      <trkpt lat="50.393358" lon="8.057102">
        <ele>110.617182</ele>
        <time>2023-01-09T10:18:23.706Z</time>
      </trkpt>
      <trkpt lat="50.393671" lon="8.057302">
        <ele>110.663491</ele>
        <time>2023-01-09T10:18:51.210Z</time>
      </trkpt>
      <trkpt lat="50.393652" lon="8.057379">
        <ele>110.670704</ele>
        <time>2023-01-09T10:18:55.480Z</time>
      </trkpt>
      <trkpt lat="50.393641" lon="8.057426">
        <ele>110.675077</ele>
        <time>2023-01-09T10:18:58.097Z</time>
      </trkpt>
      <trkpt lat="50.393367" lon="8.057963">
        <ele>110.735159</ele>
        <time>2023-01-09T10:19:33.758Z</time>
      </trkpt>
      <trkpt lat="50.393233" lon="8.058261">
        <ele>110.767014</ele>
        <time>2023-01-09T10:19:52.628Z</time>
      </trkpt>
      <trkpt lat="50.393092" lon="8.058490">
        <ele>110.794824</ele>
        <time>2023-01-09T10:20:08.975Z</time>
      </trkpt>
      <trkpt lat="50.393028" lon="8.058594">
        <ele>110.807451</ele>
        <time>2023-01-09T10:20:16.613Z</time>
      </trkpt>
      <trkpt lat="50.392771" lon="8.059008">
        <ele>111.014830</ele>
        <time>2023-01-09T10:20:46.553Z</time>
      </trkpt>
      <trkpt lat="50.392648" lon="8.059206">
        <ele>111.123517</ele>
        <time>2023-01-09T10:21:00.874Z</time>
      </trkpt>
      <trkpt lat="50.392691" lon="8.059301">
        <ele>111.169322</ele>
        <time>2023-01-09T10:21:06.894Z</time>
      </trkpt>
      <trkpt lat="50.392336" lon="8.059885">
        <ele>111.486562</ele>
        <time>2023-01-09T10:21:49.271Z</time>
      </trkpt>
      <trkpt lat="50.391679" lon="8.060956">
        <ele>112.358705</ele>
        <time>2023-01-09T10:23:06.745Z</time>
      </trkpt>
      <trkpt lat="50.391361" lon="8.061462">
        <ele>113.179041</ele>
        <time>2023-01-09T10:23:44.099Z</time>
      </trkpt>
      <trkpt lat="50.390825" lon="8.062309">
        <ele>114.556925</ele>
        <time>2023-01-09T10:24:48.949Z</time>
      </trkpt>
      <trkpt lat="50.390657" lon="8.062287">
        <ele>114.862227</ele>
        <time>2023-01-09T10:25:03.704Z</time>
      </trkpt>
      <trkpt lat="50.390590" lon="8.062405">
        <ele>115.044666</ele>
        <time>2023-01-09T10:25:12.486Z</time>
      </trkpt>
      <trkpt lat="50.390363" lon="8.063047">
        <ele>116.495007</ele>
        <time>2023-01-09T10:25:55.235Z</time>
      </trkpt>
      <trkpt lat="50.390224" lon="8.063034">
        <ele>116.960445</ele>
        <time>2023-01-09T10:26:08.472Z</time>
      </trkpt>
      <trkpt lat="50.390209" lon="8.063513">
        <ele>117.982451</ele>
        <time>2023-01-09T10:26:36.401Z</time>
      </trkpt>
      <trkpt lat="50.390192" lon="8.063963">
        <ele>118.943107</ele>
        <time>2023-01-09T10:27:02.101Z</time>
      </trkpt>
      <trkpt lat="50.390174" lon="8.064279">
        <ele>119.619203</ele>
        <time>2023-01-09T10:27:20.286Z</time>
      </trkpt>
      <trkpt lat="50.389954" lon="8.064376">
        <ele>120.383063</ele>
        <time>2023-01-09T10:27:40.669Z</time>
      </trkpt>
      <trkpt lat="50.389892" lon="8.064382">
        <ele>120.590694</ele>
        <time>2023-01-09T10:27:46.149Z</time>
      </trkpt>
      <trkpt lat="50.389725" lon="8.064445">
        <ele>121.164817</ele>
        <time>2023-01-09T10:28:00.761Z</time>
      </trkpt>
      <trkpt lat="50.389568" lon="8.064558">
        <ele>121.191620</ele>
        <time>2023-01-09T10:28:16.277Z</time>
      </trkpt>
      <trkpt lat="50.389479" lon="8.064454">
        <ele>121.191620</ele>
        <time>2023-01-09T10:28:25.498Z</time>
      </trkpt>
      <trkpt lat="50.389469" lon="8.064390">
        <ele>121.191620</ele>
        <time>2023-01-09T10:28:29.080Z</time>
      </trkpt>
      <trkpt lat="50.389433" lon="8.064385">
        <ele>121.191620</ele>
        <time>2023-01-09T10:28:32.243Z</time>
      </trkpt>
      <trkpt lat="50.389335" lon="8.064373">
        <ele>121.191620</ele>
        <time>2023-01-09T10:28:40.974Z</time>
      </trkpt>
      <trkpt lat="50.389233" lon="8.064141">
        <ele>121.191620</ele>
        <time>2023-01-09T10:28:56.003Z</time>
      </trkpt>
      <trkpt lat="50.389179" lon="8.064082">
        <ele>121.191620</ele>
        <time>2023-01-09T10:29:01.558Z</time>
      </trkpt>
      <trkpt lat="50.388943" lon="8.064003">
        <ele>121.191620</ele>
        <time>2023-01-09T10:29:22.147Z</time>
      </trkpt>
      <trkpt lat="50.388909" lon="8.063971">
        <ele>121.191620</ele>
        <time>2023-01-09T10:29:25.367Z</time>
      </trkpt>
      <trkpt lat="50.388732" lon="8.063836">
        <ele>121.191620</ele>
        <time>2023-01-09T10:29:42.104Z</time>
      </trkpt>
      <trkpt lat="50.388658" lon="8.063797">
        <ele>121.191620</ele>
        <time>2023-01-09T10:29:48.697Z</time>
      </trkpt>
      <trkpt lat="50.388484" lon="8.063825">
        <ele>121.191620</ele>
        <time>2023-01-09T10:30:02.790Z</time>
      </trkpt>
      <trkpt lat="50.388188" lon="8.064349">
        <ele>121.191620</ele>
        <time>2023-01-09T10:30:38.975Z</time>
      </trkpt>
      <trkpt lat="50.388023" lon="8.064707">
        <ele>121.191620</ele>
        <time>2023-01-09T10:31:02.183Z</time>
      </trkpt>
      <trkpt lat="50.387995" lon="8.064797">
        <ele>121.191620</ele>
        <time>2023-01-09T10:31:07.337Z</time>
      </trkpt>
      <trkpt lat="50.387900" lon="8.065028">
        <ele>121.191620</ele>
        <time>2023-01-09T10:31:21.592Z</time>
      </trkpt>
      <trkpt lat="50.387864" lon="8.065115">
        <ele>121.191620</ele>
        <time>2023-01-09T10:31:27.010Z</time>
      </trkpt>
    </trkseg>
  </trk>
</gpx>