<?xml version='1.0' encoding='UTF-8'?>
<gpx version="1.1" creator="https://www.komoot.de" xmlns="http://www.topografix.com/GPX/1/1" xmlns:xsi="http://www.w3.org/2001/XMLSchema-instance" xsi:schemaLocation="http://www.topografix.com/GPX/1/1 http://www.topografix.com/GPX/1/1/gpx.xsd">
  <metadata>
    <name>DVV PW Greifenstein Dreiburgenwanderweg am 07.09.2021</name>
    <author>
      <link href="https://www.komoot.de">
        <text>komoot</text>
        <type>text/html</type>
      </link>
    </author>
  </metadata>
  <trk>
    <name>DVV PW Greifenstein Dreiburgenwanderweg am 07.09.2021</name>
    <trkseg>
      <trkpt lat="50.609942" lon="8.236078">
        <ele>382.273063</ele>
        <time>2022-11-01T07:21:14.907Z</time>
      </trkpt>
      <trkpt lat="50.609779" lon="8.236453">
        <ele>382.273063</ele>
        <time>2022-11-01T07:21:45.791Z</time>
      </trkpt>
      <trkpt lat="50.609676" lon="8.236875">
        <ele>382.273063</ele>
        <time>2022-11-01T07:22:17.005Z</time>
      </trkpt>
      <trkpt lat="50.609605" lon="8.237594">
        <ele>381.518991</ele>
        <time>2022-11-01T07:23:07.549Z</time>
      </trkpt>
      <trkpt lat="50.608782" lon="8.237481">
        <ele>376.998882</ele>
        <time>2022-11-01T07:24:39.883Z</time>
      </trkpt>
      <trkpt lat="50.608744" lon="8.237659">
        <ele>376.346781</ele>
        <time>2022-11-01T07:24:53.289Z</time>
      </trkpt>
      <trkpt lat="50.608636" lon="8.238168">
        <ele>374.483215</ele>
        <time>2022-11-01T07:25:31.523Z</time>
      </trkpt>
      <trkpt lat="50.608664" lon="8.238670">
        <ele>372.733405</ele>
        <time>2022-11-01T07:26:07.294Z</time>
      </trkpt>
      <trkpt lat="50.608815" lon="8.239399">
        <ele>370.956728</ele>
        <time>2022-11-01T07:27:00.913Z</time>
      </trkpt>
      <trkpt lat="50.609009" lon="8.239946">
        <ele>369.597423</ele>
        <time>2022-11-01T07:27:43.307Z</time>
      </trkpt>
      <trkpt lat="50.609004" lon="8.240312">
        <ele>368.803298</ele>
        <time>2022-11-01T07:28:07.908Z</time>
      </trkpt>
      <trkpt lat="50.609101" lon="8.240541">
        <ele>368.206052</ele>
        <time>2022-11-01T07:28:26.624Z</time>
      </trkpt>
      <trkpt lat="50.609176" lon="8.241519">
        <ele>366.145902</ele>
        <time>2022-11-01T07:29:32.333Z</time>
      </trkpt>
      <trkpt lat="50.609227" lon="8.241595">
        <ele>365.991864</ele>
        <time>2022-11-01T07:29:39.667Z</time>
      </trkpt>
      <trkpt lat="50.609473" lon="8.241639">
        <ele>365.448556</ele>
        <time>2022-11-01T07:30:05.033Z</time>
      </trkpt>
      <trkpt lat="50.609490" lon="8.242215">
        <ele>364.645540</ele>
        <time>2022-11-01T07:30:43.000Z</time>
      </trkpt>
      <trkpt lat="50.609594" lon="8.242546">
        <ele>364.131179</ele>
        <time>2022-11-01T07:31:07.476Z</time>
      </trkpt>
      <trkpt lat="50.609868" lon="8.242831">
        <ele>363.410713</ele>
        <time>2022-11-01T07:31:42.031Z</time>
      </trkpt>
      <trkpt lat="50.610064" lon="8.243237">
        <ele>362.700308</ele>
        <time>2022-11-01T07:32:16.104Z</time>
      </trkpt>
      <trkpt lat="50.610135" lon="8.243252">
        <ele>362.543106</ele>
        <time>2022-11-01T07:32:23.617Z</time>
      </trkpt>
      <trkpt lat="50.610304" lon="8.243971">
        <ele>361.889163</ele>
        <time>2022-11-01T07:33:15.296Z</time>
      </trkpt>
      <trkpt lat="50.610865" lon="8.246361">
        <ele>360.994453</ele>
        <time>2022-11-01T07:36:00.196Z</time>
      </trkpt>
      <trkpt lat="50.610959" lon="8.246360">
        <ele>361.310211</ele>
        <time>2022-11-01T07:36:11.214Z</time>
      </trkpt>
      <trkpt lat="50.611192" lon="8.246649">
        <ele>362.306226</ele>
        <time>2022-11-01T07:36:42.731Z</time>
      </trkpt>
      <trkpt lat="50.611438" lon="8.246802">
        <ele>363.194581</ele>
        <time>2022-11-01T07:37:11.742Z</time>
      </trkpt>
      <trkpt lat="50.612068" lon="8.246764">
        <ele>365.312332</ele>
        <time>2022-11-01T07:38:24.750Z</time>
      </trkpt>
      <trkpt lat="50.612351" lon="8.246832">
        <ele>366.273929</ele>
        <time>2022-11-01T07:39:00.396Z</time>
      </trkpt>
      <trkpt lat="50.612486" lon="8.247039">
        <ele>367.256870</ele>
        <time>2022-11-01T07:39:22.785Z</time>
      </trkpt>
      <trkpt lat="50.612586" lon="8.247313">
        <ele>368.338293</ele>
        <time>2022-11-01T07:39:47.041Z</time>
      </trkpt>
      <trkpt lat="50.612788" lon="8.248316">
        <ele>371.938521</ele>
        <time>2022-11-01T07:41:07.944Z</time>
      </trkpt>
      <trkpt lat="50.613065" lon="8.248596">
        <ele>373.712817</ele>
        <time>2022-11-01T07:41:47.571Z</time>
      </trkpt>
      <trkpt lat="50.613133" lon="8.248779">
        <ele>374.438354</ele>
        <time>2022-11-01T07:42:03.115Z</time>
      </trkpt>
      <trkpt lat="50.613199" lon="8.249359">
        <ele>376.487145</ele>
        <time>2022-11-01T07:42:44.261Z</time>
      </trkpt>
      <trkpt lat="50.613216" lon="8.249820">
        <ele>378.187849</ele>
        <time>2022-11-01T07:43:17.774Z</time>
      </trkpt>
      <trkpt lat="50.613064" lon="8.250643">
        <ele>381.344698</ele>
        <time>2022-11-01T07:44:21.756Z</time>
      </trkpt>
      <trkpt lat="50.612942" lon="8.251339">
        <ele>384.004044</ele>
        <time>2022-11-01T07:45:17.302Z</time>
      </trkpt>
      <trkpt lat="50.612900" lon="8.251533">
        <ele>384.758980</ele>
        <time>2022-11-01T07:45:33.248Z</time>
      </trkpt>
      <trkpt lat="50.613320" lon="8.251450">
        <ele>387.325242</ele>
        <time>2022-11-01T07:46:28.450Z</time>
      </trkpt>
      <trkpt lat="50.613318" lon="8.251800">
        <ele>388.802242</ele>
        <time>2022-11-01T07:46:56.236Z</time>
      </trkpt>
      <trkpt lat="50.614584" lon="8.251898">
        <ele>397.231420</ele>
        <time>2022-11-01T07:49:34.081Z</time>
      </trkpt>
      <trkpt lat="50.614497" lon="8.252429">
        <ele>398.502519</ele>
        <time>2022-11-01T07:50:14.383Z</time>
      </trkpt>
      <trkpt lat="50.614504" lon="8.253083">
        <ele>398.691459</ele>
        <time>2022-11-01T07:51:00.018Z</time>
      </trkpt>
      <trkpt lat="50.614558" lon="8.253813">
        <ele>398.903753</ele>
        <time>2022-11-01T07:51:46.812Z</time>
      </trkpt>
      <trkpt lat="50.614674" lon="8.254446">
        <ele>399.094072</ele>
        <time>2022-11-01T07:52:31.077Z</time>
      </trkpt>
      <trkpt lat="50.614946" lon="8.255068">
        <ele>399.209927</ele>
        <time>2022-11-01T07:53:21.482Z</time>
      </trkpt>
      <trkpt lat="50.615249" lon="8.255622">
        <ele>399.101389</ele>
        <time>2022-11-01T07:54:09.026Z</time>
      </trkpt>
      <trkpt lat="50.615409" lon="8.255916">
        <ele>399.043911</ele>
        <time>2022-11-01T07:54:34.139Z</time>
      </trkpt>
      <trkpt lat="50.616471" lon="8.257353">
        <ele>398.865679</ele>
        <time>2022-11-01T07:56:59.352Z</time>
      </trkpt>
      <trkpt lat="50.616880" lon="8.258287">
        <ele>398.930980</ele>
        <time>2022-11-01T07:58:13.095Z</time>
      </trkpt>
      <trkpt lat="50.616927" lon="8.258726">
        <ele>398.956597</ele>
        <time>2022-11-01T07:58:41.526Z</time>
      </trkpt>
      <trkpt lat="50.616914" lon="8.258995">
        <ele>398.972121</ele>
        <time>2022-11-01T07:58:58.829Z</time>
      </trkpt>
      <trkpt lat="50.616839" lon="8.259220">
        <ele>398.986746</ele>
        <time>2022-11-01T07:59:15.750Z</time>
      </trkpt>
      <trkpt lat="50.616750" lon="8.259317">
        <ele>398.897507</ele>
        <time>2022-11-01T07:59:27.222Z</time>
      </trkpt>
      <trkpt lat="50.616192" lon="8.259488">
        <ele>398.407723</ele>
        <time>2022-11-01T08:00:26.523Z</time>
      </trkpt>
      <trkpt lat="50.615920" lon="8.259724">
        <ele>398.140195</ele>
        <time>2022-11-01T08:00:59.100Z</time>
      </trkpt>
      <trkpt lat="50.615716" lon="8.260025">
        <ele>397.899416</ele>
        <time>2022-11-01T08:01:27.923Z</time>
      </trkpt>
      <trkpt lat="50.615527" lon="8.260637">
        <ele>397.527305</ele>
        <time>2022-11-01T08:02:11.271Z</time>
      </trkpt>
      <trkpt lat="50.615489" lon="8.261235">
        <ele>398.857146</ele>
        <time>2022-11-01T08:02:51.789Z</time>
      </trkpt>
      <trkpt lat="50.615559" lon="8.261806">
        <ele>400.748593</ele>
        <time>2022-11-01T08:03:33.599Z</time>
      </trkpt>
      <trkpt lat="50.615805" lon="8.262446">
        <ele>403.182236</ele>
        <time>2022-11-01T08:04:29.633Z</time>
      </trkpt>
      <trkpt lat="50.615886" lon="8.262610">
        <ele>403.858162</ele>
        <time>2022-11-01T08:04:46.689Z</time>
      </trkpt>
      <trkpt lat="50.616070" lon="8.262793">
        <ele>404.973389</ele>
        <time>2022-11-01T08:05:13.680Z</time>
      </trkpt>
      <trkpt lat="50.616321" lon="8.262868">
        <ele>406.282862</ele>
        <time>2022-11-01T08:05:46.800Z</time>
      </trkpt>
      <trkpt lat="50.616733" lon="8.262844">
        <ele>409.468594</ele>
        <time>2022-11-01T08:06:39.121Z</time>
      </trkpt>
      <trkpt lat="50.617520" lon="8.262965">
        <ele>416.020795</ele>
        <time>2022-11-01T08:08:20.850Z</time>
      </trkpt>
      <trkpt lat="50.617724" lon="8.263072">
        <ele>417.802333</ele>
        <time>2022-11-01T08:08:47.614Z</time>
      </trkpt>
      <trkpt lat="50.617901" lon="8.263319">
        <ele>419.761278</ele>
        <time>2022-11-01T08:09:17.634Z</time>
      </trkpt>
      <trkpt lat="50.618207" lon="8.263544">
        <ele>422.771150</ele>
        <time>2022-11-01T08:10:01.146Z</time>
      </trkpt>
      <trkpt lat="50.619357" lon="8.263254">
        <ele>434.469559</ele>
        <time>2022-11-01T08:12:35.522Z</time>
      </trkpt>
      <trkpt lat="50.620031" lon="8.263158">
        <ele>441.311576</ele>
        <time>2022-11-01T08:14:10.142Z</time>
      </trkpt>
      <trkpt lat="50.620746" lon="8.262911">
        <ele>448.862500</ele>
        <time>2022-11-01T08:15:54.046Z</time>
      </trkpt>
      <trkpt lat="50.622263" lon="8.262157">
        <ele>462.261158</ele>
        <time>2022-11-01T08:19:21.724Z</time>
      </trkpt>
      <trkpt lat="50.622910" lon="8.262662">
        <ele>466.546560</ele>
        <time>2022-11-01T08:20:46.309Z</time>
      </trkpt>
      <trkpt lat="50.623446" lon="8.263561">
        <ele>469.874563</ele>
        <time>2022-11-01T08:22:12.185Z</time>
      </trkpt>
      <trkpt lat="50.623590" lon="8.263625">
        <ele>470.261263</ele>
        <time>2022-11-01T08:22:27.763Z</time>
      </trkpt>
      <trkpt lat="50.623688" lon="8.263661">
        <ele>470.521345</ele>
        <time>2022-11-01T08:22:38.680Z</time>
      </trkpt>
      <trkpt lat="50.624257" lon="8.264577">
        <ele>472.623434</ele>
        <time>2022-11-01T08:24:05.982Z</time>
      </trkpt>
      <trkpt lat="50.624088" lon="8.264807">
        <ele>473.200519</ele>
        <time>2022-11-01T08:24:30.247Z</time>
      </trkpt>
      <trkpt lat="50.624987" lon="8.268683">
        <ele>482.978422</ele>
        <time>2022-11-01T08:29:27.146Z</time>
      </trkpt>
      <trkpt lat="50.624901" lon="8.269268">
        <ele>484.528201</ele>
        <time>2022-11-01T08:30:11.074Z</time>
      </trkpt>
      <trkpt lat="50.624870" lon="8.270241">
        <ele>487.042495</ele>
        <time>2022-11-01T08:31:21.393Z</time>
      </trkpt>
      <trkpt lat="50.624869" lon="8.270913">
        <ele>488.907020</ele>
        <time>2022-11-01T08:32:10.890Z</time>
      </trkpt>
      <trkpt lat="50.624802" lon="8.271326">
        <ele>490.114706</ele>
        <time>2022-11-01T08:32:42.218Z</time>
      </trkpt>
      <trkpt lat="50.624807" lon="8.272307">
        <ele>492.893989</ele>
        <time>2022-11-01T08:33:55.232Z</time>
      </trkpt>
      <trkpt lat="50.624749" lon="8.272992">
        <ele>494.851817</ele>
        <time>2022-11-01T08:34:47.083Z</time>
      </trkpt>
      <trkpt lat="50.624509" lon="8.274995">
        <ele>497.477533</ele>
        <time>2022-11-01T08:37:10.200Z</time>
      </trkpt>
      <trkpt lat="50.624844" lon="8.276348">
        <ele>497.438320</ele>
        <time>2022-11-01T08:38:43.468Z</time>
      </trkpt>
      <trkpt lat="50.624916" lon="8.277274">
        <ele>494.953358</ele>
        <time>2022-11-01T08:39:46.661Z</time>
      </trkpt>
      <trkpt lat="50.625058" lon="8.278256">
        <ele>492.270606</ele>
        <time>2022-11-01T08:40:57.762Z</time>
      </trkpt>
      <trkpt lat="50.625064" lon="8.279073">
        <ele>489.250075</ele>
        <time>2022-11-01T08:41:56.815Z</time>
      </trkpt>
      <trkpt lat="50.624697" lon="8.280197">
        <ele>482.894070</ele>
        <time>2022-11-01T08:43:30.338Z</time>
      </trkpt>
      <trkpt lat="50.624190" lon="8.281992">
        <ele>473.346793</ele>
        <time>2022-11-01T08:45:55.701Z</time>
      </trkpt>
      <trkpt lat="50.623804" lon="8.283939">
        <ele>463.992430</ele>
        <time>2022-11-01T08:48:23.788Z</time>
      </trkpt>
      <trkpt lat="50.623692" lon="8.284499">
        <ele>462.107209</ele>
        <time>2022-11-01T08:49:05.042Z</time>
      </trkpt>
      <trkpt lat="50.623680" lon="8.284873">
        <ele>460.947032</ele>
        <time>2022-11-01T08:49:31.013Z</time>
      </trkpt>
      <trkpt lat="50.623763" lon="8.285639">
        <ele>458.539512</ele>
        <time>2022-11-01T08:50:25.301Z</time>
      </trkpt>
      <trkpt lat="50.623937" lon="8.286398">
        <ele>456.039232</ele>
        <time>2022-11-01T08:51:21.477Z</time>
      </trkpt>
      <trkpt lat="50.623942" lon="8.286699">
        <ele>455.106385</ele>
        <time>2022-11-01T08:51:42.257Z</time>
      </trkpt>
      <trkpt lat="50.623884" lon="8.287031">
        <ele>454.453170</ele>
        <time>2022-11-01T08:52:05.686Z</time>
      </trkpt>
      <trkpt lat="50.623756" lon="8.287191">
        <ele>453.997166</ele>
        <time>2022-11-01T08:52:23.015Z</time>
      </trkpt>
      <trkpt lat="50.623581" lon="8.287276">
        <ele>453.486011</ele>
        <time>2022-11-01T08:52:42.375Z</time>
      </trkpt>
      <trkpt lat="50.623248" lon="8.287767">
        <ele>452.213200</ele>
        <time>2022-11-01T08:53:30.443Z</time>
      </trkpt>
      <trkpt lat="50.623967" lon="8.288771">
        <ele>449.573242</ele>
        <time>2022-11-01T08:55:11.103Z</time>
      </trkpt>
      <trkpt lat="50.624240" lon="8.289828">
        <ele>447.736743</ele>
        <time>2022-11-01T08:56:26.895Z</time>
      </trkpt>
      <trkpt lat="50.624431" lon="8.290300">
        <ele>446.835835</ele>
        <time>2022-11-01T08:57:03.759Z</time>
      </trkpt>
      <trkpt lat="50.624507" lon="8.290438">
        <ele>446.541762</ele>
        <time>2022-11-01T08:57:15.987Z</time>
      </trkpt>
      <trkpt lat="50.624673" lon="8.290740">
        <ele>445.898742</ele>
        <time>2022-11-01T08:57:42.888Z</time>
      </trkpt>
      <trkpt lat="50.624949" lon="8.291095">
        <ele>444.733384</ele>
        <time>2022-11-01T08:58:21.347Z</time>
      </trkpt>
      <trkpt lat="50.625186" lon="8.290563">
        <ele>443.045805</ele>
        <time>2022-11-01T08:59:06.032Z</time>
      </trkpt>
      <trkpt lat="50.625374" lon="8.290494">
        <ele>442.255913</ele>
        <time>2022-11-01T08:59:26.835Z</time>
      </trkpt>
      <trkpt lat="50.625350" lon="8.290941">
        <ele>441.091361</ele>
        <time>2022-11-01T08:59:57.905Z</time>
      </trkpt>
      <trkpt lat="50.625323" lon="8.291108">
        <ele>440.643974</ele>
        <time>2022-11-01T09:00:09.881Z</time>
      </trkpt>
      <trkpt lat="50.625141" lon="8.291532">
        <ele>439.314986</ele>
        <time>2022-11-01T09:00:45.381Z</time>
      </trkpt>
      <trkpt lat="50.624959" lon="8.291987">
        <ele>437.880555</ele>
        <time>2022-11-01T09:01:22.380Z</time>
      </trkpt>
      <trkpt lat="50.624903" lon="8.292126">
        <ele>437.339466</ele>
        <time>2022-11-01T09:01:33.683Z</time>
      </trkpt>
      <trkpt lat="50.624780" lon="8.292462">
        <ele>436.064702</ele>
        <time>2022-11-01T09:02:00.401Z</time>
      </trkpt>
      <trkpt lat="50.624722" lon="8.292873">
        <ele>434.681105</ele>
        <time>2022-11-01T09:02:29.714Z</time>
      </trkpt>
      <trkpt lat="50.624671" lon="8.293766">
        <ele>431.734750</ele>
        <time>2022-11-01T09:03:32.477Z</time>
      </trkpt>
      <trkpt lat="50.624552" lon="8.294109">
        <ele>430.450075</ele>
        <time>2022-11-01T09:04:00.536Z</time>
      </trkpt>
      <trkpt lat="50.624375" lon="8.294251">
        <ele>429.421322</ele>
        <time>2022-11-01T09:04:22.799Z</time>
      </trkpt>
      <trkpt lat="50.624025" lon="8.294343">
        <ele>427.696562</ele>
        <time>2022-11-01T09:05:02.677Z</time>
      </trkpt>
      <trkpt lat="50.624128" lon="8.295287">
        <ele>424.855700</ele>
        <time>2022-11-01T09:06:10.730Z</time>
      </trkpt>
      <trkpt lat="50.624290" lon="8.295706">
        <ele>423.400419</ele>
        <time>2022-11-01T09:06:45.583Z</time>
      </trkpt>
      <trkpt lat="50.624225" lon="8.295778">
        <ele>423.029018</ele>
        <time>2022-11-01T09:06:54.143Z</time>
      </trkpt>
      <trkpt lat="50.623686" lon="8.295872">
        <ele>420.493821</ele>
        <time>2022-11-01T09:07:51.875Z</time>
      </trkpt>
      <trkpt lat="50.623255" lon="8.295931">
        <ele>421.086120</ele>
        <time>2022-11-01T09:08:37.100Z</time>
      </trkpt>
      <trkpt lat="50.623030" lon="8.295962">
        <ele>421.510566</ele>
        <time>2022-11-01T09:08:59.808Z</time>
      </trkpt>
      <trkpt lat="50.622871" lon="8.295986">
        <ele>421.810735</ele>
        <time>2022-11-01T09:09:15.797Z</time>
      </trkpt>
      <trkpt lat="50.622864" lon="8.295939">
        <ele>421.868294</ele>
        <time>2022-11-01T09:09:19.327Z</time>
      </trkpt>
      <trkpt lat="50.622815" lon="8.295647">
        <ele>422.228402</ele>
        <time>2022-11-01T09:09:40.586Z</time>
      </trkpt>
      <trkpt lat="50.622787" lon="8.295390">
        <ele>422.539294</ele>
        <time>2022-11-01T09:09:59.941Z</time>
      </trkpt>
      <trkpt lat="50.622247" lon="8.295586">
        <ele>423.580652</ele>
        <time>2022-11-01T09:11:06.486Z</time>
      </trkpt>
      <trkpt lat="50.621969" lon="8.295280">
        <ele>424.829619</ele>
        <time>2022-11-01T09:11:45.398Z</time>
      </trkpt>
      <trkpt lat="50.621849" lon="8.295307">
        <ele>425.335375</ele>
        <time>2022-11-01T09:11:58.349Z</time>
      </trkpt>
      <trkpt lat="50.621648" lon="8.294910">
        <ele>426.679881</ele>
        <time>2022-11-01T09:12:36.053Z</time>
      </trkpt>
      <trkpt lat="50.621611" lon="8.294845">
        <ele>426.911046</ele>
        <time>2022-11-01T09:12:42.572Z</time>
      </trkpt>
      <trkpt lat="50.621520" lon="8.294708">
        <ele>427.436094</ele>
        <time>2022-11-01T09:12:57.346Z</time>
      </trkpt>
      <trkpt lat="50.621361" lon="8.294447">
        <ele>428.393924</ele>
        <time>2022-11-01T09:13:24.302Z</time>
      </trkpt>
      <trkpt lat="50.621160" lon="8.294562">
        <ele>429.286105</ele>
        <time>2022-11-01T09:13:49.611Z</time>
      </trkpt>
      <trkpt lat="50.620958" lon="8.294701">
        <ele>430.205736</ele>
        <time>2022-11-01T09:14:14.478Z</time>
      </trkpt>
      <trkpt lat="50.620685" lon="8.294955">
        <ele>431.115505</ele>
        <time>2022-11-01T09:14:50.094Z</time>
      </trkpt>
      <trkpt lat="50.620635" lon="8.295003">
        <ele>431.031618</ele>
        <time>2022-11-01T09:14:56.369Z</time>
      </trkpt>
      <trkpt lat="50.620685" lon="8.294955">
        <ele>430.947732</ele>
        <time>2022-11-01T09:15:03.298Z</time>
      </trkpt>
      <trkpt lat="50.620958" lon="8.294701">
        <ele>430.493487</ele>
        <time>2022-11-01T09:15:35.913Z</time>
      </trkpt>
      <trkpt lat="50.621160" lon="8.294562">
        <ele>430.177664</ele>
        <time>2022-11-01T09:15:58.485Z</time>
      </trkpt>
      <trkpt lat="50.621361" lon="8.294447">
        <ele>429.871268</ele>
        <time>2022-11-01T09:16:21.300Z</time>
      </trkpt>
      <trkpt lat="50.621313" lon="8.294205">
        <ele>429.640770</ele>
        <time>2022-11-01T09:16:39.644Z</time>
      </trkpt>
      <trkpt lat="50.621348" lon="8.293957">
        <ele>429.409808</ele>
        <time>2022-11-01T09:16:57.220Z</time>
      </trkpt>
      <trkpt lat="50.621317" lon="8.293838">
        <ele>429.292863</ele>
        <time>2022-11-01T09:17:06.164Z</time>
      </trkpt>
      <trkpt lat="50.621173" lon="8.293287">
        <ele>428.751126</ele>
        <time>2022-11-01T09:17:46.009Z</time>
      </trkpt>
      <trkpt lat="50.621237" lon="8.293152">
        <ele>428.532458</ele>
        <time>2022-11-01T09:17:57.069Z</time>
      </trkpt>
      <trkpt lat="50.620909" lon="8.292950">
        <ele>427.308223</ele>
        <time>2022-11-01T09:18:33.469Z</time>
      </trkpt>
      <trkpt lat="50.620906" lon="8.292626">
        <ele>426.593517</ele>
        <time>2022-11-01T09:18:54.998Z</time>
      </trkpt>
      <trkpt lat="50.620776" lon="8.292352">
        <ele>425.838874</ele>
        <time>2022-11-01T09:19:19.333Z</time>
      </trkpt>
      <trkpt lat="50.621027" lon="8.291826">
        <ele>424.387179</ele>
        <time>2022-11-01T09:20:04.819Z</time>
      </trkpt>
      <trkpt lat="50.621054" lon="8.291766">
        <ele>424.224933</ele>
        <time>2022-11-01T09:20:09.642Z</time>
      </trkpt>
      <trkpt lat="50.621208" lon="8.291756">
        <ele>423.689101</ele>
        <time>2022-11-01T09:20:26.727Z</time>
      </trkpt>
      <trkpt lat="50.621365" lon="8.291816">
        <ele>423.127480</ele>
        <time>2022-11-01T09:20:44.593Z</time>
      </trkpt>
      <trkpt lat="50.621479" lon="8.291687">
        <ele>422.639604</ele>
        <time>2022-11-01T09:20:59.587Z</time>
      </trkpt>
      <trkpt lat="50.621612" lon="8.291390">
        <ele>422.427236</ele>
        <time>2022-11-01T09:21:24.396Z</time>
      </trkpt>
      <trkpt lat="50.621301" lon="8.290884">
        <ele>422.529367</ele>
        <time>2022-11-01T09:22:10.188Z</time>
      </trkpt>
      <trkpt lat="50.621211" lon="8.290612">
        <ele>422.573839</ele>
        <time>2022-11-01T09:22:30.351Z</time>
      </trkpt>
      <trkpt lat="50.621106" lon="8.289969">
        <ele>422.670093</ele>
        <time>2022-11-01T09:23:14.866Z</time>
      </trkpt>
      <trkpt lat="50.621038" lon="8.289390">
        <ele>422.755456</ele>
        <time>2022-11-01T09:23:54.172Z</time>
      </trkpt>
      <trkpt lat="50.620942" lon="8.288516">
        <ele>424.152672</ele>
        <time>2022-11-01T09:24:54.638Z</time>
      </trkpt>
      <trkpt lat="50.620744" lon="8.286571">
        <ele>428.846968</ele>
        <time>2022-11-01T09:27:17.711Z</time>
      </trkpt>
      <trkpt lat="50.620215" lon="8.285459">
        <ele>432.871498</ele>
        <time>2022-11-01T09:29:01.388Z</time>
      </trkpt>
      <trkpt lat="50.620065" lon="8.285140">
        <ele>434.076839</ele>
        <time>2022-11-01T09:29:30.744Z</time>
      </trkpt>
      <trkpt lat="50.619686" lon="8.284279">
        <ele>437.258023</ele>
        <time>2022-11-01T09:30:47.840Z</time>
      </trkpt>
      <trkpt lat="50.619609" lon="8.283693">
        <ele>439.049548</ele>
        <time>2022-11-01T09:31:32.231Z</time>
      </trkpt>
      <trkpt lat="50.619671" lon="8.283314">
        <ele>440.204915</ele>
        <time>2022-11-01T09:32:01.539Z</time>
      </trkpt>
      <trkpt lat="50.619098" lon="8.283177">
        <ele>442.901359</ele>
        <time>2022-11-01T09:33:09.586Z</time>
      </trkpt>
      <trkpt lat="50.618846" lon="8.283117">
        <ele>444.087119</ele>
        <time>2022-11-01T09:33:40.426Z</time>
      </trkpt>
      <trkpt lat="50.618725" lon="8.283091">
        <ele>444.655292</ele>
        <time>2022-11-01T09:33:54.595Z</time>
      </trkpt>
      <trkpt lat="50.618693" lon="8.283028">
        <ele>444.893521</ele>
        <time>2022-11-01T09:34:00.555Z</time>
      </trkpt>
      <trkpt lat="50.618587" lon="8.282845">
        <ele>445.624994</ele>
        <time>2022-11-01T09:34:18.903Z</time>
      </trkpt>
      <trkpt lat="50.618296" lon="8.282343">
        <ele>446.523750</ele>
        <time>2022-11-01T09:35:07.304Z</time>
      </trkpt>
      <trkpt lat="50.618248" lon="8.281764">
        <ele>446.510856</ele>
        <time>2022-11-01T09:35:46.745Z</time>
      </trkpt>
      <trkpt lat="50.618043" lon="8.281358">
        <ele>446.499398</ele>
        <time>2022-11-01T09:36:21.219Z</time>
      </trkpt>
      <trkpt lat="50.617137" lon="8.280537">
        <ele>445.319636</ele>
        <time>2022-11-01T09:38:10.573Z</time>
      </trkpt>
      <trkpt lat="50.616760" lon="8.280409">
        <ele>442.891756</ele>
        <time>2022-11-01T09:38:53.567Z</time>
      </trkpt>
      <trkpt lat="50.616679" lon="8.280458">
        <ele>442.345540</ele>
        <time>2022-11-01T09:39:03.098Z</time>
      </trkpt>
      <trkpt lat="50.616315" lon="8.281092">
        <ele>438.930093</ele>
        <time>2022-11-01T09:40:06.608Z</time>
      </trkpt>
      <trkpt lat="50.616124" lon="8.281136">
        <ele>437.714861</ele>
        <time>2022-11-01T09:40:28.128Z</time>
      </trkpt>
      <trkpt lat="50.615928" lon="8.281290">
        <ele>436.336084</ele>
        <time>2022-11-01T09:40:54.107Z</time>
      </trkpt>
      <trkpt lat="50.615642" lon="8.280364">
        <ele>432.361985</ele>
        <time>2022-11-01T09:42:08.480Z</time>
      </trkpt>
      <trkpt lat="50.614631" lon="8.277518">
        <ele>420.691646</ele>
        <time>2022-11-01T09:45:58.762Z</time>
      </trkpt>
      <trkpt lat="50.614421" lon="8.276735">
        <ele>417.997872</ele>
        <time>2022-11-01T09:46:56.820Z</time>
      </trkpt>
      <trkpt lat="50.614260" lon="8.276835">
        <ele>417.133639</ele>
        <time>2022-11-01T09:47:16.709Z</time>
      </trkpt>
      <trkpt lat="50.613395" lon="8.277081">
        <ele>411.060048</ele>
        <time>2022-11-01T09:48:52.692Z</time>
      </trkpt>
      <trkpt lat="50.613279" lon="8.277204">
        <ele>409.916038</ele>
        <time>2022-11-01T09:49:09.296Z</time>
      </trkpt>
      <trkpt lat="50.613199" lon="8.277400">
        <ele>408.706025</ele>
        <time>2022-11-01T09:49:26.302Z</time>
      </trkpt>
      <trkpt lat="50.613105" lon="8.278069">
        <ele>405.148326</ele>
        <time>2022-11-01T09:50:17.565Z</time>
      </trkpt>
      <trkpt lat="50.612968" lon="8.278144">
        <ele>403.961624</ele>
        <time>2022-11-01T09:50:34.686Z</time>
      </trkpt>
      <trkpt lat="50.612699" lon="8.278080">
        <ele>401.735614</ele>
        <time>2022-11-01T09:51:07.206Z</time>
      </trkpt>
      <trkpt lat="50.612012" lon="8.277371">
        <ele>391.395565</ele>
        <time>2022-11-01T09:52:48.918Z</time>
      </trkpt>
      <trkpt lat="50.611800" lon="8.277448">
        <ele>388.474335</ele>
        <time>2022-11-01T09:53:16.118Z</time>
      </trkpt>
      <trkpt lat="50.611724" lon="8.277167">
        <ele>385.871639</ele>
        <time>2022-11-01T09:53:40.825Z</time>
      </trkpt>
      <trkpt lat="50.611671" lon="8.276512">
        <ele>380.245432</ele>
        <time>2022-11-01T09:54:35.175Z</time>
      </trkpt>
      <trkpt lat="50.611583" lon="8.276386">
        <ele>378.648931</ele>
        <time>2022-11-01T09:54:50.352Z</time>
      </trkpt>
      <trkpt lat="50.611351" lon="8.276233">
        <ele>375.329210</ele>
        <time>2022-11-01T09:55:23.360Z</time>
      </trkpt>
      <trkpt lat="50.611230" lon="8.275844">
        <ele>371.807995</ele>
        <time>2022-11-01T09:55:58.621Z</time>
      </trkpt>
      <trkpt lat="50.611121" lon="8.274379">
        <ele>359.818853</ele>
        <time>2022-11-01T09:57:55.863Z</time>
      </trkpt>
      <trkpt lat="50.610956" lon="8.273655">
        <ele>353.566143</ele>
        <time>2022-11-01T09:58:54.841Z</time>
      </trkpt>
      <trkpt lat="50.611024" lon="8.272796">
        <ele>348.436793</ele>
        <time>2022-11-01T10:00:01.016Z</time>
      </trkpt>
      <trkpt lat="50.611020" lon="8.271590">
        <ele>341.325388</ele>
        <time>2022-11-01T10:01:32.614Z</time>
      </trkpt>
      <trkpt lat="50.611075" lon="8.271301">
        <ele>339.546285</ele>
        <time>2022-11-01T10:01:53.766Z</time>
      </trkpt>
      <trkpt lat="50.611316" lon="8.271232">
        <ele>337.270225</ele>
        <time>2022-11-01T10:02:23.226Z</time>
      </trkpt>
      <trkpt lat="50.611410" lon="8.271122">
        <ele>336.456412</ele>
        <time>2022-11-01T10:02:35.396Z</time>
      </trkpt>
      <trkpt lat="50.611191" lon="8.271076">
        <ele>335.373845</ele>
        <time>2022-11-01T10:03:01.614Z</time>
      </trkpt>
      <trkpt lat="50.610927" lon="8.271185">
        <ele>334.036610</ele>
        <time>2022-11-01T10:03:31.962Z</time>
      </trkpt>
      <trkpt lat="50.610813" lon="8.271308">
        <ele>333.359637</ele>
        <time>2022-11-01T10:03:47.664Z</time>
      </trkpt>
      <trkpt lat="50.610732" lon="8.271395">
        <ele>332.879321</ele>
        <time>2022-11-01T10:03:57.841Z</time>
      </trkpt>
      <trkpt lat="50.610650" lon="8.272054">
        <ele>330.791203</ele>
        <time>2022-11-01T10:04:45.295Z</time>
      </trkpt>
      <trkpt lat="50.610531" lon="8.272435">
        <ele>329.470797</ele>
        <time>2022-11-01T10:05:12.643Z</time>
      </trkpt>
      <trkpt lat="50.610276" lon="8.272568">
        <ele>328.154662</ele>
        <time>2022-11-01T10:05:41.562Z</time>
      </trkpt>
      <trkpt lat="50.610048" lon="8.272803">
        <ele>327.248683</ele>
        <time>2022-11-01T10:06:10.197Z</time>
      </trkpt>
      <trkpt lat="50.609876" lon="8.273254">
        <ele>326.233993</ele>
        <time>2022-11-01T10:06:45.601Z</time>
      </trkpt>
      <trkpt lat="50.609774" lon="8.273872">
        <ele>325.002580</ele>
        <time>2022-11-01T10:07:29.257Z</time>
      </trkpt>
      <trkpt lat="50.609688" lon="8.273982">
        <ele>324.665987</ele>
        <time>2022-11-01T10:07:41.313Z</time>
      </trkpt>
      <trkpt lat="50.609374" lon="8.273724">
        <ele>323.589876</ele>
        <time>2022-11-01T10:08:18.091Z</time>
      </trkpt>
      <trkpt lat="50.609018" lon="8.272719">
        <ele>319.025074</ele>
        <time>2022-11-01T10:09:36.289Z</time>
      </trkpt>
      <trkpt lat="50.608392" lon="8.272819">
        <ele>313.084273</ele>
        <time>2022-11-01T10:10:53.034Z</time>
      </trkpt>
      <trkpt lat="50.607845" lon="8.272793">
        <ele>307.917311</ele>
        <time>2022-11-01T10:12:01.543Z</time>
      </trkpt>
      <trkpt lat="50.607734" lon="8.272332">
        <ele>305.030671</ele>
        <time>2022-11-01T10:12:39.905Z</time>
      </trkpt>
      <trkpt lat="50.607636" lon="8.272068">
        <ele>303.428854</ele>
        <time>2022-11-01T10:13:03.030Z</time>
      </trkpt>
      <trkpt lat="50.607416" lon="8.271608">
        <ele>300.412160</ele>
        <time>2022-11-01T10:13:46.299Z</time>
      </trkpt>
      <trkpt lat="50.607388" lon="8.271388">
        <ele>299.236999</ele>
        <time>2022-11-01T10:14:03.109Z</time>
      </trkpt>
      <trkpt lat="50.606924" lon="8.270935">
        <ele>294.732361</ele>
        <time>2022-11-01T10:15:08.393Z</time>
      </trkpt>
      <trkpt lat="50.606319" lon="8.270530">
        <ele>290.553536</ele>
        <time>2022-11-01T10:16:21.362Z</time>
      </trkpt>
      <trkpt lat="50.605152" lon="8.269756">
        <ele>289.748125</ele>
        <time>2022-11-01T10:18:29.204Z</time>
      </trkpt>
      <trkpt lat="50.604460" lon="8.269288">
        <ele>289.617688</ele>
        <time>2022-11-01T10:19:48.162Z</time>
      </trkpt>
      <trkpt lat="50.604178" lon="8.268890">
        <ele>289.720393</ele>
        <time>2022-11-01T10:20:26.679Z</time>
      </trkpt>
      <trkpt lat="50.603721" lon="8.267882">
        <ele>289.933680</ele>
        <time>2022-11-01T10:21:45.484Z</time>
      </trkpt>
      <trkpt lat="50.603439" lon="8.267693">
        <ele>289.937848</ele>
        <time>2022-11-01T10:22:16.506Z</time>
      </trkpt>
      <trkpt lat="50.603176" lon="8.267518">
        <ele>289.618202</ele>
        <time>2022-11-01T10:22:45.309Z</time>
      </trkpt>
      <trkpt lat="50.603090" lon="8.267414">
        <ele>289.496821</ele>
        <time>2022-11-01T10:22:56.246Z</time>
      </trkpt>
      <trkpt lat="50.602244" lon="8.266520">
        <ele>288.356290</ele>
        <time>2022-11-01T10:24:41.605Z</time>
      </trkpt>
      <trkpt lat="50.602101" lon="8.266345">
        <ele>288.153559</ele>
        <time>2022-11-01T10:25:00.492Z</time>
      </trkpt>
      <trkpt lat="50.602059" lon="8.266262">
        <ele>288.078125</ele>
        <time>2022-11-01T10:25:07.481Z</time>
      </trkpt>
      <trkpt lat="50.601965" lon="8.266093">
        <ele>288.141382</ele>
        <time>2022-11-01T10:25:22.098Z</time>
      </trkpt>
      <trkpt lat="50.601926" lon="8.265894">
        <ele>288.470518</ele>
        <time>2022-11-01T10:25:35.679Z</time>
      </trkpt>
      <trkpt lat="50.601547" lon="8.266038">
        <ele>289.441232</ele>
        <time>2022-11-01T10:26:14.975Z</time>
      </trkpt>
      <trkpt lat="50.601509" lon="8.265789">
        <ele>289.845953</ele>
        <time>2022-11-01T10:26:31.616Z</time>
      </trkpt>
      <trkpt lat="50.601398" lon="8.265821">
        <ele>290.126917</ele>
        <time>2022-11-01T10:26:43.502Z</time>
      </trkpt>
      <trkpt lat="50.601152" lon="8.265732">
        <ele>290.755368</ele>
        <time>2022-11-01T10:27:10.862Z</time>
      </trkpt>
      <trkpt lat="50.600574" lon="8.265095">
        <ele>292.645438</ele>
        <time>2022-11-01T10:28:33.515Z</time>
      </trkpt>
      <trkpt lat="50.600334" lon="8.264402">
        <ele>297.546781</ele>
        <time>2022-11-01T10:29:37.460Z</time>
      </trkpt>
      <trkpt lat="50.599802" lon="8.262974">
        <ele>307.827091</ele>
        <time>2022-11-01T10:32:03.352Z</time>
      </trkpt>
      <trkpt lat="50.598949" lon="8.261285">
        <ele>318.583462</ele>
        <time>2022-11-01T10:35:08.329Z</time>
      </trkpt>
      <trkpt lat="50.598726" lon="8.261129">
        <ele>320.404992</ele>
        <time>2022-11-01T10:35:37.570Z</time>
      </trkpt>
      <trkpt lat="50.598465" lon="8.261070">
        <ele>322.373419</ele>
        <time>2022-11-01T10:36:07.157Z</time>
      </trkpt>
      <trkpt lat="50.598465" lon="8.261070">
        <ele>322.373419</ele>
        <time>2022-11-01T10:36:07.270Z</time>
      </trkpt>
      <trkpt lat="50.598374" lon="8.261050">
        <ele>323.059350</ele>
        <time>2022-11-01T10:36:16.474Z</time>
      </trkpt>
      <trkpt lat="50.598357" lon="8.261303">
        <ele>322.888127</ele>
        <time>2022-11-01T10:36:32.636Z</time>
      </trkpt>
      <trkpt lat="50.598294" lon="8.261409">
        <ele>322.358156</ele>
        <time>2022-11-01T10:36:41.860Z</time>
      </trkpt>
      <trkpt lat="50.598330" lon="8.261558">
        <ele>321.776301</ele>
        <time>2022-11-01T10:36:51.988Z</time>
      </trkpt>
      <trkpt lat="50.598388" lon="8.261680">
        <ele>321.220010</ele>
        <time>2022-11-01T10:37:01.674Z</time>
      </trkpt>
      <trkpt lat="50.598441" lon="8.261959">
        <ele>320.157148</ele>
        <time>2022-11-01T10:37:20.181Z</time>
      </trkpt>
      <trkpt lat="50.598480" lon="8.262098">
        <ele>319.602503</ele>
        <time>2022-11-01T10:37:29.837Z</time>
      </trkpt>
      <trkpt lat="50.598472" lon="8.262260">
        <ele>319.009480</ele>
        <time>2022-11-01T10:37:40.180Z</time>
      </trkpt>
      <trkpt lat="50.598468" lon="8.262417">
        <ele>318.436031</ele>
        <time>2022-11-01T10:37:50.176Z</time>
      </trkpt>
      <trkpt lat="50.598487" lon="8.262727">
        <ele>317.299391</ele>
        <time>2022-11-01T10:38:10.004Z</time>
      </trkpt>
      <trkpt lat="50.598521" lon="8.262858">
        <ele>316.782871</ele>
        <time>2022-11-01T10:38:19.036Z</time>
      </trkpt>
      <trkpt lat="50.598611" lon="8.262923">
        <ele>316.213617</ele>
        <time>2022-11-01T10:38:28.967Z</time>
      </trkpt>
      <trkpt lat="50.598703" lon="8.262949">
        <ele>315.676204</ele>
        <time>2022-11-01T10:38:38.349Z</time>
      </trkpt>
      <trkpt lat="50.598801" lon="8.262981">
        <ele>315.100761</ele>
        <time>2022-11-01T10:38:48.421Z</time>
      </trkpt>
      <trkpt lat="50.598956" lon="8.263147">
        <ele>314.023142</ele>
        <time>2022-11-01T10:39:07.264Z</time>
      </trkpt>
      <trkpt lat="50.599029" lon="8.263252">
        <ele>313.454798</ele>
        <time>2022-11-01T10:39:17.202Z</time>
      </trkpt>
      <trkpt lat="50.599085" lon="8.263387">
        <ele>312.638329</ele>
        <time>2022-11-01T10:39:27.516Z</time>
      </trkpt>
      <trkpt lat="50.599075" lon="8.263545">
        <ele>311.586056</ele>
        <time>2022-11-01T10:39:37.658Z</time>
      </trkpt>
      <trkpt lat="50.599041" lon="8.263689">
        <ele>310.567869</ele>
        <time>2022-11-01T10:39:47.456Z</time>
      </trkpt>
      <trkpt lat="50.599020" lon="8.263832">
        <ele>309.595161</ele>
        <time>2022-11-01T10:39:56.833Z</time>
      </trkpt>
      <trkpt lat="50.598972" lon="8.264110">
        <ele>307.685880</ele>
        <time>2022-11-01T10:40:15.251Z</time>
      </trkpt>
      <trkpt lat="50.598956" lon="8.264269">
        <ele>306.619010</ele>
        <time>2022-11-01T10:40:25.524Z</time>
      </trkpt>
      <trkpt lat="50.598984" lon="8.264412">
        <ele>305.627267</ele>
        <time>2022-11-01T10:40:35.089Z</time>
      </trkpt>
      <trkpt lat="50.599041" lon="8.264530">
        <ele>304.644576</ele>
        <time>2022-11-01T10:40:44.572Z</time>
      </trkpt>
      <trkpt lat="50.598965" lon="8.264622">
        <ele>303.643903</ele>
        <time>2022-11-01T10:40:54.211Z</time>
      </trkpt>
      <trkpt lat="50.598944" lon="8.264606">
        <ele>303.400357</ele>
        <time>2022-11-01T10:40:56.532Z</time>
      </trkpt>
      <trkpt lat="50.598800" lon="8.265088">
        <ele>299.869954</ele>
        <time>2022-11-01T10:41:38.185Z</time>
      </trkpt>
      <trkpt lat="50.598583" lon="8.268079">
        <ele>284.138812</ele>
        <time>2022-11-01T10:45:20.310Z</time>
      </trkpt>
      <trkpt lat="50.598602" lon="8.268218">
        <ele>283.471736</ele>
        <time>2022-11-01T10:45:30.307Z</time>
      </trkpt>
      <trkpt lat="50.598535" lon="8.268265">
        <ele>282.929653</ele>
        <time>2022-11-01T10:45:38.567Z</time>
      </trkpt>
      <trkpt lat="50.597959" lon="8.269815">
        <ele>276.972112</ele>
        <time>2022-11-01T10:47:44.026Z</time>
      </trkpt>
      <trkpt lat="50.596815" lon="8.273020">
        <ele>267.772221</ele>
        <time>2022-11-01T10:51:56.783Z</time>
      </trkpt>
      <trkpt lat="50.596219" lon="8.273424">
        <ele>265.962420</ele>
        <time>2022-11-01T10:53:04.713Z</time>
      </trkpt>
      <trkpt lat="50.595884" lon="8.274254">
        <ele>264.837172</ele>
        <time>2022-11-01T10:54:09.030Z</time>
      </trkpt>
      <trkpt lat="50.595343" lon="8.275595">
        <ele>263.049655</ele>
        <time>2022-11-01T10:55:53.534Z</time>
      </trkpt>
      <trkpt lat="50.595219" lon="8.275693">
        <ele>262.838269</ele>
        <time>2022-11-01T10:56:07.825Z</time>
      </trkpt>
      <trkpt lat="50.596039" lon="8.276876">
        <ele>261.144037</ele>
        <time>2022-11-01T10:58:02.685Z</time>
      </trkpt>
      <trkpt lat="50.595640" lon="8.277490">
        <ele>260.363877</ele>
        <time>2022-11-01T10:59:00.281Z</time>
      </trkpt>
      <trkpt lat="50.595407" lon="8.277848">
        <ele>260.059520</ele>
        <time>2022-11-01T10:59:33.795Z</time>
      </trkpt>
      <trkpt lat="50.594894" lon="8.278660">
        <ele>259.379476</ele>
        <time>2022-11-01T11:00:47.706Z</time>
      </trkpt>
      <trkpt lat="50.594393" lon="8.279858">
        <ele>258.464336</ele>
        <time>2022-11-01T11:02:20.042Z</time>
      </trkpt>
      <trkpt lat="50.594160" lon="8.280409">
        <ele>257.977035</ele>
        <time>2022-11-01T11:03:03.155Z</time>
      </trkpt>
      <trkpt lat="50.593827" lon="8.281251">
        <ele>257.246853</ele>
        <time>2022-11-01T11:04:07.754Z</time>
      </trkpt>
      <trkpt lat="50.593724" lon="8.281492">
        <ele>257.033010</ele>
        <time>2022-11-01T11:04:26.716Z</time>
      </trkpt>
      <trkpt lat="50.593686" lon="8.281586">
        <ele>256.950984</ele>
        <time>2022-11-01T11:04:33.885Z</time>
      </trkpt>
      <trkpt lat="50.593759" lon="8.281666">
        <ele>256.847875</ele>
        <time>2022-11-01T11:04:43.093Z</time>
      </trkpt>
      <trkpt lat="50.593749" lon="8.281875">
        <ele>256.684898</ele>
        <time>2022-11-01T11:04:56.909Z</time>
      </trkpt>
      <trkpt lat="50.593582" lon="8.282015">
        <ele>256.325563</ele>
        <time>2022-11-01T11:05:16.239Z</time>
      </trkpt>
      <trkpt lat="50.593591" lon="8.282206">
        <ele>256.094619</ele>
        <time>2022-11-01T11:05:28.906Z</time>
      </trkpt>
      <trkpt lat="50.592768" lon="8.284114">
        <ele>253.313058</ele>
        <time>2022-11-01T11:08:00.902Z</time>
      </trkpt>
      <trkpt lat="50.592038" lon="8.285980">
        <ele>248.986183</ele>
        <time>2022-11-01T11:10:29.041Z</time>
      </trkpt>
      <trkpt lat="50.591990" lon="8.286262">
        <ele>248.407922</ele>
        <time>2022-11-01T11:10:48.962Z</time>
      </trkpt>
      <trkpt lat="50.592223" lon="8.286468">
        <ele>247.569446</ele>
        <time>2022-11-01T11:11:17.913Z</time>
      </trkpt>
      <trkpt lat="50.592543" lon="8.287008">
        <ele>246.038421</ele>
        <time>2022-11-01T11:12:08.453Z</time>
      </trkpt>
      <trkpt lat="50.593032" lon="8.287559">
        <ele>244.075560</ele>
        <time>2022-11-01T11:13:13.392Z</time>
      </trkpt>
      <trkpt lat="50.594223" lon="8.288868">
        <ele>241.243850</ele>
        <time>2022-11-01T11:15:46.110Z</time>
      </trkpt>
      <trkpt lat="50.594340" lon="8.288953">
        <ele>241.148033</ele>
        <time>2022-11-01T11:15:59.089Z</time>
      </trkpt>
      <trkpt lat="50.594402" lon="8.288407">
        <ele>240.886184</ele>
        <time>2022-11-01T11:16:34.517Z</time>
      </trkpt>
      <trkpt lat="50.594589" lon="8.287828">
        <ele>240.579505</ele>
        <time>2022-11-01T11:17:17.079Z</time>
      </trkpt>
      <trkpt lat="50.594777" lon="8.287189">
        <ele>241.039291</ele>
        <time>2022-11-01T11:18:03.301Z</time>
      </trkpt>
      <trkpt lat="50.594767" lon="8.287066">
        <ele>241.189201</ele>
        <time>2022-11-01T11:18:11.458Z</time>
      </trkpt>
      <trkpt lat="50.594767" lon="8.287066">
        <ele>241.189201</ele>
        <time>2022-11-01T11:18:11.495Z</time>
      </trkpt>
      <trkpt lat="50.594761" lon="8.287067">
        <ele>241.200691</ele>
        <time>2022-11-01T11:18:12.098Z</time>
      </trkpt>
      <trkpt lat="50.594755" lon="8.286912">
        <ele>241.388419</ele>
        <time>2022-11-01T11:18:21.964Z</time>
      </trkpt>
      <trkpt lat="50.594691" lon="8.286635">
        <ele>241.744775</ele>
        <time>2022-11-01T11:18:40.692Z</time>
      </trkpt>
      <trkpt lat="50.594626" lon="8.286524">
        <ele>241.927338</ele>
        <time>2022-11-01T11:18:50.287Z</time>
      </trkpt>
      <trkpt lat="50.594655" lon="8.286388">
        <ele>242.100777</ele>
        <time>2022-11-01T11:18:59.402Z</time>
      </trkpt>
      <trkpt lat="50.594738" lon="8.286325">
        <ele>242.276232</ele>
        <time>2022-11-01T11:19:08.623Z</time>
      </trkpt>
      <trkpt lat="50.594862" lon="8.286032">
        <ele>242.701939</ele>
        <time>2022-11-01T11:19:30.998Z</time>
      </trkpt>
      <trkpt lat="50.594909" lon="8.285901">
        <ele>242.883848</ele>
        <time>2022-11-01T11:19:40.560Z</time>
      </trkpt>
      <trkpt lat="50.594975" lon="8.285790">
        <ele>243.067707</ele>
        <time>2022-11-01T11:19:50.225Z</time>
      </trkpt>
      <trkpt lat="50.595037" lon="8.285658">
        <ele>243.266213</ele>
        <time>2022-11-01T11:20:00.659Z</time>
      </trkpt>
      <trkpt lat="50.595070" lon="8.285527">
        <ele>243.436592</ele>
        <time>2022-11-01T11:20:09.616Z</time>
      </trkpt>
      <trkpt lat="50.595102" lon="8.285372">
        <ele>243.633631</ele>
        <time>2022-11-01T11:20:19.975Z</time>
      </trkpt>
      <trkpt lat="50.595127" lon="8.285233">
        <ele>243.808281</ele>
        <time>2022-11-01T11:20:29.155Z</time>
      </trkpt>
      <trkpt lat="50.595196" lon="8.285117">
        <ele>244.064468</ele>
        <time>2022-11-01T11:20:39.257Z</time>
      </trkpt>
      <trkpt lat="50.595211" lon="8.285130">
        <ele>244.116826</ele>
        <time>2022-11-01T11:20:40.967Z</time>
      </trkpt>
      <trkpt lat="50.595247" lon="8.285027">
        <ele>244.345096</ele>
        <time>2022-11-01T11:20:49.441Z</time>
      </trkpt>
      <trkpt lat="50.595568" lon="8.284370">
        <ele>245.954640</ele>
        <time>2022-11-01T11:21:47.716Z</time>
      </trkpt>
      <trkpt lat="50.595850" lon="8.284641">
        <ele>246.964885</ele>
        <time>2022-11-01T11:22:24.342Z</time>
      </trkpt>
      <trkpt lat="50.596010" lon="8.284458">
        <ele>247.569581</ele>
        <time>2022-11-01T11:22:46.168Z</time>
      </trkpt>
      <trkpt lat="50.596210" lon="8.284233">
        <ele>248.321196</ele>
        <time>2022-11-01T11:23:13.387Z</time>
      </trkpt>
      <trkpt lat="50.596530" lon="8.284007">
        <ele>249.393699</ele>
        <time>2022-11-01T11:23:52.655Z</time>
      </trkpt>
      <trkpt lat="50.596837" lon="8.283471">
        <ele>250.478746</ele>
        <time>2022-11-01T11:24:43.849Z</time>
      </trkpt>
      <trkpt lat="50.597310" lon="8.282072">
        <ele>252.860079</ele>
        <time>2022-11-01T11:26:32.730Z</time>
      </trkpt>
      <trkpt lat="50.597784" lon="8.280429">
        <ele>254.841051</ele>
        <time>2022-11-01T11:28:33.013Z</time>
      </trkpt>
      <trkpt lat="50.597884" lon="8.279453">
        <ele>255.760988</ele>
        <time>2022-11-01T11:29:39.182Z</time>
      </trkpt>
      <trkpt lat="50.597895" lon="8.279269">
        <ele>255.932960</ele>
        <time>2022-11-01T11:29:51.591Z</time>
      </trkpt>
      <trkpt lat="50.598242" lon="8.278541">
        <ele>257.015533</ele>
        <time>2022-11-01T11:30:51.499Z</time>
      </trkpt>
      <trkpt lat="50.598434" lon="8.278390">
        <ele>257.481004</ele>
        <time>2022-11-01T11:31:14.739Z</time>
      </trkpt>
      <trkpt lat="50.598547" lon="8.277904">
        <ele>258.193617</ele>
        <time>2022-11-01T11:31:50.084Z</time>
      </trkpt>
      <trkpt lat="50.598787" lon="8.276426">
        <ele>260.318715</ele>
        <time>2022-11-01T11:33:36.343Z</time>
      </trkpt>
      <trkpt lat="50.598959" lon="8.275412">
        <ele>262.107890</ele>
        <time>2022-11-01T11:34:48.248Z</time>
      </trkpt>
      <trkpt lat="50.599005" lon="8.274377">
        <ele>263.876523</ele>
        <time>2022-11-01T11:36:00.704Z</time>
      </trkpt>
      <trkpt lat="50.599209" lon="8.273470">
        <ele>265.340640</ele>
        <time>2022-11-01T11:37:08.961Z</time>
      </trkpt>
      <trkpt lat="50.599490" lon="8.272571">
        <ele>266.441815</ele>
        <time>2022-11-01T11:38:17.041Z</time>
      </trkpt>
      <trkpt lat="50.599608" lon="8.271757">
        <ele>267.359329</ele>
        <time>2022-11-01T11:39:11.797Z</time>
      </trkpt>
      <trkpt lat="50.599823" lon="8.271303">
        <ele>267.981769</ele>
        <time>2022-11-01T11:39:49.254Z</time>
      </trkpt>
      <trkpt lat="50.599903" lon="8.270313">
        <ele>269.318533</ele>
        <time>2022-11-01T11:40:56.044Z</time>
      </trkpt>
      <trkpt lat="50.600021" lon="8.269853">
        <ele>270.002468</ele>
        <time>2022-11-01T11:41:29.543Z</time>
      </trkpt>
      <trkpt lat="50.599995" lon="8.269698">
        <ele>270.223469</ele>
        <time>2022-11-01T11:41:40.384Z</time>
      </trkpt>
      <trkpt lat="50.599897" lon="8.268625">
        <ele>271.717828</ele>
        <time>2022-11-01T11:42:55.109Z</time>
      </trkpt>
      <trkpt lat="50.600019" lon="8.268524">
        <ele>272.017138</ele>
        <time>2022-11-01T11:43:10.163Z</time>
      </trkpt>
      <trkpt lat="50.600062" lon="8.268488">
        <ele>272.243597</ele>
        <time>2022-11-01T11:43:15.509Z</time>
      </trkpt>
      <trkpt lat="50.600621" lon="8.268068">
        <ele>275.574250</ele>
        <time>2022-11-01T11:44:26.407Z</time>
      </trkpt>
      <trkpt lat="50.600875" lon="8.267873">
        <ele>277.093805</ele>
        <time>2022-11-01T11:45:00.575Z</time>
      </trkpt>
      <trkpt lat="50.601474" lon="8.267414">
        <ele>280.676027</ele>
        <time>2022-11-01T11:46:21.285Z</time>
      </trkpt>
      <trkpt lat="50.601935" lon="8.266833">
        <ele>284.963632</ele>
        <time>2022-11-01T11:47:34.573Z</time>
      </trkpt>
      <trkpt lat="50.601638" lon="8.270885">
        <ele>306.394728</ele>
        <time>2022-11-01T11:53:09.492Z</time>
      </trkpt>
      <trkpt lat="50.601734" lon="8.270963">
        <ele>307.301523</ele>
        <time>2022-11-01T11:53:25.575Z</time>
      </trkpt>
      <trkpt lat="50.602874" lon="8.271184">
        <ele>314.865696</ele>
        <time>2022-11-01T11:55:48.446Z</time>
      </trkpt>
      <trkpt lat="50.603185" lon="8.271331">
        <ele>316.546128</ele>
        <time>2022-11-01T11:56:28.232Z</time>
      </trkpt>
      <trkpt lat="50.604520" lon="8.272339">
        <ele>320.874510</ele>
        <time>2022-11-01T11:59:12.162Z</time>
      </trkpt>
      <trkpt lat="50.605919" lon="8.273223">
        <ele>320.359239</ele>
        <time>2022-11-01T12:01:48.319Z</time>
      </trkpt>
      <trkpt lat="50.606023" lon="8.273256">
        <ele>320.186421</ele>
        <time>2022-11-01T12:01:59.754Z</time>
      </trkpt>
      <trkpt lat="50.606035" lon="8.273248">
        <ele>320.165196</ele>
        <time>2022-11-01T12:02:01.478Z</time>
      </trkpt>
      <trkpt lat="50.606187" lon="8.273140">
        <ele>319.893576</ele>
        <time>2022-11-01T12:02:18.648Z</time>
      </trkpt>
      <trkpt lat="50.606291" lon="8.272956">
        <ele>319.638845</ele>
        <time>2022-11-01T12:02:35.339Z</time>
      </trkpt>
      <trkpt lat="50.606381" lon="8.272832">
        <ele>319.444091</ele>
        <time>2022-11-01T12:02:47.423Z</time>
      </trkpt>
      <trkpt lat="50.606837" lon="8.272664">
        <ele>318.681230</ele>
        <time>2022-11-01T12:03:35.190Z</time>
      </trkpt>
      <trkpt lat="50.607369" lon="8.272853">
        <ele>317.861110</ele>
        <time>2022-11-01T12:04:32.806Z</time>
      </trkpt>
      <trkpt lat="50.607845" lon="8.272793">
        <ele>317.320415</ele>
        <time>2022-11-01T12:05:21.597Z</time>
      </trkpt>
      <trkpt lat="50.608392" lon="8.272819">
        <ele>316.700767</ele>
        <time>2022-11-01T12:06:16.522Z</time>
      </trkpt>
      <trkpt lat="50.609018" lon="8.272719">
        <ele>315.988316</ele>
        <time>2022-11-01T12:07:20.701Z</time>
      </trkpt>
      <trkpt lat="50.609438" lon="8.272640">
        <ele>315.357185</ele>
        <time>2022-11-01T12:08:04.823Z</time>
      </trkpt>
      <trkpt lat="50.609870" lon="8.272127">
        <ele>314.546675</ele>
        <time>2022-11-01T12:09:01.893Z</time>
      </trkpt>
      <trkpt lat="50.610152" lon="8.271473">
        <ele>313.794847</ele>
        <time>2022-11-01T12:09:54.097Z</time>
      </trkpt>
      <trkpt lat="50.610416" lon="8.270324">
        <ele>313.764640</ele>
        <time>2022-11-01T12:11:11.831Z</time>
      </trkpt>
      <trkpt lat="50.610405" lon="8.269578">
        <ele>314.286323</ele>
        <time>2022-11-01T12:12:01.372Z</time>
      </trkpt>
      <trkpt lat="50.610547" lon="8.269066">
        <ele>314.676962</ele>
        <time>2022-11-01T12:12:39.569Z</time>
      </trkpt>
      <trkpt lat="50.610684" lon="8.268777">
        <ele>314.929156</ele>
        <time>2022-11-01T12:13:04.445Z</time>
      </trkpt>
      <trkpt lat="50.611308" lon="8.267867">
        <ele>315.670506</ele>
        <time>2022-11-01T12:14:34.127Z</time>
      </trkpt>
      <trkpt lat="50.611494" lon="8.267349">
        <ele>315.950966</ele>
        <time>2022-11-01T12:15:12.666Z</time>
      </trkpt>
      <trkpt lat="50.611476" lon="8.266677">
        <ele>316.267908</ele>
        <time>2022-11-01T12:15:56.433Z</time>
      </trkpt>
      <trkpt lat="50.611381" lon="8.266134">
        <ele>316.533327</ele>
        <time>2022-11-01T12:16:32.566Z</time>
      </trkpt>
      <trkpt lat="50.611250" lon="8.265510">
        <ele>316.459101</ele>
        <time>2022-11-01T12:17:14.615Z</time>
      </trkpt>
      <trkpt lat="50.611205" lon="8.265365">
        <ele>316.413872</ele>
        <time>2022-11-01T12:17:24.952Z</time>
      </trkpt>
      <trkpt lat="50.610959" lon="8.264465">
        <ele>316.139285</ele>
        <time>2022-11-01T12:18:28.789Z</time>
      </trkpt>
      <trkpt lat="50.610875" lon="8.263445">
        <ele>315.851074</ele>
        <time>2022-11-01T12:19:35.063Z</time>
      </trkpt>
      <trkpt lat="50.610950" lon="8.262711">
        <ele>316.190277</ele>
        <time>2022-11-01T12:20:23.485Z</time>
      </trkpt>
      <trkpt lat="50.610430" lon="8.259385">
        <ele>319.390751</ele>
        <time>2022-11-01T12:24:11.281Z</time>
      </trkpt>
      <trkpt lat="50.610262" lon="8.258261">
        <ele>321.098193</ele>
        <time>2022-11-01T12:25:31.695Z</time>
      </trkpt>
      <trkpt lat="50.609889" lon="8.257294">
        <ele>323.509524</ele>
        <time>2022-11-01T12:26:52.012Z</time>
      </trkpt>
      <trkpt lat="50.609707" lon="8.256390">
        <ele>326.017605</ele>
        <time>2022-11-01T12:28:00.351Z</time>
      </trkpt>
      <trkpt lat="50.609682" lon="8.256230">
        <ele>326.453368</ele>
        <time>2022-11-01T12:28:12.627Z</time>
      </trkpt>
      <trkpt lat="50.609687" lon="8.256020">
        <ele>327.009112</ele>
        <time>2022-11-01T12:28:28.289Z</time>
      </trkpt>
      <trkpt lat="50.609776" lon="8.256036">
        <ele>327.382403</ele>
        <time>2022-11-01T12:28:38.453Z</time>
      </trkpt>
      <trkpt lat="50.609843" lon="8.255613">
        <ele>328.535358</ele>
        <time>2022-11-01T12:29:10.749Z</time>
      </trkpt>
      <trkpt lat="50.609722" lon="8.255137">
        <ele>330.197360</ele>
        <time>2022-11-01T12:29:49.280Z</time>
      </trkpt>
      <trkpt lat="50.609644" lon="8.254976">
        <ele>331.025374</ele>
        <time>2022-11-01T12:30:04.276Z</time>
      </trkpt>
      <trkpt lat="50.609017" lon="8.254375">
        <ele>335.752811</ele>
        <time>2022-11-01T12:31:32.284Z</time>
      </trkpt>
      <trkpt lat="50.608969" lon="8.254243">
        <ele>336.374725</ele>
        <time>2022-11-01T12:31:44.252Z</time>
      </trkpt>
      <trkpt lat="50.609013" lon="8.253900">
        <ele>337.805239</ele>
        <time>2022-11-01T12:32:12.036Z</time>
      </trkpt>
      <trkpt lat="50.608945" lon="8.253892">
        <ele>338.244489</ele>
        <time>2022-11-01T12:32:21.686Z</time>
      </trkpt>
      <trkpt lat="50.608777" lon="8.254126">
        <ele>339.688849</ele>
        <time>2022-11-01T12:32:48.993Z</time>
      </trkpt>
      <trkpt lat="50.608195" lon="8.255440">
        <ele>347.235225</ele>
        <time>2022-11-01T12:34:58.352Z</time>
      </trkpt>
      <trkpt lat="50.608113" lon="8.255747">
        <ele>348.851643</ele>
        <time>2022-11-01T12:35:26.705Z</time>
      </trkpt>
      <trkpt lat="50.608021" lon="8.256815">
        <ele>354.082073</ele>
        <time>2022-11-01T12:36:51.703Z</time>
      </trkpt>
      <trkpt lat="50.607969" lon="8.257077">
        <ele>355.091912</ele>
        <time>2022-11-01T12:37:12.141Z</time>
      </trkpt>
      <trkpt lat="50.607890" lon="8.257196">
        <ele>355.565166</ele>
        <time>2022-11-01T12:37:26.184Z</time>
      </trkpt>
      <trkpt lat="50.607831" lon="8.257231">
        <ele>355.838157</ele>
        <time>2022-11-01T12:37:33.912Z</time>
      </trkpt>
      <trkpt lat="50.607621" lon="8.257377">
        <ele>356.832091</ele>
        <time>2022-11-01T12:38:01.308Z</time>
      </trkpt>
      <trkpt lat="50.607549" lon="8.257232">
        <ele>357.338044</ele>
        <time>2022-11-01T12:38:15.694Z</time>
      </trkpt>
      <trkpt lat="50.607528" lon="8.256659">
        <ele>358.915333</ele>
        <time>2022-11-01T12:38:57.068Z</time>
      </trkpt>
      <trkpt lat="50.607450" lon="8.256315">
        <ele>359.919210</ele>
        <time>2022-11-01T12:39:22.836Z</time>
      </trkpt>
      <trkpt lat="50.607567" lon="8.256252">
        <ele>360.454615</ele>
        <time>2022-11-01T12:39:36.733Z</time>
      </trkpt>
      <trkpt lat="50.607762" lon="8.257216">
        <ele>362.785424</ele>
        <time>2022-11-01T12:40:48.007Z</time>
      </trkpt>
      <trkpt lat="50.607567" lon="8.256252">
        <ele>363.953555</ele>
        <time>2022-11-01T12:41:55.059Z</time>
      </trkpt>
      <trkpt lat="50.607494" lon="8.255862">
        <ele>364.422997</ele>
        <time>2022-11-01T12:42:21.991Z</time>
      </trkpt>
      <trkpt lat="50.607030" lon="8.253403">
        <ele>367.294223</ele>
        <time>2022-11-01T12:45:15.458Z</time>
      </trkpt>
      <trkpt lat="50.606964" lon="8.252829">
        <ele>367.930804</ele>
        <time>2022-11-01T12:45:54.805Z</time>
      </trkpt>
      <trkpt lat="50.606991" lon="8.251783">
        <ele>368.979197</ele>
        <time>2022-11-01T12:47:05.621Z</time>
      </trkpt>
      <trkpt lat="50.607420" lon="8.248978">
        <ele>370.661673</ele>
        <time>2022-11-01T12:50:15.492Z</time>
      </trkpt>
      <trkpt lat="50.607441" lon="8.248812">
        <ele>370.609240</ele>
        <time>2022-11-01T12:50:26.500Z</time>
      </trkpt>
      <trkpt lat="50.607822" lon="8.248132">
        <ele>370.328248</ele>
        <time>2022-11-01T12:51:24.712Z</time>
      </trkpt>
      <trkpt lat="50.607814" lon="8.246889">
        <ele>369.943184</ele>
        <time>2022-11-01T12:52:44.771Z</time>
      </trkpt>
      <trkpt lat="50.607648" lon="8.246269">
        <ele>369.427750</ele>
        <time>2022-11-01T12:53:28.826Z</time>
      </trkpt>
      <trkpt lat="50.607785" lon="8.246046">
        <ele>369.113677</ele>
        <time>2022-11-01T12:53:50.119Z</time>
      </trkpt>
      <trkpt lat="50.607754" lon="8.245940">
        <ele>368.995572</ele>
        <time>2022-11-01T12:53:57.681Z</time>
      </trkpt>
      <trkpt lat="50.607642" lon="8.245228">
        <ele>368.253280</ele>
        <time>2022-11-01T12:54:45.829Z</time>
      </trkpt>
      <trkpt lat="50.607736" lon="8.245152">
        <ele>368.084816</ele>
        <time>2022-11-01T12:54:57.429Z</time>
      </trkpt>
      <trkpt lat="50.607872" lon="8.244309">
        <ele>367.204635</ele>
        <time>2022-11-01T12:55:53.693Z</time>
      </trkpt>
      <trkpt lat="50.607953" lon="8.244087">
        <ele>366.985501</ele>
        <time>2022-11-01T12:56:11.179Z</time>
      </trkpt>
      <trkpt lat="50.608076" lon="8.243371">
        <ele>366.764408</ele>
        <time>2022-11-01T12:56:58.768Z</time>
      </trkpt>
      <trkpt lat="50.608106" lon="8.243230">
        <ele>366.720082</ele>
        <time>2022-11-01T12:57:08.553Z</time>
      </trkpt>
      <trkpt lat="50.608383" lon="8.241928">
        <ele>366.310781</ele>
        <time>2022-11-01T12:58:37.427Z</time>
      </trkpt>
      <trkpt lat="50.608441" lon="8.241828">
        <ele>366.270402</ele>
        <time>2022-11-01T12:58:46.255Z</time>
      </trkpt>
      <trkpt lat="50.608389" lon="8.241237">
        <ele>366.369363</ele>
        <time>2022-11-01T12:59:25.251Z</time>
      </trkpt>
      <trkpt lat="50.608296" lon="8.240866">
        <ele>366.757787</ele>
        <time>2022-11-01T12:59:51.442Z</time>
      </trkpt>
      <trkpt lat="50.608112" lon="8.240494">
        <ele>367.217053</ele>
        <time>2022-11-01T13:00:22.754Z</time>
      </trkpt>
      <trkpt lat="50.608141" lon="8.240390">
        <ele>367.327668</ele>
        <time>2022-11-01T13:00:30.173Z</time>
      </trkpt>
      <trkpt lat="50.608139" lon="8.240118">
        <ele>367.592548</ele>
        <time>2022-11-01T13:00:48.532Z</time>
      </trkpt>
      <trkpt lat="50.607960" lon="8.239720">
        <ele>368.067559</ele>
        <time>2022-11-01T13:01:21.850Z</time>
      </trkpt>
      <trkpt lat="50.607898" lon="8.238522">
        <ele>369.479810</ele>
        <time>2022-11-01T13:02:43.916Z</time>
      </trkpt>
      <trkpt lat="50.607810" lon="8.238018">
        <ele>370.372577</ele>
        <time>2022-11-01T13:03:19.801Z</time>
      </trkpt>
      <trkpt lat="50.607664" lon="8.237604">
        <ele>371.181487</ele>
        <time>2022-11-01T13:03:52.828Z</time>
      </trkpt>
      <trkpt lat="50.608042" lon="8.236952">
        <ele>372.689746</ele>
        <time>2022-11-01T13:04:54.011Z</time>
      </trkpt>
      <trkpt lat="50.608209" lon="8.236854">
        <ele>373.169331</ele>
        <time>2022-11-01T13:05:13.746Z</time>
      </trkpt>
      <trkpt lat="50.608389" lon="8.236853">
        <ele>373.653750</ele>
        <time>2022-11-01T13:05:33.500Z</time>
      </trkpt>
      <trkpt lat="50.608526" lon="8.236589">
        <ele>374.463867</ele>
        <time>2022-11-01T13:05:58.020Z</time>
      </trkpt>
      <trkpt lat="50.608533" lon="8.236093">
        <ele>375.714431</ele>
        <time>2022-11-01T13:06:33.874Z</time>
      </trkpt>
      <trkpt lat="50.608602" lon="8.235917">
        <ele>376.235898</ele>
        <time>2022-11-01T13:06:48.664Z</time>
      </trkpt>
      <trkpt lat="50.608733" lon="8.235806">
        <ele>376.826682</ele>
        <time>2022-11-01T13:07:05.591Z</time>
      </trkpt>
      <trkpt lat="50.608812" lon="8.235591">
        <ele>377.452912</ele>
        <time>2022-11-01T13:07:23.505Z</time>
      </trkpt>
      <trkpt lat="50.608786" lon="8.234943">
        <ele>379.089561</ele>
        <time>2022-11-01T13:08:10.951Z</time>
      </trkpt>
      <trkpt lat="50.609164" lon="8.235040">
        <ele>380.610745</ele>
        <time>2022-11-01T13:08:55.499Z</time>
      </trkpt>
      <trkpt lat="50.609439" lon="8.235429">
        <ele>380.901929</ele>
        <time>2022-11-01T13:09:37.931Z</time>
      </trkpt>
      <trkpt lat="50.609502" lon="8.235290">
        <ele>380.901929</ele>
        <time>2022-11-01T13:09:50.283Z</time>
      </trkpt>
      <trkpt lat="50.609960" lon="8.235544">
        <ele>380.901929</ele>
        <time>2022-11-01T13:10:45.346Z</time>
      </trkpt>
      <trkpt lat="50.610092" lon="8.235849">
        <ele>380.901929</ele>
        <time>2022-11-01T13:11:12.004Z</time>
      </trkpt>
    </trkseg>
  </trk>
</gpx>