<?xml version='1.0' encoding='UTF-8'?>
<gpx version="1.1" creator="https://www.komoot.de" xmlns="http://www.topografix.com/GPX/1/1" xmlns:xsi="http://www.w3.org/2001/XMLSchema-instance" xsi:schemaLocation="http://www.topografix.com/GPX/1/1 http://www.topografix.com/GPX/1/1/gpx.xsd">
  <metadata>
    <name>PW "Durch das Kerkerbachtal" Runkel an der Lahn 6km.</name>
    <author>
      <link href="https://www.komoot.de">
        <text>komoot</text>
        <type>text/html</type>
      </link>
    </author>
  </metadata>
  <trk>
    <name>PW "Durch das Kerkerbachtal" Runkel an der Lahn 6km.</name>
    <trkseg>
      <trkpt lat="50.405429" lon="8.154510">
        <ele>133.368364</ele>
        <time>2023-01-08T17:03:12.359Z</time>
      </trkpt>
      <trkpt lat="50.405608" lon="8.154486">
        <ele>133.368364</ele>
        <time>2023-01-08T17:03:27.253Z</time>
      </trkpt>
      <trkpt lat="50.405863" lon="8.154453">
        <ele>133.368364</ele>
        <time>2023-01-08T17:03:48.204Z</time>
      </trkpt>
      <trkpt lat="50.405716" lon="8.153432">
        <ele>133.571177</ele>
        <time>2023-01-08T17:04:41.904Z</time>
      </trkpt>
      <trkpt lat="50.405665" lon="8.152987">
        <ele>133.858622</ele>
        <time>2023-01-08T17:05:05.137Z</time>
      </trkpt>
      <trkpt lat="50.405620" lon="8.152757">
        <ele>134.011579</ele>
        <time>2023-01-08T17:05:17.651Z</time>
      </trkpt>
      <trkpt lat="50.405537" lon="8.152512">
        <ele>134.187973</ele>
        <time>2023-01-08T17:05:32.693Z</time>
      </trkpt>
      <trkpt lat="50.405402" lon="8.152356">
        <ele>134.355215</ele>
        <time>2023-01-08T17:05:46.195Z</time>
      </trkpt>
      <trkpt lat="50.405294" lon="8.152297">
        <ele>134.469287</ele>
        <time>2023-01-08T17:05:56.464Z</time>
      </trkpt>
      <trkpt lat="50.405378" lon="8.151875">
        <ele>134.750354</ele>
        <time>2023-01-08T17:06:20.428Z</time>
      </trkpt>
      <trkpt lat="50.405419" lon="8.151497">
        <ele>134.994123</ele>
        <time>2023-01-08T17:06:41.714Z</time>
      </trkpt>
      <trkpt lat="50.405437" lon="8.151334">
        <ele>135.099294</ele>
        <time>2023-01-08T17:06:50.650Z</time>
      </trkpt>
      <trkpt lat="50.405421" lon="8.150563">
        <ele>134.799911</ele>
        <time>2023-01-08T17:07:33.181Z</time>
      </trkpt>
      <trkpt lat="50.405364" lon="8.150496">
        <ele>134.739618</ele>
        <time>2023-01-08T17:07:39.504Z</time>
      </trkpt>
      <trkpt lat="50.405333" lon="8.150384">
        <ele>134.673736</ele>
        <time>2023-01-08T17:07:45.903Z</time>
      </trkpt>
      <trkpt lat="50.405155" lon="8.149548">
        <ele>134.198167</ele>
        <time>2023-01-08T17:08:31.725Z</time>
      </trkpt>
      <trkpt lat="50.405333" lon="8.150384">
        <ele>133.722598</ele>
        <time>2023-01-08T17:09:19.211Z</time>
      </trkpt>
      <trkpt lat="50.405364" lon="8.150496">
        <ele>133.656716</ele>
        <time>2023-01-08T17:09:26.081Z</time>
      </trkpt>
      <trkpt lat="50.405421" lon="8.150563">
        <ele>133.434407</ele>
        <time>2023-01-08T17:09:32.480Z</time>
      </trkpt>
      <trkpt lat="50.405392" lon="8.150327">
        <ele>132.820912</ele>
        <time>2023-01-08T17:09:45.359Z</time>
      </trkpt>
      <trkpt lat="50.405237" lon="8.149568">
        <ele>130.786503</ele>
        <time>2023-01-08T17:10:30.193Z</time>
      </trkpt>
      <trkpt lat="50.404905" lon="8.148541">
        <ele>127.847094</ele>
        <time>2023-01-08T17:11:34.198Z</time>
      </trkpt>
      <trkpt lat="50.405029" lon="8.148444">
        <ele>127.292181</ele>
        <time>2023-01-08T17:11:46.225Z</time>
      </trkpt>
      <trkpt lat="50.404981" lon="8.148349">
        <ele>126.982732</ele>
        <time>2023-01-08T17:11:52.561Z</time>
      </trkpt>
      <trkpt lat="50.404932" lon="8.148340">
        <ele>126.785150</ele>
        <time>2023-01-08T17:11:56.824Z</time>
      </trkpt>
      <trkpt lat="50.404896" lon="8.148293">
        <ele>126.597587</ele>
        <time>2023-01-08T17:12:00.889Z</time>
      </trkpt>
      <trkpt lat="50.404855" lon="8.148163">
        <ele>126.386827</ele>
        <time>2023-01-08T17:12:08.929Z</time>
      </trkpt>
      <trkpt lat="50.404896" lon="8.148293">
        <ele>126.299024</ele>
        <time>2023-01-08T17:12:16.940Z</time>
      </trkpt>
      <trkpt lat="50.404932" lon="8.148340">
        <ele>126.254543</ele>
        <time>2023-01-08T17:12:20.848Z</time>
      </trkpt>
      <trkpt lat="50.404981" lon="8.148349">
        <ele>126.207686</ele>
        <time>2023-01-08T17:12:24.978Z</time>
      </trkpt>
      <trkpt lat="50.405029" lon="8.148444">
        <ele>126.134299</ele>
        <time>2023-01-08T17:12:31.499Z</time>
      </trkpt>
      <trkpt lat="50.405196" lon="8.148363">
        <ele>125.968279</ele>
        <time>2023-01-08T17:12:46.344Z</time>
      </trkpt>
      <trkpt lat="50.405048" lon="8.148089">
        <ele>125.750861</ele>
        <time>2023-01-08T17:13:05.138Z</time>
      </trkpt>
      <trkpt lat="50.404483" lon="8.147491">
        <ele>125.103550</ele>
        <time>2023-01-08T17:13:59.989Z</time>
      </trkpt>
      <trkpt lat="50.404240" lon="8.147129">
        <ele>124.785290</ele>
        <time>2023-01-08T17:14:27.690Z</time>
      </trkpt>
      <trkpt lat="50.402948" lon="8.144675">
        <ele>124.821375</ele>
        <time>2023-01-08T17:17:11.238Z</time>
      </trkpt>
      <trkpt lat="50.402435" lon="8.143363">
        <ele>123.780208</ele>
        <time>2023-01-08T17:18:31.298Z</time>
      </trkpt>
      <trkpt lat="50.402404" lon="8.143242">
        <ele>123.691994</ele>
        <time>2023-01-08T17:18:38.164Z</time>
      </trkpt>
      <trkpt lat="50.402331" lon="8.142950">
        <ele>123.479824</ele>
        <time>2023-01-08T17:18:54.801Z</time>
      </trkpt>
      <trkpt lat="50.402272" lon="8.142466">
        <ele>123.146493</ele>
        <time>2023-01-08T17:19:21.027Z</time>
      </trkpt>
      <trkpt lat="50.402111" lon="8.142511">
        <ele>122.927025</ele>
        <time>2023-01-08T17:19:34.339Z</time>
      </trkpt>
      <trkpt lat="50.402004" lon="8.142488">
        <ele>122.768507</ele>
        <time>2023-01-08T17:19:43.405Z</time>
      </trkpt>
      <trkpt lat="50.401970" lon="8.142442">
        <ele>122.702610</ele>
        <time>2023-01-08T17:19:47.315Z</time>
      </trkpt>
      <trkpt lat="50.401229" lon="8.140496">
        <ele>120.581885</ele>
        <time>2023-01-08T17:21:46.569Z</time>
      </trkpt>
      <trkpt lat="50.400780" lon="8.136166">
        <ele>119.153485</ele>
        <time>2023-01-08T17:25:34.106Z</time>
      </trkpt>
      <trkpt lat="50.400885" lon="8.134684">
        <ele>119.528134</ele>
        <time>2023-01-08T17:26:53.064Z</time>
      </trkpt>
      <trkpt lat="50.401005" lon="8.133488">
        <ele>121.313271</ele>
        <time>2023-01-08T17:28:00.019Z</time>
      </trkpt>
      <trkpt lat="50.401082" lon="8.133017">
        <ele>122.030206</ele>
        <time>2023-01-08T17:28:27.165Z</time>
      </trkpt>
      <trkpt lat="50.401054" lon="8.132573">
        <ele>122.688050</ele>
        <time>2023-01-08T17:28:52.092Z</time>
      </trkpt>
      <trkpt lat="50.401099" lon="8.132182">
        <ele>123.273875</ele>
        <time>2023-01-08T17:29:14.192Z</time>
      </trkpt>
      <trkpt lat="50.401075" lon="8.132073">
        <ele>123.443906</ele>
        <time>2023-01-08T17:29:20.721Z</time>
      </trkpt>
      <trkpt lat="50.400930" lon="8.131762">
        <ele>123.630060</ele>
        <time>2023-01-08T17:29:42.164Z</time>
      </trkpt>
      <trkpt lat="50.400592" lon="8.131107">
        <ele>123.853328</ele>
        <time>2023-01-08T17:30:28.946Z</time>
      </trkpt>
      <trkpt lat="50.400686" lon="8.130591">
        <ele>123.995506</ele>
        <time>2023-01-08T17:30:56.902Z</time>
      </trkpt>
      <trkpt lat="50.401052" lon="8.129206">
        <ele>123.747612</ele>
        <time>2023-01-08T17:32:16.164Z</time>
      </trkpt>
      <trkpt lat="50.401953" lon="8.129835">
        <ele>121.479741</ele>
        <time>2023-01-08T17:33:39.439Z</time>
      </trkpt>
      <trkpt lat="50.401467" lon="8.131540">
        <ele>119.828712</ele>
        <time>2023-01-08T17:35:19.147Z</time>
      </trkpt>
      <trkpt lat="50.401594" lon="8.132267">
        <ele>119.571935</ele>
        <time>2023-01-08T17:35:57.711Z</time>
      </trkpt>
      <trkpt lat="50.401608" lon="8.132707">
        <ele>119.421868</ele>
        <time>2023-01-08T17:36:20.658Z</time>
      </trkpt>
      <trkpt lat="50.401856" lon="8.133608">
        <ele>119.347564</ele>
        <time>2023-01-08T17:37:12.027Z</time>
      </trkpt>
      <trkpt lat="50.401852" lon="8.133923">
        <ele>119.496440</ele>
        <time>2023-01-08T17:37:28.498Z</time>
      </trkpt>
      <trkpt lat="50.402045" lon="8.135611">
        <ele>120.306797</ele>
        <time>2023-01-08T17:38:58.011Z</time>
      </trkpt>
      <trkpt lat="50.402117" lon="8.135934">
        <ele>120.468487</ele>
        <time>2023-01-08T17:39:15.862Z</time>
      </trkpt>
      <trkpt lat="50.402254" lon="8.135994">
        <ele>120.719626</ele>
        <time>2023-01-08T17:39:27.534Z</time>
      </trkpt>
      <trkpt lat="50.402362" lon="8.136041">
        <ele>121.077491</ele>
        <time>2023-01-08T17:39:36.652Z</time>
      </trkpt>
      <trkpt lat="50.402383" lon="8.136036">
        <ele>121.145311</ele>
        <time>2023-01-08T17:39:38.371Z</time>
      </trkpt>
      <trkpt lat="50.402484" lon="8.136012">
        <ele>121.471483</ele>
        <time>2023-01-08T17:39:47.041Z</time>
      </trkpt>
      <trkpt lat="50.402631" lon="8.136029">
        <ele>121.942128</ele>
        <time>2023-01-08T17:39:59.501Z</time>
      </trkpt>
      <trkpt lat="50.402702" lon="8.136245">
        <ele>122.436740</ele>
        <time>2023-01-08T17:40:12.676Z</time>
      </trkpt>
      <trkpt lat="50.402827" lon="8.136523">
        <ele>123.129133</ele>
        <time>2023-01-08T17:40:31.487Z</time>
      </trkpt>
      <trkpt lat="50.403262" lon="8.137438">
        <ele>125.452256</ele>
        <time>2023-01-08T17:41:36.947Z</time>
      </trkpt>
      <trkpt lat="50.403316" lon="8.137551">
        <ele>125.739688</ele>
        <time>2023-01-08T17:41:45.347Z</time>
      </trkpt>
      <trkpt lat="50.403680" lon="8.137960">
        <ele>128.272674</ele>
        <time>2023-01-08T17:42:29.081Z</time>
      </trkpt>
      <trkpt lat="50.404453" lon="8.138365">
        <ele>134.078287</ele>
        <time>2023-01-08T17:43:52.183Z</time>
      </trkpt>
      <trkpt lat="50.404935" lon="8.138627">
        <ele>137.712181</ele>
        <time>2023-01-08T17:44:44.224Z</time>
      </trkpt>
      <trkpt lat="50.405790" lon="8.139231">
        <ele>142.229979</ele>
        <time>2023-01-08T17:46:14.916Z</time>
      </trkpt>
      <trkpt lat="50.406075" lon="8.139384">
        <ele>143.501456</ele>
        <time>2023-01-08T17:46:42.246Z</time>
      </trkpt>
      <trkpt lat="50.406283" lon="8.139398">
        <ele>144.380249</ele>
        <time>2023-01-08T17:47:00.781Z</time>
      </trkpt>
      <trkpt lat="50.406540" lon="8.139308">
        <ele>145.491759</ele>
        <time>2023-01-08T17:47:23.602Z</time>
      </trkpt>
      <trkpt lat="50.407027" lon="8.138891">
        <ele>147.067210</ele>
        <time>2023-01-08T17:48:10.449Z</time>
      </trkpt>
      <trkpt lat="50.407284" lon="8.138801">
        <ele>147.441360</ele>
        <time>2023-01-08T17:48:32.891Z</time>
      </trkpt>
      <trkpt lat="50.407492" lon="8.138828">
        <ele>147.737912</ele>
        <time>2023-01-08T17:48:50.659Z</time>
      </trkpt>
      <trkpt lat="50.407770" lon="8.138946">
        <ele>148.147113</ele>
        <time>2023-01-08T17:49:15.451Z</time>
      </trkpt>
      <trkpt lat="50.407869" lon="8.139028">
        <ele>148.306176</ele>
        <time>2023-01-08T17:49:25.039Z</time>
      </trkpt>
      <trkpt lat="50.408208" lon="8.139308">
        <ele>148.850512</ele>
        <time>2023-01-08T17:49:57.109Z</time>
      </trkpt>
      <trkpt lat="50.408730" lon="8.139850">
        <ele>148.382429</ele>
        <time>2023-01-08T17:50:47.636Z</time>
      </trkpt>
      <trkpt lat="50.409154" lon="8.140121">
        <ele>147.287511</ele>
        <time>2023-01-08T17:51:24.900Z</time>
      </trkpt>
      <trkpt lat="50.409487" lon="8.140135">
        <ele>146.490835</ele>
        <time>2023-01-08T17:51:53.273Z</time>
      </trkpt>
      <trkpt lat="50.410465" lon="8.139771">
        <ele>143.293436</ele>
        <time>2023-01-08T17:53:21.504Z</time>
      </trkpt>
      <trkpt lat="50.410743" lon="8.139754">
        <ele>142.003531</ele>
        <time>2023-01-08T17:53:46.593Z</time>
      </trkpt>
      <trkpt lat="50.410978" lon="8.139936">
        <ele>140.788492</ele>
        <time>2023-01-08T17:54:10.051Z</time>
      </trkpt>
      <trkpt lat="50.411360" lon="8.140588">
        <ele>138.171616</ele>
        <time>2023-01-08T17:54:59.520Z</time>
      </trkpt>
      <trkpt lat="50.411499" lon="8.141187">
        <ele>136.534176</ele>
        <time>2023-01-08T17:55:34.553Z</time>
      </trkpt>
      <trkpt lat="50.411534" lon="8.141908">
        <ele>136.121241</ele>
        <time>2023-01-08T17:56:13.282Z</time>
      </trkpt>
      <trkpt lat="50.411499" lon="8.142673">
        <ele>135.683247</ele>
        <time>2023-01-08T17:56:52.763Z</time>
      </trkpt>
      <trkpt lat="50.411261" lon="8.143907">
        <ele>135.046241</ele>
        <time>2023-01-08T17:57:59.509Z</time>
      </trkpt>
      <trkpt lat="50.411305" lon="8.144710">
        <ele>135.915923</ele>
        <time>2023-01-08T17:58:41.734Z</time>
      </trkpt>
      <trkpt lat="50.411383" lon="8.145330">
        <ele>136.597851</ele>
        <time>2023-01-08T17:59:15.063Z</time>
      </trkpt>
      <trkpt lat="50.411442" lon="8.145797">
        <ele>137.111577</ele>
        <time>2023-01-08T17:59:40.962Z</time>
      </trkpt>
      <trkpt lat="50.411535" lon="8.146153">
        <ele>137.526744</ele>
        <time>2023-01-08T18:00:02.169Z</time>
      </trkpt>
      <trkpt lat="50.411745" lon="8.146739">
        <ele>138.871873</ele>
        <time>2023-01-08T18:00:40.337Z</time>
      </trkpt>
      <trkpt lat="50.411754" lon="8.146914">
        <ele>139.582360</ele>
        <time>2023-01-08T18:00:50.355Z</time>
      </trkpt>
      <trkpt lat="50.411781" lon="8.147001">
        <ele>139.973959</ele>
        <time>2023-01-08T18:00:55.886Z</time>
      </trkpt>
      <trkpt lat="50.412019" lon="8.147526">
        <ele>142.581232</ele>
        <time>2023-01-08T18:01:33.718Z</time>
      </trkpt>
      <trkpt lat="50.412017" lon="8.147702">
        <ele>143.293573</ele>
        <time>2023-01-08T18:01:44.545Z</time>
      </trkpt>
      <trkpt lat="50.411649" lon="8.148743">
        <ele>148.111005</ele>
        <time>2023-01-08T18:03:01.051Z</time>
      </trkpt>
      <trkpt lat="50.411198" lon="8.149846">
        <ele>154.722678</ele>
        <time>2023-01-08T18:04:30.222Z</time>
      </trkpt>
      <trkpt lat="50.411043" lon="8.150142">
        <ele>156.784515</ele>
        <time>2023-01-08T18:04:56.828Z</time>
      </trkpt>
      <trkpt lat="50.410484" lon="8.151130">
        <ele>163.895040</ele>
        <time>2023-01-08T18:06:23.839Z</time>
      </trkpt>
      <trkpt lat="50.410338" lon="8.152171">
        <ele>165.644379</ele>
        <time>2023-01-08T18:07:25.480Z</time>
      </trkpt>
      <trkpt lat="50.410164" lon="8.152837">
        <ele>166.424887</ele>
        <time>2023-01-08T18:08:02.529Z</time>
      </trkpt>
      <trkpt lat="50.410124" lon="8.152854">
        <ele>166.495400</ele>
        <time>2023-01-08T18:08:05.903Z</time>
      </trkpt>
      <trkpt lat="50.410010" lon="8.152900">
        <ele>166.695683</ele>
        <time>2023-01-08T18:08:15.596Z</time>
      </trkpt>
      <trkpt lat="50.409138" lon="8.153328">
        <ele>168.197985</ele>
        <time>2023-01-08T18:09:29.302Z</time>
      </trkpt>
      <trkpt lat="50.409224" lon="8.153717">
        <ele>168.602122</ele>
        <time>2023-01-08T18:09:51.426Z</time>
      </trkpt>
      <trkpt lat="50.409459" lon="8.154470">
        <ele>169.425075</ele>
        <time>2023-01-08T18:10:36.539Z</time>
      </trkpt>
      <trkpt lat="50.409791" lon="8.155288">
        <ele>170.376958</ele>
        <time>2023-01-08T18:11:30.677Z</time>
      </trkpt>
      <trkpt lat="50.409957" lon="8.155602">
        <ele>169.756904</ele>
        <time>2023-01-08T18:11:54.520Z</time>
      </trkpt>
      <trkpt lat="50.410081" lon="8.155836">
        <ele>169.067526</ele>
        <time>2023-01-08T18:12:11.102Z</time>
      </trkpt>
      <trkpt lat="50.409929" lon="8.156025">
        <ele>168.378174</ele>
        <time>2023-01-08T18:12:27.963Z</time>
      </trkpt>
      <trkpt lat="50.409723" lon="8.156317">
        <ele>167.391420</ele>
        <time>2023-01-08T18:12:50.575Z</time>
      </trkpt>
      <trkpt lat="50.409669" lon="8.156394">
        <ele>167.132062</ele>
        <time>2023-01-08T18:12:56.945Z</time>
      </trkpt>
      <trkpt lat="50.409458" lon="8.156932">
        <ele>165.701058</ele>
        <time>2023-01-08T18:13:32.955Z</time>
      </trkpt>
      <trkpt lat="50.409392" lon="8.156850">
        <ele>165.401825</ele>
        <time>2023-01-08T18:13:40.564Z</time>
      </trkpt>
      <trkpt lat="50.409171" lon="8.156573">
        <ele>164.396430</ele>
        <time>2023-01-08T18:14:07.431Z</time>
      </trkpt>
      <trkpt lat="50.409071" lon="8.156432">
        <ele>163.487847</ele>
        <time>2023-01-08T18:14:20.307Z</time>
      </trkpt>
      <trkpt lat="50.408749" lon="8.156110">
        <ele>158.408347</ele>
        <time>2023-01-08T18:14:58.682Z</time>
      </trkpt>
      <trkpt lat="50.408625" lon="8.155949">
        <ele>156.267269</ele>
        <time>2023-01-08T18:15:15.427Z</time>
      </trkpt>
      <trkpt lat="50.408457" lon="8.156286">
        <ele>152.639888</ele>
        <time>2023-01-08T18:15:42.534Z</time>
      </trkpt>
      <trkpt lat="50.408373" lon="8.156379">
        <ele>151.272273</ele>
        <time>2023-01-08T18:15:53.621Z</time>
      </trkpt>
      <trkpt lat="50.408201" lon="8.156440">
        <ele>148.926446</ele>
        <time>2023-01-08T18:16:11.320Z</time>
      </trkpt>
      <trkpt lat="50.408123" lon="8.156527">
        <ele>147.653366</ele>
        <time>2023-01-08T18:16:21.063Z</time>
      </trkpt>
      <trkpt lat="50.408028" lon="8.156977">
        <ele>143.634318</ele>
        <time>2023-01-08T18:16:52.738Z</time>
      </trkpt>
      <trkpt lat="50.407806" lon="8.157939">
        <ele>136.718247</ele>
        <time>2023-01-08T18:17:59.040Z</time>
      </trkpt>
      <trkpt lat="50.407335" lon="8.157813">
        <ele>132.516081</ele>
        <time>2023-01-08T18:18:44.820Z</time>
      </trkpt>
      <trkpt lat="50.407213" lon="8.157707">
        <ele>131.289584</ele>
        <time>2023-01-08T18:18:57.970Z</time>
      </trkpt>
      <trkpt lat="50.407121" lon="8.157628">
        <ele>130.367210</ele>
        <time>2023-01-08T18:19:07.973Z</time>
      </trkpt>
      <trkpt lat="50.406938" lon="8.157999">
        <ele>127.737594</ele>
        <time>2023-01-08T18:19:34.818Z</time>
      </trkpt>
      <trkpt lat="50.406599" lon="8.158468">
        <ele>124.368850</ele>
        <time>2023-01-08T18:20:14.180Z</time>
      </trkpt>
      <trkpt lat="50.406526" lon="8.158371">
        <ele>124.427324</ele>
        <time>2023-01-08T18:20:22.133Z</time>
      </trkpt>
      <trkpt lat="50.406228" lon="8.158353">
        <ele>124.609617</ele>
        <time>2023-01-08T18:20:47.261Z</time>
      </trkpt>
      <trkpt lat="50.405785" lon="8.158591">
        <ele>124.895844</ele>
        <time>2023-01-08T18:21:24.893Z</time>
      </trkpt>
      <trkpt lat="50.405771" lon="8.158431">
        <ele>124.958763</ele>
        <time>2023-01-08T18:21:33.892Z</time>
      </trkpt>
      <trkpt lat="50.405767" lon="8.158410">
        <ele>124.967302</ele>
        <time>2023-01-08T18:21:35.160Z</time>
      </trkpt>
      <trkpt lat="50.405687" lon="8.157306">
        <ele>125.400181</ele>
        <time>2023-01-08T18:22:38.516Z</time>
      </trkpt>
      <trkpt lat="50.405660" lon="8.157189">
        <ele>125.428911</ele>
        <time>2023-01-08T18:22:45.687Z</time>
      </trkpt>
      <trkpt lat="50.405947" lon="8.156887">
        <ele>125.428911</ele>
        <time>2023-01-08T18:23:16.856Z</time>
      </trkpt>
      <trkpt lat="50.406246" lon="8.156476">
        <ele>125.428911</ele>
        <time>2023-01-08T18:23:52.761Z</time>
      </trkpt>
      <trkpt lat="50.406286" lon="8.156351">
        <ele>125.428911</ele>
        <time>2023-01-08T18:24:01.295Z</time>
      </trkpt>
      <trkpt lat="50.406301" lon="8.156156">
        <ele>125.428911</ele>
        <time>2023-01-08T18:24:12.628Z</time>
      </trkpt>
      <trkpt lat="50.406165" lon="8.155751">
        <ele>125.428911</ele>
        <time>2023-01-08T18:24:39.346Z</time>
      </trkpt>
      <trkpt lat="50.406051" lon="8.155146">
        <ele>125.428911</ele>
        <time>2023-01-08T18:25:15.542Z</time>
      </trkpt>
      <trkpt lat="50.405863" lon="8.154453">
        <ele>125.428911</ele>
        <time>2023-01-08T18:25:57.042Z</time>
      </trkpt>
      <trkpt lat="50.405608" lon="8.154486">
        <ele>125.428911</ele>
        <time>2023-01-08T18:26:18.561Z</time>
      </trkpt>
    </trkseg>
  </trk>
</gpx>