<?xml version="1.0" encoding="UTF-8"?>
<!-- track-length = 20323 filtered ascend = 409 plain-ascend = 19 cost=26146 energy=0.1kwh time=4h 6m 59s -->
<gpx 
 xmlns="http://www.topografix.com/GPX/1/1" 
 xmlns:xsi="http://www.w3.org/2001/XMLSchema-instance" 
 xsi:schemaLocation="http://www.topografix.com/GPX/1/1 http://www.topografix.com/GPX/1/1/gpx.xsd" 
 version="1.1" 
 creator="BRouter-Web 0.18.1">
 <trk>
  <name>PW-406-HE-22km-gpx.gpx</name>
  <trkseg>
   <trkpt lat="50.079321" lon="8.211435"><ele>171.25</ele></trkpt>
   <trkpt lat="50.081244" lon="8.210852"><ele>171.75</ele></trkpt>
   <trkpt lat="50.081275" lon="8.210838"><ele>171.75</ele></trkpt>
   <trkpt lat="50.08272" lon="8.210167"><ele>170.75</ele></trkpt>
   <trkpt lat="50.083649" lon="8.209708"><ele>171</ele></trkpt>
   <trkpt lat="50.083713" lon="8.209749"><ele>170.5</ele></trkpt>
   <trkpt lat="50.083772" lon="8.209792"><ele>170</ele></trkpt>
   <trkpt lat="50.084016" lon="8.209183"><ele>174</ele></trkpt>
   <trkpt lat="50.084194" lon="8.20874"><ele>177.25</ele></trkpt>
   <trkpt lat="50.084549" lon="8.209148"><ele>172.25</ele></trkpt>
   <trkpt lat="50.084649" lon="8.209251"><ele>170.75</ele></trkpt>
   <trkpt lat="50.084671" lon="8.209272"><ele>170.5</ele></trkpt>
   <trkpt lat="50.084771" lon="8.209287"><ele>170</ele></trkpt>
   <trkpt lat="50.085024" lon="8.209263"><ele>169</ele></trkpt>
   <trkpt lat="50.08521" lon="8.209234"><ele>168.25</ele></trkpt>
   <trkpt lat="50.086198" lon="8.209082"><ele>165.25</ele></trkpt>
   <trkpt lat="50.086252" lon="8.209064"><ele>165.25</ele></trkpt>
   <trkpt lat="50.086696" lon="8.208888"><ele>166.25</ele></trkpt>
   <trkpt lat="50.087815" lon="8.208446"><ele>168</ele></trkpt>
   <trkpt lat="50.088064" lon="8.208348"><ele>168.25</ele></trkpt>
   <trkpt lat="50.088279" lon="8.207908"><ele>170.5</ele></trkpt>
   <trkpt lat="50.088176" lon="8.207467"><ele>173</ele></trkpt>
   <trkpt lat="50.087859" lon="8.2061"><ele>179.25</ele></trkpt>
   <trkpt lat="50.08776" lon="8.205671"><ele>181.5</ele></trkpt>
   <trkpt lat="50.087694" lon="8.20532"><ele>182.75</ele></trkpt>
   <trkpt lat="50.087659" lon="8.204696"><ele>184.75</ele></trkpt>
   <trkpt lat="50.087884" lon="8.203113"><ele>189</ele></trkpt>
   <trkpt lat="50.088292" lon="8.203018"><ele>189.25</ele></trkpt>
   <trkpt lat="50.088219" lon="8.202016"><ele>190.75</ele></trkpt>
   <trkpt lat="50.08818" lon="8.201487"><ele>192.25</ele></trkpt>
   <trkpt lat="50.08819" lon="8.201433"><ele>192.5</ele></trkpt>
   <trkpt lat="50.088287" lon="8.200885"><ele>194.75</ele></trkpt>
   <trkpt lat="50.088809" lon="8.20073"><ele>198.75</ele></trkpt>
   <trkpt lat="50.088885" lon="8.200722"><ele>199.25</ele></trkpt>
   <trkpt lat="50.088882" lon="8.200671"><ele>199.25</ele></trkpt>
   <trkpt lat="50.088879" lon="8.20062"><ele>199.5</ele></trkpt>
   <trkpt lat="50.088849" lon="8.200323"><ele>200.25</ele></trkpt>
   <trkpt lat="50.088803" lon="8.199867"><ele>201.75</ele></trkpt>
   <trkpt lat="50.08879" lon="8.199739"><ele>202.25</ele></trkpt>
   <trkpt lat="50.088776" lon="8.199603"><ele>202.75</ele></trkpt>
   <trkpt lat="50.088734" lon="8.199181"><ele>204.25</ele></trkpt>
   <trkpt lat="50.088761" lon="8.199056"><ele>204.75</ele></trkpt>
   <trkpt lat="50.088942" lon="8.19822"><ele>208</ele></trkpt>
   <trkpt lat="50.08941" lon="8.196058"><ele>224.5</ele></trkpt>
   <trkpt lat="50.08936" lon="8.19564"><ele>225.75</ele></trkpt>
   <trkpt lat="50.089332" lon="8.195276"><ele>226.75</ele></trkpt>
   <trkpt lat="50.089422" lon="8.195137"><ele>228.25</ele></trkpt>
   <trkpt lat="50.089429" lon="8.194629"><ele>234</ele></trkpt>
   <trkpt lat="50.089517" lon="8.19431"><ele>239</ele></trkpt>
   <trkpt lat="50.089705" lon="8.194166"><ele>242</ele></trkpt>
   <trkpt lat="50.089765" lon="8.194121"><ele>243</ele></trkpt>
   <trkpt lat="50.090161" lon="8.194061"><ele>246</ele></trkpt>
   <trkpt lat="50.090683" lon="8.194074"><ele>248.75</ele></trkpt>
   <trkpt lat="50.090939" lon="8.194255"><ele>247.75</ele></trkpt>
   <trkpt lat="50.091274" lon="8.194311"><ele>245.5</ele></trkpt>
   <trkpt lat="50.091411" lon="8.194317"><ele>244.75</ele></trkpt>
   <trkpt lat="50.092382" lon="8.193867"><ele>241.5</ele></trkpt>
   <trkpt lat="50.092686" lon="8.193727"><ele>240.5</ele></trkpt>
   <trkpt lat="50.094137" lon="8.188653"><ele>248.75</ele></trkpt>
   <trkpt lat="50.094144" lon="8.188573"><ele>249</ele></trkpt>
   <trkpt lat="50.094394" lon="8.187124"><ele>248</ele></trkpt>
   <trkpt lat="50.094311" lon="8.1869"><ele>248.75</ele></trkpt>
   <trkpt lat="50.094365" lon="8.18654"><ele>248.75</ele></trkpt>
   <trkpt lat="50.094261" lon="8.186216"><ele>250.25</ele></trkpt>
   <trkpt lat="50.094128" lon="8.185799"><ele>252.5</ele></trkpt>
   <trkpt lat="50.094241" lon="8.185119"><ele>253.25</ele></trkpt>
   <trkpt lat="50.094728" lon="8.185632"><ele>249.5</ele></trkpt>
   <trkpt lat="50.094913" lon="8.185826"><ele>248.25</ele></trkpt>
   <trkpt lat="50.094954" lon="8.184802"><ele>252.75</ele></trkpt>
   <trkpt lat="50.09511" lon="8.184207"><ele>257.25</ele></trkpt>
   <trkpt lat="50.09531" lon="8.183815"><ele>259.75</ele></trkpt>
   <trkpt lat="50.095822" lon="8.183436"><ele>261.25</ele></trkpt>
   <trkpt lat="50.096163" lon="8.182468"><ele>265</ele></trkpt>
   <trkpt lat="50.096472" lon="8.18141"><ele>268.5</ele></trkpt>
   <trkpt lat="50.096672" lon="8.18038"><ele>269.75</ele></trkpt>
   <trkpt lat="50.096685" lon="8.179739"><ele>272</ele></trkpt>
   <trkpt lat="50.096775" lon="8.179248"><ele>273.5</ele></trkpt>
   <trkpt lat="50.097197" lon="8.176974"><ele>281.25</ele></trkpt>
   <trkpt lat="50.097361" lon="8.175271"><ele>290</ele></trkpt>
   <trkpt lat="50.09767" lon="8.174389"><ele>289</ele></trkpt>
   <trkpt lat="50.097715" lon="8.173256"><ele>291.25</ele></trkpt>
   <trkpt lat="50.097683" lon="8.172993"><ele>291.25</ele></trkpt>
   <trkpt lat="50.097655" lon="8.172613"><ele>291.25</ele></trkpt>
   <trkpt lat="50.09767" lon="8.17239"><ele>290.75</ele></trkpt>
   <trkpt lat="50.09726" lon="8.170666"><ele>293.75</ele></trkpt>
   <trkpt lat="50.097142" lon="8.17015"><ele>295</ele></trkpt>
   <trkpt lat="50.097168" lon="8.16995"><ele>295.5</ele></trkpt>
   <trkpt lat="50.097154" lon="8.169885"><ele>296.25</ele></trkpt>
   <trkpt lat="50.097142" lon="8.169819"><ele>297</ele></trkpt>
   <trkpt lat="50.097093" lon="8.169934"><ele>296</ele></trkpt>
   <trkpt lat="50.097055" lon="8.16972"><ele>298.5</ele></trkpt>
   <trkpt lat="50.097059" lon="8.169625"><ele>299.5</ele></trkpt>
   <trkpt lat="50.097065" lon="8.16948"><ele>301</ele></trkpt>
   <trkpt lat="50.097121" lon="8.169472"><ele>301</ele></trkpt>
   <trkpt lat="50.097161" lon="8.169464"><ele>301</ele></trkpt>
   <trkpt lat="50.097359" lon="8.16929"><ele>302</ele></trkpt>
   <trkpt lat="50.097551" lon="8.169059"><ele>303.75</ele></trkpt>
   <trkpt lat="50.097766" lon="8.168844"><ele>305.25</ele></trkpt>
   <trkpt lat="50.097915" lon="8.168707"><ele>306</ele></trkpt>
   <trkpt lat="50.098085" lon="8.168509"><ele>307.75</ele></trkpt>
   <trkpt lat="50.098317" lon="8.168329"><ele>309</ele></trkpt>
   <trkpt lat="50.098493" lon="8.16814"><ele>311.25</ele></trkpt>
   <trkpt lat="50.099536" lon="8.166396"><ele>327.5</ele></trkpt>
   <trkpt lat="50.099796" lon="8.16505"><ele>335.25</ele></trkpt>
   <trkpt lat="50.099808" lon="8.16499"><ele>335.75</ele></trkpt>
   <trkpt lat="50.099863" lon="8.16473"><ele>337.5</ele></trkpt>
   <trkpt lat="50.099968" lon="8.164396"><ele>340</ele></trkpt>
   <trkpt lat="50.100099" lon="8.164152"><ele>341.75</ele></trkpt>
   <trkpt lat="50.100318" lon="8.164007"><ele>342.5</ele></trkpt>
   <trkpt lat="50.100563" lon="8.163993"><ele>342.5</ele></trkpt>
   <trkpt lat="50.100741" lon="8.164006"><ele>342.25</ele></trkpt>
   <trkpt lat="50.100926" lon="8.164217"><ele>339.5</ele></trkpt>
   <trkpt lat="50.101145" lon="8.164353"><ele>338.25</ele></trkpt>
   <trkpt lat="50.101307" lon="8.164342"><ele>339.25</ele></trkpt>
   <trkpt lat="50.10176" lon="8.163957"><ele>347</ele></trkpt>
   <trkpt lat="50.102215" lon="8.163396"><ele>351</ele></trkpt>
   <trkpt lat="50.102433" lon="8.163123"><ele>350.75</ele></trkpt>
   <trkpt lat="50.102597" lon="8.162807"><ele>353</ele></trkpt>
   <trkpt lat="50.102803" lon="8.162065"><ele>358.5</ele></trkpt>
   <trkpt lat="50.103129" lon="8.16094"><ele>364.75</ele></trkpt>
   <trkpt lat="50.103272" lon="8.160538"><ele>366.5</ele></trkpt>
   <trkpt lat="50.103285" lon="8.160503"><ele>366.75</ele></trkpt>
   <trkpt lat="50.103471" lon="8.160319"><ele>369</ele></trkpt>
   <trkpt lat="50.1035" lon="8.160307"><ele>369.5</ele></trkpt>
   <trkpt lat="50.103566" lon="8.160387"><ele>369.5</ele></trkpt>
   <trkpt lat="50.103595" lon="8.160425"><ele>369.75</ele></trkpt>
   <trkpt lat="50.103608" lon="8.160439"><ele>369.75</ele></trkpt>
   <trkpt lat="50.103631" lon="8.160709"><ele>368</ele></trkpt>
   <trkpt lat="50.103759" lon="8.161439"><ele>363.75</ele></trkpt>
   <trkpt lat="50.103813" lon="8.161518"><ele>363.75</ele></trkpt>
   <trkpt lat="50.103876" lon="8.161555"><ele>364</ele></trkpt>
   <trkpt lat="50.104081" lon="8.161495"><ele>366.5</ele></trkpt>
   <trkpt lat="50.104355" lon="8.161318"><ele>372.25</ele></trkpt>
   <trkpt lat="50.104521" lon="8.161275"><ele>375.5</ele></trkpt>
   <trkpt lat="50.104623" lon="8.161277"><ele>377.25</ele></trkpt>
   <trkpt lat="50.104706" lon="8.161313"><ele>378.5</ele></trkpt>
   <trkpt lat="50.104785" lon="8.161365"><ele>379.25</ele></trkpt>
   <trkpt lat="50.104864" lon="8.161433"><ele>380</ele></trkpt>
   <trkpt lat="50.104925" lon="8.161507"><ele>380</ele></trkpt>
   <trkpt lat="50.104943" lon="8.16153"><ele>380.25</ele></trkpt>
   <trkpt lat="50.105005" lon="8.161637"><ele>380.25</ele></trkpt>
   <trkpt lat="50.105052" lon="8.161756"><ele>381</ele></trkpt>
   <trkpt lat="50.105089" lon="8.161902"><ele>381.75</ele></trkpt>
   <trkpt lat="50.105073" lon="8.162068"><ele>381.5</ele></trkpt>
   <trkpt lat="50.105124" lon="8.162179"><ele>382.5</ele></trkpt>
   <trkpt lat="50.105199" lon="8.162526"><ele>384.5</ele></trkpt>
   <trkpt lat="50.105267" lon="8.16349"><ele>386.25</ele></trkpt>
   <trkpt lat="50.105339" lon="8.163689"><ele>388</ele></trkpt>
   <trkpt lat="50.105573" lon="8.164259"><ele>394</ele></trkpt>
   <trkpt lat="50.105607" lon="8.164263"><ele>394.75</ele></trkpt>
   <trkpt lat="50.105641" lon="8.164206"><ele>395.75</ele></trkpt>
   <trkpt lat="50.105693" lon="8.164044"><ele>397.25</ele></trkpt>
   <trkpt lat="50.105903" lon="8.163657"><ele>403</ele></trkpt>
   <trkpt lat="50.106106" lon="8.163382"><ele>407.25</ele></trkpt>
   <trkpt lat="50.106198" lon="8.163327"><ele>408.75</ele></trkpt>
   <trkpt lat="50.1063" lon="8.163309"><ele>410.75</ele></trkpt>
   <trkpt lat="50.106331" lon="8.163341"><ele>411.5</ele></trkpt>
   <trkpt lat="50.106387" lon="8.163425"><ele>412.75</ele></trkpt>
   <trkpt lat="50.106432" lon="8.163531"><ele>414.25</ele></trkpt>
   <trkpt lat="50.106448" lon="8.163615"><ele>414.75</ele></trkpt>
   <trkpt lat="50.106469" lon="8.163876"><ele>416.5</ele></trkpt>
   <trkpt lat="50.106405" lon="8.16439"><ele>416.75</ele></trkpt>
   <trkpt lat="50.106404" lon="8.164604"><ele>417.5</ele></trkpt>
   <trkpt lat="50.106406" lon="8.164661"><ele>417.75</ele></trkpt>
   <trkpt lat="50.106411" lon="8.164771"><ele>418.5</ele></trkpt>
   <trkpt lat="50.106499" lon="8.165109"><ele>422</ele></trkpt>
   <trkpt lat="50.106523" lon="8.165453"><ele>421.75</ele></trkpt>
   <trkpt lat="50.106577" lon="8.165646"><ele>423.25</ele></trkpt>
   <trkpt lat="50.106652" lon="8.166173"><ele>424</ele></trkpt>
   <trkpt lat="50.106889" lon="8.166389"><ele>430.5</ele></trkpt>
   <trkpt lat="50.106975" lon="8.166498"><ele>433</ele></trkpt>
   <trkpt lat="50.107019" lon="8.166581"><ele>434.25</ele></trkpt>
   <trkpt lat="50.107061" lon="8.166689"><ele>435.5</ele></trkpt>
   <trkpt lat="50.107096" lon="8.166801"><ele>435.5</ele></trkpt>
   <trkpt lat="50.10712" lon="8.166946"><ele>434.75</ele></trkpt>
   <trkpt lat="50.107137" lon="8.16701"><ele>434.75</ele></trkpt>
   <trkpt lat="50.10716" lon="8.167052"><ele>435</ele></trkpt>
   <trkpt lat="50.107185" lon="8.167076"><ele>435.5</ele></trkpt>
   <trkpt lat="50.107212" lon="8.167079"><ele>436.5</ele></trkpt>
   <trkpt lat="50.107237" lon="8.167069"><ele>437.25</ele></trkpt>
   <trkpt lat="50.107257" lon="8.167044"><ele>438.25</ele></trkpt>
   <trkpt lat="50.107269" lon="8.167009"><ele>439</ele></trkpt>
   <trkpt lat="50.107282" lon="8.166935"><ele>440</ele></trkpt>
   <trkpt lat="50.107295" lon="8.166904"><ele>440.75</ele></trkpt>
   <trkpt lat="50.107312" lon="8.166886"><ele>441.5</ele></trkpt>
   <trkpt lat="50.107342" lon="8.166876"><ele>442.5</ele></trkpt>
   <trkpt lat="50.107367" lon="8.166881"><ele>443.25</ele></trkpt>
   <trkpt lat="50.107442" lon="8.166926"><ele>445.25</ele></trkpt>
   <trkpt lat="50.107478" lon="8.16693"><ele>446.25</ele></trkpt>
   <trkpt lat="50.107522" lon="8.166916"><ele>447.5</ele></trkpt>
   <trkpt lat="50.107547" lon="8.16692"><ele>447.75</ele></trkpt>
   <trkpt lat="50.107574" lon="8.166938"><ele>447.75</ele></trkpt>
   <trkpt lat="50.107634" lon="8.167029"><ele>447.5</ele></trkpt>
   <trkpt lat="50.107654" lon="8.167038"><ele>447.75</ele></trkpt>
   <trkpt lat="50.107678" lon="8.167035"><ele>448</ele></trkpt>
   <trkpt lat="50.107697" lon="8.167022"><ele>448.25</ele></trkpt>
   <trkpt lat="50.107714" lon="8.166976"><ele>449</ele></trkpt>
   <trkpt lat="50.107719" lon="8.166893"><ele>449.75</ele></trkpt>
   <trkpt lat="50.107735" lon="8.166821"><ele>450.5</ele></trkpt>
   <trkpt lat="50.10776" lon="8.166768"><ele>451.25</ele></trkpt>
   <trkpt lat="50.107846" lon="8.166673"><ele>452.75</ele></trkpt>
   <trkpt lat="50.107893" lon="8.166653"><ele>453</ele></trkpt>
   <trkpt lat="50.108037" lon="8.166671"><ele>454.25</ele></trkpt>
   <trkpt lat="50.10815" lon="8.166729"><ele>455</ele></trkpt>
   <trkpt lat="50.10826" lon="8.166733"><ele>456</ele></trkpt>
   <trkpt lat="50.108337" lon="8.166708"><ele>456.75</ele></trkpt>
   <trkpt lat="50.108436" lon="8.166675"><ele>456.75</ele></trkpt>
   <trkpt lat="50.108457" lon="8.166586"><ele>456.5</ele></trkpt>
   <trkpt lat="50.108498" lon="8.166515"><ele>456</ele></trkpt>
   <trkpt lat="50.108613" lon="8.16641"><ele>455.75</ele></trkpt>
   <trkpt lat="50.108656" lon="8.166317"><ele>455.25</ele></trkpt>
   <trkpt lat="50.108679" lon="8.166239"><ele>455</ele></trkpt>
   <trkpt lat="50.10869" lon="8.166156"><ele>454.5</ele></trkpt>
   <trkpt lat="50.108713" lon="8.166089"><ele>454.25</ele></trkpt>
   <trkpt lat="50.108762" lon="8.166021"><ele>454.25</ele></trkpt>
   <trkpt lat="50.108816" lon="8.165979"><ele>454.25</ele></trkpt>
   <trkpt lat="50.108887" lon="8.165939"><ele>454.25</ele></trkpt>
   <trkpt lat="50.109121" lon="8.165811"><ele>454.75</ele></trkpt>
   <trkpt lat="50.10916" lon="8.16579"><ele>454.75</ele></trkpt>
   <trkpt lat="50.109794" lon="8.165455"><ele>452.5</ele></trkpt>
   <trkpt lat="50.110167" lon="8.165209"><ele>451</ele></trkpt>
   <trkpt lat="50.110237" lon="8.165164"><ele>450.75</ele></trkpt>
   <trkpt lat="50.11076" lon="8.164712"><ele>448.5</ele></trkpt>
   <trkpt lat="50.110849" lon="8.164631"><ele>448.25</ele></trkpt>
   <trkpt lat="50.112073" lon="8.16377"><ele>453.5</ele></trkpt>
   <trkpt lat="50.113194" lon="8.162983"><ele>458.5</ele></trkpt>
   <trkpt lat="50.114261" lon="8.163057"><ele>463.75</ele></trkpt>
   <trkpt lat="50.114702" lon="8.162926"><ele>462.25</ele></trkpt>
   <trkpt lat="50.115325" lon="8.162706"><ele>459</ele></trkpt>
   <trkpt lat="50.115895" lon="8.162469"><ele>456.25</ele></trkpt>
   <trkpt lat="50.116441" lon="8.162467"><ele>455.5</ele></trkpt>
   <trkpt lat="50.1167" lon="8.162482"><ele>455.5</ele></trkpt>
   <trkpt lat="50.117008" lon="8.162501"><ele>456</ele></trkpt>
   <trkpt lat="50.117548" lon="8.162622"><ele>456.25</ele></trkpt>
   <trkpt lat="50.11807" lon="8.162656"><ele>458.25</ele></trkpt>
   <trkpt lat="50.118629" lon="8.162713"><ele>460.25</ele></trkpt>
   <trkpt lat="50.119538" lon="8.163011"><ele>459.75</ele></trkpt>
   <trkpt lat="50.120001" lon="8.163185"><ele>458</ele></trkpt>
   <trkpt lat="50.120267" lon="8.16333"><ele>456.5</ele></trkpt>
   <trkpt lat="50.120478" lon="8.163529"><ele>454.25</ele></trkpt>
   <trkpt lat="50.120656" lon="8.163678"><ele>452.5</ele></trkpt>
   <trkpt lat="50.120786" lon="8.163747"><ele>451.75</ele></trkpt>
   <trkpt lat="50.120902" lon="8.163768"><ele>451</ele></trkpt>
   <trkpt lat="50.121001" lon="8.163756"><ele>450.25</ele></trkpt>
   <trkpt lat="50.121043" lon="8.163739"><ele>450</ele></trkpt>
   <trkpt lat="50.121073" lon="8.163727"><ele>450</ele></trkpt>
   <trkpt lat="50.121154" lon="8.163643"><ele>450.5</ele></trkpt>
   <trkpt lat="50.121443" lon="8.1632"><ele>452.75</ele></trkpt>
   <trkpt lat="50.121528" lon="8.163056"><ele>453.75</ele></trkpt>
   <trkpt lat="50.121604" lon="8.16298"><ele>453.75</ele></trkpt>
   <trkpt lat="50.121687" lon="8.162949"><ele>453.5</ele></trkpt>
   <trkpt lat="50.121799" lon="8.162984"><ele>453</ele></trkpt>
   <trkpt lat="50.121936" lon="8.163149"><ele>450.75</ele></trkpt>
   <trkpt lat="50.123137" lon="8.164891"><ele>438.5</ele></trkpt>
   <trkpt lat="50.123457" lon="8.165512"><ele>438.75</ele></trkpt>
   <trkpt lat="50.123545" lon="8.165595"><ele>438.5</ele></trkpt>
   <trkpt lat="50.123607" lon="8.165633"><ele>438.5</ele></trkpt>
   <trkpt lat="50.12369" lon="8.165636"><ele>438.25</ele></trkpt>
   <trkpt lat="50.123781" lon="8.165597"><ele>438</ele></trkpt>
   <trkpt lat="50.124226" lon="8.165131"><ele>439.25</ele></trkpt>
   <trkpt lat="50.127103" lon="8.162127"><ele>448.25</ele></trkpt>
   <trkpt lat="50.128106" lon="8.16123"><ele>444</ele></trkpt>
   <trkpt lat="50.129379" lon="8.16002"><ele>439.75</ele></trkpt>
   <trkpt lat="50.129571" lon="8.159806"><ele>439.5</ele></trkpt>
   <trkpt lat="50.12987" lon="8.159417"><ele>439</ele></trkpt>
   <trkpt lat="50.130106" lon="8.159085"><ele>438.25</ele></trkpt>
   <trkpt lat="50.130405" lon="8.158708"><ele>437.25</ele></trkpt>
   <trkpt lat="50.130583" lon="8.15845"><ele>436.75</ele></trkpt>
   <trkpt lat="50.130907" lon="8.157928"><ele>433.5</ele></trkpt>
   <trkpt lat="50.131211" lon="8.157467"><ele>428.25</ele></trkpt>
   <trkpt lat="50.131248" lon="8.157412"><ele>427.75</ele></trkpt>
   <trkpt lat="50.131521" lon="8.156972"><ele>424</ele></trkpt>
   <trkpt lat="50.132724" lon="8.157216"><ele>407.25</ele></trkpt>
   <trkpt lat="50.133417" lon="8.157332"><ele>399.25</ele></trkpt>
   <trkpt lat="50.133799" lon="8.15741"><ele>397.75</ele></trkpt>
   <trkpt lat="50.133835" lon="8.157417"><ele>397.5</ele></trkpt>
   <trkpt lat="50.133752" lon="8.157757"><ele>397.75</ele></trkpt>
   <trkpt lat="50.133716" lon="8.157897"><ele>398</ele></trkpt>
   <trkpt lat="50.1348" lon="8.160399"><ele>386</ele></trkpt>
   <trkpt lat="50.134961" lon="8.16077"><ele>383.5</ele></trkpt>
   <trkpt lat="50.135257" lon="8.161742"><ele>385</ele></trkpt>
   <trkpt lat="50.135367" lon="8.162104"><ele>385.75</ele></trkpt>
   <trkpt lat="50.135505" lon="8.162558"><ele>388</ele></trkpt>
   <trkpt lat="50.135562" lon="8.162745"><ele>388.75</ele></trkpt>
   <trkpt lat="50.135608" lon="8.162895"><ele>389.5</ele></trkpt>
   <trkpt lat="50.135702" lon="8.163212"><ele>390.75</ele></trkpt>
   <trkpt lat="50.135946" lon="8.164027"><ele>398.25</ele></trkpt>
   <trkpt lat="50.136021" lon="8.164281"><ele>400.5</ele></trkpt>
   <trkpt lat="50.136814" lon="8.166976"><ele>407.75</ele></trkpt>
   <trkpt lat="50.135444" lon="8.167722"><ele>419.5</ele></trkpt>
   <trkpt lat="50.134862" lon="8.167999"><ele>422.25</ele></trkpt>
   <trkpt lat="50.134054" lon="8.168386"><ele>426.25</ele></trkpt>
   <trkpt lat="50.133584" lon="8.168579"><ele>431.25</ele></trkpt>
   <trkpt lat="50.133259" lon="8.168743"><ele>435</ele></trkpt>
   <trkpt lat="50.1319" lon="8.16745"><ele>434</ele></trkpt>
   <trkpt lat="50.131828" lon="8.167394"><ele>434</ele></trkpt>
   <trkpt lat="50.131758" lon="8.167363"><ele>434.25</ele></trkpt>
   <trkpt lat="50.130899" lon="8.167202"><ele>434.25</ele></trkpt>
   <trkpt lat="50.128736" lon="8.166796"><ele>424.25</ele></trkpt>
   <trkpt lat="50.128496" lon="8.166751"><ele>423.25</ele></trkpt>
   <trkpt lat="50.128345" lon="8.166723"><ele>423</ele></trkpt>
   <trkpt lat="50.12807" lon="8.166671"><ele>423.75</ele></trkpt>
   <trkpt lat="50.128062" lon="8.166646"><ele>423.75</ele></trkpt>
   <trkpt lat="50.128055" lon="8.166527"><ele>424</ele></trkpt>
   <trkpt lat="50.12801" lon="8.166539"><ele>424.25</ele></trkpt>
   <trkpt lat="50.127978" lon="8.166546"><ele>424.25</ele></trkpt>
   <trkpt lat="50.127845" lon="8.166573"><ele>424.75</ele></trkpt>
   <trkpt lat="50.127548" lon="8.166678"><ele>425.75</ele></trkpt>
   <trkpt lat="50.127075" lon="8.166933"><ele>427.25</ele></trkpt>
   <trkpt lat="50.126718" lon="8.167155"><ele>428.5</ele></trkpt>
   <trkpt lat="50.12661" lon="8.16733"><ele>429.25</ele></trkpt>
   <trkpt lat="50.126596" lon="8.167453"><ele>429.5</ele></trkpt>
   <trkpt lat="50.126342" lon="8.167699"><ele>429.5</ele></trkpt>
   <trkpt lat="50.126224" lon="8.167814"><ele>429.25</ele></trkpt>
   <trkpt lat="50.126121" lon="8.167914"><ele>429</ele></trkpt>
   <trkpt lat="50.125878" lon="8.168149"><ele>428</ele></trkpt>
   <trkpt lat="50.1258" lon="8.168382"><ele>428.25</ele></trkpt>
   <trkpt lat="50.125686" lon="8.168551"><ele>430</ele></trkpt>
   <trkpt lat="50.125444" lon="8.168809"><ele>432</ele></trkpt>
   <trkpt lat="50.125378" lon="8.16888"><ele>432.5</ele></trkpt>
   <trkpt lat="50.12515" lon="8.169024"><ele>433.25</ele></trkpt>
   <trkpt lat="50.124672" lon="8.169308"><ele>434.75</ele></trkpt>
   <trkpt lat="50.124226" lon="8.169483"><ele>434.5</ele></trkpt>
   <trkpt lat="50.12407" lon="8.169502"><ele>434.25</ele></trkpt>
   <trkpt lat="50.123844" lon="8.169475"><ele>434</ele></trkpt>
   <trkpt lat="50.123825" lon="8.169473"><ele>434</ele></trkpt>
   <trkpt lat="50.123533" lon="8.169385"><ele>433.75</ele></trkpt>
   <trkpt lat="50.122982" lon="8.169085"><ele>430</ele></trkpt>
   <trkpt lat="50.122772" lon="8.168918"><ele>428</ele></trkpt>
   <trkpt lat="50.122617" lon="8.168688"><ele>426.75</ele></trkpt>
   <trkpt lat="50.122517" lon="8.168492"><ele>425.75</ele></trkpt>
   <trkpt lat="50.122473" lon="8.168365"><ele>425.5</ele></trkpt>
   <trkpt lat="50.122461" lon="8.168244"><ele>425.5</ele></trkpt>
   <trkpt lat="50.12246" lon="8.168132"><ele>426</ele></trkpt>
   <trkpt lat="50.122502" lon="8.168058"><ele>427</ele></trkpt>
   <trkpt lat="50.122621" lon="8.16795"><ele>428.25</ele></trkpt>
   <trkpt lat="50.12258" lon="8.1678"><ele>428.5</ele></trkpt>
   <trkpt lat="50.122523" lon="8.167468"><ele>429.25</ele></trkpt>
   <trkpt lat="50.122511" lon="8.167346"><ele>429.5</ele></trkpt>
   <trkpt lat="50.122508" lon="8.167101"><ele>430.25</ele></trkpt>
   <trkpt lat="50.122535" lon="8.166856"><ele>431.5</ele></trkpt>
   <trkpt lat="50.122636" lon="8.166397"><ele>433.25</ele></trkpt>
   <trkpt lat="50.122664" lon="8.166229"><ele>433.5</ele></trkpt>
   <trkpt lat="50.122675" lon="8.166109"><ele>433.75</ele></trkpt>
   <trkpt lat="50.122677" lon="8.165985"><ele>434</ele></trkpt>
   <trkpt lat="50.12267" lon="8.165853"><ele>434</ele></trkpt>
   <trkpt lat="50.122653" lon="8.165704"><ele>434</ele></trkpt>
   <trkpt lat="50.122616" lon="8.165524"><ele>434</ele></trkpt>
   <trkpt lat="50.122582" lon="8.165386"><ele>434</ele></trkpt>
   <trkpt lat="50.122489" lon="8.165091"><ele>433.75</ele></trkpt>
   <trkpt lat="50.122429" lon="8.16496"><ele>434</ele></trkpt>
   <trkpt lat="50.122361" lon="8.164851"><ele>434.5</ele></trkpt>
   <trkpt lat="50.122337" lon="8.16482"><ele>434.5</ele></trkpt>
   <trkpt lat="50.12229" lon="8.164762"><ele>435</ele></trkpt>
   <trkpt lat="50.122221" lon="8.1647"><ele>435.5</ele></trkpt>
   <trkpt lat="50.122135" lon="8.164637"><ele>435.75</ele></trkpt>
   <trkpt lat="50.122056" lon="8.164598"><ele>436</ele></trkpt>
   <trkpt lat="50.122" lon="8.164585"><ele>435.75</ele></trkpt>
   <trkpt lat="50.121928" lon="8.164579"><ele>435.75</ele></trkpt>
   <trkpt lat="50.121721" lon="8.164593"><ele>435</ele></trkpt>
   <trkpt lat="50.121575" lon="8.164779"><ele>433</ele></trkpt>
   <trkpt lat="50.121397" lon="8.164942"><ele>431.5</ele></trkpt>
   <trkpt lat="50.121244" lon="8.165034"><ele>431</ele></trkpt>
   <trkpt lat="50.12101" lon="8.165145"><ele>430.5</ele></trkpt>
   <trkpt lat="50.120702" lon="8.165227"><ele>429.5</ele></trkpt>
   <trkpt lat="50.120578" lon="8.165279"><ele>428.5</ele></trkpt>
   <trkpt lat="50.120457" lon="8.165347"><ele>427.5</ele></trkpt>
   <trkpt lat="50.120287" lon="8.165476"><ele>425.25</ele></trkpt>
   <trkpt lat="50.120235" lon="8.165536"><ele>424.25</ele></trkpt>
   <trkpt lat="50.12019" lon="8.165619"><ele>423.25</ele></trkpt>
   <trkpt lat="50.120071" lon="8.165834"><ele>420</ele></trkpt>
   <trkpt lat="50.120025" lon="8.165901"><ele>419</ele></trkpt>
   <trkpt lat="50.119973" lon="8.165943"><ele>418.25</ele></trkpt>
   <trkpt lat="50.119921" lon="8.165967"><ele>417.75</ele></trkpt>
   <trkpt lat="50.119828" lon="8.165981"><ele>417</ele></trkpt>
   <trkpt lat="50.119299" lon="8.165975"><ele>413.75</ele></trkpt>
   <trkpt lat="50.119054" lon="8.165959"><ele>411.75</ele></trkpt>
   <trkpt lat="50.118923" lon="8.165924"><ele>410.75</ele></trkpt>
   <trkpt lat="50.11862" lon="8.165775"><ele>409.25</ele></trkpt>
   <trkpt lat="50.11853" lon="8.165742"><ele>408.5</ele></trkpt>
   <trkpt lat="50.118448" lon="8.165725"><ele>408</ele></trkpt>
   <trkpt lat="50.11755" lon="8.165688"><ele>402</ele></trkpt>
   <trkpt lat="50.117439" lon="8.165691"><ele>401.75</ele></trkpt>
   <trkpt lat="50.117343" lon="8.165708"><ele>401.5</ele></trkpt>
   <trkpt lat="50.117292" lon="8.165731"><ele>401</ele></trkpt>
   <trkpt lat="50.117218" lon="8.166119"><ele>393.75</ele></trkpt>
   <trkpt lat="50.117301" lon="8.16642"><ele>387.75</ele></trkpt>
   <trkpt lat="50.117556" lon="8.167146"><ele>380.25</ele></trkpt>
   <trkpt lat="50.118041" lon="8.168363"><ele>379</ele></trkpt>
   <trkpt lat="50.11819" lon="8.168687"><ele>377.5</ele></trkpt>
   <trkpt lat="50.118299" lon="8.168923"><ele>376.75</ele></trkpt>
   <trkpt lat="50.118587" lon="8.169496"><ele>371.5</ele></trkpt>
   <trkpt lat="50.118658" lon="8.169608"><ele>370.25</ele></trkpt>
   <trkpt lat="50.118731" lon="8.169684"><ele>369.25</ele></trkpt>
   <trkpt lat="50.118821" lon="8.16975"><ele>368.25</ele></trkpt>
   <trkpt lat="50.118933" lon="8.169793"><ele>367.5</ele></trkpt>
   <trkpt lat="50.119151" lon="8.169836"><ele>366.25</ele></trkpt>
   <trkpt lat="50.119227" lon="8.169868"><ele>366.5</ele></trkpt>
   <trkpt lat="50.1193" lon="8.169924"><ele>366.75</ele></trkpt>
   <trkpt lat="50.119349" lon="8.169985"><ele>366.75</ele></trkpt>
   <trkpt lat="50.119386" lon="8.170058"><ele>367</ele></trkpt>
   <trkpt lat="50.11941" lon="8.170146"><ele>367.5</ele></trkpt>
   <trkpt lat="50.119417" lon="8.170248"><ele>367.75</ele></trkpt>
   <trkpt lat="50.119409" lon="8.170339"><ele>368</ele></trkpt>
   <trkpt lat="50.119338" lon="8.170603"><ele>367.25</ele></trkpt>
   <trkpt lat="50.119241" lon="8.17087"><ele>366</ele></trkpt>
   <trkpt lat="50.119167" lon="8.171038"><ele>365</ele></trkpt>
   <trkpt lat="50.119003" lon="8.171305"><ele>363.75</ele></trkpt>
   <trkpt lat="50.118961" lon="8.171396"><ele>363.25</ele></trkpt>
   <trkpt lat="50.118932" lon="8.171497"><ele>362.75</ele></trkpt>
   <trkpt lat="50.118919" lon="8.171601"><ele>362.5</ele></trkpt>
   <trkpt lat="50.118923" lon="8.171713"><ele>362.5</ele></trkpt>
   <trkpt lat="50.118946" lon="8.171826"><ele>363.25</ele></trkpt>
   <trkpt lat="50.119023" lon="8.172129"><ele>365.5</ele></trkpt>
   <trkpt lat="50.119034" lon="8.172219"><ele>366</ele></trkpt>
   <trkpt lat="50.119032" lon="8.17231"><ele>366.25</ele></trkpt>
   <trkpt lat="50.119015" lon="8.172383"><ele>366.25</ele></trkpt>
   <trkpt lat="50.118981" lon="8.172443"><ele>366</ele></trkpt>
   <trkpt lat="50.118858" lon="8.172555"><ele>364.5</ele></trkpt>
   <trkpt lat="50.118748" lon="8.172701"><ele>363.5</ele></trkpt>
   <trkpt lat="50.118655" lon="8.17285"><ele>362.75</ele></trkpt>
   <trkpt lat="50.118611" lon="8.172961"><ele>362.5</ele></trkpt>
   <trkpt lat="50.118442" lon="8.173523"><ele>362.25</ele></trkpt>
   <trkpt lat="50.118344" lon="8.173855"><ele>362</ele></trkpt>
   <trkpt lat="50.118281" lon="8.17401"><ele>361.5</ele></trkpt>
   <trkpt lat="50.118222" lon="8.174156"><ele>361.25</ele></trkpt>
   <trkpt lat="50.118201" lon="8.17423"><ele>361.5</ele></trkpt>
   <trkpt lat="50.118179" lon="8.174328"><ele>361.5</ele></trkpt>
   <trkpt lat="50.118153" lon="8.174744"><ele>363</ele></trkpt>
   <trkpt lat="50.118035" lon="8.174823"><ele>361.75</ele></trkpt>
   <trkpt lat="50.116718" lon="8.176244"><ele>345</ele></trkpt>
   <trkpt lat="50.116571" lon="8.176381"><ele>344</ele></trkpt>
   <trkpt lat="50.116494" lon="8.176405"><ele>343.25</ele></trkpt>
   <trkpt lat="50.116266" lon="8.176432"><ele>341</ele></trkpt>
   <trkpt lat="50.116137" lon="8.176472"><ele>339.75</ele></trkpt>
   <trkpt lat="50.115307" lon="8.176838"><ele>334.5</ele></trkpt>
   <trkpt lat="50.114581" lon="8.177249"><ele>335.5</ele></trkpt>
   <trkpt lat="50.113756" lon="8.17762"><ele>334.75</ele></trkpt>
   <trkpt lat="50.113529" lon="8.177689"><ele>333.5</ele></trkpt>
   <trkpt lat="50.112528" lon="8.177712"><ele>324.75</ele></trkpt>
   <trkpt lat="50.112468" lon="8.177724"><ele>324.5</ele></trkpt>
   <trkpt lat="50.112433" lon="8.177751"><ele>324</ele></trkpt>
   <trkpt lat="50.112394" lon="8.177805"><ele>323.25</ele></trkpt>
   <trkpt lat="50.112223" lon="8.178117"><ele>319.75</ele></trkpt>
   <trkpt lat="50.112187" lon="8.178156"><ele>319.25</ele></trkpt>
   <trkpt lat="50.112127" lon="8.178182"><ele>319</ele></trkpt>
   <trkpt lat="50.112077" lon="8.178192"><ele>318.75</ele></trkpt>
   <trkpt lat="50.111831" lon="8.178159"><ele>318.75</ele></trkpt>
   <trkpt lat="50.111744" lon="8.178174"><ele>318.5</ele></trkpt>
   <trkpt lat="50.111654" lon="8.178206"><ele>318</ele></trkpt>
   <trkpt lat="50.111557" lon="8.178274"><ele>316.25</ele></trkpt>
   <trkpt lat="50.111442" lon="8.178377"><ele>314.5</ele></trkpt>
   <trkpt lat="50.111382" lon="8.178452"><ele>314.5</ele></trkpt>
   <trkpt lat="50.111309" lon="8.178525"><ele>314</ele></trkpt>
   <trkpt lat="50.111238" lon="8.178577"><ele>313.25</ele></trkpt>
   <trkpt lat="50.11115" lon="8.178616"><ele>312.25</ele></trkpt>
   <trkpt lat="50.111051" lon="8.178644"><ele>311</ele></trkpt>
   <trkpt lat="50.110738" lon="8.178648"><ele>306.75</ele></trkpt>
   <trkpt lat="50.110667" lon="8.178671"><ele>306</ele></trkpt>
   <trkpt lat="50.110529" lon="8.178755"><ele>304.75</ele></trkpt>
   <trkpt lat="50.110388" lon="8.178865"><ele>303</ele></trkpt>
   <trkpt lat="50.110211" lon="8.179048"><ele>300</ele></trkpt>
   <trkpt lat="50.109959" lon="8.179312"><ele>296</ele></trkpt>
   <trkpt lat="50.108873" lon="8.180519"><ele>288.5</ele></trkpt>
   <trkpt lat="50.108734" lon="8.180647"><ele>286.75</ele></trkpt>
   <trkpt lat="50.108151" lon="8.180974"><ele>279.75</ele></trkpt>
   <trkpt lat="50.108055" lon="8.181041"><ele>279</ele></trkpt>
   <trkpt lat="50.107908" lon="8.181181"><ele>277</ele></trkpt>
   <trkpt lat="50.107476" lon="8.181657"><ele>271</ele></trkpt>
   <trkpt lat="50.107321" lon="8.181849"><ele>270</ele></trkpt>
   <trkpt lat="50.10704" lon="8.182277"><ele>267</ele></trkpt>
   <trkpt lat="50.10688" lon="8.182488"><ele>264.5</ele></trkpt>
   <trkpt lat="50.106807" lon="8.182657"><ele>262.75</ele></trkpt>
   <trkpt lat="50.106104" lon="8.184279"><ele>249</ele></trkpt>
   <trkpt lat="50.106062" lon="8.184375"><ele>248.5</ele></trkpt>
   <trkpt lat="50.105988" lon="8.184547"><ele>247.75</ele></trkpt>
   <trkpt lat="50.104343" lon="8.188341"><ele>226</ele></trkpt>
   <trkpt lat="50.104282" lon="8.188509"><ele>225.25</ele></trkpt>
   <trkpt lat="50.104233" lon="8.188688"><ele>224.75</ele></trkpt>
   <trkpt lat="50.104205" lon="8.188745"><ele>224.25</ele></trkpt>
   <trkpt lat="50.104226" lon="8.188783"><ele>224.5</ele></trkpt>
   <trkpt lat="50.10422" lon="8.188832"><ele>224.5</ele></trkpt>
   <trkpt lat="50.103907" lon="8.189178"><ele>223</ele></trkpt>
   <trkpt lat="50.103341" lon="8.189772"><ele>220.25</ele></trkpt>
   <trkpt lat="50.102737" lon="8.190668"><ele>215.75</ele></trkpt>
   <trkpt lat="50.102143" lon="8.191551"><ele>211.75</ele></trkpt>
   <trkpt lat="50.102092" lon="8.191631"><ele>211.5</ele></trkpt>
   <trkpt lat="50.102001" lon="8.191759"><ele>211</ele></trkpt>
   <trkpt lat="50.102286" lon="8.192303"><ele>211.25</ele></trkpt>
   <trkpt lat="50.102478" lon="8.192634"><ele>211.5</ele></trkpt>
   <trkpt lat="50.102432" lon="8.192688"><ele>211</ele></trkpt>
   <trkpt lat="50.102496" lon="8.192791"><ele>211.25</ele></trkpt>
   <trkpt lat="50.102478" lon="8.19288"><ele>210.75</ele></trkpt>
   <trkpt lat="50.101835" lon="8.195515"><ele>207</ele></trkpt>
   <trkpt lat="50.10169" lon="8.196085"><ele>208.75</ele></trkpt>
   <trkpt lat="50.101435" lon="8.197239"><ele>211</ele></trkpt>
   <trkpt lat="50.101353" lon="8.197616"><ele>212</ele></trkpt>
   <trkpt lat="50.101204" lon="8.198319"><ele>212.75</ele></trkpt>
   <trkpt lat="50.10108" lon="8.198815"><ele>214.75</ele></trkpt>
   <trkpt lat="50.101029" lon="8.198966"><ele>215.25</ele></trkpt>
   <trkpt lat="50.100967" lon="8.199099"><ele>215.5</ele></trkpt>
   <trkpt lat="50.100907" lon="8.199178"><ele>215.75</ele></trkpt>
   <trkpt lat="50.099682" lon="8.199993"><ele>214</ele></trkpt>
   <trkpt lat="50.099587" lon="8.199894"><ele>212.25</ele></trkpt>
   <trkpt lat="50.099463" lon="8.199819"><ele>210.5</ele></trkpt>
   <trkpt lat="50.099314" lon="8.199762"><ele>209.25</ele></trkpt>
   <trkpt lat="50.099125" lon="8.199722"><ele>207.25</ele></trkpt>
   <trkpt lat="50.09905" lon="8.199707"><ele>206.75</ele></trkpt>
   <trkpt lat="50.098762" lon="8.199686"><ele>203.75</ele></trkpt>
   <trkpt lat="50.098078" lon="8.19974"><ele>198.75</ele></trkpt>
   <trkpt lat="50.097807" lon="8.199811"><ele>197.5</ele></trkpt>
   <trkpt lat="50.097671" lon="8.19987"><ele>196.75</ele></trkpt>
   <trkpt lat="50.097595" lon="8.199878"><ele>196.25</ele></trkpt>
   <trkpt lat="50.09752" lon="8.199861"><ele>195.75</ele></trkpt>
   <trkpt lat="50.097452" lon="8.199827"><ele>195.25</ele></trkpt>
   <trkpt lat="50.097336" lon="8.199748"><ele>194.75</ele></trkpt>
   <trkpt lat="50.097248" lon="8.199643"><ele>194.25</ele></trkpt>
   <trkpt lat="50.097136" lon="8.199362"><ele>193.5</ele></trkpt>
   <trkpt lat="50.096654" lon="8.198019"><ele>194.5</ele></trkpt>
   <trkpt lat="50.09658" lon="8.19781"><ele>195</ele></trkpt>
   <trkpt lat="50.096415" lon="8.197353"><ele>195.5</ele></trkpt>
   <trkpt lat="50.095971" lon="8.197549"><ele>194.25</ele></trkpt>
   <trkpt lat="50.095373" lon="8.197819"><ele>192</ele></trkpt>
   <trkpt lat="50.095297" lon="8.197857"><ele>191.75</ele></trkpt>
   <trkpt lat="50.09497" lon="8.198015"><ele>191</ele></trkpt>
   <trkpt lat="50.094859" lon="8.198037"><ele>191.75</ele></trkpt>
   <trkpt lat="50.094626" lon="8.198083"><ele>193</ele></trkpt>
   <trkpt lat="50.094355" lon="8.198138"><ele>194.5</ele></trkpt>
   <trkpt lat="50.094291" lon="8.19816"><ele>194.75</ele></trkpt>
   <trkpt lat="50.094227" lon="8.1982"><ele>195</ele></trkpt>
   <trkpt lat="50.094122" lon="8.198301"><ele>195.5</ele></trkpt>
   <trkpt lat="50.093829" lon="8.198634"><ele>197.5</ele></trkpt>
   <trkpt lat="50.093846" lon="8.19885"><ele>197</ele></trkpt>
   <trkpt lat="50.093859" lon="8.199021"><ele>196.75</ele></trkpt>
   <trkpt lat="50.093928" lon="8.199806"><ele>194.25</ele></trkpt>
   <trkpt lat="50.093938" lon="8.199951"><ele>194</ele></trkpt>
   <trkpt lat="50.093946" lon="8.200062"><ele>193.5</ele></trkpt>
   <trkpt lat="50.093924" lon="8.201255"><ele>189</ele></trkpt>
   <trkpt lat="50.093918" lon="8.201377"><ele>188.5</ele></trkpt>
   <trkpt lat="50.093915" lon="8.201468"><ele>188.25</ele></trkpt>
   <trkpt lat="50.093907" lon="8.201612"><ele>187.5</ele></trkpt>
   <trkpt lat="50.093901" lon="8.20173"><ele>187</ele></trkpt>
   <trkpt lat="50.093844" lon="8.202107"><ele>185.75</ele></trkpt>
   <trkpt lat="50.093755" lon="8.202401"><ele>184.75</ele></trkpt>
   <trkpt lat="50.093535" lon="8.202919"><ele>183.25</ele></trkpt>
   <trkpt lat="50.093496" lon="8.20301"><ele>183</ele></trkpt>
   <trkpt lat="50.093226" lon="8.203448"><ele>182</ele></trkpt>
   <trkpt lat="50.093049" lon="8.203667"><ele>181.75</ele></trkpt>
   <trkpt lat="50.092857" lon="8.203836"><ele>181.25</ele></trkpt>
   <trkpt lat="50.092806" lon="8.203854"><ele>181.25</ele></trkpt>
   <trkpt lat="50.092303" lon="8.204316"><ele>180.25</ele></trkpt>
   <trkpt lat="50.091928" lon="8.204648"><ele>180.25</ele></trkpt>
   <trkpt lat="50.091385" lon="8.205153"><ele>179.25</ele></trkpt>
   <trkpt lat="50.090668" lon="8.205806"><ele>178.25</ele></trkpt>
   <trkpt lat="50.089934" lon="8.206525"><ele>178.25</ele></trkpt>
   <trkpt lat="50.089898" lon="8.206561"><ele>178.5</ele></trkpt>
   <trkpt lat="50.089445" lon="8.206651"><ele>178</ele></trkpt>
   <trkpt lat="50.089327" lon="8.206692"><ele>177.75</ele></trkpt>
   <trkpt lat="50.088846" lon="8.206816"><ele>176.75</ele></trkpt>
   <trkpt lat="50.088596" lon="8.20706"><ele>175.25</ele></trkpt>
   <trkpt lat="50.088176" lon="8.207467"><ele>173</ele></trkpt>
   <trkpt lat="50.088279" lon="8.207908"><ele>170.5</ele></trkpt>
   <trkpt lat="50.088064" lon="8.208348"><ele>168.25</ele></trkpt>
   <trkpt lat="50.087815" lon="8.208446"><ele>168</ele></trkpt>
   <trkpt lat="50.086696" lon="8.208888"><ele>166.25</ele></trkpt>
   <trkpt lat="50.086366" lon="8.209018"><ele>165.5</ele></trkpt>
   <trkpt lat="50.086252" lon="8.209064"><ele>165.25</ele></trkpt>
   <trkpt lat="50.086198" lon="8.209082"><ele>165.25</ele></trkpt>
   <trkpt lat="50.085024" lon="8.209263"><ele>169</ele></trkpt>
   <trkpt lat="50.084771" lon="8.209287"><ele>170</ele></trkpt>
   <trkpt lat="50.084671" lon="8.209272"><ele>170.5</ele></trkpt>
   <trkpt lat="50.084649" lon="8.209251"><ele>170.75</ele></trkpt>
   <trkpt lat="50.084549" lon="8.209148"><ele>172.25</ele></trkpt>
   <trkpt lat="50.084194" lon="8.20874"><ele>177.25</ele></trkpt>
   <trkpt lat="50.084016" lon="8.209183"><ele>174</ele></trkpt>
   <trkpt lat="50.083772" lon="8.209792"><ele>170</ele></trkpt>
   <trkpt lat="50.083713" lon="8.209749"><ele>170.5</ele></trkpt>
   <trkpt lat="50.083649" lon="8.209708"><ele>171</ele></trkpt>
   <trkpt lat="50.08272" lon="8.210167"><ele>170.75</ele></trkpt>
   <trkpt lat="50.081275" lon="8.210838"><ele>171.75</ele></trkpt>
   <trkpt lat="50.081244" lon="8.210852"><ele>171.75</ele></trkpt>
   <trkpt lat="50.079341" lon="8.211429"><ele>171.25</ele></trkpt>
  </trkseg>
 </trk>
</gpx>