<?xml version="1.0" encoding="UTF-8"?>
<!-- track-length = 13088 filtered ascend = 312 plain-ascend = 16 cost=17807 energy=0.1kwh time=2h 43m 20s -->
<gpx 
 xmlns="http://www.topografix.com/GPX/1/1" 
 xmlns:xsi="http://www.w3.org/2001/XMLSchema-instance" 
 xsi:schemaLocation="http://www.topografix.com/GPX/1/1 http://www.topografix.com/GPX/1/1/gpx.xsd" 
 version="1.1" 
 creator="BRouter-Web 0.18.1">
 <trk>
  <name>PW-406-HE-13km-gpx.gpx</name>
  <trkseg>
   <trkpt lat="50.079321" lon="8.211435"><ele>171.25</ele></trkpt>
   <trkpt lat="50.081244" lon="8.210852"><ele>171.75</ele></trkpt>
   <trkpt lat="50.081275" lon="8.210838"><ele>171.75</ele></trkpt>
   <trkpt lat="50.08272" lon="8.210167"><ele>170.75</ele></trkpt>
   <trkpt lat="50.083649" lon="8.209708"><ele>171</ele></trkpt>
   <trkpt lat="50.083713" lon="8.209749"><ele>170.5</ele></trkpt>
   <trkpt lat="50.083772" lon="8.209792"><ele>170</ele></trkpt>
   <trkpt lat="50.084016" lon="8.209183"><ele>174</ele></trkpt>
   <trkpt lat="50.084194" lon="8.20874"><ele>177.25</ele></trkpt>
   <trkpt lat="50.084549" lon="8.209148"><ele>172.25</ele></trkpt>
   <trkpt lat="50.084649" lon="8.209251"><ele>170.75</ele></trkpt>
   <trkpt lat="50.084671" lon="8.209272"><ele>170.5</ele></trkpt>
   <trkpt lat="50.084771" lon="8.209287"><ele>170</ele></trkpt>
   <trkpt lat="50.085024" lon="8.209263"><ele>169</ele></trkpt>
   <trkpt lat="50.08521" lon="8.209234"><ele>168.25</ele></trkpt>
   <trkpt lat="50.086198" lon="8.209082"><ele>165.25</ele></trkpt>
   <trkpt lat="50.086252" lon="8.209064"><ele>165.25</ele></trkpt>
   <trkpt lat="50.086696" lon="8.208888"><ele>166.25</ele></trkpt>
   <trkpt lat="50.087815" lon="8.208446"><ele>168</ele></trkpt>
   <trkpt lat="50.088064" lon="8.208348"><ele>168.25</ele></trkpt>
   <trkpt lat="50.088279" lon="8.207908"><ele>170.5</ele></trkpt>
   <trkpt lat="50.088176" lon="8.207467"><ele>173</ele></trkpt>
   <trkpt lat="50.087859" lon="8.2061"><ele>179.25</ele></trkpt>
   <trkpt lat="50.08776" lon="8.205671"><ele>181.5</ele></trkpt>
   <trkpt lat="50.087694" lon="8.20532"><ele>182.75</ele></trkpt>
   <trkpt lat="50.087659" lon="8.204696"><ele>184.75</ele></trkpt>
   <trkpt lat="50.087884" lon="8.203113"><ele>189</ele></trkpt>
   <trkpt lat="50.088292" lon="8.203018"><ele>189.25</ele></trkpt>
   <trkpt lat="50.088219" lon="8.202016"><ele>190.75</ele></trkpt>
   <trkpt lat="50.08818" lon="8.201487"><ele>192.25</ele></trkpt>
   <trkpt lat="50.08819" lon="8.201433"><ele>192.5</ele></trkpt>
   <trkpt lat="50.088287" lon="8.200885"><ele>194.75</ele></trkpt>
   <trkpt lat="50.088809" lon="8.20073"><ele>198.75</ele></trkpt>
   <trkpt lat="50.088885" lon="8.200722"><ele>199.25</ele></trkpt>
   <trkpt lat="50.088882" lon="8.200671"><ele>199.25</ele></trkpt>
   <trkpt lat="50.088879" lon="8.20062"><ele>199.5</ele></trkpt>
   <trkpt lat="50.088849" lon="8.200323"><ele>200.25</ele></trkpt>
   <trkpt lat="50.088803" lon="8.199867"><ele>201.75</ele></trkpt>
   <trkpt lat="50.08879" lon="8.199739"><ele>202.25</ele></trkpt>
   <trkpt lat="50.088776" lon="8.199603"><ele>202.75</ele></trkpt>
   <trkpt lat="50.088734" lon="8.199181"><ele>204.25</ele></trkpt>
   <trkpt lat="50.088761" lon="8.199056"><ele>204.75</ele></trkpt>
   <trkpt lat="50.088942" lon="8.19822"><ele>208</ele></trkpt>
   <trkpt lat="50.08941" lon="8.196058"><ele>224.5</ele></trkpt>
   <trkpt lat="50.08936" lon="8.19564"><ele>225.75</ele></trkpt>
   <trkpt lat="50.089332" lon="8.195276"><ele>226.75</ele></trkpt>
   <trkpt lat="50.089422" lon="8.195137"><ele>228.25</ele></trkpt>
   <trkpt lat="50.089429" lon="8.194629"><ele>234</ele></trkpt>
   <trkpt lat="50.089517" lon="8.19431"><ele>239</ele></trkpt>
   <trkpt lat="50.089705" lon="8.194166"><ele>242</ele></trkpt>
   <trkpt lat="50.089765" lon="8.194121"><ele>243</ele></trkpt>
   <trkpt lat="50.090161" lon="8.194061"><ele>246</ele></trkpt>
   <trkpt lat="50.090683" lon="8.194074"><ele>248.75</ele></trkpt>
   <trkpt lat="50.090939" lon="8.194255"><ele>247.75</ele></trkpt>
   <trkpt lat="50.091274" lon="8.194311"><ele>245.5</ele></trkpt>
   <trkpt lat="50.091411" lon="8.194317"><ele>244.75</ele></trkpt>
   <trkpt lat="50.092382" lon="8.193867"><ele>241.5</ele></trkpt>
   <trkpt lat="50.092686" lon="8.193727"><ele>240.5</ele></trkpt>
   <trkpt lat="50.094137" lon="8.188653"><ele>248.75</ele></trkpt>
   <trkpt lat="50.094144" lon="8.188573"><ele>249</ele></trkpt>
   <trkpt lat="50.094394" lon="8.187124"><ele>248</ele></trkpt>
   <trkpt lat="50.094311" lon="8.1869"><ele>248.75</ele></trkpt>
   <trkpt lat="50.094365" lon="8.18654"><ele>248.75</ele></trkpt>
   <trkpt lat="50.094261" lon="8.186216"><ele>250.25</ele></trkpt>
   <trkpt lat="50.094128" lon="8.185799"><ele>252.5</ele></trkpt>
   <trkpt lat="50.094241" lon="8.185119"><ele>253.25</ele></trkpt>
   <trkpt lat="50.094728" lon="8.185632"><ele>249.5</ele></trkpt>
   <trkpt lat="50.094913" lon="8.185826"><ele>248.25</ele></trkpt>
   <trkpt lat="50.094954" lon="8.184802"><ele>252.75</ele></trkpt>
   <trkpt lat="50.09511" lon="8.184207"><ele>257.25</ele></trkpt>
   <trkpt lat="50.09531" lon="8.183815"><ele>259.75</ele></trkpt>
   <trkpt lat="50.095822" lon="8.183436"><ele>261.25</ele></trkpt>
   <trkpt lat="50.096163" lon="8.182468"><ele>265</ele></trkpt>
   <trkpt lat="50.096472" lon="8.18141"><ele>268.5</ele></trkpt>
   <trkpt lat="50.096672" lon="8.18038"><ele>269.75</ele></trkpt>
   <trkpt lat="50.096685" lon="8.179739"><ele>272</ele></trkpt>
   <trkpt lat="50.096775" lon="8.179248"><ele>273.5</ele></trkpt>
   <trkpt lat="50.097197" lon="8.176974"><ele>281.25</ele></trkpt>
   <trkpt lat="50.097361" lon="8.175271"><ele>290</ele></trkpt>
   <trkpt lat="50.09767" lon="8.174389"><ele>289</ele></trkpt>
   <trkpt lat="50.097715" lon="8.173256"><ele>291.25</ele></trkpt>
   <trkpt lat="50.097683" lon="8.172993"><ele>291.25</ele></trkpt>
   <trkpt lat="50.097655" lon="8.172613"><ele>291.25</ele></trkpt>
   <trkpt lat="50.09767" lon="8.17239"><ele>290.75</ele></trkpt>
   <trkpt lat="50.09726" lon="8.170666"><ele>293.75</ele></trkpt>
   <trkpt lat="50.097142" lon="8.17015"><ele>295</ele></trkpt>
   <trkpt lat="50.097168" lon="8.16995"><ele>295.5</ele></trkpt>
   <trkpt lat="50.097154" lon="8.169885"><ele>296.25</ele></trkpt>
   <trkpt lat="50.097142" lon="8.169819"><ele>297</ele></trkpt>
   <trkpt lat="50.097093" lon="8.169934"><ele>296</ele></trkpt>
   <trkpt lat="50.097055" lon="8.16972"><ele>298.5</ele></trkpt>
   <trkpt lat="50.097059" lon="8.169625"><ele>299.5</ele></trkpt>
   <trkpt lat="50.097065" lon="8.16948"><ele>301</ele></trkpt>
   <trkpt lat="50.097121" lon="8.169472"><ele>301</ele></trkpt>
   <trkpt lat="50.097161" lon="8.169464"><ele>301</ele></trkpt>
   <trkpt lat="50.097359" lon="8.16929"><ele>302</ele></trkpt>
   <trkpt lat="50.097551" lon="8.169059"><ele>303.75</ele></trkpt>
   <trkpt lat="50.097766" lon="8.168844"><ele>305.25</ele></trkpt>
   <trkpt lat="50.097915" lon="8.168707"><ele>306</ele></trkpt>
   <trkpt lat="50.098085" lon="8.168509"><ele>307.75</ele></trkpt>
   <trkpt lat="50.098317" lon="8.168329"><ele>309</ele></trkpt>
   <trkpt lat="50.098493" lon="8.16814"><ele>311.25</ele></trkpt>
   <trkpt lat="50.099536" lon="8.166396"><ele>327.5</ele></trkpt>
   <trkpt lat="50.099796" lon="8.16505"><ele>335.25</ele></trkpt>
   <trkpt lat="50.099808" lon="8.16499"><ele>335.75</ele></trkpt>
   <trkpt lat="50.099863" lon="8.16473"><ele>337.5</ele></trkpt>
   <trkpt lat="50.099968" lon="8.164396"><ele>340</ele></trkpt>
   <trkpt lat="50.100099" lon="8.164152"><ele>341.75</ele></trkpt>
   <trkpt lat="50.100318" lon="8.164007"><ele>342.5</ele></trkpt>
   <trkpt lat="50.100563" lon="8.163993"><ele>342.5</ele></trkpt>
   <trkpt lat="50.100741" lon="8.164006"><ele>342.25</ele></trkpt>
   <trkpt lat="50.100926" lon="8.164217"><ele>339.5</ele></trkpt>
   <trkpt lat="50.101145" lon="8.164353"><ele>338.25</ele></trkpt>
   <trkpt lat="50.101307" lon="8.164342"><ele>339.25</ele></trkpt>
   <trkpt lat="50.10176" lon="8.163957"><ele>347</ele></trkpt>
   <trkpt lat="50.102215" lon="8.163396"><ele>351</ele></trkpt>
   <trkpt lat="50.102433" lon="8.163123"><ele>350.75</ele></trkpt>
   <trkpt lat="50.102597" lon="8.162807"><ele>353</ele></trkpt>
   <trkpt lat="50.102803" lon="8.162065"><ele>358.5</ele></trkpt>
   <trkpt lat="50.103129" lon="8.16094"><ele>364.75</ele></trkpt>
   <trkpt lat="50.103272" lon="8.160538"><ele>366.5</ele></trkpt>
   <trkpt lat="50.103285" lon="8.160503"><ele>366.75</ele></trkpt>
   <trkpt lat="50.103471" lon="8.160319"><ele>369</ele></trkpt>
   <trkpt lat="50.1035" lon="8.160307"><ele>369.5</ele></trkpt>
   <trkpt lat="50.103566" lon="8.160387"><ele>369.5</ele></trkpt>
   <trkpt lat="50.103595" lon="8.160425"><ele>369.75</ele></trkpt>
   <trkpt lat="50.103608" lon="8.160439"><ele>369.75</ele></trkpt>
   <trkpt lat="50.103631" lon="8.160709"><ele>368</ele></trkpt>
   <trkpt lat="50.103759" lon="8.161439"><ele>363.75</ele></trkpt>
   <trkpt lat="50.103813" lon="8.161518"><ele>363.75</ele></trkpt>
   <trkpt lat="50.103876" lon="8.161555"><ele>364</ele></trkpt>
   <trkpt lat="50.104081" lon="8.161495"><ele>366.5</ele></trkpt>
   <trkpt lat="50.104355" lon="8.161318"><ele>372.25</ele></trkpt>
   <trkpt lat="50.104521" lon="8.161275"><ele>375.5</ele></trkpt>
   <trkpt lat="50.104623" lon="8.161277"><ele>377.25</ele></trkpt>
   <trkpt lat="50.104706" lon="8.161313"><ele>378.5</ele></trkpt>
   <trkpt lat="50.104785" lon="8.161365"><ele>379.25</ele></trkpt>
   <trkpt lat="50.104864" lon="8.161433"><ele>380</ele></trkpt>
   <trkpt lat="50.104925" lon="8.161507"><ele>380</ele></trkpt>
   <trkpt lat="50.104943" lon="8.16153"><ele>380.25</ele></trkpt>
   <trkpt lat="50.105005" lon="8.161637"><ele>380.25</ele></trkpt>
   <trkpt lat="50.105052" lon="8.161756"><ele>381</ele></trkpt>
   <trkpt lat="50.105089" lon="8.161902"><ele>381.75</ele></trkpt>
   <trkpt lat="50.105073" lon="8.162068"><ele>381.5</ele></trkpt>
   <trkpt lat="50.105124" lon="8.162179"><ele>382.5</ele></trkpt>
   <trkpt lat="50.105199" lon="8.162526"><ele>384.5</ele></trkpt>
   <trkpt lat="50.105267" lon="8.16349"><ele>386.25</ele></trkpt>
   <trkpt lat="50.105339" lon="8.163689"><ele>388</ele></trkpt>
   <trkpt lat="50.105573" lon="8.164259"><ele>394</ele></trkpt>
   <trkpt lat="50.105607" lon="8.164263"><ele>394.75</ele></trkpt>
   <trkpt lat="50.105641" lon="8.164206"><ele>395.75</ele></trkpt>
   <trkpt lat="50.105693" lon="8.164044"><ele>397.25</ele></trkpt>
   <trkpt lat="50.105903" lon="8.163657"><ele>403</ele></trkpt>
   <trkpt lat="50.106106" lon="8.163382"><ele>407.25</ele></trkpt>
   <trkpt lat="50.106198" lon="8.163327"><ele>408.75</ele></trkpt>
   <trkpt lat="50.1063" lon="8.163309"><ele>410.75</ele></trkpt>
   <trkpt lat="50.106331" lon="8.163341"><ele>411.5</ele></trkpt>
   <trkpt lat="50.106387" lon="8.163425"><ele>412.75</ele></trkpt>
   <trkpt lat="50.106432" lon="8.163531"><ele>414.25</ele></trkpt>
   <trkpt lat="50.106448" lon="8.163615"><ele>414.75</ele></trkpt>
   <trkpt lat="50.106469" lon="8.163876"><ele>416.5</ele></trkpt>
   <trkpt lat="50.106405" lon="8.16439"><ele>416.75</ele></trkpt>
   <trkpt lat="50.106404" lon="8.164604"><ele>417.5</ele></trkpt>
   <trkpt lat="50.106406" lon="8.164661"><ele>417.75</ele></trkpt>
   <trkpt lat="50.106411" lon="8.164771"><ele>418.5</ele></trkpt>
   <trkpt lat="50.106499" lon="8.165109"><ele>422</ele></trkpt>
   <trkpt lat="50.106523" lon="8.165453"><ele>421.75</ele></trkpt>
   <trkpt lat="50.106577" lon="8.165646"><ele>423.25</ele></trkpt>
   <trkpt lat="50.106652" lon="8.166173"><ele>424</ele></trkpt>
   <trkpt lat="50.106889" lon="8.166389"><ele>430.5</ele></trkpt>
   <trkpt lat="50.106975" lon="8.166498"><ele>433</ele></trkpt>
   <trkpt lat="50.107019" lon="8.166581"><ele>434.25</ele></trkpt>
   <trkpt lat="50.107061" lon="8.166689"><ele>435.5</ele></trkpt>
   <trkpt lat="50.107096" lon="8.166801"><ele>435.5</ele></trkpt>
   <trkpt lat="50.10712" lon="8.166946"><ele>434.75</ele></trkpt>
   <trkpt lat="50.107137" lon="8.16701"><ele>434.75</ele></trkpt>
   <trkpt lat="50.10716" lon="8.167052"><ele>435</ele></trkpt>
   <trkpt lat="50.107185" lon="8.167076"><ele>435.5</ele></trkpt>
   <trkpt lat="50.107212" lon="8.167079"><ele>436.5</ele></trkpt>
   <trkpt lat="50.107237" lon="8.167069"><ele>437.25</ele></trkpt>
   <trkpt lat="50.107257" lon="8.167044"><ele>438.25</ele></trkpt>
   <trkpt lat="50.107269" lon="8.167009"><ele>439</ele></trkpt>
   <trkpt lat="50.107282" lon="8.166935"><ele>440</ele></trkpt>
   <trkpt lat="50.107295" lon="8.166904"><ele>440.75</ele></trkpt>
   <trkpt lat="50.107312" lon="8.166886"><ele>441.5</ele></trkpt>
   <trkpt lat="50.107342" lon="8.166876"><ele>442.5</ele></trkpt>
   <trkpt lat="50.107367" lon="8.166881"><ele>443.25</ele></trkpt>
   <trkpt lat="50.107442" lon="8.166926"><ele>445.25</ele></trkpt>
   <trkpt lat="50.107478" lon="8.16693"><ele>446.25</ele></trkpt>
   <trkpt lat="50.107522" lon="8.166916"><ele>447.5</ele></trkpt>
   <trkpt lat="50.107547" lon="8.16692"><ele>447.75</ele></trkpt>
   <trkpt lat="50.107574" lon="8.166938"><ele>447.75</ele></trkpt>
   <trkpt lat="50.107634" lon="8.167029"><ele>447.5</ele></trkpt>
   <trkpt lat="50.107654" lon="8.167038"><ele>447.75</ele></trkpt>
   <trkpt lat="50.107678" lon="8.167035"><ele>448</ele></trkpt>
   <trkpt lat="50.107697" lon="8.167022"><ele>448.25</ele></trkpt>
   <trkpt lat="50.107714" lon="8.166976"><ele>449</ele></trkpt>
   <trkpt lat="50.107719" lon="8.166893"><ele>449.75</ele></trkpt>
   <trkpt lat="50.107735" lon="8.166821"><ele>450.5</ele></trkpt>
   <trkpt lat="50.10776" lon="8.166768"><ele>451.25</ele></trkpt>
   <trkpt lat="50.107846" lon="8.166673"><ele>452.75</ele></trkpt>
   <trkpt lat="50.107893" lon="8.166653"><ele>453</ele></trkpt>
   <trkpt lat="50.108037" lon="8.166671"><ele>454.25</ele></trkpt>
   <trkpt lat="50.10815" lon="8.166729"><ele>455</ele></trkpt>
   <trkpt lat="50.10826" lon="8.166733"><ele>456</ele></trkpt>
   <trkpt lat="50.108337" lon="8.166708"><ele>456.75</ele></trkpt>
   <trkpt lat="50.108436" lon="8.166675"><ele>456.75</ele></trkpt>
   <trkpt lat="50.108486" lon="8.166672"><ele>456.75</ele></trkpt>
   <trkpt lat="50.108558" lon="8.166691"><ele>456.75</ele></trkpt>
   <trkpt lat="50.108638" lon="8.16674"><ele>456.5</ele></trkpt>
   <trkpt lat="50.108698" lon="8.166793"><ele>456.5</ele></trkpt>
   <trkpt lat="50.108724" lon="8.166818"><ele>456.25</ele></trkpt>
   <trkpt lat="50.108698" lon="8.166793"><ele>456.5</ele></trkpt>
   <trkpt lat="50.109018" lon="8.167512"><ele>453.75</ele></trkpt>
   <trkpt lat="50.109061" lon="8.167655"><ele>453.25</ele></trkpt>
   <trkpt lat="50.109109" lon="8.168013"><ele>451.25</ele></trkpt>
   <trkpt lat="50.109149" lon="8.168312"><ele>450</ele></trkpt>
   <trkpt lat="50.109254" lon="8.169574"><ele>435.25</ele></trkpt>
   <trkpt lat="50.109337" lon="8.170603"><ele>421</ele></trkpt>
   <trkpt lat="50.109242" lon="8.170727"><ele>420</ele></trkpt>
   <trkpt lat="50.109356" lon="8.170684"><ele>419.75</ele></trkpt>
   <trkpt lat="50.109377" lon="8.170684"><ele>419.5</ele></trkpt>
   <trkpt lat="50.109493" lon="8.170686"><ele>419</ele></trkpt>
   <trkpt lat="50.109573" lon="8.170754"><ele>417.5</ele></trkpt>
   <trkpt lat="50.109696" lon="8.170945"><ele>414.25</ele></trkpt>
   <trkpt lat="50.109718" lon="8.171247"><ele>410</ele></trkpt>
   <trkpt lat="50.109593" lon="8.171526"><ele>406.75</ele></trkpt>
   <trkpt lat="50.109673" lon="8.171838"><ele>402.25</ele></trkpt>
   <trkpt lat="50.109623" lon="8.171957"><ele>400.75</ele></trkpt>
   <trkpt lat="50.109645" lon="8.172162"><ele>398</ele></trkpt>
   <trkpt lat="50.109655" lon="8.172399"><ele>394.75</ele></trkpt>
   <trkpt lat="50.109516" lon="8.172561"><ele>392.25</ele></trkpt>
   <trkpt lat="50.109389" lon="8.172766"><ele>389</ele></trkpt>
   <trkpt lat="50.109303" lon="8.17288"><ele>387</ele></trkpt>
   <trkpt lat="50.109253" lon="8.17298"><ele>385</ele></trkpt>
   <trkpt lat="50.109244" lon="8.173173"><ele>382</ele></trkpt>
   <trkpt lat="50.109278" lon="8.173313"><ele>379.75</ele></trkpt>
   <trkpt lat="50.109279" lon="8.173718"><ele>373.75</ele></trkpt>
   <trkpt lat="50.109008" lon="8.173906"><ele>368.75</ele></trkpt>
   <trkpt lat="50.108963" lon="8.173931"><ele>367.75</ele></trkpt>
   <trkpt lat="50.108901" lon="8.173966"><ele>366.75</ele></trkpt>
   <trkpt lat="50.108799" lon="8.173993"><ele>365.25</ele></trkpt>
   <trkpt lat="50.108659" lon="8.173966"><ele>364</ele></trkpt>
   <trkpt lat="50.108531" lon="8.17388"><ele>363.5</ele></trkpt>
   <trkpt lat="50.108103" lon="8.173558"><ele>362.75</ele></trkpt>
   <trkpt lat="50.107984" lon="8.173488"><ele>362.25</ele></trkpt>
   <trkpt lat="50.107888" lon="8.17346"><ele>361.5</ele></trkpt>
   <trkpt lat="50.107783" lon="8.173463"><ele>360.5</ele></trkpt>
   <trkpt lat="50.10774" lon="8.173468"><ele>360</ele></trkpt>
   <trkpt lat="50.107638" lon="8.17352"><ele>358.25</ele></trkpt>
   <trkpt lat="50.107611" lon="8.173546"><ele>357.75</ele></trkpt>
   <trkpt lat="50.107584" lon="8.17357"><ele>357.25</ele></trkpt>
   <trkpt lat="50.107493" lon="8.173591"><ele>356</ele></trkpt>
   <trkpt lat="50.107282" lon="8.173596"><ele>354.75</ele></trkpt>
   <trkpt lat="50.107181" lon="8.173604"><ele>354</ele></trkpt>
   <trkpt lat="50.106528" lon="8.173649"><ele>350.75</ele></trkpt>
   <trkpt lat="50.106245" lon="8.173707"><ele>350.75</ele></trkpt>
   <trkpt lat="50.106049" lon="8.173772"><ele>350.5</ele></trkpt>
   <trkpt lat="50.106112" lon="8.174243"><ele>346</ele></trkpt>
   <trkpt lat="50.106338" lon="8.175932"><ele>331</ele></trkpt>
   <trkpt lat="50.106562" lon="8.178207"><ele>307.25</ele></trkpt>
   <trkpt lat="50.106993" lon="8.179843"><ele>288.75</ele></trkpt>
   <trkpt lat="50.107123" lon="8.180315"><ele>283.75</ele></trkpt>
   <trkpt lat="50.107152" lon="8.18047"><ele>282</ele></trkpt>
   <trkpt lat="50.107316" lon="8.181336"><ele>273.5</ele></trkpt>
   <trkpt lat="50.107422" lon="8.181534"><ele>272</ele></trkpt>
   <trkpt lat="50.107476" lon="8.181657"><ele>271</ele></trkpt>
   <trkpt lat="50.107321" lon="8.181849"><ele>270</ele></trkpt>
   <trkpt lat="50.10704" lon="8.182277"><ele>267</ele></trkpt>
   <trkpt lat="50.10688" lon="8.182488"><ele>264.5</ele></trkpt>
   <trkpt lat="50.106807" lon="8.182657"><ele>262.75</ele></trkpt>
   <trkpt lat="50.106104" lon="8.184279"><ele>249</ele></trkpt>
   <trkpt lat="50.106063" lon="8.184371"><ele>248.5</ele></trkpt>
   <trkpt lat="50.106062" lon="8.184375"><ele>248.5</ele></trkpt>
   <trkpt lat="50.105988" lon="8.184547"><ele>247.75</ele></trkpt>
   <trkpt lat="50.104343" lon="8.188341"><ele>226</ele></trkpt>
   <trkpt lat="50.104282" lon="8.188509"><ele>225.25</ele></trkpt>
   <trkpt lat="50.104233" lon="8.188688"><ele>224.75</ele></trkpt>
   <trkpt lat="50.104205" lon="8.188745"><ele>224.25</ele></trkpt>
   <trkpt lat="50.104226" lon="8.188783"><ele>224.5</ele></trkpt>
   <trkpt lat="50.10422" lon="8.188832"><ele>224.5</ele></trkpt>
   <trkpt lat="50.103907" lon="8.189178"><ele>223</ele></trkpt>
   <trkpt lat="50.103341" lon="8.189772"><ele>220.25</ele></trkpt>
   <trkpt lat="50.102143" lon="8.191551"><ele>211.75</ele></trkpt>
   <trkpt lat="50.102092" lon="8.191631"><ele>211.5</ele></trkpt>
   <trkpt lat="50.102001" lon="8.191759"><ele>211</ele></trkpt>
   <trkpt lat="50.102286" lon="8.192303"><ele>211.25</ele></trkpt>
   <trkpt lat="50.102478" lon="8.192634"><ele>211.5</ele></trkpt>
   <trkpt lat="50.102432" lon="8.192688"><ele>211</ele></trkpt>
   <trkpt lat="50.102496" lon="8.192791"><ele>211.25</ele></trkpt>
   <trkpt lat="50.102478" lon="8.19288"><ele>210.75</ele></trkpt>
   <trkpt lat="50.102355" lon="8.193381"><ele>210</ele></trkpt>
   <trkpt lat="50.101835" lon="8.195515"><ele>207</ele></trkpt>
   <trkpt lat="50.10169" lon="8.196085"><ele>208.75</ele></trkpt>
   <trkpt lat="50.101353" lon="8.197616"><ele>212</ele></trkpt>
   <trkpt lat="50.101204" lon="8.198319"><ele>212.75</ele></trkpt>
   <trkpt lat="50.10108" lon="8.198815"><ele>214.75</ele></trkpt>
   <trkpt lat="50.101029" lon="8.198966"><ele>215.25</ele></trkpt>
   <trkpt lat="50.100967" lon="8.199099"><ele>215.5</ele></trkpt>
   <trkpt lat="50.100907" lon="8.199178"><ele>215.75</ele></trkpt>
   <trkpt lat="50.099682" lon="8.199993"><ele>214</ele></trkpt>
   <trkpt lat="50.099587" lon="8.199894"><ele>212.25</ele></trkpt>
   <trkpt lat="50.099463" lon="8.199819"><ele>210.5</ele></trkpt>
   <trkpt lat="50.099314" lon="8.199762"><ele>209.25</ele></trkpt>
   <trkpt lat="50.099051" lon="8.199707"><ele>206.75</ele></trkpt>
   <trkpt lat="50.09905" lon="8.199707"><ele>206.75</ele></trkpt>
   <trkpt lat="50.098762" lon="8.199686"><ele>203.75</ele></trkpt>
   <trkpt lat="50.098078" lon="8.19974"><ele>198.75</ele></trkpt>
   <trkpt lat="50.097807" lon="8.199811"><ele>197.5</ele></trkpt>
   <trkpt lat="50.097671" lon="8.19987"><ele>196.75</ele></trkpt>
   <trkpt lat="50.097595" lon="8.199878"><ele>196.25</ele></trkpt>
   <trkpt lat="50.09752" lon="8.199861"><ele>195.75</ele></trkpt>
   <trkpt lat="50.097452" lon="8.199827"><ele>195.25</ele></trkpt>
   <trkpt lat="50.097336" lon="8.199748"><ele>194.75</ele></trkpt>
   <trkpt lat="50.097248" lon="8.199643"><ele>194.25</ele></trkpt>
   <trkpt lat="50.097136" lon="8.199362"><ele>193.5</ele></trkpt>
   <trkpt lat="50.096654" lon="8.198019"><ele>194.5</ele></trkpt>
   <trkpt lat="50.09658" lon="8.19781"><ele>195</ele></trkpt>
   <trkpt lat="50.096506" lon="8.197605"><ele>195</ele></trkpt>
   <trkpt lat="50.096415" lon="8.197353"><ele>195.5</ele></trkpt>
   <trkpt lat="50.095971" lon="8.197549"><ele>194.25</ele></trkpt>
   <trkpt lat="50.095373" lon="8.197819"><ele>192</ele></trkpt>
   <trkpt lat="50.095297" lon="8.197857"><ele>191.75</ele></trkpt>
   <trkpt lat="50.09497" lon="8.198015"><ele>191</ele></trkpt>
   <trkpt lat="50.094859" lon="8.198037"><ele>191.75</ele></trkpt>
   <trkpt lat="50.094355" lon="8.198138"><ele>194.5</ele></trkpt>
   <trkpt lat="50.094291" lon="8.19816"><ele>194.75</ele></trkpt>
   <trkpt lat="50.094227" lon="8.1982"><ele>195</ele></trkpt>
   <trkpt lat="50.094122" lon="8.198301"><ele>195.5</ele></trkpt>
   <trkpt lat="50.093984" lon="8.198457"><ele>196.25</ele></trkpt>
   <trkpt lat="50.093829" lon="8.198634"><ele>197.5</ele></trkpt>
   <trkpt lat="50.093846" lon="8.19885"><ele>197</ele></trkpt>
   <trkpt lat="50.093859" lon="8.199021"><ele>196.75</ele></trkpt>
   <trkpt lat="50.093928" lon="8.199806"><ele>194.25</ele></trkpt>
   <trkpt lat="50.093938" lon="8.199951"><ele>194</ele></trkpt>
   <trkpt lat="50.093946" lon="8.200062"><ele>193.5</ele></trkpt>
   <trkpt lat="50.09393" lon="8.200878"><ele>190.25</ele></trkpt>
   <trkpt lat="50.093924" lon="8.201255"><ele>189</ele></trkpt>
   <trkpt lat="50.093918" lon="8.201377"><ele>188.5</ele></trkpt>
   <trkpt lat="50.093915" lon="8.201468"><ele>188.25</ele></trkpt>
   <trkpt lat="50.093901" lon="8.20173"><ele>187</ele></trkpt>
   <trkpt lat="50.093844" lon="8.202107"><ele>185.75</ele></trkpt>
   <trkpt lat="50.093755" lon="8.202401"><ele>184.75</ele></trkpt>
   <trkpt lat="50.093535" lon="8.202919"><ele>183.25</ele></trkpt>
   <trkpt lat="50.093496" lon="8.20301"><ele>183</ele></trkpt>
   <trkpt lat="50.093226" lon="8.203448"><ele>182</ele></trkpt>
   <trkpt lat="50.093049" lon="8.203667"><ele>181.75</ele></trkpt>
   <trkpt lat="50.092857" lon="8.203836"><ele>181.25</ele></trkpt>
   <trkpt lat="50.092806" lon="8.203854"><ele>181.25</ele></trkpt>
   <trkpt lat="50.092303" lon="8.204316"><ele>180.25</ele></trkpt>
   <trkpt lat="50.091928" lon="8.204648"><ele>180.25</ele></trkpt>
   <trkpt lat="50.091385" lon="8.205153"><ele>179.25</ele></trkpt>
   <trkpt lat="50.090668" lon="8.205806"><ele>178.25</ele></trkpt>
   <trkpt lat="50.089929" lon="8.20653"><ele>178.25</ele></trkpt>
   <trkpt lat="50.089898" lon="8.206561"><ele>178.5</ele></trkpt>
   <trkpt lat="50.089445" lon="8.206651"><ele>178</ele></trkpt>
   <trkpt lat="50.089327" lon="8.206692"><ele>177.75</ele></trkpt>
   <trkpt lat="50.088846" lon="8.206816"><ele>176.75</ele></trkpt>
   <trkpt lat="50.088596" lon="8.20706"><ele>175.25</ele></trkpt>
   <trkpt lat="50.088371" lon="8.207277"><ele>174</ele></trkpt>
   <trkpt lat="50.088176" lon="8.207467"><ele>173</ele></trkpt>
   <trkpt lat="50.088279" lon="8.207908"><ele>170.5</ele></trkpt>
   <trkpt lat="50.088064" lon="8.208348"><ele>168.25</ele></trkpt>
   <trkpt lat="50.087815" lon="8.208446"><ele>168</ele></trkpt>
   <trkpt lat="50.086696" lon="8.208888"><ele>166.25</ele></trkpt>
   <trkpt lat="50.086252" lon="8.209064"><ele>165.25</ele></trkpt>
   <trkpt lat="50.086198" lon="8.209082"><ele>165.25</ele></trkpt>
   <trkpt lat="50.085024" lon="8.209263"><ele>169</ele></trkpt>
   <trkpt lat="50.084771" lon="8.209287"><ele>170</ele></trkpt>
   <trkpt lat="50.084671" lon="8.209272"><ele>170.5</ele></trkpt>
   <trkpt lat="50.084649" lon="8.209251"><ele>170.75</ele></trkpt>
   <trkpt lat="50.084549" lon="8.209148"><ele>172.25</ele></trkpt>
   <trkpt lat="50.084194" lon="8.20874"><ele>177.25</ele></trkpt>
   <trkpt lat="50.084016" lon="8.209183"><ele>174</ele></trkpt>
   <trkpt lat="50.083772" lon="8.209792"><ele>170</ele></trkpt>
   <trkpt lat="50.083713" lon="8.209749"><ele>170.5</ele></trkpt>
   <trkpt lat="50.083649" lon="8.209708"><ele>171</ele></trkpt>
   <trkpt lat="50.083482" lon="8.20979"><ele>170.75</ele></trkpt>
   <trkpt lat="50.08272" lon="8.210167"><ele>170.75</ele></trkpt>
   <trkpt lat="50.081275" lon="8.210838"><ele>171.75</ele></trkpt>
   <trkpt lat="50.081244" lon="8.210852"><ele>171.75</ele></trkpt>
   <trkpt lat="50.079328" lon="8.211433"><ele>171.25</ele></trkpt>
  </trkseg>
 </trk>
</gpx>