<?xml version="1.0" encoding="UTF-8"?>
<gpx xmlns="http://www.topografix.com/GPX/1/1" xmlns:gpsies="https://www.gpsies.com/GPX/1/0" creator="AllTrails https://www.alltrails.com/ - Gpsies_ivvpw" version="1.1" xmlns:xsi="http://www.w3.org/2001/XMLSchema-instance" xsi:schemaLocation="http://www.topografix.com/GPX/1/1 http://www.topografix.com/GPX/1/1/gpx.xsd https://www.gpsies.com/GPX/1/0 https://www.gpsies.com/gpsies.xsd">
  <metadata>
    <name>Gpsies_ivvpw</name>
    <link href="https://www.gpsies.com/">
      <text>Gpsies_ivvpw on AllTrails</text>
    </link>
    <time>2020-02-19T20:01:52Z</time>
  </metadata>
  <trk>
    <name>DVV Frankfurt-Auf Goethes Spuren</name>
    <link href="https://www.gpsies.com/map.do?fileId=lasmmzynjdnnnfct">
      <type>trackOnWeb</type>
    </link>
    <link href="https://www.gpsies.com/charts/la/map/lasmmzynjdnnnfct_map.png">
      <type>elevationChartUrlMap</type>
    </link>
    <link href="https://www.gpsies.com/charts/la/mapThumb/lasmmzynjdnnnfct_mapThumb.png">
      <type>elevationChartUrlMapThumb</type>
    </link>
    <link href="https://www.gpsies.com/charts/la/tab/lasmmzynjdnnnfct_tab.png">
      <type>elevationChartUrlTab</type>
    </link>
    <trkseg>
      <trkpt lat="50.11127240" lon="8.677683770">
        <ele>107.00000</ele>
      </trkpt>
      <trkpt lat="50.11129820" lon="8.677871520">
        <ele>107.00000</ele>
      </trkpt>
      <trkpt lat="50.11149430" lon="8.677918460">
        <ele>108.00000</ele>
      </trkpt>
      <trkpt lat="50.11148480" lon="8.678112920">
        <ele>107.00000</ele>
      </trkpt>
      <trkpt lat="50.11151150" lon="8.678425400">
        <ele>106.00000</ele>
      </trkpt>
      <trkpt lat="50.11159060" lon="8.678884050">
        <ele>106.00000</ele>
      </trkpt>
      <trkpt lat="50.11163270" lon="8.679133500">
        <ele>106.00000</ele>
      </trkpt>
      <trkpt lat="50.11176520" lon="8.679256880">
        <ele>106.00000</ele>
      </trkpt>
      <trkpt lat="50.11172280" lon="8.679394000">
        <ele>106.00000</ele>
      </trkpt>
      <trkpt lat="50.11171010" lon="8.679467430">
        <ele>106.00000</ele>
      </trkpt>
      <trkpt lat="50.11188000" lon="8.680463300">
        <ele>106.00000</ele>
      </trkpt>
      <trkpt lat="50.11152510" lon="8.680627700">
        <ele>106.00000</ele>
      </trkpt>
      <trkpt lat="50.11173250" lon="8.681610520">
        <ele>103.00000</ele>
      </trkpt>
      <trkpt lat="50.11092830" lon="8.681977980">
        <ele>106.00000</ele>
      </trkpt>
      <trkpt lat="50.11081480" lon="8.682012850">
        <ele>106.00000</ele>
      </trkpt>
      <trkpt lat="50.11074690" lon="8.682051740">
        <ele>106.00000</ele>
      </trkpt>
      <trkpt lat="50.11065480" lon="8.682173780">
        <ele>106.00000</ele>
      </trkpt>
      <trkpt lat="50.11053360" lon="8.682374950">
        <ele>106.00000</ele>
      </trkpt>
      <trkpt lat="50.11029280" lon="8.682433960">
        <ele>107.00000</ele>
      </trkpt>
      <trkpt lat="50.11013540" lon="8.682503700">
        <ele>107.00000</ele>
      </trkpt>
      <trkpt lat="50.11026440" lon="8.683357980">
        <ele>106.00000</ele>
      </trkpt>
      <trkpt lat="50.11039680" lon="8.684075470">
        <ele>105.00000</ele>
      </trkpt>
      <trkpt lat="50.11051470" lon="8.684742000">
        <ele>104.00000</ele>
      </trkpt>
      <trkpt lat="50.11050090" lon="8.684886840">
        <ele>104.00000</ele>
      </trkpt>
      <trkpt lat="50.11040630" lon="8.684987420">
        <ele>104.00000</ele>
      </trkpt>
      <trkpt lat="50.11015950" lon="8.685121530">
        <ele>103.00000</ele>
      </trkpt>
      <trkpt lat="50.11026610" lon="8.685891330">
        <ele>103.00000</ele>
      </trkpt>
      <trkpt lat="50.11032800" lon="8.686290970">
        <ele>102.00000</ele>
      </trkpt>
      <trkpt lat="50.11042350" lon="8.686674530">
        <ele>101.00000</ele>
      </trkpt>
      <trkpt lat="50.11047420" lon="8.686859600">
        <ele>101.00000</ele>
      </trkpt>
      <trkpt lat="50.11052240" lon="8.687056750">
        <ele>100.00000</ele>
      </trkpt>
      <trkpt lat="50.11002010" lon="8.687386660">
        <ele>101.00000</ele>
      </trkpt>
      <trkpt lat="50.10997200" lon="8.687447010">
        <ele>101.00000</ele>
      </trkpt>
      <trkpt lat="50.10994960" lon="8.687473830">
        <ele>100.00000</ele>
      </trkpt>
      <trkpt lat="50.10992210" lon="8.687480530">
        <ele>100.00000</ele>
      </trkpt>
      <trkpt lat="50.10973800" lon="8.687554290">
        <ele>97.000000</ele>
      </trkpt>
      <trkpt lat="50.10969160" lon="8.687665610">
        <ele>96.000000</ele>
      </trkpt>
      <trkpt lat="50.10967520" lon="8.687961990">
        <ele>96.000000</ele>
      </trkpt>
      <trkpt lat="50.10951270" lon="8.687939190">
        <ele>93.000000</ele>
      </trkpt>
      <trkpt lat="50.10947570" lon="8.687889570">
        <ele>93.000000</ele>
      </trkpt>
      <trkpt lat="50.10903360" lon="8.687893590">
        <ele>88.000000</ele>
      </trkpt>
      <trkpt lat="50.10823970" lon="8.687917730">
        <ele>91.000000</ele>
      </trkpt>
      <trkpt lat="50.10765660" lon="8.687929800">
        <ele>97.000000</ele>
      </trkpt>
      <trkpt lat="50.10731250" lon="8.687940530">
        <ele>99.000000</ele>
      </trkpt>
      <trkpt lat="50.10731430" lon="8.688204730">
        <ele>100.00000</ele>
      </trkpt>
      <trkpt lat="50.10741230" lon="8.688265080">
        <ele>99.000000</ele>
      </trkpt>
      <trkpt lat="50.10744760" lon="8.688368350">
        <ele>99.000000</ele>
      </trkpt>
      <trkpt lat="50.10746560" lon="8.688412600">
        <ele>99.000000</ele>
      </trkpt>
      <trkpt lat="50.10747340" lon="8.688462220">
        <ele>99.000000</ele>
      </trkpt>
      <trkpt lat="50.10747850" lon="8.688865900">
        <ele>100.00000</ele>
      </trkpt>
      <trkpt lat="50.10743120" lon="8.689590090">
        <ele>103.00000</ele>
      </trkpt>
      <trkpt lat="50.10735640" lon="8.690315630">
        <ele>106.00000</ele>
      </trkpt>
      <trkpt lat="50.10722310" lon="8.691631250">
        <ele>106.00000</ele>
      </trkpt>
      <trkpt lat="50.10708030" lon="8.693127930">
        <ele>100.00000</ele>
      </trkpt>
      <trkpt lat="50.10686240" lon="8.695432200">
        <ele>98.000000</ele>
      </trkpt>
      <trkpt lat="50.10633630" lon="8.701059220">
        <ele>96.000000</ele>
      </trkpt>
      <trkpt lat="50.10630880" lon="8.701327440">
        <ele>96.000000</ele>
      </trkpt>
      <trkpt lat="50.10622190" lon="8.701505810">
        <ele>97.000000</ele>
      </trkpt>
      <trkpt lat="50.10602320" lon="8.703714600">
        <ele>97.000000</ele>
      </trkpt>
      <trkpt lat="50.10592690" lon="8.704433440">
        <ele>97.000000</ele>
      </trkpt>
      <trkpt lat="50.10582360" lon="8.705694070">
        <ele>98.000000</ele>
      </trkpt>
      <trkpt lat="50.10576520" lon="8.705924740">
        <ele>98.000000</ele>
      </trkpt>
      <trkpt lat="50.10573080" lon="8.708070510">
        <ele>100.00000</ele>
      </trkpt>
      <trkpt lat="50.10573080" lon="8.710371850">
        <ele>98.000000</ele>
      </trkpt>
      <trkpt lat="50.10567570" lon="8.711412540">
        <ele>96.000000</ele>
      </trkpt>
      <trkpt lat="50.10548990" lon="8.716165420">
        <ele>98.000000</ele>
      </trkpt>
      <trkpt lat="50.10553460" lon="8.717501160">
        <ele>99.000000</ele>
      </trkpt>
      <trkpt lat="50.10568950" lon="8.717452880">
        <ele>98.000000</ele>
      </trkpt>
      <trkpt lat="50.10570580" lon="8.717666110">
        <ele>98.000000</ele>
      </trkpt>
      <trkpt lat="50.10575660" lon="8.718005410">
        <ele>98.000000</ele>
      </trkpt>
      <trkpt lat="50.10580820" lon="8.718434570">
        <ele>98.000000</ele>
      </trkpt>
      <trkpt lat="50.10606970" lon="8.720723830">
        <ele>97.000000</ele>
      </trkpt>
      <trkpt lat="50.10606280" lon="8.720902200">
        <ele>97.000000</ele>
      </trkpt>
      <trkpt lat="50.10571870" lon="8.721081910">
        <ele>99.000000</ele>
      </trkpt>
      <trkpt lat="50.10572040" lon="8.721657240">
        <ele>101.00000</ele>
      </trkpt>
      <trkpt lat="50.10548730" lon="8.721720270">
        <ele>101.00000</ele>
      </trkpt>
      <trkpt lat="50.10525510" lon="8.721791350">
        <ele>101.00000</ele>
      </trkpt>
      <trkpt lat="50.10525510" lon="8.721881210">
        <ele>101.00000</ele>
      </trkpt>
      <trkpt lat="50.10500560" lon="8.721921440">
        <ele>101.00000</ele>
      </trkpt>
      <trkpt lat="50.10496610" lon="8.721859750">
        <ele>101.00000</ele>
      </trkpt>
      <trkpt lat="50.10487660" lon="8.721869140">
        <ele>100.00000</ele>
      </trkpt>
      <trkpt lat="50.10481470" lon="8.721925460">
        <ele>100.00000</ele>
      </trkpt>
      <trkpt lat="50.10474930" lon="8.722019340">
        <ele>101.00000</ele>
      </trkpt>
      <trkpt lat="50.10471320" lon="8.722201730">
        <ele>101.00000</ele>
      </trkpt>
      <trkpt lat="50.10473900" lon="8.722432400">
        <ele>102.00000</ele>
      </trkpt>
      <trkpt lat="50.10476740" lon="8.722622840">
        <ele>102.00000</ele>
      </trkpt>
      <trkpt lat="50.10480780" lon="8.722997000">
        <ele>100.00000</ele>
      </trkpt>
      <trkpt lat="50.10480780" lon="8.723180740">
        <ele>100.00000</ele>
      </trkpt>
      <trkpt lat="50.10477510" lon="8.723324230">
        <ele>99.000000</ele>
      </trkpt>
      <trkpt lat="50.10472010" lon="8.723467730">
        <ele>99.000000</ele>
      </trkpt>
      <trkpt lat="50.10465900" lon="8.723560270">
        <ele>99.000000</ele>
      </trkpt>
      <trkpt lat="50.10459190" lon="8.723644760">
        <ele>99.000000</ele>
      </trkpt>
      <trkpt lat="50.10450850" lon="8.723698400">
        <ele>99.000000</ele>
      </trkpt>
      <trkpt lat="50.10428910" lon="8.723774850">
        <ele>99.000000</ele>
      </trkpt>
      <trkpt lat="50.10416960" lon="8.723796300">
        <ele>100.00000</ele>
      </trkpt>
      <trkpt lat="50.10395620" lon="8.723831170">
        <ele>99.000000</ele>
      </trkpt>
      <trkpt lat="50.10383060" lon="8.723849950">
        <ele>99.000000</ele>
      </trkpt>
      <trkpt lat="50.10349520" lon="8.723903590">
        <ele>99.000000</ele>
      </trkpt>
      <trkpt lat="50.10296010" lon="8.724052450">
        <ele>100.00000</ele>
      </trkpt>
      <trkpt lat="50.10217820" lon="8.724297880">
        <ele>102.00000</ele>
      </trkpt>
      <trkpt lat="50.10135470" lon="8.724604900">
        <ele>105.00000</ele>
      </trkpt>
      <trkpt lat="50.10109260" lon="8.724676070">
        <ele>106.00000</ele>
      </trkpt>
      <trkpt lat="50.10098080" lon="8.724252280">
        <ele>106.00000</ele>
      </trkpt>
      <trkpt lat="50.10092230" lon="8.724163770">
        <ele>106.00000</ele>
      </trkpt>
      <trkpt lat="50.10073130" lon="8.723941140">
        <ele>107.00000</ele>
      </trkpt>
      <trkpt lat="50.10059200" lon="8.723820440">
        <ele>108.00000</ele>
      </trkpt>
      <trkpt lat="50.10003190" lon="8.724029660">
        <ele>113.00000</ele>
      </trkpt>
      <trkpt lat="50.09864520" lon="8.724406510">
        <ele>118.00000</ele>
      </trkpt>
      <trkpt lat="50.09804390" lon="8.724470880">
        <ele>120.00000</ele>
      </trkpt>
      <trkpt lat="50.09727480" lon="8.724587550">
        <ele>124.00000</ele>
      </trkpt>
      <trkpt lat="50.09561090" lon="8.724879920">
        <ele>131.00000</ele>
      </trkpt>
      <trkpt lat="50.09368370" lon="8.725341260">
        <ele>137.00000</ele>
      </trkpt>
      <trkpt lat="50.09337060" lon="8.725428430">
        <ele>139.00000</ele>
      </trkpt>
      <trkpt lat="50.09262030" lon="8.725704690">
        <ele>145.00000</ele>
      </trkpt>
      <trkpt lat="50.09235190" lon="8.725791870">
        <ele>146.00000</ele>
      </trkpt>
      <trkpt lat="50.09202660" lon="8.725858920">
        <ele>148.00000</ele>
      </trkpt>
      <trkpt lat="50.09158780" lon="8.725913910">
        <ele>149.00000</ele>
      </trkpt>
      <trkpt lat="50.09100790" lon="8.725997060">
        <ele>145.00000</ele>
      </trkpt>
      <trkpt lat="50.09095540" lon="8.725870990">
        <ele>145.00000</ele>
      </trkpt>
      <trkpt lat="50.09101820" lon="8.725947430">
        <ele>145.00000</ele>
      </trkpt>
      <trkpt lat="50.09097950" lon="8.724980500">
        <ele>146.00000</ele>
      </trkpt>
      <trkpt lat="50.09092360" lon="8.723820440">
        <ele>145.00000</ele>
      </trkpt>
      <trkpt lat="50.09021630" lon="8.722696600">
        <ele>141.00000</ele>
      </trkpt>
      <trkpt lat="50.09018190" lon="8.722575900">
        <ele>141.00000</ele>
      </trkpt>
      <trkpt lat="50.08960270" lon="8.720982200">
        <ele>148.00000</ele>
      </trkpt>
      <trkpt lat="50.08919070" lon="8.717696960">
        <ele>159.00000</ele>
      </trkpt>
      <trkpt lat="50.08919070" lon="8.717329500">
        <ele>159.00000</ele>
      </trkpt>
      <trkpt lat="50.08924580" lon="8.716889610">
        <ele>158.00000</ele>
      </trkpt>
      <trkpt lat="50.08963420" lon="8.714682300">
        <ele>153.00000</ele>
      </trkpt>
      <trkpt lat="50.08965020" lon="8.714387110">
        <ele>154.00000</ele>
      </trkpt>
      <trkpt lat="50.08964240" lon="8.711810850">
        <ele>151.00000</ele>
      </trkpt>
      <trkpt lat="50.08973450" lon="8.711708930">
        <ele>150.00000</ele>
      </trkpt>
      <trkpt lat="50.08978180" lon="8.711593590">
        <ele>149.00000</ele>
      </trkpt>
      <trkpt lat="50.08980070" lon="8.711490330">
        <ele>149.00000</ele>
      </trkpt>
      <trkpt lat="50.08978870" lon="8.711348170">
        <ele>149.00000</ele>
      </trkpt>
      <trkpt lat="50.08969230" lon="8.711222110">
        <ele>150.00000</ele>
      </trkpt>
      <trkpt lat="50.08959340" lon="8.710968640">
        <ele>150.00000</ele>
      </trkpt>
      <trkpt lat="50.08956330" lon="8.710865370">
        <ele>150.00000</ele>
      </trkpt>
      <trkpt lat="50.08948930" lon="8.710259190">
        <ele>149.00000</ele>
      </trkpt>
      <trkpt lat="50.08950910" lon="8.710145200">
        <ele>149.00000</ele>
      </trkpt>
      <trkpt lat="50.09079630" lon="8.709089750">
        <ele>136.00000</ele>
      </trkpt>
      <trkpt lat="50.09122650" lon="8.708711560">
        <ele>135.00000</ele>
      </trkpt>
      <trkpt lat="50.09162400" lon="8.708314590">
        <ele>134.00000</ele>
      </trkpt>
      <trkpt lat="50.09241380" lon="8.707501880">
        <ele>131.00000</ele>
      </trkpt>
      <trkpt lat="50.09281130" lon="8.707078090">
        <ele>128.00000</ele>
      </trkpt>
      <trkpt lat="50.09306940" lon="8.706707950">
        <ele>126.00000</ele>
      </trkpt>
      <trkpt lat="50.09334450" lon="8.706145600">
        <ele>124.00000</ele>
      </trkpt>
      <trkpt lat="50.09380250" lon="8.705452680">
        <ele>122.00000</ele>
      </trkpt>
      <trkpt lat="50.09433270" lon="8.705010500">
        <ele>119.00000</ele>
      </trkpt>
      <trkpt lat="50.09462490" lon="8.704703300">
        <ele>119.00000</ele>
      </trkpt>
      <trkpt lat="50.09510100" lon="8.703935700">
        <ele>116.00000</ele>
      </trkpt>
      <trkpt lat="50.09515490" lon="8.703826100">
        <ele>116.00000</ele>
      </trkpt>
      <trkpt lat="50.09570640" lon="8.703123180">
        <ele>119.00000</ele>
      </trkpt>
      <trkpt lat="50.09582860" lon="8.703150000">
        <ele>120.00000</ele>
      </trkpt>
      <trkpt lat="50.09592750" lon="8.703014550">
        <ele>120.00000</ele>
      </trkpt>
      <trkpt lat="50.09598170" lon="8.702935420">
        <ele>120.00000</ele>
      </trkpt>
      <trkpt lat="50.09602660" lon="8.702863800">
        <ele>120.00000</ele>
      </trkpt>
      <trkpt lat="50.09609350" lon="8.702720850">
        <ele>120.00000</ele>
      </trkpt>
      <trkpt lat="50.09635250" lon="8.702146850">
        <ele>121.00000</ele>
      </trkpt>
      <trkpt lat="50.09643170" lon="8.701916180">
        <ele>122.00000</ele>
      </trkpt>
      <trkpt lat="50.09676720" lon="8.701021670">
        <ele>125.00000</ele>
      </trkpt>
      <trkpt lat="50.09717840" lon="8.699983650">
        <ele>128.00000</ele>
      </trkpt>
      <trkpt lat="50.09801030" lon="8.700776240">
        <ele>127.00000</ele>
      </trkpt>
      <trkpt lat="50.09841670" lon="8.699757500">
        <ele>129.00000</ele>
      </trkpt>
      <trkpt lat="50.09858670" lon="8.699298350">
        <ele>131.00000</ele>
      </trkpt>
      <trkpt lat="50.09874670" lon="8.699145460">
        <ele>131.00000</ele>
      </trkpt>
      <trkpt lat="50.09891790" lon="8.698984530">
        <ele>132.00000</ele>
      </trkpt>
      <trkpt lat="50.09893510" lon="8.698866510">
        <ele>131.00000</ele>
      </trkpt>
      <trkpt lat="50.09905000" lon="8.698765100">
        <ele>131.00000</ele>
      </trkpt>
      <trkpt lat="50.09913550" lon="8.698676070">
        <ele>131.00000</ele>
      </trkpt>
      <trkpt lat="50.09926720" lon="8.698454790">
        <ele>130.00000</ele>
      </trkpt>
      <trkpt lat="50.09938690" lon="8.698337400">
        <ele>129.00000</ele>
      </trkpt>
      <trkpt lat="50.09961470" lon="8.698084650">
        <ele>128.00000</ele>
      </trkpt>
      <trkpt lat="50.09981000" lon="8.697864710">
        <ele>127.00000</ele>
      </trkpt>
      <trkpt lat="50.09989090" lon="8.697874090">
        <ele>127.00000</ele>
      </trkpt>
      <trkpt lat="50.10000180" lon="8.697662200">
        <ele>126.00000</ele>
      </trkpt>
      <trkpt lat="50.09998980" lon="8.697599170">
        <ele>125.00000</ele>
      </trkpt>
      <trkpt lat="50.10006630" lon="8.697436890">
        <ele>125.00000</ele>
      </trkpt>
      <trkpt lat="50.10017300" lon="8.697253160">
        <ele>124.00000</ele>
      </trkpt>
      <trkpt lat="50.10023930" lon="8.697086870">
        <ele>123.00000</ele>
      </trkpt>
      <trkpt lat="50.10020230" lon="8.696963480">
        <ele>123.00000</ele>
      </trkpt>
      <trkpt lat="50.10011450" lon="8.696767680">
        <ele>123.00000</ele>
      </trkpt>
      <trkpt lat="50.10013090" lon="8.696549080">
        <ele>122.00000</ele>
      </trkpt>
      <trkpt lat="50.10011010" lon="8.696418600">
        <ele>121.00000</ele>
      </trkpt>
      <trkpt lat="50.10006890" lon="8.696240630">
        <ele>120.00000</ele>
      </trkpt>
      <trkpt lat="50.10006200" lon="8.696177600">
        <ele>120.00000</ele>
      </trkpt>
      <trkpt lat="50.10016790" lon="8.695929490">
        <ele>119.00000</ele>
      </trkpt>
      <trkpt lat="50.10018680" lon="8.695839640">
        <ele>118.00000</ele>
      </trkpt>
      <trkpt lat="50.10019020" lon="8.695744420">
        <ele>118.00000</ele>
      </trkpt>
      <trkpt lat="50.10017990" lon="8.695665290">
        <ele>118.00000</ele>
      </trkpt>
      <trkpt lat="50.10015050" lon="8.695557800">
        <ele>117.00000</ele>
      </trkpt>
      <trkpt lat="50.09991060" lon="8.695049730">
        <ele>117.00000</ele>
      </trkpt>
      <trkpt lat="50.09987280" lon="8.694825760">
        <ele>117.00000</ele>
      </trkpt>
      <trkpt lat="50.10043970" lon="8.694135090">
        <ele>113.00000</ele>
      </trkpt>
      <trkpt lat="50.10095500" lon="8.693472590">
        <ele>110.00000</ele>
      </trkpt>
      <trkpt lat="50.10096790" lon="8.693365300">
        <ele>110.00000</ele>
      </trkpt>
      <trkpt lat="50.10076740" lon="8.692803380">
        <ele>109.00000</ele>
      </trkpt>
      <trkpt lat="50.10065560" lon="8.692517720">
        <ele>108.00000</ele>
      </trkpt>
      <trkpt lat="50.10059450" lon="8.692372880">
        <ele>108.00000</ele>
      </trkpt>
      <trkpt lat="50.10061780" lon="8.692238770">
        <ele>108.00000</ele>
      </trkpt>
      <trkpt lat="50.10064360" lon="8.692108690">
        <ele>107.00000</ele>
      </trkpt>
      <trkpt lat="50.10064530" lon="8.692020170">
        <ele>106.00000</ele>
      </trkpt>
      <trkpt lat="50.10062460" lon="8.691951780">
        <ele>106.00000</ele>
      </trkpt>
      <trkpt lat="50.10057990" lon="8.691816320">
        <ele>106.00000</ele>
      </trkpt>
      <trkpt lat="50.10055750" lon="8.691735860">
        <ele>106.00000</ele>
      </trkpt>
      <trkpt lat="50.10041900" lon="8.691274520">
        <ele>106.00000</ele>
      </trkpt>
      <trkpt lat="50.10063240" lon="8.691277200">
        <ele>105.00000</ele>
      </trkpt>
      <trkpt lat="50.10067540" lon="8.691365710">
        <ele>105.00000</ele>
      </trkpt>
      <trkpt lat="50.10076140" lon="8.691359010">
        <ele>104.00000</ele>
      </trkpt>
      <trkpt lat="50.10167070" lon="8.690970090">
        <ele>101.00000</ele>
      </trkpt>
      <trkpt lat="50.10179370" lon="8.690886940">
        <ele>102.00000</ele>
      </trkpt>
      <trkpt lat="50.10232100" lon="8.690648220">
        <ele>104.00000</ele>
      </trkpt>
      <trkpt lat="50.10260140" lon="8.690481930">
        <ele>104.00000</ele>
      </trkpt>
      <trkpt lat="50.10268140" lon="8.690504720">
        <ele>104.00000</ele>
      </trkpt>
      <trkpt lat="50.10278470" lon="8.690500700">
        <ele>104.00000</ele>
      </trkpt>
      <trkpt lat="50.10285430" lon="8.690456440">
        <ele>104.00000</ele>
      </trkpt>
      <trkpt lat="50.10294900" lon="8.690475220">
        <ele>105.00000</ele>
      </trkpt>
      <trkpt lat="50.10399150" lon="8.690078250">
        <ele>104.00000</ele>
      </trkpt>
      <trkpt lat="50.10421770" lon="8.689932070">
        <ele>104.00000</ele>
      </trkpt>
      <trkpt lat="50.10452480" lon="8.689812710">
        <ele>105.00000</ele>
      </trkpt>
      <trkpt lat="50.10472440" lon="8.689736270">
        <ele>105.00000</ele>
      </trkpt>
      <trkpt lat="50.10470800" lon="8.689560590">
        <ele>105.00000</ele>
      </trkpt>
      <trkpt lat="50.10498160" lon="8.688448810">
        <ele>106.00000</ele>
      </trkpt>
      <trkpt lat="50.10526800" lon="8.687353130">
        <ele>107.00000</ele>
      </trkpt>
      <trkpt lat="50.10550630" lon="8.686089810">
        <ele>106.00000</ele>
      </trkpt>
      <trkpt lat="50.10551140" lon="8.685970450">
        <ele>106.00000</ele>
      </trkpt>
      <trkpt lat="50.10563790" lon="8.685683450">
        <ele>105.00000</ele>
      </trkpt>
      <trkpt lat="50.10568170" lon="8.685698210">
        <ele>105.00000</ele>
      </trkpt>
      <trkpt lat="50.10572130" lon="8.685655290">
        <ele>105.00000</ele>
      </trkpt>
      <trkpt lat="50.10615650" lon="8.684837220">
        <ele>106.00000</ele>
      </trkpt>
      <trkpt lat="50.10705710" lon="8.683136700">
        <ele>101.00000</ele>
      </trkpt>
      <trkpt lat="50.10697540" lon="8.682576110">
        <ele>101.00000</ele>
      </trkpt>
      <trkpt lat="50.10745030" lon="8.682390200">
        <ele>91.000000</ele>
      </trkpt>
      <trkpt lat="50.10881000" lon="8.681939090">
        <ele>94.000000</ele>
      </trkpt>
      <trkpt lat="50.10882460" lon="8.681995420">
        <ele>94.000000</ele>
      </trkpt>
      <trkpt lat="50.10887190" lon="8.681975300">
        <ele>95.000000</ele>
      </trkpt>
      <trkpt lat="50.10885640" lon="8.681906900">
        <ele>94.000000</ele>
      </trkpt>
      <trkpt lat="50.10889170" lon="8.681889470">
        <ele>95.000000</ele>
      </trkpt>
      <trkpt lat="50.10897000" lon="8.682047720">
        <ele>95.000000</ele>
      </trkpt>
      <trkpt lat="50.10913420" lon="8.681967250">
        <ele>97.000000</ele>
      </trkpt>
      <trkpt lat="50.10927790" lon="8.682101360">
        <ele>98.000000</ele>
      </trkpt>
      <trkpt lat="50.10940340" lon="8.682081250">
        <ele>100.00000</ele>
      </trkpt>
      <trkpt lat="50.10963220" lon="8.681960550">
        <ele>102.00000</ele>
      </trkpt>
      <trkpt lat="50.10968990" lon="8.681771450">
        <ele>102.00000</ele>
      </trkpt>
      <trkpt lat="50.10964600" lon="8.681512620">
        <ele>102.00000</ele>
      </trkpt>
      <trkpt lat="50.10946880" lon="8.680796470">
        <ele>101.00000</ele>
      </trkpt>
      <trkpt lat="50.10927440" lon="8.680045450">
        <ele>100.00000</ele>
      </trkpt>
      <trkpt lat="50.10960990" lon="8.679861720">
        <ele>103.00000</ele>
      </trkpt>
      <trkpt lat="50.10994100" lon="8.679747730">
        <ele>106.00000</ele>
      </trkpt>
      <trkpt lat="50.11059380" lon="8.679621660">
        <ele>106.00000</ele>
      </trkpt>
      <trkpt lat="50.11091540" lon="8.679623000">
        <ele>106.00000</ele>
      </trkpt>
      <trkpt lat="50.11102300" lon="8.679688720">
        <ele>107.00000</ele>
      </trkpt>
      <trkpt lat="50.11106600" lon="8.679731630">
        <ele>107.00000</ele>
      </trkpt>
      <trkpt lat="50.11107890" lon="8.679555950">
        <ele>106.00000</ele>
      </trkpt>
      <trkpt lat="50.11120440" lon="8.679553270">
        <ele>106.00000</ele>
      </trkpt>
      <trkpt lat="50.11133340" lon="8.679592160">
        <ele>106.00000</ele>
      </trkpt>
      <trkpt lat="50.11135580" lon="8.679534490">
        <ele>106.00000</ele>
      </trkpt>
      <trkpt lat="50.11132480" lon="8.679348080">
        <ele>105.00000</ele>
      </trkpt>
      <trkpt lat="50.11128440" lon="8.679317230">
        <ele>105.00000</ele>
      </trkpt>
      <trkpt lat="50.11125170" lon="8.679215310">
        <ele>105.00000</ele>
      </trkpt>
      <trkpt lat="50.11119930" lon="8.678998050">
        <ele>104.00000</ele>
      </trkpt>
      <trkpt lat="50.11112010" lon="8.678690940">
        <ele>104.00000</ele>
      </trkpt>
      <trkpt lat="50.11101680" lon="8.678396200">
        <ele>103.00000</ele>
      </trkpt>
      <trkpt lat="50.11087300" lon="8.678094700">
        <ele>103.00000</ele>
      </trkpt>
      <trkpt lat="50.11072020" lon="8.677884930">
        <ele>104.00000</ele>
      </trkpt>
      <trkpt lat="50.11074520" lon="8.677820560">
        <ele>104.00000</ele>
      </trkpt>
      <trkpt lat="50.11077440" lon="8.677752160">
        <ele>105.00000</ele>
      </trkpt>
      <trkpt lat="50.11081650" lon="8.677772280">
        <ele>105.00000</ele>
      </trkpt>
      <trkpt lat="50.11104960" lon="8.677817880">
        <ele>106.00000</ele>
      </trkpt>
      <trkpt lat="50.11119580" lon="8.677844700">
        <ele>106.00000</ele>
      </trkpt>
      <trkpt lat="50.11127320" lon="8.677685110">
        <ele>107.00000</ele>
      </trkpt>
    </trkseg>
  </trk>
</gpx>
