<?xml version='1.0' encoding='UTF-8'?>
<gpx version="1.1" creator="https://www.komoot.de" xmlns="http://www.topografix.com/GPX/1/1" xmlns:xsi="http://www.w3.org/2001/XMLSchema-instance" xsi:schemaLocation="http://www.topografix.com/GPX/1/1 http://www.topografix.com/GPX/1/1/gpx.xsd">
  <metadata>
    <name>PW_12km_V21</name>
    <author>
      <link href="https://www.komoot.de">
        <text>komoot</text>
        <type>text/html</type>
      </link>
    </author>
  </metadata>
  <trk>
    <name>PW_12km_V21</name>
    <trkseg>
      <trkpt lat="50.139972" lon="8.069553">
        <ele>328.541636</ele>
        <time>2021-07-28T18:51:54.972Z</time>
      </trkpt>
      <trkpt lat="50.139904" lon="8.069544">
        <ele>328.541636</ele>
        <time>2021-07-28T18:52:03.331Z</time>
      </trkpt>
      <trkpt lat="50.139786" lon="8.069508">
        <ele>328.541636</ele>
        <time>2021-07-28T18:52:18.445Z</time>
      </trkpt>
      <trkpt lat="50.139732" lon="8.069497">
        <ele>328.541636</ele>
        <time>2021-07-28T18:52:24.339Z</time>
      </trkpt>
      <trkpt lat="50.139673" lon="8.069483">
        <ele>328.541636</ele>
        <time>2021-07-28T18:52:31.685Z</time>
      </trkpt>
      <trkpt lat="50.139374" lon="8.069478">
        <ele>328.541636</ele>
        <time>2021-07-28T18:53:08.100Z</time>
      </trkpt>
      <trkpt lat="50.139253" lon="8.069476">
        <ele>328.541636</ele>
        <time>2021-07-28T18:53:22.100Z</time>
      </trkpt>
      <trkpt lat="50.139177" lon="8.069489">
        <ele>328.541636</ele>
        <time>2021-07-28T18:53:31.631Z</time>
      </trkpt>
      <trkpt lat="50.139127" lon="8.069510">
        <ele>328.541636</ele>
        <time>2021-07-28T18:53:38.982Z</time>
      </trkpt>
      <trkpt lat="50.139078" lon="8.069511">
        <ele>328.544943</ele>
        <time>2021-07-28T18:53:44.971Z</time>
      </trkpt>
      <trkpt lat="50.139067" lon="8.069510">
        <ele>328.610323</ele>
        <time>2021-07-28T18:53:46.526Z</time>
      </trkpt>
      <trkpt lat="50.138918" lon="8.069486">
        <ele>329.499132</ele>
        <time>2021-07-28T18:54:03.403Z</time>
      </trkpt>
      <trkpt lat="50.138869" lon="8.069471">
        <ele>329.795424</ele>
        <time>2021-07-28T18:54:09.550Z</time>
      </trkpt>
      <trkpt lat="50.138608" lon="8.069341">
        <ele>331.421101</ele>
        <time>2021-07-28T18:54:43.576Z</time>
      </trkpt>
      <trkpt lat="50.138514" lon="8.069229">
        <ele>332.122902</ele>
        <time>2021-07-28T18:54:57.641Z</time>
      </trkpt>
      <trkpt lat="50.138486" lon="8.069179">
        <ele>332.375412</ele>
        <time>2021-07-28T18:55:03.356Z</time>
      </trkpt>
      <trkpt lat="50.138444" lon="8.069194">
        <ele>332.631070</ele>
        <time>2021-07-28T18:55:09.943Z</time>
      </trkpt>
      <trkpt lat="50.138152" lon="8.069080">
        <ele>334.417109</ele>
        <time>2021-07-28T18:55:46.524Z</time>
      </trkpt>
      <trkpt lat="50.138079" lon="8.069038">
        <ele>334.878776</ele>
        <time>2021-07-28T18:55:56.926Z</time>
      </trkpt>
      <trkpt lat="50.138040" lon="8.069019">
        <ele>335.121207</ele>
        <time>2021-07-28T18:56:02.076Z</time>
      </trkpt>
      <trkpt lat="50.137921" lon="8.068949">
        <ele>335.875827</ele>
        <time>2021-07-28T18:56:15.508Z</time>
      </trkpt>
      <trkpt lat="50.137506" lon="8.068663">
        <ele>338.567808</ele>
        <time>2021-07-28T18:57:09.398Z</time>
      </trkpt>
      <trkpt lat="50.137499" lon="8.068659">
        <ele>338.612042</ele>
        <time>2021-07-28T18:57:10.270Z</time>
      </trkpt>
      <trkpt lat="50.137463" lon="8.068640">
        <ele>338.837543</ele>
        <time>2021-07-28T18:57:14.842Z</time>
      </trkpt>
      <trkpt lat="50.137411" lon="8.068614">
        <ele>339.161549</ele>
        <time>2021-07-28T18:57:21.963Z</time>
      </trkpt>
      <trkpt lat="50.137321" lon="8.068596">
        <ele>339.566092</ele>
        <time>2021-07-28T18:57:31.911Z</time>
      </trkpt>
      <trkpt lat="50.137253" lon="8.068592">
        <ele>339.858619</ele>
        <time>2021-07-28T18:57:39.145Z</time>
      </trkpt>
      <trkpt lat="50.137213" lon="8.068588">
        <ele>340.030925</ele>
        <time>2021-07-28T18:57:43.462Z</time>
      </trkpt>
      <trkpt lat="50.137047" lon="8.068574">
        <ele>340.745571</ele>
        <time>2021-07-28T18:58:04.095Z</time>
      </trkpt>
      <trkpt lat="50.137045" lon="8.068536">
        <ele>340.850627</ele>
        <time>2021-07-28T18:58:07.211Z</time>
      </trkpt>
      <trkpt lat="50.137004" lon="8.068390">
        <ele>341.289824</ele>
        <time>2021-07-28T18:58:18.020Z</time>
      </trkpt>
      <trkpt lat="50.136565" lon="8.067607">
        <ele>344.156186</ele>
        <time>2021-07-28T18:59:33.232Z</time>
      </trkpt>
      <trkpt lat="50.136388" lon="8.067291">
        <ele>345.312505</ele>
        <time>2021-07-28T19:00:03.311Z</time>
      </trkpt>
      <trkpt lat="50.136273" lon="8.067063">
        <ele>346.111921</ele>
        <time>2021-07-28T19:00:24.402Z</time>
      </trkpt>
      <trkpt lat="50.136233" lon="8.066985">
        <ele>346.387164</ele>
        <time>2021-07-28T19:00:32.519Z</time>
      </trkpt>
      <trkpt lat="50.136146" lon="8.066796">
        <ele>347.055255</ele>
        <time>2021-07-28T19:00:50.261Z</time>
      </trkpt>
      <trkpt lat="50.135533" lon="8.065149">
        <ele>354.023833</ele>
        <time>2021-07-28T19:03:16.287Z</time>
      </trkpt>
      <trkpt lat="50.135521" lon="8.065117">
        <ele>354.159487</ele>
        <time>2021-07-28T19:03:20.924Z</time>
      </trkpt>
      <trkpt lat="50.135071" lon="8.064309">
        <ele>357.673361</ele>
        <time>2021-07-28T19:04:43.936Z</time>
      </trkpt>
      <trkpt lat="50.134915" lon="8.064027">
        <ele>358.399927</ele>
        <time>2021-07-28T19:05:13.138Z</time>
      </trkpt>
      <trkpt lat="50.134403" lon="8.063296">
        <ele>360.511904</ele>
        <time>2021-07-28T19:06:32.830Z</time>
      </trkpt>
      <trkpt lat="50.134012" lon="8.062699">
        <ele>362.176738</ele>
        <time>2021-07-28T19:07:29.858Z</time>
      </trkpt>
      <trkpt lat="50.133775" lon="8.062367">
        <ele>362.451315</ele>
        <time>2021-07-28T19:08:02.086Z</time>
      </trkpt>
      <trkpt lat="50.133757" lon="8.062342">
        <ele>362.413676</ele>
        <time>2021-07-28T19:08:04.737Z</time>
      </trkpt>
      <trkpt lat="50.133505" lon="8.062150">
        <ele>361.975677</ele>
        <time>2021-07-28T19:08:33.588Z</time>
      </trkpt>
      <trkpt lat="50.133176" lon="8.062055">
        <ele>361.453121</ele>
        <time>2021-07-28T19:09:08.969Z</time>
      </trkpt>
      <trkpt lat="50.132797" lon="8.062104">
        <ele>360.859174</ele>
        <time>2021-07-28T19:09:49.572Z</time>
      </trkpt>
      <trkpt lat="50.132606" lon="8.062163">
        <ele>360.555081</ele>
        <time>2021-07-28T19:10:10.852Z</time>
      </trkpt>
      <trkpt lat="50.132540" lon="8.062189">
        <ele>360.448767</ele>
        <time>2021-07-28T19:10:18.318Z</time>
      </trkpt>
      <trkpt lat="50.132436" lon="8.062231">
        <ele>360.280987</ele>
        <time>2021-07-28T19:10:29.291Z</time>
      </trkpt>
      <trkpt lat="50.132326" lon="8.062290">
        <ele>360.099320</ele>
        <time>2021-07-28T19:10:41.508Z</time>
      </trkpt>
      <trkpt lat="50.132265" lon="8.062333">
        <ele>359.994776</ele>
        <time>2021-07-28T19:10:48.491Z</time>
      </trkpt>
      <trkpt lat="50.132229" lon="8.062381">
        <ele>359.920814</ele>
        <time>2021-07-28T19:10:54.159Z</time>
      </trkpt>
      <trkpt lat="50.132119" lon="8.062583">
        <ele>360.042878</ele>
        <time>2021-07-28T19:11:11.358Z</time>
      </trkpt>
      <trkpt lat="50.131985" lon="8.062828">
        <ele>360.282190</ele>
        <time>2021-07-28T19:11:32.107Z</time>
      </trkpt>
      <trkpt lat="50.131886" lon="8.063124">
        <ele>360.530276</ele>
        <time>2021-07-28T19:11:54.274Z</time>
      </trkpt>
      <trkpt lat="50.131843" lon="8.063604">
        <ele>360.890414</ele>
        <time>2021-07-28T19:12:26.680Z</time>
      </trkpt>
      <trkpt lat="50.131861" lon="8.063987">
        <ele>361.175773</ele>
        <time>2021-07-28T19:12:51.964Z</time>
      </trkpt>
      <trkpt lat="50.131868" lon="8.064151">
        <ele>361.297906</ele>
        <time>2021-07-28T19:13:03.619Z</time>
      </trkpt>
      <trkpt lat="50.131870" lon="8.064274">
        <ele>361.389333</ele>
        <time>2021-07-28T19:13:12.134Z</time>
      </trkpt>
      <trkpt lat="50.131871" lon="8.064379">
        <ele>361.467363</ele>
        <time>2021-07-28T19:13:19.609Z</time>
      </trkpt>
      <trkpt lat="50.131763" lon="8.065167">
        <ele>362.137503</ele>
        <time>2021-07-28T19:14:15.986Z</time>
      </trkpt>
      <trkpt lat="50.131761" lon="8.065176">
        <ele>362.149470</ele>
        <time>2021-07-28T19:14:16.800Z</time>
      </trkpt>
      <trkpt lat="50.131727" lon="8.065319">
        <ele>362.341077</ele>
        <time>2021-07-28T19:14:27.908Z</time>
      </trkpt>
      <trkpt lat="50.131674" lon="8.065481">
        <ele>362.569567</ele>
        <time>2021-07-28T19:14:40.466Z</time>
      </trkpt>
      <trkpt lat="50.131567" lon="8.065809">
        <ele>363.031915</ele>
        <time>2021-07-28T19:15:06.056Z</time>
      </trkpt>
      <trkpt lat="50.131463" lon="8.066134">
        <ele>363.488253</ele>
        <time>2021-07-28T19:15:30.572Z</time>
      </trkpt>
      <trkpt lat="50.131427" lon="8.066249">
        <ele>363.649032</ele>
        <time>2021-07-28T19:15:39.812Z</time>
      </trkpt>
      <trkpt lat="50.130749" lon="8.068540">
        <ele>367.859008</ele>
        <time>2021-07-28T19:18:31.071Z</time>
      </trkpt>
      <trkpt lat="50.130536" lon="8.069256">
        <ele>369.625234</ele>
        <time>2021-07-28T19:19:29.361Z</time>
      </trkpt>
      <trkpt lat="50.130378" lon="8.069728">
        <ele>370.816709</ele>
        <time>2021-07-28T19:20:09.238Z</time>
      </trkpt>
      <trkpt lat="50.130295" lon="8.070001">
        <ele>371.492797</ele>
        <time>2021-07-28T19:20:31.416Z</time>
      </trkpt>
      <trkpt lat="50.130227" lon="8.070255">
        <ele>372.333848</ele>
        <time>2021-07-28T19:20:52.758Z</time>
      </trkpt>
      <trkpt lat="50.130196" lon="8.070391">
        <ele>372.869023</ele>
        <time>2021-07-28T19:21:03.539Z</time>
      </trkpt>
      <trkpt lat="50.130182" lon="8.070467">
        <ele>373.162212</ele>
        <time>2021-07-28T19:21:09.241Z</time>
      </trkpt>
      <trkpt lat="50.130167" lon="8.070556">
        <ele>373.503412</ele>
        <time>2021-07-28T19:21:16.345Z</time>
      </trkpt>
      <trkpt lat="50.130148" lon="8.070636">
        <ele>373.819730</ele>
        <time>2021-07-28T19:21:23.421Z</time>
      </trkpt>
      <trkpt lat="50.129327" lon="8.071848">
        <ele>380.357506</ele>
        <time>2021-07-28T19:23:39.736Z</time>
      </trkpt>
      <trkpt lat="50.128939" lon="8.072615">
        <ele>384.353116</ele>
        <time>2021-07-28T19:24:55.492Z</time>
      </trkpt>
      <trkpt lat="50.128773" lon="8.072942">
        <ele>386.218160</ele>
        <time>2021-07-28T19:25:28.311Z</time>
      </trkpt>
      <trkpt lat="50.128223" lon="8.073672">
        <ele>391.255092</ele>
        <time>2021-07-28T19:26:58.593Z</time>
      </trkpt>
      <trkpt lat="50.128104" lon="8.073786">
        <ele>392.229132</ele>
        <time>2021-07-28T19:27:16.523Z</time>
      </trkpt>
      <trkpt lat="50.128069" lon="8.073819">
        <ele>392.514382</ele>
        <time>2021-07-28T19:27:22.005Z</time>
      </trkpt>
      <trkpt lat="50.127812" lon="8.074042">
        <ele>394.565597</ele>
        <time>2021-07-28T19:27:58.299Z</time>
      </trkpt>
      <trkpt lat="50.127795" lon="8.074056">
        <ele>394.699680</ele>
        <time>2021-07-28T19:28:00.747Z</time>
      </trkpt>
      <trkpt lat="50.127687" lon="8.074139">
        <ele>395.498923</ele>
        <time>2021-07-28T19:28:16.040Z</time>
      </trkpt>
      <trkpt lat="50.127604" lon="8.074204">
        <ele>396.114896</ele>
        <time>2021-07-28T19:28:26.984Z</time>
      </trkpt>
      <trkpt lat="50.127479" lon="8.074302">
        <ele>397.042774</ele>
        <time>2021-07-28T19:28:45.031Z</time>
      </trkpt>
      <trkpt lat="50.127104" lon="8.074511">
        <ele>399.683921</ele>
        <time>2021-07-28T19:29:34.811Z</time>
      </trkpt>
      <trkpt lat="50.127060" lon="8.074535">
        <ele>399.993075</ele>
        <time>2021-07-28T19:29:40.706Z</time>
      </trkpt>
      <trkpt lat="50.126580" lon="8.074563">
        <ele>403.178862</ele>
        <time>2021-07-28T19:30:39.618Z</time>
      </trkpt>
      <trkpt lat="50.126168" lon="8.074423">
        <ele>405.975509</ele>
        <time>2021-07-28T19:31:30.951Z</time>
      </trkpt>
      <trkpt lat="50.125528" lon="8.073992">
        <ele>409.796294</ele>
        <time>2021-07-28T19:32:52.662Z</time>
      </trkpt>
      <trkpt lat="50.125201" lon="8.073989">
        <ele>411.524978</ele>
        <time>2021-07-28T19:33:30.631Z</time>
      </trkpt>
      <trkpt lat="50.124804" lon="8.074253">
        <ele>413.806452</ele>
        <time>2021-07-28T19:34:20.770Z</time>
      </trkpt>
      <trkpt lat="50.124284" lon="8.074766">
        <ele>417.236428</ele>
        <time>2021-07-28T19:35:35.357Z</time>
      </trkpt>
      <trkpt lat="50.123775" lon="8.075979">
        <ele>423.110685</ele>
        <time>2021-07-28T19:37:28.578Z</time>
      </trkpt>
      <trkpt lat="50.123695" lon="8.076168">
        <ele>424.028371</ele>
        <time>2021-07-28T19:37:47.214Z</time>
      </trkpt>
      <trkpt lat="50.123375" lon="8.076723">
        <ele>427.052901</ele>
        <time>2021-07-28T19:38:46.594Z</time>
      </trkpt>
      <trkpt lat="50.122963" lon="8.077093">
        <ele>429.229122</ele>
        <time>2021-07-28T19:39:42.867Z</time>
      </trkpt>
      <trkpt lat="50.122464" lon="8.077309">
        <ele>431.433611</ele>
        <time>2021-07-28T19:40:44.053Z</time>
      </trkpt>
      <trkpt lat="50.122422" lon="8.077308">
        <ele>431.612422</ele>
        <time>2021-07-28T19:40:50.650Z</time>
      </trkpt>
      <trkpt lat="50.122448" lon="8.077374">
        <ele>431.823842</ele>
        <time>2021-07-28T19:40:55.824Z</time>
      </trkpt>
      <trkpt lat="50.122578" lon="8.077461">
        <ele>432.426032</ele>
        <time>2021-07-28T19:41:11.211Z</time>
      </trkpt>
      <trkpt lat="50.123281" lon="8.077264">
        <ele>435.411647</ele>
        <time>2021-07-28T19:42:29.246Z</time>
      </trkpt>
      <trkpt lat="50.123302" lon="8.077248">
        <ele>435.492303</ele>
        <time>2021-07-28T19:42:31.782Z</time>
      </trkpt>
      <trkpt lat="50.124182" lon="8.076563">
        <ele>438.886408</ele>
        <time>2021-07-28T19:44:19.085Z</time>
      </trkpt>
      <trkpt lat="50.124535" lon="8.076089">
        <ele>440.493867</ele>
        <time>2021-07-28T19:45:12.715Z</time>
      </trkpt>
      <trkpt lat="50.124694" lon="8.076145">
        <ele>441.056398</ele>
        <time>2021-07-28T19:45:31.474Z</time>
      </trkpt>
      <trkpt lat="50.124784" lon="8.076711">
        <ele>443.326442</ele>
        <time>2021-07-28T19:46:15.760Z</time>
      </trkpt>
      <trkpt lat="50.124857" lon="8.077061">
        <ele>444.969367</ele>
        <time>2021-07-28T19:46:44.713Z</time>
      </trkpt>
      <trkpt lat="50.124761" lon="8.076996">
        <ele>445.698029</ele>
        <time>2021-07-28T19:46:56.945Z</time>
      </trkpt>
      <trkpt lat="50.124514" lon="8.076973">
        <ele>447.420834</ele>
        <time>2021-07-28T19:47:27.503Z</time>
      </trkpt>
      <trkpt lat="50.124152" lon="8.077402">
        <ele>450.586236</ele>
        <time>2021-07-28T19:48:23.527Z</time>
      </trkpt>
      <trkpt lat="50.123870" lon="8.078192">
        <ele>454.834848</ele>
        <time>2021-07-28T19:49:40.148Z</time>
      </trkpt>
      <trkpt lat="50.123504" lon="8.078854">
        <ele>459.895069</ele>
        <time>2021-07-28T19:50:52.591Z</time>
      </trkpt>
      <trkpt lat="50.123420" lon="8.079084">
        <ele>461.427356</ele>
        <time>2021-07-28T19:51:15.127Z</time>
      </trkpt>
      <trkpt lat="50.123316" lon="8.079366">
        <ele>463.310601</ele>
        <time>2021-07-28T19:51:42.015Z</time>
      </trkpt>
      <trkpt lat="50.123157" lon="8.079543">
        <ele>465.074350</ele>
        <time>2021-07-28T19:52:08.072Z</time>
      </trkpt>
      <trkpt lat="50.122998" lon="8.079787">
        <ele>467.088314</ele>
        <time>2021-07-28T19:52:36.252Z</time>
      </trkpt>
      <trkpt lat="50.122975" lon="8.079887">
        <ele>467.703320</ele>
        <time>2021-07-28T19:52:47.501Z</time>
      </trkpt>
      <trkpt lat="50.122773" lon="8.080351">
        <ele>470.782585</ele>
        <time>2021-07-28T19:53:35.134Z</time>
      </trkpt>
      <trkpt lat="50.122727" lon="8.080501">
        <ele>471.544500</ele>
        <time>2021-07-28T19:53:49.355Z</time>
      </trkpt>
      <trkpt lat="50.122689" lon="8.080645">
        <ele>472.258048</ele>
        <time>2021-07-28T19:54:01.885Z</time>
      </trkpt>
      <trkpt lat="50.122421" lon="8.081144">
        <ele>475.240833</ele>
        <time>2021-07-28T19:54:55.523Z</time>
      </trkpt>
      <trkpt lat="50.122302" lon="8.081690">
        <ele>477.883360</ele>
        <time>2021-07-28T19:55:42.649Z</time>
      </trkpt>
      <trkpt lat="50.122239" lon="8.081801">
        <ele>478.562655</ele>
        <time>2021-07-28T19:55:55.444Z</time>
      </trkpt>
      <trkpt lat="50.122177" lon="8.081885">
        <ele>479.149601</ele>
        <time>2021-07-28T19:56:05.680Z</time>
      </trkpt>
      <trkpt lat="50.122015" lon="8.082020">
        <ele>480.462308</ele>
        <time>2021-07-28T19:56:26.832Z</time>
      </trkpt>
      <trkpt lat="50.121878" lon="8.081994">
        <ele>481.448664</ele>
        <time>2021-07-28T19:56:43.653Z</time>
      </trkpt>
      <trkpt lat="50.121430" lon="8.081544">
        <ele>483.287643</ele>
        <time>2021-07-28T19:57:43.588Z</time>
      </trkpt>
      <trkpt lat="50.121286" lon="8.081463">
        <ele>483.426434</ele>
        <time>2021-07-28T19:58:00.743Z</time>
      </trkpt>
      <trkpt lat="50.120760" lon="8.081597">
        <ele>483.909657</ele>
        <time>2021-07-28T19:58:57.455Z</time>
      </trkpt>
      <trkpt lat="50.120288" lon="8.081443">
        <ele>484.346864</ele>
        <time>2021-07-28T19:59:46.300Z</time>
      </trkpt>
      <trkpt lat="50.119049" lon="8.080593">
        <ele>480.787475</ele>
        <time>2021-07-28T20:02:09.602Z</time>
      </trkpt>
      <trkpt lat="50.119031" lon="8.080573">
        <ele>480.705675</ele>
        <time>2021-07-28T20:02:12.312Z</time>
      </trkpt>
      <trkpt lat="50.118957" lon="8.080488">
        <ele>480.365517</ele>
        <time>2021-07-28T20:02:22.770Z</time>
      </trkpt>
      <trkpt lat="50.118910" lon="8.080424">
        <ele>480.134583</ele>
        <time>2021-07-28T20:02:29.322Z</time>
      </trkpt>
      <trkpt lat="50.118761" lon="8.080618">
        <ele>479.416181</ele>
        <time>2021-07-28T20:02:49.993Z</time>
      </trkpt>
      <trkpt lat="50.118728" lon="8.080675">
        <ele>479.233926</ele>
        <time>2021-07-28T20:02:55.752Z</time>
      </trkpt>
      <trkpt lat="50.118652" lon="8.080695">
        <ele>478.948657</ele>
        <time>2021-07-28T20:03:04.655Z</time>
      </trkpt>
      <trkpt lat="50.118669" lon="8.080849">
        <ele>478.577805</ele>
        <time>2021-07-28T20:03:15.272Z</time>
      </trkpt>
      <trkpt lat="50.118607" lon="8.080864">
        <ele>478.345585</ele>
        <time>2021-07-28T20:03:22.080Z</time>
      </trkpt>
      <trkpt lat="50.118501" lon="8.080890">
        <ele>477.939050</ele>
        <time>2021-07-28T20:03:34.358Z</time>
      </trkpt>
      <trkpt lat="50.118443" lon="8.080880">
        <ele>477.647073</ele>
        <time>2021-07-28T20:03:41.306Z</time>
      </trkpt>
      <trkpt lat="50.118261" lon="8.080627">
        <ele>476.427169</ele>
        <time>2021-07-28T20:04:07.624Z</time>
      </trkpt>
      <trkpt lat="50.117969" lon="8.079595">
        <ele>472.808120</ele>
        <time>2021-07-28T20:05:29.193Z</time>
      </trkpt>
      <trkpt lat="50.117907" lon="8.079454">
        <ele>472.259590</ele>
        <time>2021-07-28T20:05:41.803Z</time>
      </trkpt>
      <trkpt lat="50.117843" lon="8.079348">
        <ele>471.792463</ele>
        <time>2021-07-28T20:05:51.754Z</time>
      </trkpt>
      <trkpt lat="50.117711" lon="8.079169">
        <ele>470.917222</ele>
        <time>2021-07-28T20:06:10.876Z</time>
      </trkpt>
      <trkpt lat="50.117550" lon="8.078987">
        <ele>469.922269</ele>
        <time>2021-07-28T20:06:32.917Z</time>
      </trkpt>
      <trkpt lat="50.116958" lon="8.078355">
        <ele>468.976537</ele>
        <time>2021-07-28T20:07:49.482Z</time>
      </trkpt>
      <trkpt lat="50.115939" lon="8.077273">
        <ele>468.979218</ele>
        <time>2021-07-28T20:09:55.251Z</time>
      </trkpt>
      <trkpt lat="50.115978" lon="8.077169">
        <ele>469.207969</ele>
        <time>2021-07-28T20:10:05.323Z</time>
      </trkpt>
      <trkpt lat="50.116388" lon="8.075916">
        <ele>474.421012</ele>
        <time>2021-07-28T20:11:54.440Z</time>
      </trkpt>
      <trkpt lat="50.116536" lon="8.075456">
        <ele>476.328237</ele>
        <time>2021-07-28T20:12:35.391Z</time>
      </trkpt>
      <trkpt lat="50.116536" lon="8.075456">
        <ele>476.328237</ele>
        <time>2021-07-28T20:12:35.571Z</time>
      </trkpt>
      <trkpt lat="50.116536" lon="8.075456">
        <ele>476.328237</ele>
        <time>2021-07-28T20:12:35.571Z</time>
      </trkpt>
      <trkpt lat="50.116189" lon="8.074288">
        <ele>480.586611</ele>
        <time>2021-07-28T20:13:58.568Z</time>
      </trkpt>
      <trkpt lat="50.116233" lon="8.074248">
        <ele>480.793559</ele>
        <time>2021-07-28T20:14:04.906Z</time>
      </trkpt>
      <trkpt lat="50.116235" lon="8.074066">
        <ele>481.267839</ele>
        <time>2021-07-28T20:14:18.498Z</time>
      </trkpt>
      <trkpt lat="50.115169" lon="8.072039">
        <ele>487.332138</ele>
        <time>2021-07-28T20:17:26.000Z</time>
      </trkpt>
      <trkpt lat="50.115123" lon="8.071944">
        <ele>487.474437</ele>
        <time>2021-07-28T20:17:33.883Z</time>
      </trkpt>
      <trkpt lat="50.114946" lon="8.071578">
        <ele>488.022417</ele>
        <time>2021-07-28T20:18:04.467Z</time>
      </trkpt>
      <trkpt lat="50.114863" lon="8.071390">
        <ele>488.295260</ele>
        <time>2021-07-28T20:18:19.995Z</time>
      </trkpt>
      <trkpt lat="50.114670" lon="8.070727">
        <ele>489.165639</ele>
        <time>2021-07-28T20:19:08.735Z</time>
      </trkpt>
      <trkpt lat="50.114381" lon="8.068815">
        <ele>492.168514</ele>
        <time>2021-07-28T20:21:23.832Z</time>
      </trkpt>
      <trkpt lat="50.114059" lon="8.067792">
        <ele>494.134043</ele>
        <time>2021-07-28T20:22:44.499Z</time>
      </trkpt>
      <trkpt lat="50.113774" lon="8.067057">
        <ele>496.443355</ele>
        <time>2021-07-28T20:23:46.771Z</time>
      </trkpt>
      <trkpt lat="50.113450" lon="8.066355">
        <ele>499.599081</ele>
        <time>2021-07-28T20:24:52.755Z</time>
      </trkpt>
      <trkpt lat="50.113088" lon="8.065796">
        <ele>502.497709</ele>
        <time>2021-07-28T20:25:54.690Z</time>
      </trkpt>
      <trkpt lat="50.112756" lon="8.065450">
        <ele>504.769694</ele>
        <time>2021-07-28T20:26:43.983Z</time>
      </trkpt>
      <trkpt lat="50.112378" lon="8.065365">
        <ele>507.222229</ele>
        <time>2021-07-28T20:27:31.051Z</time>
      </trkpt>
      <trkpt lat="50.112311" lon="8.065300">
        <ele>507.739571</ele>
        <time>2021-07-28T20:27:42.233Z</time>
      </trkpt>
      <trkpt lat="50.112712" lon="8.064326">
        <ele>512.605961</ele>
        <time>2021-07-28T20:29:15.882Z</time>
      </trkpt>
      <trkpt lat="50.112871" lon="8.063968">
        <ele>514.436870</ele>
        <time>2021-07-28T20:29:49.840Z</time>
      </trkpt>
      <trkpt lat="50.113106" lon="8.063439">
        <ele>516.929245</ele>
        <time>2021-07-28T20:30:39.437Z</time>
      </trkpt>
      <trkpt lat="50.113128" lon="8.063326">
        <ele>516.990392</ele>
        <time>2021-07-28T20:30:48.385Z</time>
      </trkpt>
      <trkpt lat="50.113137" lon="8.063222">
        <ele>517.044730</ele>
        <time>2021-07-28T20:30:56.281Z</time>
      </trkpt>
      <trkpt lat="50.113110" lon="8.062995">
        <ele>517.164272</ele>
        <time>2021-07-28T20:31:12.074Z</time>
      </trkpt>
      <trkpt lat="50.112854" lon="8.062230">
        <ele>517.611069</ele>
        <time>2021-07-28T20:32:10.943Z</time>
      </trkpt>
      <trkpt lat="50.112806" lon="8.062150">
        <ele>517.667796</ele>
        <time>2021-07-28T20:32:18.554Z</time>
      </trkpt>
      <trkpt lat="50.113026" lon="8.061693">
        <ele>517.963681</ele>
        <time>2021-07-28T20:32:55.269Z</time>
      </trkpt>
      <trkpt lat="50.113926" lon="8.059614">
        <ele>515.032447</ele>
        <time>2021-07-28T20:35:46.221Z</time>
      </trkpt>
      <trkpt lat="50.113990" lon="8.059461">
        <ele>514.687801</ele>
        <time>2021-07-28T20:35:59.080Z</time>
      </trkpt>
      <trkpt lat="50.114443" lon="8.058349">
        <ele>512.434139</ele>
        <time>2021-07-28T20:37:29.052Z</time>
      </trkpt>
      <trkpt lat="50.114875" lon="8.057390">
        <ele>510.820916</ele>
        <time>2021-07-28T20:38:48.491Z</time>
      </trkpt>
      <trkpt lat="50.114997" lon="8.057146">
        <ele>510.395021</ele>
        <time>2021-07-28T20:39:09.027Z</time>
      </trkpt>
      <trkpt lat="50.115318" lon="8.056546">
        <ele>509.319435</ele>
        <time>2021-07-28T20:40:00.478Z</time>
      </trkpt>
      <trkpt lat="50.115632" lon="8.055996">
        <ele>508.369382</ele>
        <time>2021-07-28T20:40:48.911Z</time>
      </trkpt>
      <trkpt lat="50.115774" lon="8.055762">
        <ele>507.957496</ele>
        <time>2021-07-28T20:41:09.958Z</time>
      </trkpt>
      <trkpt lat="50.116039" lon="8.055335">
        <ele>507.197787</ele>
        <time>2021-07-28T20:41:49.389Z</time>
      </trkpt>
      <trkpt lat="50.116346" lon="8.054825">
        <ele>506.303492</ele>
        <time>2021-07-28T20:42:36.931Z</time>
      </trkpt>
      <trkpt lat="50.116751" lon="8.054204">
        <ele>504.817606</ele>
        <time>2021-07-28T20:43:37.585Z</time>
      </trkpt>
      <trkpt lat="50.116866" lon="8.054043">
        <ele>504.262888</ele>
        <time>2021-07-28T20:43:53.652Z</time>
      </trkpt>
      <trkpt lat="50.116874" lon="8.054031">
        <ele>504.223045</ele>
        <time>2021-07-28T20:43:54.943Z</time>
      </trkpt>
      <trkpt lat="50.116966" lon="8.054219">
        <ele>503.678721</ele>
        <time>2021-07-28T20:44:11.594Z</time>
      </trkpt>
      <trkpt lat="50.116991" lon="8.054278">
        <ele>503.515954</ele>
        <time>2021-07-28T20:44:16.238Z</time>
      </trkpt>
      <trkpt lat="50.117017" lon="8.054360">
        <ele>503.305406</ele>
        <time>2021-07-28T20:44:22.451Z</time>
      </trkpt>
      <trkpt lat="50.117073" lon="8.054498">
        <ele>502.929519</ele>
        <time>2021-07-28T20:44:33.507Z</time>
      </trkpt>
      <trkpt lat="50.117095" lon="8.054541">
        <ele>502.802905</ele>
        <time>2021-07-28T20:44:37.168Z</time>
      </trkpt>
      <trkpt lat="50.117111" lon="8.054573">
        <ele>502.709508</ele>
        <time>2021-07-28T20:44:39.944Z</time>
      </trkpt>
      <trkpt lat="50.117155" lon="8.054640">
        <ele>502.488773</ele>
        <time>2021-07-28T20:44:47.174Z</time>
      </trkpt>
      <trkpt lat="50.117613" lon="8.055671">
        <ele>499.601971</ele>
        <time>2021-07-28T20:46:14.090Z</time>
      </trkpt>
      <trkpt lat="50.117771" lon="8.055779">
        <ele>498.993340</ele>
        <time>2021-07-28T20:46:32.608Z</time>
      </trkpt>
      <trkpt lat="50.117937" lon="8.055780">
        <ele>498.433761</ele>
        <time>2021-07-28T20:46:51.045Z</time>
      </trkpt>
      <trkpt lat="50.118150" lon="8.055655">
        <ele>497.666601</ele>
        <time>2021-07-28T20:47:15.141Z</time>
      </trkpt>
      <trkpt lat="50.118311" lon="8.055457">
        <ele>496.975441</ele>
        <time>2021-07-28T20:47:37.492Z</time>
      </trkpt>
      <trkpt lat="50.118645" lon="8.054494">
        <ele>494.608974</ele>
        <time>2021-07-28T20:48:51.516Z</time>
      </trkpt>
      <trkpt lat="50.119168" lon="8.053852">
        <ele>492.103708</ele>
        <time>2021-07-28T20:50:02.905Z</time>
      </trkpt>
      <trkpt lat="50.119874" lon="8.053877">
        <ele>488.867729</ele>
        <time>2021-07-28T20:51:20.605Z</time>
      </trkpt>
      <trkpt lat="50.120060" lon="8.053761">
        <ele>487.949792</ele>
        <time>2021-07-28T20:51:42.976Z</time>
      </trkpt>
      <trkpt lat="50.120331" lon="8.053461">
        <ele>486.426952</ele>
        <time>2021-07-28T20:52:19.708Z</time>
      </trkpt>
      <trkpt lat="50.120515" lon="8.053398">
        <ele>485.563719</ele>
        <time>2021-07-28T20:52:40.279Z</time>
      </trkpt>
      <trkpt lat="50.120653" lon="8.053519">
        <ele>484.841570</ele>
        <time>2021-07-28T20:52:57.584Z</time>
      </trkpt>
      <trkpt lat="50.120694" lon="8.054013">
        <ele>483.742932</ele>
        <time>2021-07-28T20:53:32.290Z</time>
      </trkpt>
      <trkpt lat="50.120681" lon="8.054228">
        <ele>483.266633</ele>
        <time>2021-07-28T20:53:48.196Z</time>
      </trkpt>
      <trkpt lat="50.120543" lon="8.054212">
        <ele>482.790619</ele>
        <time>2021-07-28T20:54:02.496Z</time>
      </trkpt>
      <trkpt lat="50.120309" lon="8.054207">
        <ele>481.985610</ele>
        <time>2021-07-28T20:54:28.616Z</time>
      </trkpt>
      <trkpt lat="50.120069" lon="8.054374">
        <ele>481.081597</ele>
        <time>2021-07-28T20:54:56.436Z</time>
      </trkpt>
      <trkpt lat="50.119950" lon="8.054479">
        <ele>480.611281</ele>
        <time>2021-07-28T20:55:11.519Z</time>
      </trkpt>
      <trkpt lat="50.119882" lon="8.054522">
        <ele>480.358873</ele>
        <time>2021-07-28T20:55:19.201Z</time>
      </trkpt>
      <trkpt lat="50.119466" lon="8.054669">
        <ele>478.891610</ele>
        <time>2021-07-28T20:56:04.158Z</time>
      </trkpt>
      <trkpt lat="50.119088" lon="8.055160">
        <ele>478.201765</ele>
        <time>2021-07-28T20:56:55.104Z</time>
      </trkpt>
      <trkpt lat="50.118932" lon="8.055572">
        <ele>477.868510</ele>
        <time>2021-07-28T20:57:25.923Z</time>
      </trkpt>
      <trkpt lat="50.118842" lon="8.056364">
        <ele>477.308288</ele>
        <time>2021-07-28T20:58:18.486Z</time>
      </trkpt>
      <trkpt lat="50.118709" lon="8.056593">
        <ele>477.093086</ele>
        <time>2021-07-28T20:58:38.917Z</time>
      </trkpt>
      <trkpt lat="50.118075" lon="8.056923">
        <ele>476.330595</ele>
        <time>2021-07-28T20:59:47.383Z</time>
      </trkpt>
      <trkpt lat="50.117256" lon="8.057021">
        <ele>475.343629</ele>
        <time>2021-07-28T21:01:10.716Z</time>
      </trkpt>
      <trkpt lat="50.116976" lon="8.057244">
        <ele>474.965861</ele>
        <time>2021-07-28T21:01:42.732Z</time>
      </trkpt>
      <trkpt lat="50.116925" lon="8.057414">
        <ele>474.821256</ele>
        <time>2021-07-28T21:01:55.063Z</time>
      </trkpt>
      <trkpt lat="50.116900" lon="8.057496">
        <ele>474.751300</ele>
        <time>2021-07-28T21:02:01.024Z</time>
      </trkpt>
      <trkpt lat="50.116894" lon="8.057839">
        <ele>474.329228</ele>
        <time>2021-07-28T21:02:24.360Z</time>
      </trkpt>
      <trkpt lat="50.117274" lon="8.058711">
        <ele>471.467088</ele>
        <time>2021-07-28T21:03:36.382Z</time>
      </trkpt>
      <trkpt lat="50.117248" lon="8.058896">
        <ele>470.952951</ele>
        <time>2021-07-28T21:03:49.259Z</time>
      </trkpt>
      <trkpt lat="50.116926" lon="8.059329">
        <ele>469.152924</ele>
        <time>2021-07-28T21:04:35.573Z</time>
      </trkpt>
      <trkpt lat="50.116879" lon="8.059430">
        <ele>468.814146</ele>
        <time>2021-07-28T21:04:44.369Z</time>
      </trkpt>
      <trkpt lat="50.116848" lon="8.059539">
        <ele>468.490445</ele>
        <time>2021-07-28T21:04:53.276Z</time>
      </trkpt>
      <trkpt lat="50.116832" lon="8.059861">
        <ele>467.613690</ele>
        <time>2021-07-28T21:05:16.102Z</time>
      </trkpt>
      <trkpt lat="50.116965" lon="8.059981">
        <ele>466.963173</ele>
        <time>2021-07-28T21:05:33.872Z</time>
      </trkpt>
      <trkpt lat="50.117334" lon="8.060097">
        <ele>464.090305</ele>
        <time>2021-07-28T21:06:16.956Z</time>
      </trkpt>
      <trkpt lat="50.117836" lon="8.060044">
        <ele>460.219086</ele>
        <time>2021-07-28T21:07:15.520Z</time>
      </trkpt>
      <trkpt lat="50.118182" lon="8.059863">
        <ele>457.411199</ele>
        <time>2021-07-28T21:07:58.516Z</time>
      </trkpt>
      <trkpt lat="50.118796" lon="8.059156">
        <ele>451.583585</ele>
        <time>2021-07-28T21:09:26.824Z</time>
      </trkpt>
      <trkpt lat="50.119414" lon="8.058690">
        <ele>446.453341</ele>
        <time>2021-07-28T21:10:44.744Z</time>
      </trkpt>
      <trkpt lat="50.119526" lon="8.058766">
        <ele>445.540493</ele>
        <time>2021-07-28T21:10:59.268Z</time>
      </trkpt>
      <trkpt lat="50.119716" lon="8.059054">
        <ele>443.560323</ele>
        <time>2021-07-28T21:11:29.628Z</time>
      </trkpt>
      <trkpt lat="50.120038" lon="8.059541">
        <ele>440.208085</ele>
        <time>2021-07-28T21:12:22.067Z</time>
      </trkpt>
      <trkpt lat="50.120264" lon="8.059729">
        <ele>438.375852</ele>
        <time>2021-07-28T21:12:50.983Z</time>
      </trkpt>
      <trkpt lat="50.120312" lon="8.059769">
        <ele>437.993664</ele>
        <time>2021-07-28T21:12:57.673Z</time>
      </trkpt>
      <trkpt lat="50.120353" lon="8.059803">
        <ele>437.667565</ele>
        <time>2021-07-28T21:13:03.104Z</time>
      </trkpt>
      <trkpt lat="50.120607" lon="8.059957">
        <ele>435.753771</ele>
        <time>2021-07-28T21:13:33.720Z</time>
      </trkpt>
      <trkpt lat="50.120611" lon="8.059896">
        <ele>435.477671</ele>
        <time>2021-07-28T21:13:38.749Z</time>
      </trkpt>
      <trkpt lat="50.120668" lon="8.059673">
        <ele>434.396714</ele>
        <time>2021-07-28T21:13:56.178Z</time>
      </trkpt>
      <trkpt lat="50.120688" lon="8.059593">
        <ele>434.010082</ele>
        <time>2021-07-28T21:14:02.292Z</time>
      </trkpt>
      <trkpt lat="50.120817" lon="8.059350">
        <ele>432.589560</ele>
        <time>2021-07-28T21:14:25.749Z</time>
      </trkpt>
      <trkpt lat="50.120867" lon="8.059400">
        <ele>432.172451</ele>
        <time>2021-07-28T21:14:32.567Z</time>
      </trkpt>
      <trkpt lat="50.121172" lon="8.059649">
        <ele>429.754850</ele>
        <time>2021-07-28T21:15:11.817Z</time>
      </trkpt>
      <trkpt lat="50.121289" lon="8.059750">
        <ele>428.815742</ele>
        <time>2021-07-28T21:15:26.557Z</time>
      </trkpt>
      <trkpt lat="50.121445" lon="8.059844">
        <ele>427.641291</ele>
        <time>2021-07-28T21:15:46.211Z</time>
      </trkpt>
      <trkpt lat="50.122996" lon="8.060944">
        <ele>417.762657</ele>
        <time>2021-07-28T21:18:56.840Z</time>
      </trkpt>
      <trkpt lat="50.123374" lon="8.061089">
        <ele>415.801354</ele>
        <time>2021-07-28T21:19:39.388Z</time>
      </trkpt>
      <trkpt lat="50.123527" lon="8.061122">
        <ele>415.118020</ele>
        <time>2021-07-28T21:19:56.595Z</time>
      </trkpt>
      <trkpt lat="50.123721" lon="8.061228">
        <ele>414.208597</ele>
        <time>2021-07-28T21:20:18.721Z</time>
      </trkpt>
      <trkpt lat="50.123811" lon="8.061296">
        <ele>413.766168</ele>
        <time>2021-07-28T21:20:30.002Z</time>
      </trkpt>
      <trkpt lat="50.124654" lon="8.061937">
        <ele>409.617048</ele>
        <time>2021-07-28T21:22:12.172Z</time>
      </trkpt>
      <trkpt lat="50.125481" lon="8.061973">
        <ele>406.176478</ele>
        <time>2021-07-28T21:23:41.320Z</time>
      </trkpt>
      <trkpt lat="50.125994" lon="8.062147">
        <ele>404.036051</ele>
        <time>2021-07-28T21:24:37.026Z</time>
      </trkpt>
      <trkpt lat="50.126323" lon="8.062441">
        <ele>402.490155</ele>
        <time>2021-07-28T21:25:18.520Z</time>
      </trkpt>
      <trkpt lat="50.126545" lon="8.062750">
        <ele>401.186198</ele>
        <time>2021-07-28T21:25:51.463Z</time>
      </trkpt>
      <trkpt lat="50.127075" lon="8.063961">
        <ele>394.971938</ele>
        <time>2021-07-28T21:27:36.778Z</time>
      </trkpt>
      <trkpt lat="50.127115" lon="8.064086">
        <ele>394.379848</ele>
        <time>2021-07-28T21:27:47.004Z</time>
      </trkpt>
      <trkpt lat="50.127183" lon="8.064285">
        <ele>393.424146</ele>
        <time>2021-07-28T21:28:03.740Z</time>
      </trkpt>
      <trkpt lat="50.127706" lon="8.065989">
        <ele>385.173412</ele>
        <time>2021-07-28T21:30:24.800Z</time>
      </trkpt>
      <trkpt lat="50.128123" lon="8.066609">
        <ele>381.139168</ele>
        <time>2021-07-28T21:31:30.929Z</time>
      </trkpt>
      <trkpt lat="50.128135" lon="8.066719">
        <ele>380.638238</ele>
        <time>2021-07-28T21:31:38.804Z</time>
      </trkpt>
      <trkpt lat="50.128131" lon="8.066748">
        <ele>380.505066</ele>
        <time>2021-07-28T21:31:42.416Z</time>
      </trkpt>
      <trkpt lat="50.128265" lon="8.066799">
        <ele>379.539148</ele>
        <time>2021-07-28T21:31:57.603Z</time>
      </trkpt>
      <trkpt lat="50.128443" lon="8.066904">
        <ele>378.206477</ele>
        <time>2021-07-28T21:32:18.465Z</time>
      </trkpt>
      <trkpt lat="50.128757" lon="8.067090">
        <ele>376.562835</ele>
        <time>2021-07-28T21:32:56.010Z</time>
      </trkpt>
      <trkpt lat="50.129496" lon="8.067877">
        <ele>374.396726</ele>
        <time>2021-07-28T21:34:33.578Z</time>
      </trkpt>
      <trkpt lat="50.129753" lon="8.067922">
        <ele>373.770675</ele>
        <time>2021-07-28T21:35:00.233Z</time>
      </trkpt>
      <trkpt lat="50.129794" lon="8.067922">
        <ele>373.671422</ele>
        <time>2021-07-28T21:35:04.993Z</time>
      </trkpt>
      <trkpt lat="50.129815" lon="8.067944">
        <ele>373.610185</ele>
        <time>2021-07-28T21:35:07.612Z</time>
      </trkpt>
      <trkpt lat="50.129845" lon="8.067993">
        <ele>373.505036</ele>
        <time>2021-07-28T21:35:12.175Z</time>
      </trkpt>
      <trkpt lat="50.129885" lon="8.067945">
        <ele>373.382868</ele>
        <time>2021-07-28T21:35:18.494Z</time>
      </trkpt>
      <trkpt lat="50.130137" lon="8.067755">
        <ele>372.705310</ele>
        <time>2021-07-28T21:35:46.618Z</time>
      </trkpt>
      <trkpt lat="50.130327" lon="8.067438">
        <ele>372.894832</ele>
        <time>2021-07-28T21:36:16.625Z</time>
      </trkpt>
      <trkpt lat="50.130401" lon="8.067137">
        <ele>373.177891</ele>
        <time>2021-07-28T21:36:37.933Z</time>
      </trkpt>
      <trkpt lat="50.130592" lon="8.066365">
        <ele>373.904466</ele>
        <time>2021-07-28T21:37:34.186Z</time>
      </trkpt>
      <trkpt lat="50.130724" lon="8.065934">
        <ele>374.323869</ele>
        <time>2021-07-28T21:38:08.139Z</time>
      </trkpt>
      <trkpt lat="50.130917" lon="8.065417">
        <ele>374.849173</ele>
        <time>2021-07-28T21:38:50.638Z</time>
      </trkpt>
      <trkpt lat="50.131086" lon="8.065004">
        <ele>374.286208</ele>
        <time>2021-07-28T21:39:22.675Z</time>
      </trkpt>
      <trkpt lat="50.131108" lon="8.064931">
        <ele>374.054861</ele>
        <time>2021-07-28T21:39:28.355Z</time>
      </trkpt>
      <trkpt lat="50.131179" lon="8.064483">
        <ele>372.731313</ele>
        <time>2021-07-28T21:39:59.905Z</time>
      </trkpt>
      <trkpt lat="50.131151" lon="8.064006">
        <ele>371.357555</ele>
        <time>2021-07-28T21:40:33.817Z</time>
      </trkpt>
      <trkpt lat="50.131147" lon="8.063680">
        <ele>370.422417</ele>
        <time>2021-07-28T21:40:57.222Z</time>
      </trkpt>
      <trkpt lat="50.131160" lon="8.063417">
        <ele>369.665895</ele>
        <time>2021-07-28T21:41:17.053Z</time>
      </trkpt>
      <trkpt lat="50.131188" lon="8.063244">
        <ele>369.154161</ele>
        <time>2021-07-28T21:41:29.629Z</time>
      </trkpt>
      <trkpt lat="50.131207" lon="8.063170">
        <ele>368.925539</ele>
        <time>2021-07-28T21:41:35.599Z</time>
      </trkpt>
      <trkpt lat="50.131230" lon="8.063107">
        <ele>368.717607</ele>
        <time>2021-07-28T21:41:40.971Z</time>
      </trkpt>
      <trkpt lat="50.131255" lon="8.063060">
        <ele>368.542449</ele>
        <time>2021-07-28T21:41:45.836Z</time>
      </trkpt>
      <trkpt lat="50.131310" lon="8.062996">
        <ele>368.235460</ele>
        <time>2021-07-28T21:41:53.626Z</time>
      </trkpt>
      <trkpt lat="50.131325" lon="8.062983">
        <ele>368.158688</ele>
        <time>2021-07-28T21:41:55.502Z</time>
      </trkpt>
      <trkpt lat="50.131379" lon="8.062936">
        <ele>367.882031</ele>
        <time>2021-07-28T21:42:02.567Z</time>
      </trkpt>
      <trkpt lat="50.131424" lon="8.062911">
        <ele>367.668314</ele>
        <time>2021-07-28T21:42:07.711Z</time>
      </trkpt>
      <trkpt lat="50.131447" lon="8.062884">
        <ele>367.539530</ele>
        <time>2021-07-28T21:42:10.770Z</time>
      </trkpt>
      <trkpt lat="50.131460" lon="8.062859">
        <ele>367.447206</ele>
        <time>2021-07-28T21:42:13.318Z</time>
      </trkpt>
      <trkpt lat="50.131491" lon="8.062775">
        <ele>367.169225</ele>
        <time>2021-07-28T21:42:20.364Z</time>
      </trkpt>
      <trkpt lat="50.131526" lon="8.062716">
        <ele>366.910917</ele>
        <time>2021-07-28T21:42:26.706Z</time>
      </trkpt>
      <trkpt lat="50.131564" lon="8.062649">
        <ele>366.537091</ele>
        <time>2021-07-28T21:42:33.156Z</time>
      </trkpt>
      <trkpt lat="50.131690" lon="8.062392">
        <ele>365.185075</ele>
        <time>2021-07-28T21:42:56.664Z</time>
      </trkpt>
      <trkpt lat="50.131855" lon="8.062113">
        <ele>363.598851</ele>
        <time>2021-07-28T21:43:24.738Z</time>
      </trkpt>
      <trkpt lat="50.131912" lon="8.062019">
        <ele>363.058156</ele>
        <time>2021-07-28T21:43:34.007Z</time>
      </trkpt>
      <trkpt lat="50.131941" lon="8.061968">
        <ele>362.773281</ele>
        <time>2021-07-28T21:43:39.121Z</time>
      </trkpt>
      <trkpt lat="50.132472" lon="8.061412">
        <ele>358.604409</ele>
        <time>2021-07-28T21:44:52.866Z</time>
      </trkpt>
      <trkpt lat="50.132717" lon="8.061222">
        <ele>356.820863</ele>
        <time>2021-07-28T21:45:24.024Z</time>
      </trkpt>
      <trkpt lat="50.132767" lon="8.061209">
        <ele>356.490429</ele>
        <time>2021-07-28T21:45:29.416Z</time>
      </trkpt>
      <trkpt lat="50.133063" lon="8.061217">
        <ele>354.862279</ele>
        <time>2021-07-28T21:46:02.186Z</time>
      </trkpt>
      <trkpt lat="50.133166" lon="8.061219">
        <ele>354.474550</ele>
        <time>2021-07-28T21:46:13.074Z</time>
      </trkpt>
      <trkpt lat="50.133651" lon="8.061421">
        <ele>352.585038</ele>
        <time>2021-07-28T21:47:05.692Z</time>
      </trkpt>
      <trkpt lat="50.133829" lon="8.061459">
        <ele>351.908790</ele>
        <time>2021-07-28T21:47:24.571Z</time>
      </trkpt>
      <trkpt lat="50.134009" lon="8.061621">
        <ele>351.126597</ele>
        <time>2021-07-28T21:47:46.907Z</time>
      </trkpt>
      <trkpt lat="50.134049" lon="8.061667">
        <ele>350.939548</ele>
        <time>2021-07-28T21:47:52.241Z</time>
      </trkpt>
      <trkpt lat="50.134104" lon="8.061726">
        <ele>350.688306</ele>
        <time>2021-07-28T21:47:59.364Z</time>
      </trkpt>
      <trkpt lat="50.134157" lon="8.061780">
        <ele>350.450034</ele>
        <time>2021-07-28T21:48:06.144Z</time>
      </trkpt>
      <trkpt lat="50.134193" lon="8.061814">
        <ele>350.291631</ele>
        <time>2021-07-28T21:48:10.769Z</time>
      </trkpt>
      <trkpt lat="50.134430" lon="8.062032">
        <ele>349.256033</ele>
        <time>2021-07-28T21:48:40.497Z</time>
      </trkpt>
      <trkpt lat="50.134516" lon="8.062223">
        <ele>348.692870</ele>
        <time>2021-07-28T21:48:56.966Z</time>
      </trkpt>
      <trkpt lat="50.134829" lon="8.062590">
        <ele>346.761896</ele>
        <time>2021-07-28T21:49:39.677Z</time>
      </trkpt>
      <trkpt lat="50.134991" lon="8.062781">
        <ele>345.725693</ele>
        <time>2021-07-28T21:50:01.997Z</time>
      </trkpt>
      <trkpt lat="50.135016" lon="8.062956">
        <ele>345.139238</ele>
        <time>2021-07-28T21:50:15.027Z</time>
      </trkpt>
      <trkpt lat="50.135104" lon="8.063065">
        <ele>344.565852</ele>
        <time>2021-07-28T21:50:27.483Z</time>
      </trkpt>
      <trkpt lat="50.135146" lon="8.063116">
        <ele>344.294258</ele>
        <time>2021-07-28T21:50:33.442Z</time>
      </trkpt>
      <trkpt lat="50.135256" lon="8.063240">
        <ele>343.601729</ele>
        <time>2021-07-28T21:50:48.867Z</time>
      </trkpt>
      <trkpt lat="50.135548" lon="8.063640">
        <ele>341.618772</ele>
        <time>2021-07-28T21:51:32.135Z</time>
      </trkpt>
      <trkpt lat="50.135938" lon="8.064129">
        <ele>339.110268</ele>
        <time>2021-07-28T21:52:27.273Z</time>
      </trkpt>
      <trkpt lat="50.136087" lon="8.064348">
        <ele>338.245166</ele>
        <time>2021-07-28T21:52:50.088Z</time>
      </trkpt>
      <trkpt lat="50.136245" lon="8.064535">
        <ele>337.407062</ele>
        <time>2021-07-28T21:53:11.741Z</time>
      </trkpt>
      <trkpt lat="50.136404" lon="8.064807">
        <ele>336.409896</ele>
        <time>2021-07-28T21:53:37.463Z</time>
      </trkpt>
      <trkpt lat="50.136561" lon="8.065071">
        <ele>335.434403</ele>
        <time>2021-07-28T21:54:02.308Z</time>
      </trkpt>
      <trkpt lat="50.136686" lon="8.065299">
        <ele>334.621712</ele>
        <time>2021-07-28T21:54:23.171Z</time>
      </trkpt>
      <trkpt lat="50.136759" lon="8.065445">
        <ele>334.120144</ele>
        <time>2021-07-28T21:54:35.975Z</time>
      </trkpt>
      <trkpt lat="50.137033" lon="8.066051">
        <ele>332.111353</ele>
        <time>2021-07-28T21:55:27.433Z</time>
      </trkpt>
      <trkpt lat="50.137084" lon="8.066195">
        <ele>331.682246</ele>
        <time>2021-07-28T21:55:39.106Z</time>
      </trkpt>
      <trkpt lat="50.137102" lon="8.066148">
        <ele>331.575499</ele>
        <time>2021-07-28T21:55:43.050Z</time>
      </trkpt>
      <trkpt lat="50.137116" lon="8.066102">
        <ele>331.476216</ele>
        <time>2021-07-28T21:55:46.667Z</time>
      </trkpt>
      <trkpt lat="50.137259" lon="8.066487">
        <ele>330.608655</ele>
        <time>2021-07-28T21:56:17.278Z</time>
      </trkpt>
      <trkpt lat="50.137275" lon="8.066531">
        <ele>330.510024</ele>
        <time>2021-07-28T21:56:20.871Z</time>
      </trkpt>
      <trkpt lat="50.137473" lon="8.066901">
        <ele>329.570265</ele>
        <time>2021-07-28T21:56:54.006Z</time>
      </trkpt>
      <trkpt lat="50.137504" lon="8.066935">
        <ele>329.454998</ele>
        <time>2021-07-28T21:56:58.243Z</time>
      </trkpt>
      <trkpt lat="50.137736" lon="8.067195">
        <ele>328.586093</ele>
        <time>2021-07-28T21:57:29.187Z</time>
      </trkpt>
      <trkpt lat="50.137851" lon="8.067308">
        <ele>328.172683</ele>
        <time>2021-07-28T21:57:43.861Z</time>
      </trkpt>
      <trkpt lat="50.137941" lon="8.067397">
        <ele>327.848556</ele>
        <time>2021-07-28T21:57:55.346Z</time>
      </trkpt>
      <trkpt lat="50.138278" lon="8.067655">
        <ele>326.706684</ele>
        <time>2021-07-28T21:58:35.003Z</time>
      </trkpt>
      <trkpt lat="50.138327" lon="8.067569">
        <ele>326.482342</ele>
        <time>2021-07-28T21:58:42.642Z</time>
      </trkpt>
      <trkpt lat="50.138800" lon="8.067936">
        <ele>326.112129</ele>
        <time>2021-07-28T21:59:35.908Z</time>
      </trkpt>
      <trkpt lat="50.138929" lon="8.068036">
        <ele>326.067188</ele>
        <time>2021-07-28T21:59:50.459Z</time>
      </trkpt>
      <trkpt lat="50.139133" lon="8.068202">
        <ele>325.995405</ele>
        <time>2021-07-28T22:00:15.371Z</time>
      </trkpt>
      <trkpt lat="50.139241" lon="8.068289">
        <ele>325.957484</ele>
        <time>2021-07-28T22:00:27.729Z</time>
      </trkpt>
      <trkpt lat="50.139265" lon="8.068317">
        <ele>325.948134</ele>
        <time>2021-07-28T22:00:30.818Z</time>
      </trkpt>
      <trkpt lat="50.139204" lon="8.068394">
        <ele>325.923654</ele>
        <time>2021-07-28T22:00:39.832Z</time>
      </trkpt>
      <trkpt lat="50.138793" lon="8.068901">
        <ele>325.760188</ele>
        <time>2021-07-28T22:01:32.760Z</time>
      </trkpt>
      <trkpt lat="50.138724" lon="8.068979">
        <ele>325.733604</ele>
        <time>2021-07-28T22:01:42.075Z</time>
      </trkpt>
      <trkpt lat="50.138678" lon="8.069023">
        <ele>325.716770</ele>
        <time>2021-07-28T22:01:47.600Z</time>
      </trkpt>
      <trkpt lat="50.138584" lon="8.069106">
        <ele>325.692303</ele>
        <time>2021-07-28T22:01:58.597Z</time>
      </trkpt>
      <trkpt lat="50.138542" lon="8.069143">
        <ele>325.692303</ele>
        <time>2021-07-28T22:02:03.524Z</time>
      </trkpt>
      <trkpt lat="50.138486" lon="8.069179">
        <ele>325.692303</ele>
        <time>2021-07-28T22:02:09.703Z</time>
      </trkpt>
      <trkpt lat="50.138514" lon="8.069229">
        <ele>325.692303</ele>
        <time>2021-07-28T22:02:14.558Z</time>
      </trkpt>
      <trkpt lat="50.138608" lon="8.069341">
        <ele>325.692303</ele>
        <time>2021-07-28T22:02:26.424Z</time>
      </trkpt>
      <trkpt lat="50.138869" lon="8.069471">
        <ele>325.692303</ele>
        <time>2021-07-28T22:02:54.704Z</time>
      </trkpt>
      <trkpt lat="50.138918" lon="8.069486">
        <ele>325.692303</ele>
        <time>2021-07-28T22:02:59.933Z</time>
      </trkpt>
      <trkpt lat="50.139067" lon="8.069510">
        <ele>325.692303</ele>
        <time>2021-07-28T22:03:15.294Z</time>
      </trkpt>
      <trkpt lat="50.139078" lon="8.069511">
        <ele>325.692303</ele>
        <time>2021-07-28T22:03:16.552Z</time>
      </trkpt>
      <trkpt lat="50.139127" lon="8.069510">
        <ele>325.692303</ele>
        <time>2021-07-28T22:03:21.765Z</time>
      </trkpt>
      <trkpt lat="50.139177" lon="8.069489">
        <ele>325.692303</ele>
        <time>2021-07-28T22:03:27.312Z</time>
      </trkpt>
      <trkpt lat="50.139253" lon="8.069476">
        <ele>325.692303</ele>
        <time>2021-07-28T22:03:35.439Z</time>
      </trkpt>
      <trkpt lat="50.139374" lon="8.069478">
        <ele>325.692303</ele>
        <time>2021-07-28T22:03:47.978Z</time>
      </trkpt>
      <trkpt lat="50.139673" lon="8.069483">
        <ele>325.692303</ele>
        <time>2021-07-28T22:04:18.684Z</time>
      </trkpt>
      <trkpt lat="50.139732" lon="8.069497">
        <ele>325.692303</ele>
        <time>2021-07-28T22:04:25.170Z</time>
      </trkpt>
      <trkpt lat="50.139786" lon="8.069508">
        <ele>325.692303</ele>
        <time>2021-07-28T22:04:30.654Z</time>
      </trkpt>
      <trkpt lat="50.139904" lon="8.069544">
        <ele>325.692303</ele>
        <time>2021-07-28T22:04:43.596Z</time>
      </trkpt>
      <trkpt lat="50.139972" lon="8.069553">
        <ele>325.692303</ele>
        <time>2021-07-28T22:04:51.315Z</time>
      </trkpt>
    </trkseg>
  </trk>
</gpx>