<?xml version="1.0" encoding="UTF-8" standalone="no" ?>
<gpx xmlns="http://www.topografix.com/GPX/1/1" creator="MapSource 6.16.3" version="1.1" xmlns:xsi="http://www.w3.org/2001/XMLSchema-instance" xsi:schemaLocation="http://www.topografix.com/GPX/1/1 http://www.topografix.com/GPX/1/1/gpx.xsd">

  <metadata>
    <link href="http://www.garmin.com">
      <text>Garmin International</text>
    </link>
    <time>2026-04-02T13:21:21Z</time>
    <bounds maxlat="48.778078984469175" maxlon="8.981090979650617" minlat="48.76070799306035" minlon="8.930478030815721"/>
  </metadata>

  <trk>
    <name>Renningen - PW168BW_von_AVIA_10_km_2026</name>
    <trkseg>
      <trkpt lat="48.760872026905417" lon="8.931735986843705">
        <ele>410.166313</ele>
        <time>2026-04-02T13:13:00Z</time>
      </trkpt>
      <trkpt lat="48.76092198304832" lon="8.931711008772254">
        <ele>410.166313</ele>
        <time>2026-04-02T13:13:05Z</time>
      </trkpt>
      <trkpt lat="48.760810000821948" lon="8.931236006319523">
        <ele>410.166313</ele>
        <time>2026-04-02T13:13:39Z</time>
      </trkpt>
      <trkpt lat="48.760714028030634" lon="8.93099301494658">
        <ele>410.166313</ele>
        <time>2026-04-02T13:13:58Z</time>
      </trkpt>
      <trkpt lat="48.76070799306035" lon="8.930879021063447">
        <ele>410.166313</ele>
        <time>2026-04-02T13:14:06Z</time>
      </trkpt>
      <trkpt lat="48.760733976960182" lon="8.930770978331566">
        <ele>410.166313</ele>
        <time>2026-04-02T13:14:13Z</time>
      </trkpt>
      <trkpt lat="48.760789968073368" lon="8.930681962519884">
        <ele>410.166313</ele>
        <time>2026-04-02T13:14:22Z</time>
      </trkpt>
      <trkpt lat="48.760976968333125" lon="8.930584983900189">
        <ele>410.09221300000002</ele>
        <time>2026-04-02T13:14:41Z</time>
      </trkpt>
      <trkpt lat="48.761185007169843" lon="8.930537039414048">
        <ele>409.94017500000001</ele>
        <time>2026-04-02T13:15:03Z</time>
      </trkpt>
      <trkpt lat="48.761422969400883" lon="8.930507032200694">
        <ele>409.76759499999997</ele>
        <time>2026-04-02T13:15:27Z</time>
      </trkpt>
      <trkpt lat="48.7616500351578" lon="8.930478030815721">
        <ele>409.60297600000001</ele>
        <time>2026-04-02T13:15:50Z</time>
      </trkpt>
      <trkpt lat="48.761977013200521" lon="8.930753041058779">
        <ele>409.33279199999998</ele>
        <time>2026-04-02T13:16:28Z</time>
      </trkpt>
      <trkpt lat="48.762078015133739" lon="8.930823029950261">
        <ele>409.25254999999999</ele>
        <time>2026-04-02T13:16:40Z</time>
      </trkpt>
      <trkpt lat="48.76214599236846" lon="8.930802997201681">
        <ele>409.202495</ele>
        <time>2026-04-02T13:16:47Z</time>
      </trkpt>
      <trkpt lat="48.762211035937071" lon="8.930968036875129">
        <ele>409.11093099999999</ele>
        <time>2026-04-02T13:17:00Z</time>
      </trkpt>
      <trkpt lat="48.762573972344398" lon="8.931386964395642">
        <ele>408.85275899999999</ele>
        <time>2026-04-02T13:17:47Z</time>
      </trkpt>
      <trkpt lat="48.76259702257812" lon="8.931414959952235">
        <ele>408.849311</ele>
        <time>2026-04-02T13:17:50Z</time>
      </trkpt>
      <trkpt lat="48.762739012017846" lon="8.931578993797302">
        <ele>408.82844699999998</ele>
        <time>2026-04-02T13:18:08Z</time>
      </trkpt>
      <trkpt lat="48.762690983712673" lon="8.931716959923506">
        <ele>408.81642199999999</ele>
        <time>2026-04-02T13:18:18Z</time>
      </trkpt>
      <trkpt lat="48.762653013691306" lon="8.931798012927175">
        <ele>408.80876000000001</ele>
        <time>2026-04-02T13:18:25Z</time>
      </trkpt>
      <trkpt lat="48.76259601674974" lon="8.931911000981927">
        <ele>408.79779500000001</ele>
        <time>2026-04-02T13:18:34Z</time>
      </trkpt>
      <trkpt lat="48.762581013143063" lon="8.93193899653852">
        <ele>408.79501499999998</ele>
        <time>2026-04-02T13:18:36Z</time>
      </trkpt>
      <trkpt lat="48.762613032013178" lon="8.931965986266732">
        <ele>408.79073399999999</ele>
        <time>2026-04-02T13:18:40Z</time>
      </trkpt>
      <trkpt lat="48.762688972055912" lon="8.932056007906795">
        <ele>408.77946200000002</ele>
        <time>2026-04-02T13:18:50Z</time>
      </trkpt>
      <trkpt lat="48.762700036168098" lon="8.932071011513472">
        <ele>408.77773300000001</ele>
        <time>2026-04-02T13:18:51Z</time>
      </trkpt>
      <trkpt lat="48.762795003131032" lon="8.931987024843693">
        <ele>408.76487800000001</ele>
        <time>2026-04-02T13:19:02Z</time>
      </trkpt>
      <trkpt lat="48.76281201839447" lon="8.931972021237016">
        <ele>408.76257900000002</ele>
        <time>2026-04-02T13:19:04Z</time>
      </trkpt>
      <trkpt lat="48.762841019779444" lon="8.932018037885428">
        <ele>408.75767400000001</ele>
        <time>2026-04-02T13:19:08Z</time>
      </trkpt>
      <trkpt lat="48.762906985357404" lon="8.931906977668405">
        <ele>408.74615399999999</ele>
        <time>2026-04-02T13:19:18Z</time>
      </trkpt>
      <trkpt lat="48.763022990897298" lon="8.931849980726838">
        <ele>408.731899</ele>
        <time>2026-04-02T13:19:31Z</time>
      </trkpt>
      <trkpt lat="48.763059033080935" lon="8.931957017630339">
        <ele>408.72264100000001</ele>
        <time>2026-04-02T13:19:39Z</time>
      </trkpt>
      <trkpt lat="48.763257013633847" lon="8.932211995124817">
        <ele>408.69227699999999</ele>
        <time>2026-04-02T13:20:05Z</time>
      </trkpt>
      <trkpt lat="48.763447031378746" lon="8.932458003982902">
        <ele>408.66307399999999</ele>
        <time>2026-04-02T13:20:30Z</time>
      </trkpt>
      <trkpt lat="48.763666972517967" lon="8.932778025045991">
        <ele>408.60413499999999</ele>
        <time>2026-04-02T13:21:01Z</time>
      </trkpt>
      <trkpt lat="48.763987999409437" lon="8.933617975562811">
        <ele>408.468816</ele>
        <time>2026-04-02T13:22:05Z</time>
      </trkpt>
      <trkpt lat="48.76408196054399" lon="8.933839006349444">
        <ele>408.43216100000001</ele>
        <time>2026-04-02T13:22:23Z</time>
      </trkpt>
      <trkpt lat="48.764094030484557" lon="8.933928022161126">
        <ele>408.41950000000003</ele>
        <time>2026-04-02T13:22:29Z</time>
      </trkpt>
      <trkpt lat="48.764008032158017" lon="8.934650961309671">
        <ele>408.31711100000001</ele>
        <time>2026-04-02T13:23:18Z</time>
      </trkpt>
      <trkpt lat="48.764009037986398" lon="8.93522403202951">
        <ele>408.19794000000002</ele>
        <time>2026-04-02T13:23:56Z</time>
      </trkpt>
      <trkpt lat="48.764017000794411" lon="8.93584999255836">
        <ele>408.022109</ele>
        <time>2026-04-02T13:24:38Z</time>
      </trkpt>
      <trkpt lat="48.764023035764694" lon="8.936349973082542">
        <ele>407.88167099999998</ele>
        <time>2026-04-02T13:25:11Z</time>
      </trkpt>
      <trkpt lat="48.764093024656177" lon="8.936543008312583">
        <ele>407.81980900000002</ele>
        <time>2026-04-02T13:25:26Z</time>
      </trkpt>
      <trkpt lat="48.764125965535641" lon="8.936518030241132">
        <ele>407.80409400000002</ele>
        <time>2026-04-02T13:25:30Z</time>
      </trkpt>
      <trkpt lat="48.764192014932632" lon="8.936557006090879">
        <ele>407.77391799999998</ele>
        <time>2026-04-02T13:25:37Z</time>
      </trkpt>
      <trkpt lat="48.764197966083884" lon="8.93666697666049">
        <ele>407.74292100000002</ele>
        <time>2026-04-02T13:25:44Z</time>
      </trkpt>
      <trkpt lat="48.764170976355672" lon="8.936708969995379">
        <ele>407.72644600000001</ele>
        <time>2026-04-02T13:25:48Z</time>
      </trkpt>
      <trkpt lat="48.764097969979048" lon="8.936701007187367">
        <ele>407.69526400000001</ele>
        <time>2026-04-02T13:25:55Z</time>
      </trkpt>
      <trkpt lat="48.764017000794411" lon="8.936906028538942">
        <ele>407.62814300000002</ele>
        <time>2026-04-02T13:26:11Z</time>
      </trkpt>
      <trkpt lat="48.7640780210495" lon="8.937045000493527">
        <ele>407.58124800000002</ele>
        <time>2026-04-02T13:26:22Z</time>
      </trkpt>
      <trkpt lat="48.764019012451172" lon="8.938202960416675">
        <ele>407.07983400000001</ele>
        <time>2026-04-02T13:27:39Z</time>
      </trkpt>
      <trkpt lat="48.764263009652495" lon="8.93827797845006">
        <ele>406.90076499999998</ele>
        <time>2026-04-02T13:28:04Z</time>
      </trkpt>
      <trkpt lat="48.76416401937604" lon="8.939510034397245">
        <ele>406.31233200000003</ele>
        <time>2026-04-02T13:29:28Z</time>
      </trkpt>
      <trkpt lat="48.764153039082885" lon="8.939684964716435">
        <ele>406.22898500000002</ele>
        <time>2026-04-02T13:29:40Z</time>
      </trkpt>
      <trkpt lat="48.764157984405756" lon="8.939751014113426">
        <ele>406.18584399999997</ele>
        <time>2026-04-02T13:29:44Z</time>
      </trkpt>
      <trkpt lat="48.764150021597743" lon="8.940008003264666">
        <ele>405.987053</ele>
        <time>2026-04-02T13:30:02Z</time>
      </trkpt>
      <trkpt lat="48.764145998284221" lon="8.94014697521925">
        <ele>405.87955399999998</ele>
        <time>2026-04-02T13:30:11Z</time>
      </trkpt>
      <trkpt lat="48.764387983828783" lon="8.940207995474339">
        <ele>405.59200199999998</ele>
        <time>2026-04-02T13:30:37Z</time>
      </trkpt>
      <trkpt lat="48.764406004920602" lon="8.940200032666326">
        <ele>405.57001600000001</ele>
        <time>2026-04-02T13:30:38Z</time>
      </trkpt>
      <trkpt lat="48.764406004920602" lon="8.940200032666326">
        <ele>405.57001600000001</ele>
        <time>2026-04-02T13:30:39Z</time>
      </trkpt>
      <trkpt lat="48.76444498077035" lon="8.940333975479007">
        <ele>405.45684</ele>
        <time>2026-04-02T13:30:48Z</time>
      </trkpt>
      <trkpt lat="48.764437017962337" lon="8.940459033474326">
        <ele>405.35980599999999</ele>
        <time>2026-04-02T13:30:57Z</time>
      </trkpt>
      <trkpt lat="48.764378009364009" lon="8.940826999023557">
        <ele>405.06718499999999</ele>
        <time>2026-04-02T13:31:22Z</time>
      </trkpt>
      <trkpt lat="48.764080032706261" lon="8.941766023635864">
        <ele>404.26196599999997</ele>
        <time>2026-04-02T13:32:33Z</time>
      </trkpt>
      <trkpt lat="48.763840980827808" lon="8.942521987482905">
        <ele>404.057028</ele>
        <time>2026-04-02T13:33:29Z</time>
      </trkpt>
      <trkpt lat="48.763732016086578" lon="8.943083994090557">
        <ele>404.01057300000002</ele>
        <time>2026-04-02T13:34:07Z</time>
      </trkpt>
      <trkpt lat="48.763624979183078" lon="8.944612015038729">
        <ele>403.90063700000002</ele>
        <time>2026-04-02T13:35:49Z</time>
      </trkpt>
      <trkpt lat="48.763587009161711" lon="8.945364961400628">
        <ele>404.117389</ele>
        <time>2026-04-02T13:36:39Z</time>
      </trkpt>
      <trkpt lat="48.763475026935339" lon="8.947639977559447">
        <ele>404.75336900000002</ele>
        <time>2026-04-02T13:39:13Z</time>
      </trkpt>
      <trkpt lat="48.763450970873237" lon="8.948197960853577">
        <ele>404.882992</ele>
        <time>2026-04-02T13:39:50Z</time>
      </trkpt>
      <trkpt lat="48.763253996148705" lon="8.952357983216643">
        <ele>405.72815400000002</ele>
        <time>2026-04-02T13:44:28Z</time>
      </trkpt>
      <trkpt lat="48.763194987550378" lon="8.954123966395855">
        <ele>406.06777799999998</ele>
        <time>2026-04-02T13:46:26Z</time>
      </trkpt>
      <trkpt lat="48.763007987290621" lon="8.958193967118859">
        <ele>406.78786500000001</ele>
        <time>2026-04-02T13:50:58Z</time>
      </trkpt>
      <trkpt lat="48.762878989800811" lon="8.960394971072674">
        <ele>407.17200400000002</ele>
        <time>2026-04-02T13:53:24Z</time>
      </trkpt>
      <trkpt lat="48.76343303360045" lon="8.960787998512387">
        <ele>407.69883900000002</ele>
        <time>2026-04-02T13:54:26Z</time>
      </trkpt>
      <trkpt lat="48.763523977249861" lon="8.960852958261967">
        <ele>407.86050599999999</ele>
        <time>2026-04-02T13:54:36Z</time>
      </trkpt>
      <trkpt lat="48.763573011383414" lon="8.960890006273985">
        <ele>407.94848100000002</ele>
        <time>2026-04-02T13:54:42Z</time>
      </trkpt>
      <trkpt lat="48.76386595889926" lon="8.961074994876981">
        <ele>408.45858500000003</ele>
        <time>2026-04-02T13:55:15Z</time>
      </trkpt>
      <trkpt lat="48.764800038188696" lon="8.961413037031889">
        <ele>410.001937</ele>
        <time>2026-04-02T13:56:57Z</time>
      </trkpt>
      <trkpt lat="48.764874972403049" lon="8.961442038416863">
        <ele>410.12633899999997</ele>
        <time>2026-04-02T13:57:06Z</time>
      </trkpt>
      <trkpt lat="48.765160040929914" lon="8.961510015651584">
        <ele>411.16934400000002</ele>
        <time>2026-04-02T13:57:38Z</time>
      </trkpt>
      <trkpt lat="48.765467992052436" lon="8.961633983999491">
        <ele>412.35967399999998</ele>
        <time>2026-04-02T13:58:15Z</time>
      </trkpt>
      <trkpt lat="48.765601012855768" lon="8.962024999782443">
        <ele>413.443016</ele>
        <time>2026-04-02T13:58:48Z</time>
      </trkpt>
      <trkpt lat="48.766456972807646" lon="8.964427001774311">
        <ele>419.60028299999999</ele>
        <time>2026-04-02T14:02:13Z</time>
      </trkpt>
      <trkpt lat="48.767197011038661" lon="8.967287996783853">
        <ele>425.01071000000002</ele>
        <time>2026-04-02T14:05:52Z</time>
      </trkpt>
      <trkpt lat="48.767224000766873" lon="8.967607012018561">
        <ele>425.50277299999999</ele>
        <time>2026-04-02T14:06:15Z</time>
      </trkpt>
      <trkpt lat="48.767216959968209" lon="8.968052007257938">
        <ele>426.18379599999997</ele>
        <time>2026-04-02T14:06:46Z</time>
      </trkpt>
      <trkpt lat="48.767236992716789" lon="8.968425001949072">
        <ele>426.80167699999998</ele>
        <time>2026-04-02T14:07:13Z</time>
      </trkpt>
      <trkpt lat="48.767291978001595" lon="8.968756003305316">
        <ele>427.48687000000001</ele>
        <time>2026-04-02T14:07:38Z</time>
      </trkpt>
      <trkpt lat="48.767406977713108" lon="8.969184989109635">
        <ele>428.41647999999998</ele>
        <time>2026-04-02T14:08:11Z</time>
      </trkpt>
      <trkpt lat="48.767542010173202" lon="8.969572987407446">
        <ele>429.29714999999999</ele>
        <time>2026-04-02T14:08:43Z</time>
      </trkpt>
      <trkpt lat="48.767739990726113" lon="8.970336997881532">
        <ele>430.94497899999999</ele>
        <time>2026-04-02T14:09:44Z</time>
      </trkpt>
      <trkpt lat="48.768272995948792" lon="8.971810033544898">
        <ele>434.026791</ele>
        <time>2026-04-02T14:11:48Z</time>
      </trkpt>
      <trkpt lat="48.768496038392186" lon="8.973334031179547">
        <ele>436.75109200000003</ele>
        <time>2026-04-02T14:13:40Z</time>
      </trkpt>
      <trkpt lat="48.76846200786531" lon="8.973703002557159">
        <ele>436.98446100000001</ele>
        <time>2026-04-02T14:14:06Z</time>
      </trkpt>
      <trkpt lat="48.768524033948779" lon="8.97420097142458">
        <ele>437.19908299999997</ele>
        <time>2026-04-02T14:14:40Z</time>
      </trkpt>
      <trkpt lat="48.768524033948779" lon="8.974578995257616">
        <ele>437.35915699999998</ele>
        <time>2026-04-02T14:15:05Z</time>
      </trkpt>
      <trkpt lat="48.768472988158464" lon="8.975137984380126">
        <ele>437.598139</ele>
        <time>2026-04-02T14:15:43Z</time>
      </trkpt>
      <trkpt lat="48.768525961786509" lon="8.975620027631521">
        <ele>437.80507699999998</ele>
        <time>2026-04-02T14:16:15Z</time>
      </trkpt>
      <trkpt lat="48.768507018685341" lon="8.975771991536021">
        <ele>437.87059299999999</ele>
        <time>2026-04-02T14:16:25Z</time>
      </trkpt>
      <trkpt lat="48.768354970961809" lon="8.976081032305956">
        <ele>438.064663</ele>
        <time>2026-04-02T14:16:51Z</time>
      </trkpt>
      <trkpt lat="48.7683330103755" lon="8.976258980110288">
        <ele>438.22774099999998</ele>
        <time>2026-04-02T14:17:03Z</time>
      </trkpt>
      <trkpt lat="48.76831297762692" lon="8.977032965049148">
        <ele>438.92524200000003</ele>
        <time>2026-04-02T14:17:56Z</time>
      </trkpt>
      <trkpt lat="48.768317000940442" lon="8.977131033316255">
        <ele>439.01365800000002</ele>
        <time>2026-04-02T14:18:02Z</time>
      </trkpt>
      <trkpt lat="48.768346002325416" lon="8.977301018312573">
        <ele>439.17178200000001</ele>
        <time>2026-04-02T14:18:15Z</time>
      </trkpt>
      <trkpt lat="48.768675997853279" lon="8.978407010436058">
        <ele>440.26499699999999</ele>
        <time>2026-04-02T14:19:40Z</time>
      </trkpt>
      <trkpt lat="48.768980009481311" lon="8.979343017563224">
        <ele>441.57869399999998</ele>
        <time>2026-04-02T14:20:53Z</time>
      </trkpt>
      <trkpt lat="48.769605970010161" lon="8.981090979650617">
        <ele>444.27452499999998</ele>
        <time>2026-04-02T14:23:14Z</time>
      </trkpt>
      <trkpt lat="48.769722981378436" lon="8.98086098022759">
        <ele>444.66771199999999</ele>
        <time>2026-04-02T14:23:35Z</time>
      </trkpt>
      <trkpt lat="48.769920039921999" lon="8.980612959712744">
        <ele>445.19331599999998</ele>
        <time>2026-04-02T14:24:03Z</time>
      </trkpt>
      <trkpt lat="48.770442986860871" lon="8.979805028066039">
        <ele>446.72591399999999</ele>
        <time>2026-04-02T14:25:24Z</time>
      </trkpt>
      <trkpt lat="48.770620012655854" lon="8.979532029479742">
        <ele>447.24415499999998</ele>
        <time>2026-04-02T14:25:51Z</time>
      </trkpt>
      <trkpt lat="48.770985966548324" lon="8.979046968743205">
        <ele>448.117771</ele>
        <time>2026-04-02T14:26:42Z</time>
      </trkpt>
      <trkpt lat="48.771139020100236" lon="8.978676991537213">
        <ele>448.51906500000001</ele>
        <time>2026-04-02T14:27:12Z</time>
      </trkpt>
      <trkpt lat="48.771216971799731" lon="8.978480016812682">
        <ele>448.73020100000002</ele>
        <time>2026-04-02T14:27:28Z</time>
      </trkpt>
      <trkpt lat="48.771457029506564" lon="8.977574016898871">
        <ele>449.627274</ele>
        <time>2026-04-02T14:28:36Z</time>
      </trkpt>
      <trkpt lat="48.771548978984356" lon="8.977361032739282">
        <ele>449.86123900000001</ele>
        <time>2026-04-02T14:28:53Z</time>
      </trkpt>
      <trkpt lat="48.771717036142945" lon="8.976980997249484">
        <ele>450.28161999999998</ele>
        <time>2026-04-02T14:29:25Z</time>
      </trkpt>
      <trkpt lat="48.77200897783041" lon="8.976426031440496">
        <ele>450.69418400000001</ele>
        <time>2026-04-02T14:30:14Z</time>
      </trkpt>
      <trkpt lat="48.772155996412039" lon="8.97630600258708">
        <ele>450.82921299999998</ele>
        <time>2026-04-02T14:30:31Z</time>
      </trkpt>
      <trkpt lat="48.772396976128221" lon="8.976174993440509">
        <ele>451.03629599999999</ele>
        <time>2026-04-02T14:30:57Z</time>
      </trkpt>
      <trkpt lat="48.773474972695112" lon="8.97533898241818">
        <ele>452.20043399999997</ele>
        <time>2026-04-02T14:33:00Z</time>
      </trkpt>
      <trkpt lat="48.773871017619967" lon="8.975064978003502">
        <ele>452.88095399999997</ele>
        <time>2026-04-02T14:33:47Z</time>
      </trkpt>
      <trkpt lat="48.774061035364866" lon="8.975026002153754">
        <ele>453.18074300000001</ele>
        <time>2026-04-02T14:34:07Z</time>
      </trkpt>
      <trkpt lat="48.774272007867694" lon="8.974891975522041">
        <ele>453.53839199999999</ele>
        <time>2026-04-02T14:34:32Z</time>
      </trkpt>
      <trkpt lat="48.774732006713748" lon="8.974434994161129">
        <ele>454.39809300000002</ele>
        <time>2026-04-02T14:35:31Z</time>
      </trkpt>
      <trkpt lat="48.775185970589519" lon="8.973798975348473">
        <ele>454.29297300000002</ele>
        <time>2026-04-02T14:36:36Z</time>
      </trkpt>
      <trkpt lat="48.775782007724047" lon="8.973345011472702">
        <ele>453.81465100000003</ele>
        <time>2026-04-02T14:37:44Z</time>
      </trkpt>
      <trkpt lat="48.776040002703667" lon="8.973118029534817">
        <ele>453.60074400000002</ele>
        <time>2026-04-02T14:38:15Z</time>
      </trkpt>
      <trkpt lat="48.777466015890241" lon="8.971114000305533">
        <ele>449.354218</ele>
        <time>2026-04-02T14:41:41Z</time>
      </trkpt>
      <trkpt lat="48.778078984469175" lon="8.970319982618094">
        <ele>448.22256900000002</ele>
        <time>2026-04-02T14:43:04Z</time>
      </trkpt>
      <trkpt lat="48.777972031384706" lon="8.970172964036465">
        <ele>448.08012200000002</ele>
        <time>2026-04-02T14:43:19Z</time>
      </trkpt>
      <trkpt lat="48.777180025354028" lon="8.969462011009455">
        <ele>447.17194899999998</ele>
        <time>2026-04-02T14:44:52Z</time>
      </trkpt>
      <trkpt lat="48.776444010436535" lon="8.968801014125347">
        <ele>445.94212299999998</ele>
        <time>2026-04-02T14:46:19Z</time>
      </trkpt>
      <trkpt lat="48.775846967473626" lon="8.968265997245908">
        <ele>444.88017000000002</ele>
        <time>2026-04-02T14:47:31Z</time>
      </trkpt>
      <trkpt lat="48.775246990844607" lon="8.967654034495354">
        <ele>443.14370300000002</ele>
        <time>2026-04-02T14:48:47Z</time>
      </trkpt>
      <trkpt lat="48.775030989199877" lon="8.967482037842274">
        <ele>442.29904599999998</ele>
        <time>2026-04-02T14:49:12Z</time>
      </trkpt>
      <trkpt lat="48.77273702993989" lon="8.966518035158515">
        <ele>433.27511399999997</ele>
        <time>2026-04-02T14:53:30Z</time>
      </trkpt>
      <trkpt lat="48.772638961672783" lon="8.966520968824625">
        <ele>432.86916600000001</ele>
        <time>2026-04-02T14:53:41Z</time>
      </trkpt>
      <trkpt lat="48.77241600304842" lon="8.966544019058347">
        <ele>431.94348400000001</ele>
        <time>2026-04-02T14:54:06Z</time>
      </trkpt>
      <trkpt lat="48.772281976416707" lon="8.966513006016612">
        <ele>431.38211200000001</ele>
        <time>2026-04-02T14:54:21Z</time>
      </trkpt>
      <trkpt lat="48.771559959277511" lon="8.965872041881084">
        <ele>429.33296000000001</ele>
        <time>2026-04-02T14:55:51Z</time>
      </trkpt>
      <trkpt lat="48.770955037325621" lon="8.965351022779942">
        <ele>427.97498999999999</ele>
        <time>2026-04-02T14:57:02Z</time>
      </trkpt>
      <trkpt lat="48.77069897018373" lon="8.96513401530683">
        <ele>427.402558</ele>
        <time>2026-04-02T14:57:32Z</time>
      </trkpt>
      <trkpt lat="48.770500989630818" lon="8.964963024482131">
        <ele>427.03536500000001</ele>
        <time>2026-04-02T14:57:55Z</time>
      </trkpt>
      <trkpt lat="48.77041700296104" lon="8.964891023933888">
        <ele>426.96304600000002</ele>
        <time>2026-04-02T14:58:05Z</time>
      </trkpt>
      <trkpt lat="48.770644990727305" lon="8.964422978460789">
        <ele>426.67552699999999</ele>
        <time>2026-04-02T14:58:43Z</time>
      </trkpt>
      <trkpt lat="48.770581958815455" lon="8.963925009593368">
        <ele>426.425005</ele>
        <time>2026-04-02T14:59:17Z</time>
      </trkpt>
      <trkpt lat="48.770576007664204" lon="8.963546985760331">
        <ele>426.23820499999999</ele>
        <time>2026-04-02T14:59:42Z</time>
      </trkpt>
      <trkpt lat="48.770565027371049" lon="8.962997971102595">
        <ele>425.96685300000001</ele>
        <time>2026-04-02T15:00:19Z</time>
      </trkpt>
      <trkpt lat="48.770665023475885" lon="8.962938040494919">
        <ele>425.88624499999997</ele>
        <time>2026-04-02T15:00:31Z</time>
      </trkpt>
      <trkpt lat="48.770664017647505" lon="8.962013013660908">
        <ele>424.65163899999999</ele>
        <time>2026-04-02T15:01:33Z</time>
      </trkpt>
      <trkpt lat="48.770741969347" lon="8.961280016228557">
        <ele>423.35324000000003</ele>
        <time>2026-04-02T15:02:24Z</time>
      </trkpt>
      <trkpt lat="48.770738029852509" lon="8.961011040955782">
        <ele>422.88271900000001</ele>
        <time>2026-04-02T15:02:43Z</time>
      </trkpt>
      <trkpt lat="48.770711962133646" lon="8.960652966052294">
        <ele>422.25289400000003</ele>
        <time>2026-04-02T15:03:09Z</time>
      </trkpt>
      <trkpt lat="48.770443992689252" lon="8.959051016718149">
        <ele>418.49892599999998</ele>
        <time>2026-04-02T15:05:06Z</time>
      </trkpt>
      <trkpt lat="48.770162025466561" lon="8.958310978487134">
        <ele>416.197496</ele>
        <time>2026-04-02T15:06:08Z</time>
      </trkpt>
      <trkpt lat="48.76985901966691" lon="8.957859026268125">
        <ele>414.46167100000002</ele>
        <time>2026-04-02T15:06:54Z</time>
      </trkpt>
      <trkpt lat="48.769574034959078" lon="8.957557026296854">
        <ele>413.219808</ele>
        <time>2026-04-02T15:07:32Z</time>
      </trkpt>
      <trkpt lat="48.769420981407166" lon="8.957341024652124">
        <ele>412.63113700000002</ele>
        <time>2026-04-02T15:07:54Z</time>
      </trkpt>
      <trkpt lat="48.769268011674285" lon="8.956910027191043">
        <ele>411.72230500000001</ele>
        <time>2026-04-02T15:08:28Z</time>
      </trkpt>
      <trkpt lat="48.769143959507346" lon="8.956696037203074">
        <ele>411.193309</ele>
        <time>2026-04-02T15:08:48Z</time>
      </trkpt>
      <trkpt lat="48.767869994044304" lon="8.955690041184425">
        <ele>407.76252499999998</ele>
        <time>2026-04-02T15:11:19Z</time>
      </trkpt>
      <trkpt lat="48.767133979126811" lon="8.953422987833619">
        <ele>405.36630200000002</ele>
        <time>2026-04-02T15:14:10Z</time>
      </trkpt>
      <trkpt lat="48.766946978867054" lon="8.952738018706441">
        <ele>404.91207500000002</ele>
        <time>2026-04-02T15:15:00Z</time>
      </trkpt>
      <trkpt lat="48.766857041046023" lon="8.95217802375555">
        <ele>404.55894599999999</ele>
        <time>2026-04-02T15:15:39Z</time>
      </trkpt>
      <trkpt lat="48.766660988330841" lon="8.950423020869494">
        <ele>403.862866</ele>
        <time>2026-04-02T15:17:38Z</time>
      </trkpt>
      <trkpt lat="48.766622012481093" lon="8.949860008433461">
        <ele>403.75820900000002</ele>
        <time>2026-04-02T15:18:15Z</time>
      </trkpt>
      <trkpt lat="48.766629975289106" lon="8.949290961027145">
        <ele>403.65299099999999</ele>
        <time>2026-04-02T15:18:53Z</time>
      </trkpt>
      <trkpt lat="48.766649002209306" lon="8.948925007134676">
        <ele>403.58511800000002</ele>
        <time>2026-04-02T15:19:17Z</time>
      </trkpt>
      <trkpt lat="48.766770036891103" lon="8.948163008317351">
        <ele>403.479241</ele>
        <time>2026-04-02T15:20:09Z</time>
      </trkpt>
      <trkpt lat="48.766888976097107" lon="8.947608964517713">
        <ele>403.41895299999999</ele>
        <time>2026-04-02T15:20:47Z</time>
      </trkpt>
      <trkpt lat="48.766992995515466" lon="8.947092974558473">
        <ele>403.36312500000003</ele>
        <time>2026-04-02T15:21:23Z</time>
      </trkpt>
      <trkpt lat="48.767083017155528" lon="8.946415968239307">
        <ele>403.29166800000002</ele>
        <time>2026-04-02T15:22:09Z</time>
      </trkpt>
      <trkpt lat="48.76713297329843" lon="8.94586100243032">
        <ele>403.24501500000002</ele>
        <time>2026-04-02T15:22:46Z</time>
      </trkpt>
      <trkpt lat="48.767193993553519" lon="8.944713016971946">
        <ele>403.23116599999997</ele>
        <time>2026-04-02T15:24:02Z</time>
      </trkpt>
      <trkpt lat="48.767272029072046" lon="8.944279002025724">
        <ele>403.22575699999999</ele>
        <time>2026-04-02T15:24:32Z</time>
      </trkpt>
      <trkpt lat="48.76719600521028" lon="8.944220999255776">
        <ele>403.22420599999998</ele>
        <time>2026-04-02T15:24:40Z</time>
      </trkpt>
      <trkpt lat="48.767033983021975" lon="8.943953029811382">
        <ele>403.21983299999999</ele>
        <time>2026-04-02T15:25:04Z</time>
      </trkpt>
      <trkpt lat="48.766815969720483" lon="8.943033032119274">
        <ele>403.18161099999998</ele>
        <time>2026-04-02T15:26:09Z</time>
      </trkpt>
      <trkpt lat="48.766685966402292" lon="8.942782999947667">
        <ele>403.15972299999999</ele>
        <time>2026-04-02T15:26:30Z</time>
      </trkpt>
      <trkpt lat="48.765967972576618" lon="8.942686021327972">
        <ele>403.08454999999998</ele>
        <time>2026-04-02T15:27:42Z</time>
      </trkpt>
      <trkpt lat="48.765916004776955" lon="8.94265903159976">
        <ele>403.07881800000001</ele>
        <time>2026-04-02T15:27:48Z</time>
      </trkpt>
      <trkpt lat="48.765904018655419" lon="8.942577978596091">
        <ele>403.07311199999998</ele>
        <time>2026-04-02T15:27:53Z</time>
      </trkpt>
      <trkpt lat="48.765939977020025" lon="8.941441979259253">
        <ele>403.120656</ele>
        <time>2026-04-02T15:29:08Z</time>
      </trkpt>
      <trkpt lat="48.765950035303831" lon="8.940938981249929">
        <ele>403.225525</ele>
        <time>2026-04-02T15:29:42Z</time>
      </trkpt>
      <trkpt lat="48.766041984781623" lon="8.940584007650614">
        <ele>403.30501700000002</ele>
        <time>2026-04-02T15:30:07Z</time>
      </trkpt>
      <trkpt lat="48.766391007229686" lon="8.93958798609674">
        <ele>403.54008099999999</ele>
        <time>2026-04-02T15:31:23Z</time>
      </trkpt>
      <trkpt lat="48.766473988071084" lon="8.939268970862031">
        <ele>403.65760499999999</ele>
        <time>2026-04-02T15:31:46Z</time>
      </trkpt>
      <trkpt lat="48.766540959477425" lon="8.938744012266398">
        <ele>404.07503000000003</ele>
        <time>2026-04-02T15:32:23Z</time>
      </trkpt>
      <trkpt lat="48.766096970066428" lon="8.938659019768238">
        <ele>404.60502400000001</ele>
        <time>2026-04-02T15:33:10Z</time>
      </trkpt>
      <trkpt lat="48.766037039458752" lon="8.938640998676419">
        <ele>404.677458</ele>
        <time>2026-04-02T15:33:16Z</time>
      </trkpt>
      <trkpt lat="48.765956992283463" lon="8.93861903809011">
        <ele>404.77374500000002</ele>
        <time>2026-04-02T15:33:25Z</time>
      </trkpt>
      <trkpt lat="48.765878034755588" lon="8.938592970371246">
        <ele>404.86947900000001</ele>
        <time>2026-04-02T15:33:33Z</time>
      </trkpt>
      <trkpt lat="48.765635965391994" lon="8.938418962061405">
        <ele>405.18663400000003</ele>
        <time>2026-04-02T15:34:01Z</time>
      </trkpt>
      <trkpt lat="48.765582991763949" lon="8.938316032290459">
        <ele>405.288636</ele>
        <time>2026-04-02T15:34:10Z</time>
      </trkpt>
      <trkpt lat="48.765481989830732" lon="8.938122997060418">
        <ele>405.48100399999998</ele>
        <time>2026-04-02T15:34:27Z</time>
      </trkpt>
      <trkpt lat="48.765363972634077" lon="8.937593009322882">
        <ele>405.944076</ele>
        <time>2026-04-02T15:35:06Z</time>
      </trkpt>
      <trkpt lat="48.765357015654445" lon="8.937514973804355">
        <ele>406.013935</ele>
        <time>2026-04-02T15:35:11Z</time>
      </trkpt>
      <trkpt lat="48.765361038967967" lon="8.937262007966638">
        <ele>406.238519</ele>
        <time>2026-04-02T15:35:29Z</time>
      </trkpt>
      <trkpt lat="48.765374030917883" lon="8.937018010765314">
        <ele>406.455758</ele>
        <time>2026-04-02T15:35:46Z</time>
      </trkpt>
      <trkpt lat="48.765400014817715" lon="8.936565974727273">
        <ele>406.85840100000001</ele>
        <time>2026-04-02T15:36:17Z</time>
      </trkpt>
      <trkpt lat="48.765209997072816" lon="8.936544014140964">
        <ele>407.11494900000002</ele>
        <time>2026-04-02T15:36:37Z</time>
      </trkpt>
      <trkpt lat="48.764852005988359" lon="8.936501014977694">
        <ele>407.59844700000002</ele>
        <time>2026-04-02T15:37:15Z</time>
      </trkpt>
      <trkpt lat="48.76470398157835" lon="8.936471007764339">
        <ele>407.79947499999997</ele>
        <time>2026-04-02T15:37:31Z</time>
      </trkpt>
      <trkpt lat="48.764727031812072" lon="8.936147969216108">
        <ele>408.08778699999999</ele>
        <time>2026-04-02T15:37:53Z</time>
      </trkpt>
      <trkpt lat="48.764739017933607" lon="8.935976978391409">
        <ele>408.17761999999999</ele>
        <time>2026-04-02T15:38:05Z</time>
      </trkpt>
      <trkpt lat="48.764768019318581" lon="8.935488983988762">
        <ele>408.32182799999998</ele>
        <time>2026-04-02T15:38:38Z</time>
      </trkpt>
      <trkpt lat="48.764769025146961" lon="8.935245992615819">
        <ele>408.39334700000001</ele>
        <time>2026-04-02T15:38:55Z</time>
      </trkpt>
      <trkpt lat="48.764768019318581" lon="8.935170974582434">
        <ele>408.41542500000003</ele>
        <time>2026-04-02T15:39:00Z</time>
      </trkpt>
      <trkpt lat="48.764766007661819" lon="8.935070978477597">
        <ele>408.44486999999998</ele>
        <time>2026-04-02T15:39:06Z</time>
      </trkpt>
      <trkpt lat="48.764762990176678" lon="8.934968970716">
        <ele>408.474919</ele>
        <time>2026-04-02T15:39:13Z</time>
      </trkpt>
      <trkpt lat="48.764756033197045" lon="8.93488297238946">
        <ele>408.50042300000001</ele>
        <time>2026-04-02T15:39:19Z</time>
      </trkpt>
      <trkpt lat="48.764743041247129" lon="8.934778030961752">
        <ele>408.53186599999998</ele>
        <time>2026-04-02T15:39:26Z</time>
      </trkpt>
      <trkpt lat="48.764728959649801" lon="8.934674011543393">
        <ele>408.563106</ele>
        <time>2026-04-02T15:39:33Z</time>
      </trkpt>
      <trkpt lat="48.764715967699885" lon="8.93462598323822">
        <ele>408.57837899999998</ele>
        <time>2026-04-02T15:39:37Z</time>
      </trkpt>
      <trkpt lat="48.764615971595049" lon="8.934327000752091">
        <ele>408.67705799999999</ele>
        <time>2026-04-02T15:39:59Z</time>
      </trkpt>
      <trkpt lat="48.764556040987372" lon="8.934218036010861">
        <ele>408.71885400000002</ele>
        <time>2026-04-02T15:40:09Z</time>
      </trkpt>
      <trkpt lat="48.764094030484557" lon="8.933928022161126">
        <ele>408.94209799999999</ele>
        <time>2026-04-02T15:40:59Z</time>
      </trkpt>
      <trkpt lat="48.76408196054399" lon="8.933839006349444">
        <ele>408.93966899999998</ele>
        <time>2026-04-02T15:41:05Z</time>
      </trkpt>
      <trkpt lat="48.763987999409437" lon="8.933617975562811">
        <ele>408.89989300000002</ele>
        <time>2026-04-02T15:41:22Z</time>
      </trkpt>
      <trkpt lat="48.763666972517967" lon="8.932778025045991">
        <ele>408.75305600000002</ele>
        <time>2026-04-02T15:42:26Z</time>
      </trkpt>
      <trkpt lat="48.763447031378746" lon="8.932458003982902">
        <ele>408.68313000000001</ele>
        <time>2026-04-02T15:42:57Z</time>
      </trkpt>
      <trkpt lat="48.763257013633847" lon="8.932211995124817">
        <ele>408.62582200000003</ele>
        <time>2026-04-02T15:43:22Z</time>
      </trkpt>
      <trkpt lat="48.763059033080935" lon="8.931957017630339">
        <ele>408.56623400000001</ele>
        <time>2026-04-02T15:43:48Z</time>
      </trkpt>
      <trkpt lat="48.763022990897298" lon="8.931849980726838">
        <ele>408.54806600000001</ele>
        <time>2026-04-02T15:43:56Z</time>
      </trkpt>
      <trkpt lat="48.762906985357404" lon="8.931906977668405">
        <ele>408.57629900000001</ele>
        <time>2026-04-02T15:44:09Z</time>
      </trkpt>
      <trkpt lat="48.762841019779444" lon="8.932018037885428">
        <ele>408.62923799999999</ele>
        <time>2026-04-02T15:44:19Z</time>
      </trkpt>
      <trkpt lat="48.76281201839447" lon="8.931972021237016">
        <ele>408.65177899999998</ele>
        <time>2026-04-02T15:44:23Z</time>
      </trkpt>
      <trkpt lat="48.762795003131032" lon="8.931987024843693">
        <ele>408.66234500000002</ele>
        <time>2026-04-02T15:44:25Z</time>
      </trkpt>
      <trkpt lat="48.762700036168098" lon="8.932071011513472">
        <ele>408.72142000000002</ele>
        <time>2026-04-02T15:44:36Z</time>
      </trkpt>
      <trkpt lat="48.762688972055912" lon="8.932056007906795">
        <ele>408.72936600000003</ele>
        <time>2026-04-02T15:44:37Z</time>
      </trkpt>
      <trkpt lat="48.762613032013178" lon="8.931965986266732">
        <ele>408.78116399999999</ele>
        <time>2026-04-02T15:44:47Z</time>
      </trkpt>
      <trkpt lat="48.762581013143063" lon="8.93193899653852">
        <ele>408.800836</ele>
        <time>2026-04-02T15:44:51Z</time>
      </trkpt>
      <trkpt lat="48.76259601674974" lon="8.931911000981927">
        <ele>408.81361399999997</ele>
        <time>2026-04-02T15:44:53Z</time>
      </trkpt>
      <trkpt lat="48.762653013691306" lon="8.931798012927175">
        <ele>408.86400500000002</ele>
        <time>2026-04-02T15:45:02Z</time>
      </trkpt>
      <trkpt lat="48.762690983712673" lon="8.931716959923506">
        <ele>408.89921299999997</ele>
        <time>2026-04-02T15:45:09Z</time>
      </trkpt>
      <trkpt lat="48.762739012017846" lon="8.931578993797302">
        <ele>408.95447100000001</ele>
        <time>2026-04-02T15:45:19Z</time>
      </trkpt>
      <trkpt lat="48.76259702257812" lon="8.931414959952235">
        <ele>409.05035199999998</ele>
        <time>2026-04-02T15:45:38Z</time>
      </trkpt>
      <trkpt lat="48.762573972344398" lon="8.931386964395642">
        <ele>409.06619599999999</ele>
        <time>2026-04-02T15:45:41Z</time>
      </trkpt>
      <trkpt lat="48.762211035937071" lon="8.930968036875129">
        <ele>409.31124999999997</ele>
        <time>2026-04-02T15:46:28Z</time>
      </trkpt>
      <trkpt lat="48.76214599236846" lon="8.930802997201681">
        <ele>409.379323</ele>
        <time>2026-04-02T15:46:41Z</time>
      </trkpt>
      <trkpt lat="48.762078015133739" lon="8.930823029950261">
        <ele>409.41653600000001</ele>
        <time>2026-04-02T15:46:49Z</time>
      </trkpt>
      <trkpt lat="48.761977013200521" lon="8.930753041058779">
        <ele>409.47619300000002</ele>
        <time>2026-04-02T15:47:00Z</time>
      </trkpt>
      <trkpt lat="48.7616500351578" lon="8.930478030815721">
        <ele>409.50322599999998</ele>
        <time>2026-04-02T15:47:39Z</time>
      </trkpt>
      <trkpt lat="48.761422969400883" lon="8.930507032200694">
        <ele>409.50322599999998</ele>
        <time>2026-04-02T15:48:03Z</time>
      </trkpt>
      <trkpt lat="48.761185007169843" lon="8.930537039414048">
        <ele>409.50322599999998</ele>
        <time>2026-04-02T15:48:27Z</time>
      </trkpt>
      <trkpt lat="48.760976968333125" lon="8.930584983900189">
        <ele>409.50322599999998</ele>
        <time>2026-04-02T15:48:48Z</time>
      </trkpt>
      <trkpt lat="48.760789968073368" lon="8.930681962519884">
        <ele>409.50322599999998</ele>
        <time>2026-04-02T15:49:08Z</time>
      </trkpt>
      <trkpt lat="48.760733976960182" lon="8.930770978331566">
        <ele>409.50322599999998</ele>
        <time>2026-04-02T15:49:16Z</time>
      </trkpt>
      <trkpt lat="48.76070799306035" lon="8.930879021063447">
        <ele>409.50322599999998</ele>
        <time>2026-04-02T15:49:24Z</time>
      </trkpt>
      <trkpt lat="48.760714028030634" lon="8.93099301494658">
        <ele>409.50322599999998</ele>
        <time>2026-04-02T15:49:31Z</time>
      </trkpt>
      <trkpt lat="48.760810000821948" lon="8.931236006319523">
        <ele>409.50322599999998</ele>
        <time>2026-04-02T15:49:50Z</time>
      </trkpt>
      <trkpt lat="48.76092198304832" lon="8.931711008772254">
        <ele>409.50322599999998</ele>
        <time>2026-04-02T15:50:24Z</time>
      </trkpt>
      <trkpt lat="48.760872026905417" lon="8.931735986843705">
        <ele>409.50322599999998</ele>
        <time>2026-04-02T15:50:29Z</time>
      </trkpt>
    </trkseg>
  </trk>

</gpx>
