<?xml version='1.0' encoding='UTF-8'?>
<gpx version="1.1" creator="https://www.komoot.de" xmlns="http://www.topografix.com/GPX/1/1" xmlns:xsi="http://www.w3.org/2001/XMLSchema-instance" xsi:schemaLocation="http://www.topografix.com/GPX/1/1 http://www.topografix.com/GPX/1/1/gpx.xsd">
  <metadata>
    <name>WF Baar Tuningen: Permanenter Wanderweg "Über den Himmelberg in das Talbach- und Weisenbachtal" 6 km</name>
    <author>
      <link href="https://www.komoot.de">
        <text>komoot</text>
        <type>text/html</type>
      </link>
    </author>
  </metadata>
  <trk>
    <name>WF Baar Tuningen: Permanenter Wanderweg "Über den Himmelberg in das Talbach- und Weisenbachtal" 6 km</name>
    <trkseg>
      <trkpt lat="47.999882" lon="8.633697">
        <ele>851.250781</ele>
        <time>2021-07-19T07:39:43.877Z</time>
      </trkpt>
      <trkpt lat="47.999913" lon="8.634272">
        <ele>851.250781</ele>
        <time>2021-07-19T07:40:24.859Z</time>
      </trkpt>
      <trkpt lat="48.000046" lon="8.634231">
        <ele>851.250781</ele>
        <time>2021-07-19T07:40:39.455Z</time>
      </trkpt>
      <trkpt lat="48.000309" lon="8.634159">
        <ele>851.250781</ele>
        <time>2021-07-19T07:41:07.804Z</time>
      </trkpt>
      <trkpt lat="48.000763" lon="8.634013">
        <ele>851.680656</ele>
        <time>2021-07-19T07:41:57.316Z</time>
      </trkpt>
      <trkpt lat="48.001135" lon="8.635564">
        <ele>853.018489</ele>
        <time>2021-07-19T07:43:53.894Z</time>
      </trkpt>
      <trkpt lat="48.001333" lon="8.636391">
        <ele>853.264032</ele>
        <time>2021-07-19T07:44:53.388Z</time>
      </trkpt>
      <trkpt lat="48.001681" lon="8.637956">
        <ele>852.503473</ele>
        <time>2021-07-19T07:46:45.932Z</time>
      </trkpt>
      <trkpt lat="48.001872" lon="8.638846">
        <ele>851.906097</ele>
        <time>2021-07-19T07:47:50.473Z</time>
      </trkpt>
      <trkpt lat="48.002109" lon="8.639830">
        <ele>850.762434</ele>
        <time>2021-07-19T07:49:02.998Z</time>
      </trkpt>
      <trkpt lat="48.001336" lon="8.640871">
        <ele>849.059401</ele>
        <time>2021-07-19T07:50:51.007Z</time>
      </trkpt>
      <trkpt lat="48.000770" lon="8.641612">
        <ele>847.814134</ele>
        <time>2021-07-19T07:52:08.947Z</time>
      </trkpt>
      <trkpt lat="48.000489" lon="8.642099">
        <ele>847.102035</ele>
        <time>2021-07-19T07:52:53.637Z</time>
      </trkpt>
      <trkpt lat="47.999997" lon="8.643247">
        <ele>845.742609</ele>
        <time>2021-07-19T07:54:28.249Z</time>
      </trkpt>
      <trkpt lat="47.999878" lon="8.643279">
        <ele>845.586390</ele>
        <time>2021-07-19T07:54:40.690Z</time>
      </trkpt>
      <trkpt lat="47.999807" lon="8.643169">
        <ele>845.454259</ele>
        <time>2021-07-19T07:54:51.272Z</time>
      </trkpt>
      <trkpt lat="47.999659" lon="8.642962">
        <ele>845.192362</ele>
        <time>2021-07-19T07:55:12.255Z</time>
      </trkpt>
      <trkpt lat="47.999378" lon="8.643183">
        <ele>844.782100</ele>
        <time>2021-07-19T07:55:44.977Z</time>
      </trkpt>
      <trkpt lat="47.998187" lon="8.643753">
        <ele>843.575123</ele>
        <time>2021-07-19T07:57:52.377Z</time>
      </trkpt>
      <trkpt lat="47.998171" lon="8.646200">
        <ele>842.337316</ele>
        <time>2021-07-19T08:00:38.257Z</time>
      </trkpt>
      <trkpt lat="47.997529" lon="8.645736">
        <ele>841.543082</ele>
        <time>2021-07-19T08:01:51.664Z</time>
      </trkpt>
      <trkpt lat="47.996940" lon="8.645284">
        <ele>840.834217</ele>
        <time>2021-07-19T08:03:00.221Z</time>
      </trkpt>
      <trkpt lat="47.996149" lon="8.644792">
        <ele>840.867344</ele>
        <time>2021-07-19T08:04:27.792Z</time>
      </trkpt>
      <trkpt lat="47.995850" lon="8.644948">
        <ele>840.879589</ele>
        <time>2021-07-19T08:05:00.050Z</time>
      </trkpt>
      <trkpt lat="47.995534" lon="8.645115">
        <ele>840.892549</ele>
        <time>2021-07-19T08:05:34.707Z</time>
      </trkpt>
      <trkpt lat="47.995291" lon="8.645245">
        <ele>840.902528</ele>
        <time>2021-07-19T08:06:01.664Z</time>
      </trkpt>
      <trkpt lat="47.995353" lon="8.646241">
        <ele>842.614805</ele>
        <time>2021-07-19T08:07:15.012Z</time>
      </trkpt>
      <trkpt lat="47.995441" lon="8.647142">
        <ele>844.189911</ele>
        <time>2021-07-19T08:08:22.259Z</time>
      </trkpt>
      <trkpt lat="47.995620" lon="8.647562">
        <ele>845.051278</ele>
        <time>2021-07-19T08:08:59.072Z</time>
      </trkpt>
      <trkpt lat="47.995638" lon="8.647697">
        <ele>845.289397</ele>
        <time>2021-07-19T08:09:10.077Z</time>
      </trkpt>
      <trkpt lat="47.995607" lon="8.647764">
        <ele>845.430302</ele>
        <time>2021-07-19T08:09:15.707Z</time>
      </trkpt>
      <trkpt lat="47.994987" lon="8.647892">
        <ele>846.865305</ele>
        <time>2021-07-19T08:10:24.110Z</time>
      </trkpt>
      <trkpt lat="47.994766" lon="8.647997">
        <ele>847.391470</ele>
        <time>2021-07-19T08:10:48.837Z</time>
      </trkpt>
      <trkpt lat="47.994217" lon="8.648515">
        <ele>848.864633</ele>
        <time>2021-07-19T08:11:59.106Z</time>
      </trkpt>
      <trkpt lat="47.994058" lon="8.648758">
        <ele>849.380658</ele>
        <time>2021-07-19T08:12:23.320Z</time>
      </trkpt>
      <trkpt lat="47.993817" lon="8.649261">
        <ele>849.831935</ele>
        <time>2021-07-19T08:13:07.416Z</time>
      </trkpt>
      <trkpt lat="47.993769" lon="8.649845">
        <ele>850.090425</ele>
        <time>2021-07-19T08:13:49.395Z</time>
      </trkpt>
      <trkpt lat="47.993425" lon="8.650614">
        <ele>850.496789</ele>
        <time>2021-07-19T08:14:54.549Z</time>
      </trkpt>
      <trkpt lat="47.992801" lon="8.652379">
        <ele>847.556155</ele>
        <time>2021-07-19T08:17:13.310Z</time>
      </trkpt>
      <trkpt lat="47.992666" lon="8.652576">
        <ele>846.835186</ele>
        <time>2021-07-19T08:17:33.560Z</time>
      </trkpt>
      <trkpt lat="47.992624" lon="8.652652">
        <ele>846.583162</ele>
        <time>2021-07-19T08:17:40.810Z</time>
      </trkpt>
      <trkpt lat="47.992595" lon="8.653304">
        <ele>844.912333</ele>
        <time>2021-07-19T08:18:30.248Z</time>
      </trkpt>
      <trkpt lat="47.992586" lon="8.653483">
        <ele>844.453344</ele>
        <time>2021-07-19T08:18:43.544Z</time>
      </trkpt>
      <trkpt lat="47.992529" lon="8.653576">
        <ele>844.130886</ele>
        <time>2021-07-19T08:18:52.978Z</time>
      </trkpt>
      <trkpt lat="47.992460" lon="8.653597">
        <ele>843.798727</ele>
        <time>2021-07-19T08:19:00.844Z</time>
      </trkpt>
      <trkpt lat="47.992355" lon="8.653564">
        <ele>843.064985</ele>
        <time>2021-07-19T08:19:13.701Z</time>
      </trkpt>
      <trkpt lat="47.992071" lon="8.653528">
        <ele>841.115903</ele>
        <time>2021-07-19T08:19:45.924Z</time>
      </trkpt>
      <trkpt lat="47.991411" lon="8.653592">
        <ele>836.593064</ele>
        <time>2021-07-19T08:21:02.256Z</time>
      </trkpt>
      <trkpt lat="47.990319" lon="8.653870">
        <ele>830.235562</ele>
        <time>2021-07-19T08:23:07.792Z</time>
      </trkpt>
      <trkpt lat="47.989754" lon="8.654019">
        <ele>828.132783</ele>
        <time>2021-07-19T08:24:09.701Z</time>
      </trkpt>
      <trkpt lat="47.989728" lon="8.653723">
        <ele>827.400495</ele>
        <time>2021-07-19T08:24:30.944Z</time>
      </trkpt>
      <trkpt lat="47.989654" lon="8.653766">
        <ele>827.109491</ele>
        <time>2021-07-19T08:24:39.510Z</time>
      </trkpt>
      <trkpt lat="47.989277" lon="8.654500">
        <ele>825.005329</ele>
        <time>2021-07-19T08:25:43.978Z</time>
      </trkpt>
      <trkpt lat="47.988939" lon="8.655324">
        <ele>824.503642</ele>
        <time>2021-07-19T08:26:50.011Z</time>
      </trkpt>
      <trkpt lat="47.988865" lon="8.655525">
        <ele>824.384557</ele>
        <time>2021-07-19T08:27:05.707Z</time>
      </trkpt>
      <trkpt lat="47.988817" lon="8.655409">
        <ele>824.313762</ele>
        <time>2021-07-19T08:27:15.079Z</time>
      </trkpt>
      <trkpt lat="47.988653" lon="8.654624">
        <ele>823.886871</ele>
        <time>2021-07-19T08:28:10.443Z</time>
      </trkpt>
      <trkpt lat="47.988251" lon="8.653244">
        <ele>822.391377</ele>
        <time>2021-07-19T08:29:53.402Z</time>
      </trkpt>
      <trkpt lat="47.988114" lon="8.652775">
        <ele>821.780195</ele>
        <time>2021-07-19T08:30:28.786Z</time>
      </trkpt>
      <trkpt lat="47.988112" lon="8.652573">
        <ele>821.538908</ele>
        <time>2021-07-19T08:30:42.769Z</time>
      </trkpt>
      <trkpt lat="47.988150" lon="8.652474">
        <ele>821.402601</ele>
        <time>2021-07-19T08:30:50.693Z</time>
      </trkpt>
      <trkpt lat="47.988179" lon="8.652449">
        <ele>821.342854</ele>
        <time>2021-07-19T08:30:54.462Z</time>
      </trkpt>
      <trkpt lat="47.988971" lon="8.651864">
        <ele>818.828196</ele>
        <time>2021-07-19T08:32:28.335Z</time>
      </trkpt>
      <trkpt lat="47.988998" lon="8.651648">
        <ele>818.203031</ele>
        <time>2021-07-19T08:32:44.264Z</time>
      </trkpt>
      <trkpt lat="47.988904" lon="8.650829">
        <ele>815.838887</ele>
        <time>2021-07-19T08:33:45.205Z</time>
      </trkpt>
      <trkpt lat="47.988846" lon="8.650010">
        <ele>813.495747</ele>
        <time>2021-07-19T08:34:45.725Z</time>
      </trkpt>
      <trkpt lat="47.988846" lon="8.649168">
        <ele>810.719432</ele>
        <time>2021-07-19T08:35:48.249Z</time>
      </trkpt>
      <trkpt lat="47.988871" lon="8.647943">
        <ele>806.451027</ele>
        <time>2021-07-19T08:37:19.633Z</time>
      </trkpt>
      <trkpt lat="47.988883" lon="8.647421">
        <ele>804.631937</ele>
        <time>2021-07-19T08:37:58.545Z</time>
      </trkpt>
      <trkpt lat="47.988823" lon="8.646210">
        <ele>800.681644</ele>
        <time>2021-07-19T08:39:27.977Z</time>
      </trkpt>
      <trkpt lat="47.988791" lon="8.646084">
        <ele>800.255394</ele>
        <time>2021-07-19T08:39:38.049Z</time>
      </trkpt>
      <trkpt lat="47.988726" lon="8.645873">
        <ele>799.520727</ele>
        <time>2021-07-19T08:39:55.209Z</time>
      </trkpt>
      <trkpt lat="47.988442" lon="8.645222">
        <ele>797.062892</ele>
        <time>2021-07-19T08:40:52.277Z</time>
      </trkpt>
      <trkpt lat="47.987831" lon="8.644461">
        <ele>794.050678</ele>
        <time>2021-07-19T08:42:19.419Z</time>
      </trkpt>
      <trkpt lat="47.987793" lon="8.644399">
        <ele>793.906229</ele>
        <time>2021-07-19T08:42:25.616Z</time>
      </trkpt>
      <trkpt lat="47.987599" lon="8.644080">
        <ele>793.165639</ele>
        <time>2021-07-19T08:42:56.538Z</time>
      </trkpt>
      <trkpt lat="47.987465" lon="8.643901">
        <ele>792.704189</ele>
        <time>2021-07-19T08:43:15.557Z</time>
      </trkpt>
      <trkpt lat="47.987351" lon="8.643648">
        <ele>792.180140</ele>
        <time>2021-07-19T08:43:36.848Z</time>
      </trkpt>
      <trkpt lat="47.986996" lon="8.642868">
        <ele>790.559401</ele>
        <time>2021-07-19T08:44:42.150Z</time>
      </trkpt>
      <trkpt lat="47.986977" lon="8.642773">
        <ele>790.389036</ele>
        <time>2021-07-19T08:44:49.020Z</time>
      </trkpt>
      <trkpt lat="47.986953" lon="8.642655">
        <ele>790.389339</ele>
        <time>2021-07-19T08:44:57.507Z</time>
      </trkpt>
      <trkpt lat="47.986939" lon="8.642052">
        <ele>790.876925</ele>
        <time>2021-07-19T08:45:38.461Z</time>
      </trkpt>
      <trkpt lat="47.986971" lon="8.641844">
        <ele>791.049396</ele>
        <time>2021-07-19T08:45:52.827Z</time>
      </trkpt>
      <trkpt lat="47.987031" lon="8.641700">
        <ele>791.186471</ele>
        <time>2021-07-19T08:46:04.674Z</time>
      </trkpt>
      <trkpt lat="47.987167" lon="8.640577">
        <ele>792.108716</ele>
        <time>2021-07-19T08:47:27.013Z</time>
      </trkpt>
      <trkpt lat="47.987378" lon="8.639869">
        <ele>793.038279</ele>
        <time>2021-07-19T08:48:23.957Z</time>
      </trkpt>
      <trkpt lat="47.987526" lon="8.639568">
        <ele>793.718540</ele>
        <time>2021-07-19T08:48:52.101Z</time>
      </trkpt>
      <trkpt lat="47.987731" lon="8.639191">
        <ele>794.603236</ele>
        <time>2021-07-19T08:49:28.071Z</time>
      </trkpt>
      <trkpt lat="47.988029" lon="8.638815">
        <ele>795.664651</ele>
        <time>2021-07-19T08:50:11.162Z</time>
      </trkpt>
      <trkpt lat="47.988804" lon="8.638370">
        <ele>797.784773</ele>
        <time>2021-07-19T08:51:41.749Z</time>
      </trkpt>
      <trkpt lat="47.989121" lon="8.638263">
        <ele>798.439521</ele>
        <time>2021-07-19T08:52:16.505Z</time>
      </trkpt>
      <trkpt lat="47.989908" lon="8.637989">
        <ele>800.067552</ele>
        <time>2021-07-19T08:53:41.890Z</time>
      </trkpt>
      <trkpt lat="47.990162" lon="8.637908">
        <ele>800.590807</ele>
        <time>2021-07-19T08:54:09.649Z</time>
      </trkpt>
      <trkpt lat="47.990965" lon="8.637880">
        <ele>803.737868</ele>
        <time>2021-07-19T08:55:37.033Z</time>
      </trkpt>
      <trkpt lat="47.991110" lon="8.637845">
        <ele>804.411549</ele>
        <time>2021-07-19T08:55:53.705Z</time>
      </trkpt>
      <trkpt lat="47.991069" lon="8.637731">
        <ele>804.808809</ele>
        <time>2021-07-19T08:56:03.353Z</time>
      </trkpt>
      <trkpt lat="47.991688" lon="8.637173">
        <ele>808.124578</ele>
        <time>2021-07-19T08:57:29.351Z</time>
      </trkpt>
      <trkpt lat="47.992406" lon="8.636567">
        <ele>814.196708</ele>
        <time>2021-07-19T08:59:12.726Z</time>
      </trkpt>
      <trkpt lat="47.992624" lon="8.636681">
        <ele>816.172955</ele>
        <time>2021-07-19T08:59:44.184Z</time>
      </trkpt>
      <trkpt lat="47.992789" lon="8.636737">
        <ele>817.620738</ele>
        <time>2021-07-19T09:00:05.384Z</time>
      </trkpt>
      <trkpt lat="47.992868" lon="8.636746">
        <ele>818.298663</ele>
        <time>2021-07-19T09:00:16.027Z</time>
      </trkpt>
      <trkpt lat="47.992975" lon="8.636732">
        <ele>819.217713</ele>
        <time>2021-07-19T09:00:31.704Z</time>
      </trkpt>
      <trkpt lat="47.993557" lon="8.636258">
        <ele>824.825439</ele>
        <time>2021-07-19T09:01:58.674Z</time>
      </trkpt>
      <trkpt lat="47.993687" lon="8.636208">
        <ele>825.666137</ele>
        <time>2021-07-19T09:02:15.767Z</time>
      </trkpt>
      <trkpt lat="47.993884" lon="8.636166">
        <ele>826.912398</ele>
        <time>2021-07-19T09:02:41.080Z</time>
      </trkpt>
      <trkpt lat="47.994145" lon="8.636129">
        <ele>828.554322</ele>
        <time>2021-07-19T09:03:13.445Z</time>
      </trkpt>
      <trkpt lat="47.994203" lon="8.636121">
        <ele>828.919108</ele>
        <time>2021-07-19T09:03:20.966Z</time>
      </trkpt>
      <trkpt lat="47.994312" lon="8.636110">
        <ele>829.603305</ele>
        <time>2021-07-19T09:03:35.745Z</time>
      </trkpt>
      <trkpt lat="47.994383" lon="8.636101">
        <ele>830.049560</ele>
        <time>2021-07-19T09:03:44.548Z</time>
      </trkpt>
      <trkpt lat="47.994759" lon="8.636116">
        <ele>832.405203</ele>
        <time>2021-07-19T09:04:29.162Z</time>
      </trkpt>
      <trkpt lat="47.995606" lon="8.636337">
        <ele>836.358965</ele>
        <time>2021-07-19T09:06:07.250Z</time>
      </trkpt>
      <trkpt lat="47.995694" lon="8.636353">
        <ele>836.490251</ele>
        <time>2021-07-19T09:06:17.156Z</time>
      </trkpt>
      <trkpt lat="47.995824" lon="8.636366">
        <ele>836.683207</ele>
        <time>2021-07-19T09:06:31.406Z</time>
      </trkpt>
      <trkpt lat="47.995939" lon="8.636379">
        <ele>836.854005</ele>
        <time>2021-07-19T09:06:43.299Z</time>
      </trkpt>
      <trkpt lat="47.996023" lon="8.636379">
        <ele>836.978406</ele>
        <time>2021-07-19T09:06:52.384Z</time>
      </trkpt>
      <trkpt lat="47.996098" lon="8.636376">
        <ele>837.089518</ele>
        <time>2021-07-19T09:07:00.275Z</time>
      </trkpt>
      <trkpt lat="47.996123" lon="8.636246">
        <ele>837.223567</ele>
        <time>2021-07-19T09:07:09.520Z</time>
      </trkpt>
      <trkpt lat="47.996238" lon="8.636097">
        <ele>837.448979</ele>
        <time>2021-07-19T09:07:25.174Z</time>
      </trkpt>
      <trkpt lat="47.996495" lon="8.636076">
        <ele>837.830156</ele>
        <time>2021-07-19T09:07:51.676Z</time>
      </trkpt>
      <trkpt lat="47.997248" lon="8.635732">
        <ele>838.088389</ele>
        <time>2021-07-19T09:09:11.010Z</time>
      </trkpt>
      <trkpt lat="47.997385" lon="8.635640">
        <ele>837.826296</ele>
        <time>2021-07-19T09:09:26.528Z</time>
      </trkpt>
      <trkpt lat="47.998207" lon="8.635046">
        <ele>836.233011</ele>
        <time>2021-07-19T09:11:02.195Z</time>
      </trkpt>
      <trkpt lat="47.998508" lon="8.634780">
        <ele>835.622803</ele>
        <time>2021-07-19T09:11:39.119Z</time>
      </trkpt>
      <trkpt lat="47.998604" lon="8.634626">
        <ele>835.406433</ele>
        <time>2021-07-19T09:11:53.793Z</time>
      </trkpt>
      <trkpt lat="47.998656" lon="8.634474">
        <ele>835.298913</ele>
        <time>2021-07-19T09:12:06.281Z</time>
      </trkpt>
      <trkpt lat="47.998738" lon="8.634103">
        <ele>835.052830</ele>
        <time>2021-07-19T09:12:33.855Z</time>
      </trkpt>
      <trkpt lat="47.998725" lon="8.632596">
        <ele>834.103599</ele>
        <time>2021-07-19T09:14:18.692Z</time>
      </trkpt>
      <trkpt lat="47.998769" lon="8.632165">
        <ele>833.829002</ele>
        <time>2021-07-19T09:14:50.404Z</time>
      </trkpt>
      <trkpt lat="47.998727" lon="8.632120">
        <ele>833.780360</ele>
        <time>2021-07-19T09:14:55.710Z</time>
      </trkpt>
      <trkpt lat="47.998680" lon="8.632090">
        <ele>833.806764</ele>
        <time>2021-07-19T09:15:00.983Z</time>
      </trkpt>
      <trkpt lat="47.998651" lon="8.631950">
        <ele>834.154192</ele>
        <time>2021-07-19T09:15:12.319Z</time>
      </trkpt>
      <trkpt lat="47.998571" lon="8.632008">
        <ele>834.469206</ele>
        <time>2021-07-19T09:15:23.105Z</time>
      </trkpt>
      <trkpt lat="47.998558" lon="8.631841">
        <ele>834.867773</ele>
        <time>2021-07-19T09:15:34.661Z</time>
      </trkpt>
      <trkpt lat="47.998603" lon="8.631727">
        <ele>835.181546</ele>
        <time>2021-07-19T09:15:43.819Z</time>
      </trkpt>
      <trkpt lat="47.998636" lon="8.631803">
        <ele>835.396322</ele>
        <time>2021-07-19T09:15:51.586Z</time>
      </trkpt>
      <trkpt lat="47.998681" lon="8.631832">
        <ele>835.569939</ele>
        <time>2021-07-19T09:15:57.379Z</time>
      </trkpt>
      <trkpt lat="47.998814" lon="8.631747">
        <ele>836.082406</ele>
        <time>2021-07-19T09:16:13.325Z</time>
      </trkpt>
      <trkpt lat="47.999066" lon="8.631301">
        <ele>837.466219</ele>
        <time>2021-07-19T09:16:55.854Z</time>
      </trkpt>
      <trkpt lat="47.999204" lon="8.631179">
        <ele>838.034261</ele>
        <time>2021-07-19T09:17:14.161Z</time>
      </trkpt>
      <trkpt lat="47.999250" lon="8.631176">
        <ele>838.197384</ele>
        <time>2021-07-19T09:17:21.223Z</time>
      </trkpt>
      <trkpt lat="47.999303" lon="8.631264">
        <ele>838.478054</ele>
        <time>2021-07-19T09:17:30.537Z</time>
      </trkpt>
      <trkpt lat="47.999339" lon="8.631361">
        <ele>838.741005</ele>
        <time>2021-07-19T09:17:38.316Z</time>
      </trkpt>
      <trkpt lat="47.999345" lon="8.631377">
        <ele>838.784485</ele>
        <time>2021-07-19T09:17:39.602Z</time>
      </trkpt>
      <trkpt lat="47.999374" lon="8.631517">
        <ele>839.131909</ele>
        <time>2021-07-19T09:17:50.653Z</time>
      </trkpt>
      <trkpt lat="47.999355" lon="8.631961">
        <ele>840.120082</ele>
        <time>2021-07-19T09:18:26.376Z</time>
      </trkpt>
      <trkpt lat="47.999264" lon="8.632385">
        <ele>840.120082</ele>
        <time>2021-07-19T09:19:03.616Z</time>
      </trkpt>
      <trkpt lat="47.999265" lon="8.632407">
        <ele>840.120082</ele>
        <time>2021-07-19T09:19:05.181Z</time>
      </trkpt>
      <trkpt lat="47.999269" lon="8.632760">
        <ele>840.120082</ele>
        <time>2021-07-19T09:19:32.979Z</time>
      </trkpt>
      <trkpt lat="47.999308" lon="8.633025">
        <ele>840.120082</ele>
        <time>2021-07-19T09:19:52.807Z</time>
      </trkpt>
      <trkpt lat="47.999434" lon="8.633084">
        <ele>840.120082</ele>
        <time>2021-07-19T09:20:08.540Z</time>
      </trkpt>
      <trkpt lat="47.999527" lon="8.633094">
        <ele>840.120082</ele>
        <time>2021-07-19T09:20:19.807Z</time>
      </trkpt>
      <trkpt lat="47.999579" lon="8.633077">
        <ele>840.120082</ele>
        <time>2021-07-19T09:20:25.716Z</time>
      </trkpt>
      <trkpt lat="47.999851" lon="8.633108">
        <ele>840.120082</ele>
        <time>2021-07-19T09:20:54.950Z</time>
      </trkpt>
      <trkpt lat="47.999882" lon="8.633692">
        <ele>840.120082</ele>
        <time>2021-07-19T09:21:37.069Z</time>
      </trkpt>
    </trkseg>
  </trk>
</gpx>
