<?xml version="1.0" encoding="UTF-8"?>
<gpx xmlns="http://www.topografix.com/GPX/1/1" xmlns:gpsies="https://www.gpsies.com/GPX/1/0" creator="AllTrails https://www.alltrails.com/ - Gpsies_ivvpw" version="1.1" xmlns:xsi="http://www.w3.org/2001/XMLSchema-instance" xsi:schemaLocation="http://www.topografix.com/GPX/1/1 http://www.topografix.com/GPX/1/1/gpx.xsd https://www.gpsies.com/GPX/1/0 https://www.gpsies.com/gpsies.xsd">
  <metadata>
    <name>Gpsies_ivvpw</name>
    <link href="https://www.gpsies.com/">
      <text>Gpsies_ivvpw on AllTrails</text>
    </link>
    <time>2019-12-29T11:54:24Z</time>
  </metadata>
  <trk>
    <name>DVV Berghaupten-Schöne Aussicht</name>
    <link href="https://www.gpsies.com/map.do?fileId=azurcrtheyihhqby">
      <type>trackOnWeb</type>
    </link>
    <link href="https://www.gpsies.com/charts/az/map/azurcrtheyihhqby_map.png">
      <type>elevationChartUrlMap</type>
    </link>
    <link href="https://www.gpsies.com/charts/az/mapThumb/azurcrtheyihhqby_mapThumb.png">
      <type>elevationChartUrlMapThumb</type>
    </link>
    <link href="https://www.gpsies.com/charts/az/tab/azurcrtheyihhqby_tab.png">
      <type>elevationChartUrlTab</type>
    </link>
    <trkseg>
      <trkpt lat="48.40723740" lon="7.987725300">
        <ele>172.00000</ele>
      </trkpt>
      <trkpt lat="48.40707290" lon="7.987639800">
        <ele>172.00000</ele>
      </trkpt>
      <trkpt lat="48.40719780" lon="7.987130280">
        <ele>172.00000</ele>
      </trkpt>
      <trkpt lat="48.40726430" lon="7.986800900">
        <ele>172.00000</ele>
      </trkpt>
      <trkpt lat="48.40721570" lon="7.986478400">
        <ele>172.00000</ele>
      </trkpt>
      <trkpt lat="48.40721300" lon="7.986478400">
        <ele>172.00000</ele>
      </trkpt>
      <trkpt lat="48.40711610" lon="7.986258100">
        <ele>173.00000</ele>
      </trkpt>
      <trkpt lat="48.40711870" lon="7.986258100">
        <ele>173.00000</ele>
      </trkpt>
      <trkpt lat="48.40706610" lon="7.986089580">
        <ele>173.00000</ele>
      </trkpt>
      <trkpt lat="48.40710530" lon="7.985988300">
        <ele>172.00000</ele>
      </trkpt>
      <trkpt lat="48.40741520" lon="7.985537600">
        <ele>171.00000</ele>
      </trkpt>
      <trkpt lat="48.40778180" lon="7.985142800">
        <ele>172.00000</ele>
      </trkpt>
      <trkpt lat="48.40796450" lon="7.984882800">
        <ele>175.00000</ele>
      </trkpt>
      <trkpt lat="48.40802380" lon="7.984787500">
        <ele>177.00000</ele>
      </trkpt>
      <trkpt lat="48.40810190" lon="7.984731600">
        <ele>178.00000</ele>
      </trkpt>
      <trkpt lat="48.40839300" lon="7.984734800">
        <ele>180.00000</ele>
      </trkpt>
      <trkpt lat="48.40862480" lon="7.984771000">
        <ele>181.00000</ele>
      </trkpt>
      <trkpt lat="48.40881890" lon="7.984807200">
        <ele>182.00000</ele>
      </trkpt>
      <trkpt lat="48.40919080" lon="7.985129600">
        <ele>178.00000</ele>
      </trkpt>
      <trkpt lat="48.40952760" lon="7.985455300">
        <ele>178.00000</ele>
      </trkpt>
      <trkpt lat="48.40983710" lon="7.985784300">
        <ele>176.00000</ele>
      </trkpt>
      <trkpt lat="48.41006800" lon="7.985950110">
        <ele>175.00000</ele>
      </trkpt>
      <trkpt lat="48.41015700" lon="7.985982290">
        <ele>174.00000</ele>
      </trkpt>
      <trkpt lat="48.41074810" lon="7.985875010">
        <ele>170.00000</ele>
      </trkpt>
      <trkpt lat="48.41085140" lon="7.985596060">
        <ele>171.00000</ele>
      </trkpt>
      <trkpt lat="48.41085050" lon="7.985333500">
        <ele>172.00000</ele>
      </trkpt>
      <trkpt lat="48.41073720" lon="7.984892700">
        <ele>175.00000</ele>
      </trkpt>
      <trkpt lat="48.41071570" lon="7.984507800">
        <ele>176.00000</ele>
      </trkpt>
      <trkpt lat="48.41072100" lon="7.984067000">
        <ele>176.00000</ele>
      </trkpt>
      <trkpt lat="48.41076410" lon="7.983363000">
        <ele>177.00000</ele>
      </trkpt>
      <trkpt lat="48.41083960" lon="7.982889200">
        <ele>174.00000</ele>
      </trkpt>
      <trkpt lat="48.41095820" lon="7.982376000">
        <ele>173.00000</ele>
      </trkpt>
      <trkpt lat="48.41115490" lon="7.981829800">
        <ele>172.00000</ele>
      </trkpt>
      <trkpt lat="48.41122880" lon="7.981642480">
        <ele>171.00000</ele>
      </trkpt>
      <trkpt lat="48.41131930" lon="7.981313300">
        <ele>171.00000</ele>
      </trkpt>
      <trkpt lat="48.41141870" lon="7.981004000">
        <ele>171.00000</ele>
      </trkpt>
      <trkpt lat="48.41156690" lon="7.980638900">
        <ele>170.00000</ele>
      </trkpt>
      <trkpt lat="48.41186610" lon="7.980010500">
        <ele>169.00000</ele>
      </trkpt>
      <trkpt lat="48.41205750" lon="7.979615700">
        <ele>169.00000</ele>
      </trkpt>
      <trkpt lat="48.41215460" lon="7.979480620">
        <ele>169.00000</ele>
      </trkpt>
      <trkpt lat="48.41188400" lon="7.978498930">
        <ele>171.00000</ele>
      </trkpt>
      <trkpt lat="48.41173800" lon="7.978482840">
        <ele>171.00000</ele>
      </trkpt>
      <trkpt lat="48.41152920" lon="7.978484000">
        <ele>173.00000</ele>
      </trkpt>
      <trkpt lat="48.41115460" lon="7.978457700">
        <ele>177.00000</ele>
      </trkpt>
      <trkpt lat="48.41108990" lon="7.978461000">
        <ele>178.00000</ele>
      </trkpt>
      <trkpt lat="48.41086620" lon="7.978507100">
        <ele>180.00000</ele>
      </trkpt>
      <trkpt lat="48.41051590" lon="7.978563000">
        <ele>185.00000</ele>
      </trkpt>
      <trkpt lat="48.41039510" lon="7.978579400">
        <ele>187.00000</ele>
      </trkpt>
      <trkpt lat="48.41023890" lon="7.978579400">
        <ele>190.00000</ele>
      </trkpt>
      <trkpt lat="48.40982230" lon="7.978316540">
        <ele>201.00000</ele>
      </trkpt>
      <trkpt lat="48.40960150" lon="7.978177070">
        <ele>211.00000</ele>
      </trkpt>
      <trkpt lat="48.40930900" lon="7.978010300">
        <ele>222.00000</ele>
      </trkpt>
      <trkpt lat="48.40910420" lon="7.977740500">
        <ele>228.00000</ele>
      </trkpt>
      <trkpt lat="48.40905310" lon="7.977367040">
        <ele>225.00000</ele>
      </trkpt>
      <trkpt lat="48.40892140" lon="7.976750130">
        <ele>221.00000</ele>
      </trkpt>
      <trkpt lat="48.40872980" lon="7.976167900">
        <ele>225.00000</ele>
      </trkpt>
      <trkpt lat="48.40857080" lon="7.975786300">
        <ele>228.00000</ele>
      </trkpt>
      <trkpt lat="48.40841450" lon="7.975552700">
        <ele>232.00000</ele>
      </trkpt>
      <trkpt lat="48.40830940" lon="7.975477000">
        <ele>234.00000</ele>
      </trkpt>
      <trkpt lat="48.40821500" lon="7.975509900">
        <ele>238.00000</ele>
      </trkpt>
      <trkpt lat="48.40822050" lon="7.975509900">
        <ele>238.00000</ele>
      </trkpt>
      <trkpt lat="48.40818270" lon="7.975690900">
        <ele>241.00000</ele>
      </trkpt>
      <trkpt lat="48.40816660" lon="7.975898100">
        <ele>244.00000</ele>
      </trkpt>
      <trkpt lat="48.40836870" lon="7.977135100">
        <ele>246.00000</ele>
      </trkpt>
      <trkpt lat="48.40838220" lon="7.977362200">
        <ele>249.00000</ele>
      </trkpt>
      <trkpt lat="48.40841990" lon="7.977671400">
        <ele>250.00000</ele>
      </trkpt>
      <trkpt lat="48.40848460" lon="7.978651800">
        <ele>252.00000</ele>
      </trkpt>
      <trkpt lat="48.40851900" lon="7.979748840">
        <ele>252.00000</ele>
      </trkpt>
      <trkpt lat="48.40851540" lon="7.979925870">
        <ele>251.00000</ele>
      </trkpt>
      <trkpt lat="48.40847270" lon="7.980607150">
        <ele>249.00000</ele>
      </trkpt>
      <trkpt lat="48.40843710" lon="7.980998750">
        <ele>249.00000</ele>
      </trkpt>
      <trkpt lat="48.40836230" lon="7.981138220">
        <ele>251.00000</ele>
      </trkpt>
      <trkpt lat="48.40830180" lon="7.981175780">
        <ele>252.00000</ele>
      </trkpt>
      <trkpt lat="48.40823410" lon="7.981138220">
        <ele>251.00000</ele>
      </trkpt>
      <trkpt lat="48.40808810" lon="7.980848550">
        <ele>252.00000</ele>
      </trkpt>
      <trkpt lat="48.40797290" lon="7.980563200">
        <ele>255.00000</ele>
      </trkpt>
      <trkpt lat="48.40776050" lon="7.980033150">
        <ele>265.00000</ele>
      </trkpt>
      <trkpt lat="48.40740080" lon="7.979201670">
        <ele>276.00000</ele>
      </trkpt>
      <trkpt lat="48.40724770" lon="7.978885170">
        <ele>277.00000</ele>
      </trkpt>
      <trkpt lat="48.40706960" lon="7.978568670">
        <ele>281.00000</ele>
      </trkpt>
      <trkpt lat="48.40678460" lon="7.978296500">
        <ele>289.00000</ele>
      </trkpt>
      <trkpt lat="48.40637520" lon="7.977860560">
        <ele>291.00000</ele>
      </trkpt>
      <trkpt lat="48.40608430" lon="7.977536500">
        <ele>291.00000</ele>
      </trkpt>
      <trkpt lat="48.40592530" lon="7.977332500">
        <ele>293.00000</ele>
      </trkpt>
      <trkpt lat="48.40562620" lon="7.976977200">
        <ele>292.00000</ele>
      </trkpt>
      <trkpt lat="48.40544290" lon="7.976733800">
        <ele>290.00000</ele>
      </trkpt>
      <trkpt lat="48.40519490" lon="7.976283100">
        <ele>287.00000</ele>
      </trkpt>
      <trkpt lat="48.40494700" lon="7.975829000">
        <ele>285.00000</ele>
      </trkpt>
      <trkpt lat="48.40471210" lon="7.975215910">
        <ele>283.00000</ele>
      </trkpt>
      <trkpt lat="48.40447350" lon="7.974561450">
        <ele>279.00000</ele>
      </trkpt>
      <trkpt lat="48.40419270" lon="7.973835400">
        <ele>274.00000</ele>
      </trkpt>
      <trkpt lat="48.40391540" lon="7.972917500">
        <ele>268.00000</ele>
      </trkpt>
      <trkpt lat="48.40383460" lon="7.972598400">
        <ele>267.00000</ele>
      </trkpt>
      <trkpt lat="48.40370790" lon="7.971965070">
        <ele>263.00000</ele>
      </trkpt>
      <trkpt lat="48.40368650" lon="7.971702210">
        <ele>262.00000</ele>
      </trkpt>
      <trkpt lat="48.40374290" lon="7.971259400">
        <ele>260.00000</ele>
      </trkpt>
      <trkpt lat="48.40374020" lon="7.971150900">
        <ele>260.00000</ele>
      </trkpt>
      <trkpt lat="48.40355980" lon="7.970443500">
        <ele>257.00000</ele>
      </trkpt>
      <trkpt lat="48.40338730" lon="7.969811800">
        <ele>258.00000</ele>
      </trkpt>
      <trkpt lat="48.40338730" lon="7.969808600">
        <ele>258.00000</ele>
      </trkpt>
      <trkpt lat="48.40331720" lon="7.969532200">
        <ele>259.00000</ele>
      </trkpt>
      <trkpt lat="48.40321280" lon="7.969250670">
        <ele>257.00000</ele>
      </trkpt>
      <trkpt lat="48.40276410" lon="7.968000760">
        <ele>253.00000</ele>
      </trkpt>
      <trkpt lat="48.40286740" lon="7.967400400">
        <ele>255.00000</ele>
      </trkpt>
      <trkpt lat="48.40292440" lon="7.966745490">
        <ele>259.00000</ele>
      </trkpt>
      <trkpt lat="48.40292930" lon="7.966515300">
        <ele>261.00000</ele>
      </trkpt>
      <trkpt lat="48.40291040" lon="7.966225800">
        <ele>263.00000</ele>
      </trkpt>
      <trkpt lat="48.40286470" lon="7.966015300">
        <ele>265.00000</ele>
      </trkpt>
      <trkpt lat="48.40284250" lon="7.965817450">
        <ele>266.00000</ele>
      </trkpt>
      <trkpt lat="48.40283770" lon="7.965617200">
        <ele>271.00000</ele>
      </trkpt>
      <trkpt lat="48.40281350" lon="7.965554700">
        <ele>272.00000</ele>
      </trkpt>
      <trkpt lat="48.40279730" lon="7.965433000">
        <ele>275.00000</ele>
      </trkpt>
      <trkpt lat="48.40265450" lon="7.965242200">
        <ele>278.00000</ele>
      </trkpt>
      <trkpt lat="48.40229040" lon="7.964894770">
        <ele>278.00000</ele>
      </trkpt>
      <trkpt lat="48.40198060" lon="7.964701650">
        <ele>277.00000</ele>
      </trkpt>
      <trkpt lat="48.40169920" lon="7.964572900">
        <ele>274.00000</ele>
      </trkpt>
      <trkpt lat="48.40144280" lon="7.964465610">
        <ele>273.00000</ele>
      </trkpt>
      <trkpt lat="48.40104040" lon="7.964181300">
        <ele>272.00000</ele>
      </trkpt>
      <trkpt lat="48.40081720" lon="7.964005200">
        <ele>273.00000</ele>
      </trkpt>
      <trkpt lat="48.40067160" lon="7.963913100">
        <ele>277.00000</ele>
      </trkpt>
      <trkpt lat="48.40050730" lon="7.963748500">
        <ele>283.00000</ele>
      </trkpt>
      <trkpt lat="48.40032400" lon="7.963692600">
        <ele>286.00000</ele>
      </trkpt>
      <trkpt lat="48.39984700" lon="7.963893300">
        <ele>282.00000</ele>
      </trkpt>
      <trkpt lat="48.39960450" lon="7.963969000">
        <ele>280.00000</ele>
      </trkpt>
      <trkpt lat="48.39921330" lon="7.963870160">
        <ele>285.00000</ele>
      </trkpt>
      <trkpt lat="48.39873700" lon="7.963807800">
        <ele>287.00000</ele>
      </trkpt>
      <trkpt lat="48.39830150" lon="7.963655590">
        <ele>291.00000</ele>
      </trkpt>
      <trkpt lat="48.39805560" lon="7.963607100">
        <ele>296.00000</ele>
      </trkpt>
      <trkpt lat="48.39791540" lon="7.963689400">
        <ele>297.00000</ele>
      </trkpt>
      <trkpt lat="48.39772140" lon="7.963880100">
        <ele>294.00000</ele>
      </trkpt>
      <trkpt lat="48.39754280" lon="7.964122290">
        <ele>290.00000</ele>
      </trkpt>
      <trkpt lat="48.39743960" lon="7.964100830">
        <ele>292.00000</ele>
      </trkpt>
      <trkpt lat="48.39701800" lon="7.964163100">
        <ele>293.00000</ele>
      </trkpt>
      <trkpt lat="48.39668430" lon="7.964186100">
        <ele>295.00000</ele>
      </trkpt>
      <trkpt lat="48.39643100" lon="7.964159800">
        <ele>294.00000</ele>
      </trkpt>
      <trkpt lat="48.39626120" lon="7.964064400">
        <ele>295.00000</ele>
      </trkpt>
      <trkpt lat="48.39613450" lon="7.963952600">
        <ele>297.00000</ele>
      </trkpt>
      <trkpt lat="48.39597820" lon="7.963742000">
        <ele>301.00000</ele>
      </trkpt>
      <trkpt lat="48.39585420" lon="7.963419600">
        <ele>307.00000</ele>
      </trkpt>
      <trkpt lat="48.39576260" lon="7.963159600">
        <ele>312.00000</ele>
      </trkpt>
      <trkpt lat="48.39566850" lon="7.962998400">
        <ele>315.00000</ele>
      </trkpt>
      <trkpt lat="48.39555000" lon="7.962955700">
        <ele>315.00000</ele>
      </trkpt>
      <trkpt lat="48.39543140" lon="7.963001700">
        <ele>313.00000</ele>
      </trkpt>
      <trkpt lat="48.39526970" lon="7.963169500">
        <ele>309.00000</ele>
      </trkpt>
      <trkpt lat="48.39510520" lon="7.963218900">
        <ele>307.00000</ele>
      </trkpt>
      <trkpt lat="48.39491930" lon="7.963172800">
        <ele>305.00000</ele>
      </trkpt>
      <trkpt lat="48.39483040" lon="7.963090600">
        <ele>304.00000</ele>
      </trkpt>
      <trkpt lat="48.39479270" lon="7.962988600">
        <ele>305.00000</ele>
      </trkpt>
      <trkpt lat="48.39477380" lon="7.962866900">
        <ele>307.00000</ele>
      </trkpt>
      <trkpt lat="48.39478990" lon="7.962745100">
        <ele>310.00000</ele>
      </trkpt>
      <trkpt lat="48.39484110" lon="7.962643100">
        <ele>313.00000</ele>
      </trkpt>
      <trkpt lat="48.39485190" lon="7.962541100">
        <ele>315.00000</ele>
      </trkpt>
      <trkpt lat="48.39486270" lon="7.962389800">
        <ele>318.00000</ele>
      </trkpt>
      <trkpt lat="48.39486270" lon="7.962386600">
        <ele>318.00000</ele>
      </trkpt>
      <trkpt lat="48.39487080" lon="7.962274700">
        <ele>320.00000</ele>
      </trkpt>
      <trkpt lat="48.39491120" lon="7.962310900">
        <ele>321.00000</ele>
      </trkpt>
      <trkpt lat="48.39501630" lon="7.962379900">
        <ele>322.00000</ele>
      </trkpt>
      <trkpt lat="48.39510300" lon="7.962384220">
        <ele>323.00000</ele>
      </trkpt>
      <trkpt lat="48.39525260" lon="7.962314480">
        <ele>326.00000</ele>
      </trkpt>
      <trkpt lat="48.39547700" lon="7.962223290">
        <ele>330.00000</ele>
      </trkpt>
      <trkpt lat="48.39570490" lon="7.962110630">
        <ele>335.00000</ele>
      </trkpt>
      <trkpt lat="48.39586520" lon="7.962073080">
        <ele>338.00000</ele>
      </trkpt>
      <trkpt lat="48.39598650" lon="7.962153000">
        <ele>338.00000</ele>
      </trkpt>
      <trkpt lat="48.39623450" lon="7.962422700">
        <ele>336.00000</ele>
      </trkpt>
      <trkpt lat="48.39645520" lon="7.962692500">
        <ele>336.00000</ele>
      </trkpt>
      <trkpt lat="48.39653880" lon="7.962755000">
        <ele>336.00000</ele>
      </trkpt>
      <trkpt lat="48.39661150" lon="7.962791200">
        <ele>337.00000</ele>
      </trkpt>
      <trkpt lat="48.39672740" lon="7.962791200">
        <ele>337.00000</ele>
      </trkpt>
      <trkpt lat="48.39682440" lon="7.962745100">
        <ele>336.00000</ele>
      </trkpt>
      <trkpt lat="48.39682710" lon="7.962745100">
        <ele>336.00000</ele>
      </trkpt>
      <trkpt lat="48.39688910" lon="7.962672700">
        <ele>336.00000</ele>
      </trkpt>
      <trkpt lat="48.39694570" lon="7.962560900">
        <ele>337.00000</ele>
      </trkpt>
      <trkpt lat="48.39699420" lon="7.962268100">
        <ele>340.00000</ele>
      </trkpt>
      <trkpt lat="48.39703460" lon="7.961583800">
        <ele>349.00000</ele>
      </trkpt>
      <trkpt lat="48.39708850" lon="7.961212000">
        <ele>348.00000</ele>
      </trkpt>
      <trkpt lat="48.39714240" lon="7.961031100">
        <ele>348.00000</ele>
      </trkpt>
      <trkpt lat="48.39713970" lon="7.961031100">
        <ele>348.00000</ele>
      </trkpt>
      <trkpt lat="48.39725550" lon="7.960925900">
        <ele>347.00000</ele>
      </trkpt>
      <trkpt lat="48.39743610" lon="7.960873200">
        <ele>345.00000</ele>
      </trkpt>
      <trkpt lat="48.39759200" lon="7.960764600">
        <ele>346.00000</ele>
      </trkpt>
      <trkpt lat="48.39783990" lon="7.960310600">
        <ele>349.00000</ele>
      </trkpt>
      <trkpt lat="48.39800700" lon="7.959958600">
        <ele>352.00000</ele>
      </trkpt>
      <trkpt lat="48.39814180" lon="7.959744800">
        <ele>352.00000</ele>
      </trkpt>
      <trkpt lat="48.39822530" lon="7.959721700">
        <ele>353.00000</ele>
      </trkpt>
      <trkpt lat="48.39834070" lon="7.959707370">
        <ele>354.00000</ele>
      </trkpt>
      <trkpt lat="48.39859710" lon="7.959814660">
        <ele>357.00000</ele>
      </trkpt>
      <trkpt lat="48.39874310" lon="7.960007780">
        <ele>360.00000</ele>
      </trkpt>
      <trkpt lat="48.39893190" lon="7.960222360">
        <ele>361.00000</ele>
      </trkpt>
      <trkpt lat="48.39913850" lon="7.960308190">
        <ele>363.00000</ele>
      </trkpt>
      <trkpt lat="48.39943770" lon="7.960277700">
        <ele>366.00000</ele>
      </trkpt>
      <trkpt lat="48.39969100" lon="7.960238200">
        <ele>369.00000</ele>
      </trkpt>
      <trkpt lat="48.39992270" lon="7.960248100">
        <ele>372.00000</ele>
      </trkpt>
      <trkpt lat="48.40002780" lon="7.960287600">
        <ele>372.00000</ele>
      </trkpt>
      <trkpt lat="48.40009790" lon="7.960340200">
        <ele>372.00000</ele>
      </trkpt>
      <trkpt lat="48.40035890" lon="7.960373200">
        <ele>372.00000</ele>
      </trkpt>
      <trkpt lat="48.40084140" lon="7.960323800">
        <ele>374.00000</ele>
      </trkpt>
      <trkpt lat="48.40117820" lon="7.960396100">
        <ele>374.00000</ele>
      </trkpt>
      <trkpt lat="48.40170380" lon="7.960623200">
        <ele>377.00000</ele>
      </trkpt>
      <trkpt lat="48.40205360" lon="7.960800800">
        <ele>381.00000</ele>
      </trkpt>
      <trkpt lat="48.40242820" lon="7.960948800">
        <ele>383.00000</ele>
      </trkpt>
      <trkpt lat="48.40275340" lon="7.961118220">
        <ele>385.00000</ele>
      </trkpt>
      <trkpt lat="48.40318790" lon="7.961300610">
        <ele>388.00000</ele>
      </trkpt>
      <trkpt lat="48.40345140" lon="7.961343520">
        <ele>391.00000</ele>
      </trkpt>
      <trkpt lat="48.40370070" lon="7.961364980">
        <ele>393.00000</ele>
      </trkpt>
      <trkpt lat="48.40410670" lon="7.960962650">
        <ele>400.00000</ele>
      </trkpt>
      <trkpt lat="48.40446290" lon="7.960619330">
        <ele>404.00000</ele>
      </trkpt>
      <trkpt lat="48.40487600" lon="7.960281370">
        <ele>410.00000</ele>
      </trkpt>
      <trkpt lat="48.40502200" lon="7.960125800">
        <ele>412.00000</ele>
      </trkpt>
      <trkpt lat="48.40516090" lon="7.959857580">
        <ele>411.00000</ele>
      </trkpt>
      <trkpt lat="48.40527840" lon="7.959347960">
        <ele>405.00000</ele>
      </trkpt>
      <trkpt lat="48.40539230" lon="7.959090470">
        <ele>403.00000</ele>
      </trkpt>
      <trkpt lat="48.40553830" lon="7.958897350">
        <ele>404.00000</ele>
      </trkpt>
      <trkpt lat="48.40575560" lon="7.958629130">
        <ele>405.00000</ele>
      </trkpt>
      <trkpt lat="48.40596210" lon="7.958495020">
        <ele>402.00000</ele>
      </trkpt>
      <trkpt lat="48.40626130" lon="7.958548660">
        <ele>397.00000</ele>
      </trkpt>
      <trkpt lat="48.40651050" lon="7.958741780">
        <ele>395.00000</ele>
      </trkpt>
      <trkpt lat="48.40693430" lon="7.959240670">
        <ele>391.00000</ele>
      </trkpt>
      <trkpt lat="48.40710010" lon="7.959392700">
        <ele>388.00000</ele>
      </trkpt>
      <trkpt lat="48.40747560" lon="7.959691280">
        <ele>378.00000</ele>
      </trkpt>
      <trkpt lat="48.40756320" lon="7.959846800">
        <ele>377.00000</ele>
      </trkpt>
      <trkpt lat="48.40760360" lon="7.960027700">
        <ele>377.00000</ele>
      </trkpt>
      <trkpt lat="48.40756590" lon="7.960172400">
        <ele>377.00000</ele>
      </trkpt>
      <trkpt lat="48.40756320" lon="7.960172400">
        <ele>377.00000</ele>
      </trkpt>
      <trkpt lat="48.40743290" lon="7.960377930">
        <ele>380.00000</ele>
      </trkpt>
      <trkpt lat="48.40721290" lon="7.960679100">
        <ele>386.00000</ele>
      </trkpt>
      <trkpt lat="48.40721560" lon="7.960679100">
        <ele>386.00000</ele>
      </trkpt>
      <trkpt lat="48.40707540" lon="7.961014600">
        <ele>388.00000</ele>
      </trkpt>
      <trkpt lat="48.40698410" lon="7.961291000">
        <ele>387.00000</ele>
      </trkpt>
      <trkpt lat="48.40689790" lon="7.961975300">
        <ele>384.00000</ele>
      </trkpt>
      <trkpt lat="48.40687900" lon="7.962228700">
        <ele>384.00000</ele>
      </trkpt>
      <trkpt lat="48.40688440" lon="7.962636600">
        <ele>382.00000</ele>
      </trkpt>
      <trkpt lat="48.40694080" lon="7.962965600">
        <ele>378.00000</ele>
      </trkpt>
      <trkpt lat="48.40700010" lon="7.963146500">
        <ele>375.00000</ele>
      </trkpt>
      <trkpt lat="48.40707560" lon="7.963297900">
        <ele>373.00000</ele>
      </trkpt>
      <trkpt lat="48.40725080" lon="7.963554400">
        <ele>370.00000</ele>
      </trkpt>
      <trkpt lat="48.40749070" lon="7.963722200">
        <ele>368.00000</ele>
      </trkpt>
      <trkpt lat="48.40773590" lon="7.963929500">
        <ele>366.00000</ele>
      </trkpt>
      <trkpt lat="48.40796230" lon="7.964150000">
        <ele>366.00000</ele>
      </trkpt>
      <trkpt lat="48.40811590" lon="7.964432800">
        <ele>363.00000</ele>
      </trkpt>
      <trkpt lat="48.40812400" lon="7.964498600">
        <ele>363.00000</ele>
      </trkpt>
      <trkpt lat="48.40818000" lon="7.964525000">
        <ele>362.00000</ele>
      </trkpt>
      <trkpt lat="48.40837300" lon="7.964658730">
        <ele>360.00000</ele>
      </trkpt>
      <trkpt lat="48.40851190" lon="7.964723110">
        <ele>359.00000</ele>
      </trkpt>
      <trkpt lat="48.40866140" lon="7.964819660">
        <ele>357.00000</ele>
      </trkpt>
      <trkpt lat="48.40912430" lon="7.965061060">
        <ele>354.00000</ele>
      </trkpt>
      <trkpt lat="48.40953740" lon="7.965189810">
        <ele>355.00000</ele>
      </trkpt>
      <trkpt lat="48.41000740" lon="7.965425840">
        <ele>354.00000</ele>
      </trkpt>
      <trkpt lat="48.41037060" lon="7.965538500">
        <ele>355.00000</ele>
      </trkpt>
      <trkpt lat="48.41054870" lon="7.965618960">
        <ele>356.00000</ele>
      </trkpt>
      <trkpt lat="48.41073030" lon="7.965586780">
        <ele>357.00000</ele>
      </trkpt>
      <trkpt lat="48.41088700" lon="7.965608230">
        <ele>359.00000</ele>
      </trkpt>
      <trkpt lat="48.41134880" lon="7.965775100">
        <ele>368.00000</ele>
      </trkpt>
      <trkpt lat="48.41155280" lon="7.965973010">
        <ele>372.00000</ele>
      </trkpt>
      <trkpt lat="48.41177360" lon="7.966015930">
        <ele>377.00000</ele>
      </trkpt>
      <trkpt lat="48.41207630" lon="7.966252100">
        <ele>384.00000</ele>
      </trkpt>
      <trkpt lat="48.41223650" lon="7.966407530">
        <ele>387.00000</ele>
      </trkpt>
      <trkpt lat="48.41258550" lon="7.966530910">
        <ele>395.00000</ele>
      </trkpt>
      <trkpt lat="48.41293440" lon="7.966471910">
        <ele>399.00000</ele>
      </trkpt>
      <trkpt lat="48.41320860" lon="7.966412900">
        <ele>403.00000</ele>
      </trkpt>
      <trkpt lat="48.41357890" lon="7.966246600">
        <ele>404.00000</ele>
      </trkpt>
      <trkpt lat="48.41393490" lon="7.966235870">
        <ele>402.00000</ele>
      </trkpt>
      <trkpt lat="48.41434080" lon="7.966455810">
        <ele>396.00000</ele>
      </trkpt>
      <trkpt lat="48.41507470" lon="7.967008900">
        <ele>389.00000</ele>
      </trkpt>
      <trkpt lat="48.41529030" lon="7.967156900">
        <ele>388.00000</ele>
      </trkpt>
      <trkpt lat="48.41536570" lon="7.967189800">
        <ele>388.00000</ele>
      </trkpt>
      <trkpt lat="48.41559210" lon="7.967212800">
        <ele>388.00000</ele>
      </trkpt>
      <trkpt lat="48.41592630" lon="7.967091100">
        <ele>386.00000</ele>
      </trkpt>
      <trkpt lat="48.41618450" lon="7.966844300">
        <ele>382.00000</ele>
      </trkpt>
      <trkpt lat="48.41647020" lon="7.966577900">
        <ele>380.00000</ele>
      </trkpt>
      <trkpt lat="48.41688260" lon="7.966160000">
        <ele>374.00000</ele>
      </trkpt>
      <trkpt lat="48.41693100" lon="7.966298200">
        <ele>374.00000</ele>
      </trkpt>
      <trkpt lat="48.41691760" lon="7.966502200">
        <ele>375.00000</ele>
      </trkpt>
      <trkpt lat="48.41659950" lon="7.967041700">
        <ele>378.00000</ele>
      </trkpt>
      <trkpt lat="48.41650790" lon="7.967423300">
        <ele>378.00000</ele>
      </trkpt>
      <trkpt lat="48.41658070" lon="7.967992600">
        <ele>371.00000</ele>
      </trkpt>
      <trkpt lat="48.41672630" lon="7.968482700">
        <ele>362.00000</ele>
      </trkpt>
      <trkpt lat="48.41687710" lon="7.968847900">
        <ele>354.00000</ele>
      </trkpt>
      <trkpt lat="48.41696870" lon="7.969305200">
        <ele>350.00000</ele>
      </trkpt>
      <trkpt lat="48.41709550" lon="7.970124400">
        <ele>346.00000</ele>
      </trkpt>
      <trkpt lat="48.41718430" lon="7.970729700">
        <ele>343.00000</ele>
      </trkpt>
      <trkpt lat="48.41732450" lon="7.971229800">
        <ele>341.00000</ele>
      </trkpt>
      <trkpt lat="48.41754810" lon="7.971608100">
        <ele>339.00000</ele>
      </trkpt>
      <trkpt lat="48.41769090" lon="7.971775900">
        <ele>336.00000</ele>
      </trkpt>
      <trkpt lat="48.41776380" lon="7.971887800">
        <ele>335.00000</ele>
      </trkpt>
      <trkpt lat="48.41784720" lon="7.972042400">
        <ele>334.00000</ele>
      </trkpt>
      <trkpt lat="48.41784990" lon="7.972042400">
        <ele>334.00000</ele>
      </trkpt>
      <trkpt lat="48.41790930" lon="7.972088500">
        <ele>333.00000</ele>
      </trkpt>
      <trkpt lat="48.41806520" lon="7.972460200">
        <ele>332.00000</ele>
      </trkpt>
      <trkpt lat="48.41815140" lon="7.972963500">
        <ele>335.00000</ele>
      </trkpt>
      <trkpt lat="48.41825120" lon="7.973483400">
        <ele>338.00000</ele>
      </trkpt>
      <trkpt lat="48.41839130" lon="7.974246600">
        <ele>342.00000</ele>
      </trkpt>
      <trkpt lat="48.41842640" lon="7.974414400">
        <ele>341.00000</ele>
      </trkpt>
      <trkpt lat="48.41842640" lon="7.974417700">
        <ele>341.00000</ele>
      </trkpt>
      <trkpt lat="48.41841820" lon="7.974598700">
        <ele>341.00000</ele>
      </trkpt>
      <trkpt lat="48.41832940" lon="7.974868400">
        <ele>344.00000</ele>
      </trkpt>
      <trkpt lat="48.41832670" lon="7.974868400">
        <ele>344.00000</ele>
      </trkpt>
      <trkpt lat="48.41773640" lon="7.975733700">
        <ele>344.00000</ele>
      </trkpt>
      <trkpt lat="48.41765830" lon="7.976023200">
        <ele>343.00000</ele>
      </trkpt>
      <trkpt lat="48.41760710" lon="7.976181100">
        <ele>342.00000</ele>
      </trkpt>
      <trkpt lat="48.41755320" lon="7.976200800">
        <ele>343.00000</ele>
      </trkpt>
      <trkpt lat="48.41749660" lon="7.976177800">
        <ele>344.00000</ele>
      </trkpt>
      <trkpt lat="48.41731060" lon="7.975806000">
        <ele>343.00000</ele>
      </trkpt>
      <trkpt lat="48.41712240" lon="7.975434300">
        <ele>341.00000</ele>
      </trkpt>
      <trkpt lat="48.41691220" lon="7.974947400">
        <ele>340.00000</ele>
      </trkpt>
      <trkpt lat="48.41681240" lon="7.974625000">
        <ele>339.00000</ele>
      </trkpt>
      <trkpt lat="48.41679890" lon="7.974453900">
        <ele>340.00000</ele>
      </trkpt>
      <trkpt lat="48.41674230" lon="7.974296000">
        <ele>339.00000</ele>
      </trkpt>
      <trkpt lat="48.41654830" lon="7.973779400">
        <ele>331.00000</ele>
      </trkpt>
      <trkpt lat="48.41655380" lon="7.973516200">
        <ele>331.00000</ele>
      </trkpt>
      <trkpt lat="48.41657800" lon="7.973138000">
        <ele>334.00000</ele>
      </trkpt>
      <trkpt lat="48.41657800" lon="7.973029300">
        <ele>335.00000</ele>
      </trkpt>
      <trkpt lat="48.41654290" lon="7.972950400">
        <ele>334.00000</ele>
      </trkpt>
      <trkpt lat="48.41648640" lon="7.972828700">
        <ele>333.00000</ele>
      </trkpt>
      <trkpt lat="48.41595560" lon="7.971970000">
        <ele>329.00000</ele>
      </trkpt>
      <trkpt lat="48.41588290" lon="7.971904200">
        <ele>329.00000</ele>
      </trkpt>
      <trkpt lat="48.41567000" lon="7.971713400">
        <ele>327.00000</ele>
      </trkpt>
      <trkpt lat="48.41567000" lon="7.971716700">
        <ele>327.00000</ele>
      </trkpt>
      <trkpt lat="48.41580740" lon="7.972019400">
        <ele>323.00000</ele>
      </trkpt>
      <trkpt lat="48.41594210" lon="7.972555600">
        <ele>315.00000</ele>
      </trkpt>
      <trkpt lat="48.41603920" lon="7.972917500">
        <ele>312.00000</ele>
      </trkpt>
      <trkpt lat="48.41606340" lon="7.973318800">
        <ele>306.00000</ele>
      </trkpt>
      <trkpt lat="48.41601490" lon="7.973618200">
        <ele>304.00000</ele>
      </trkpt>
      <trkpt lat="48.41600420" lon="7.973842000">
        <ele>305.00000</ele>
      </trkpt>
      <trkpt lat="48.41602300" lon="7.974203900">
        <ele>307.00000</ele>
      </trkpt>
      <trkpt lat="48.41608500" lon="7.974986800">
        <ele>307.00000</ele>
      </trkpt>
      <trkpt lat="48.41614160" lon="7.975299400">
        <ele>306.00000</ele>
      </trkpt>
      <trkpt lat="48.41619280" lon="7.975414600">
        <ele>307.00000</ele>
      </trkpt>
      <trkpt lat="48.41642460" lon="7.975894800">
        <ele>312.00000</ele>
      </trkpt>
      <trkpt lat="48.41669140" lon="7.976365300">
        <ele>315.00000</ele>
      </trkpt>
      <trkpt lat="48.41682340" lon="7.976845600">
        <ele>312.00000</ele>
      </trkpt>
      <trkpt lat="48.41705750" lon="7.977414800">
        <ele>313.00000</ele>
      </trkpt>
      <trkpt lat="48.41734050" lon="7.977898400">
        <ele>310.00000</ele>
      </trkpt>
      <trkpt lat="48.41741870" lon="7.978023400">
        <ele>309.00000</ele>
      </trkpt>
      <trkpt lat="48.41770700" lon="7.978378700">
        <ele>301.00000</ele>
      </trkpt>
      <trkpt lat="48.41792810" lon="7.978536700">
        <ele>296.00000</ele>
      </trkpt>
      <trkpt lat="48.41805470" lon="7.978484000">
        <ele>298.00000</ele>
      </trkpt>
      <trkpt lat="48.41808970" lon="7.978224100">
        <ele>305.00000</ele>
      </trkpt>
      <trkpt lat="48.41808970" lon="7.978220800">
        <ele>305.00000</ele>
      </trkpt>
      <trkpt lat="48.41820830" lon="7.977398300">
        <ele>315.00000</ele>
      </trkpt>
      <trkpt lat="48.41831850" lon="7.976760100">
        <ele>320.00000</ele>
      </trkpt>
      <trkpt lat="48.41842360" lon="7.976263300">
        <ele>322.00000</ele>
      </trkpt>
      <trkpt lat="48.41862570" lon="7.975806000">
        <ele>319.00000</ele>
      </trkpt>
      <trkpt lat="48.41887630" lon="7.975562600">
        <ele>313.00000</ele>
      </trkpt>
      <trkpt lat="48.41902990" lon="7.975477000">
        <ele>308.00000</ele>
      </trkpt>
      <trkpt lat="48.41921860" lon="7.975355300">
        <ele>305.00000</ele>
      </trkpt>
      <trkpt lat="48.41969510" lon="7.975108500">
        <ele>304.00000</ele>
      </trkpt>
      <trkpt lat="48.42005090" lon="7.974884800">
        <ele>302.00000</ele>
      </trkpt>
      <trkpt lat="48.42031770" lon="7.974592000">
        <ele>300.00000</ele>
      </trkpt>
      <trkpt lat="48.42068700" lon="7.973920900">
        <ele>297.00000</ele>
      </trkpt>
      <trkpt lat="48.42082930" lon="7.973697200">
        <ele>294.00000</ele>
      </trkpt>
      <trkpt lat="48.42104490" lon="7.973384600">
        <ele>290.00000</ele>
      </trkpt>
      <trkpt lat="48.42131440" lon="7.973101700">
        <ele>283.00000</ele>
      </trkpt>
      <trkpt lat="48.42156240" lon="7.972868100">
        <ele>278.00000</ele>
      </trkpt>
      <trkpt lat="48.42167830" lon="7.972799100">
        <ele>277.00000</ele>
      </trkpt>
      <trkpt lat="48.42189920" lon="7.972835300">
        <ele>273.00000</ele>
      </trkpt>
      <trkpt lat="48.42195850" lon="7.973012900">
        <ele>274.00000</ele>
      </trkpt>
      <trkpt lat="48.42193960" lon="7.973364900">
        <ele>277.00000</ele>
      </trkpt>
      <trkpt lat="48.42187230" lon="7.973618200">
        <ele>277.00000</ele>
      </trkpt>
      <trkpt lat="48.42173560" lon="7.974250310">
        <ele>276.00000</ele>
      </trkpt>
      <trkpt lat="48.42163240" lon="7.975006690">
        <ele>264.00000</ele>
      </trkpt>
      <trkpt lat="48.42142590" lon="7.975596780">
        <ele>260.00000</ele>
      </trkpt>
      <trkpt lat="48.42132260" lon="7.975875730">
        <ele>257.00000</ele>
      </trkpt>
      <trkpt lat="48.42129820" lon="7.976394900">
        <ele>249.00000</ele>
      </trkpt>
      <trkpt lat="48.42123090" lon="7.976714000">
        <ele>244.00000</ele>
      </trkpt>
      <trkpt lat="48.42117700" lon="7.976799600">
        <ele>242.00000</ele>
      </trkpt>
      <trkpt lat="48.42067300" lon="7.976954200">
        <ele>246.00000</ele>
      </trkpt>
      <trkpt lat="48.42034190" lon="7.977102300">
        <ele>241.00000</ele>
      </trkpt>
      <trkpt lat="48.42014250" lon="7.977115400">
        <ele>241.00000</ele>
      </trkpt>
      <trkpt lat="48.41995650" lon="7.977332500">
        <ele>238.00000</ele>
      </trkpt>
      <trkpt lat="48.41995920" lon="7.977332500">
        <ele>238.00000</ele>
      </trkpt>
      <trkpt lat="48.41993220" lon="7.977421400">
        <ele>237.00000</ele>
      </trkpt>
      <trkpt lat="48.41988100" lon="7.977668100">
        <ele>236.00000</ele>
      </trkpt>
      <trkpt lat="48.41992690" lon="7.978016800">
        <ele>230.00000</ele>
      </trkpt>
      <trkpt lat="48.42001580" lon="7.978385300">
        <ele>223.00000</ele>
      </trkpt>
      <trkpt lat="48.42005350" lon="7.978618900">
        <ele>218.00000</ele>
      </trkpt>
      <trkpt lat="48.42007510" lon="7.978898500">
        <ele>213.00000</ele>
      </trkpt>
      <trkpt lat="48.41999700" lon="7.979385400">
        <ele>208.00000</ele>
      </trkpt>
      <trkpt lat="48.41997000" lon="7.979602600">
        <ele>204.00000</ele>
      </trkpt>
      <trkpt lat="48.41986490" lon="7.980020400">
        <ele>200.00000</ele>
      </trkpt>
      <trkpt lat="48.41981910" lon="7.980204700">
        <ele>197.00000</ele>
      </trkpt>
      <trkpt lat="48.41958190" lon="7.980770500">
        <ele>189.00000</ele>
      </trkpt>
      <trkpt lat="48.41953190" lon="7.981170410">
        <ele>180.00000</ele>
      </trkpt>
      <trkpt lat="48.41961020" lon="7.981384990">
        <ele>174.00000</ele>
      </trkpt>
      <trkpt lat="48.41943400" lon="7.981635700">
        <ele>170.00000</ele>
      </trkpt>
      <trkpt lat="48.41889820" lon="7.982377400">
        <ele>161.00000</ele>
      </trkpt>
      <trkpt lat="48.41872260" lon="7.982234500">
        <ele>164.00000</ele>
      </trkpt>
      <trkpt lat="48.41848520" lon="7.982125280">
        <ele>165.00000</ele>
      </trkpt>
      <trkpt lat="48.41830210" lon="7.982040400">
        <ele>166.00000</ele>
      </trkpt>
      <trkpt lat="48.41829940" lon="7.982040400">
        <ele>166.00000</ele>
      </trkpt>
      <trkpt lat="48.41807570" lon="7.981953620">
        <ele>167.00000</ele>
      </trkpt>
      <trkpt lat="48.41784080" lon="7.982216470">
        <ele>166.00000</ele>
      </trkpt>
      <trkpt lat="48.41766630" lon="7.982436410">
        <ele>167.00000</ele>
      </trkpt>
      <trkpt lat="48.41751300" lon="7.982468100">
        <ele>168.00000</ele>
      </trkpt>
      <trkpt lat="48.41733500" lon="7.982537200">
        <ele>166.00000</ele>
      </trkpt>
      <trkpt lat="48.41725690" lon="7.982533900">
        <ele>166.00000</ele>
      </trkpt>
      <trkpt lat="48.41725690" lon="7.982530500">
        <ele>166.00000</ele>
      </trkpt>
      <trkpt lat="48.41717600" lon="7.982484500">
        <ele>165.00000</ele>
      </trkpt>
      <trkpt lat="48.41717600" lon="7.982481300">
        <ele>165.00000</ele>
      </trkpt>
      <trkpt lat="48.41660740" lon="7.982043600">
        <ele>158.00000</ele>
      </trkpt>
      <trkpt lat="48.41575080" lon="7.981454730">
        <ele>163.00000</ele>
      </trkpt>
      <trkpt lat="48.41532230" lon="7.982053500">
        <ele>165.00000</ele>
      </trkpt>
      <trkpt lat="48.41487540" lon="7.982622700">
        <ele>165.00000</ele>
      </trkpt>
      <trkpt lat="48.41467910" lon="7.982854840">
        <ele>165.00000</ele>
      </trkpt>
      <trkpt lat="48.41436060" lon="7.983326700">
        <ele>163.00000</ele>
      </trkpt>
      <trkpt lat="48.41417240" lon="7.983580000">
        <ele>163.00000</ele>
      </trkpt>
      <trkpt lat="48.41408610" lon="7.983662300">
        <ele>163.00000</ele>
      </trkpt>
      <trkpt lat="48.41371420" lon="7.983503930">
        <ele>162.00000</ele>
      </trkpt>
      <trkpt lat="48.41358600" lon="7.983450290">
        <ele>162.00000</ele>
      </trkpt>
      <trkpt lat="48.41347210" lon="7.983380550">
        <ele>161.00000</ele>
      </trkpt>
      <trkpt lat="48.41337240" lon="7.983230350">
        <ele>161.00000</ele>
      </trkpt>
      <trkpt lat="48.41258770" lon="7.981566600">
        <ele>165.00000</ele>
      </trkpt>
      <trkpt lat="48.41245730" lon="7.982355950">
        <ele>163.00000</ele>
      </trkpt>
      <trkpt lat="48.41238250" lon="7.982967490">
        <ele>163.00000</ele>
      </trkpt>
      <trkpt lat="48.41237240" lon="7.983277400">
        <ele>162.00000</ele>
      </trkpt>
      <trkpt lat="48.41245370" lon="7.983638040">
        <ele>163.00000</ele>
      </trkpt>
      <trkpt lat="48.41252140" lon="7.983965270">
        <ele>163.00000</ele>
      </trkpt>
      <trkpt lat="48.41255340" lon="7.984260320">
        <ele>164.00000</ele>
      </trkpt>
      <trkpt lat="48.41247210" lon="7.984646000">
        <ele>164.00000</ele>
      </trkpt>
      <trkpt lat="48.41230420" lon="7.985386840">
        <ele>164.00000</ele>
      </trkpt>
      <trkpt lat="48.41216480" lon="7.985994900">
        <ele>164.00000</ele>
      </trkpt>
      <trkpt lat="48.41210120" lon="7.986491910">
        <ele>164.00000</ele>
      </trkpt>
      <trkpt lat="48.41211190" lon="7.986797690">
        <ele>164.00000</ele>
      </trkpt>
      <trkpt lat="48.41210830" lon="7.987124910">
        <ele>164.00000</ele>
      </trkpt>
      <trkpt lat="48.41203000" lon="7.987398500">
        <ele>164.00000</ele>
      </trkpt>
      <trkpt lat="48.41202290" lon="7.987537980">
        <ele>164.00000</ele>
      </trkpt>
      <trkpt lat="48.41194400" lon="7.987699000">
        <ele>164.00000</ele>
      </trkpt>
      <trkpt lat="48.41147240" lon="7.988136500">
        <ele>164.00000</ele>
      </trkpt>
      <trkpt lat="48.41105080" lon="7.988466020">
        <ele>166.00000</ele>
      </trkpt>
      <trkpt lat="48.41078830" lon="7.988613600">
        <ele>167.00000</ele>
      </trkpt>
      <trkpt lat="48.41038950" lon="7.988912900">
        <ele>169.00000</ele>
      </trkpt>
      <trkpt lat="48.41008220" lon="7.989093900">
        <ele>170.00000</ele>
      </trkpt>
      <trkpt lat="48.40998520" lon="7.989143300">
        <ele>170.00000</ele>
      </trkpt>
      <trkpt lat="48.40983200" lon="7.989159700">
        <ele>169.00000</ele>
      </trkpt>
      <trkpt lat="48.40956790" lon="7.989015000">
        <ele>168.00000</ele>
      </trkpt>
      <trkpt lat="48.40901000" lon="7.988600500">
        <ele>167.00000</ele>
      </trkpt>
      <trkpt lat="48.40878930" lon="7.988396500">
        <ele>168.00000</ele>
      </trkpt>
      <trkpt lat="48.40846050" lon="7.988080600">
        <ele>170.00000</ele>
      </trkpt>
      <trkpt lat="48.40819370" lon="7.987833900">
        <ele>171.00000</ele>
      </trkpt>
      <trkpt lat="48.40813980" lon="7.987774700">
        <ele>171.00000</ele>
      </trkpt>
      <trkpt lat="48.40805630" lon="7.987672700">
        <ele>171.00000</ele>
      </trkpt>
      <trkpt lat="48.40793230" lon="7.987554200">
        <ele>171.00000</ele>
      </trkpt>
      <trkpt lat="48.40772490" lon="7.987412800">
        <ele>171.00000</ele>
      </trkpt>
      <trkpt lat="48.40751740" lon="7.987294300">
        <ele>171.00000</ele>
      </trkpt>
      <trkpt lat="48.40738000" lon="7.987208800">
        <ele>172.00000</ele>
      </trkpt>
      <trkpt lat="48.40729640" lon="7.987192400">
        <ele>172.00000</ele>
      </trkpt>
      <trkpt lat="48.40725870" lon="7.987228500">
        <ele>172.00000</ele>
      </trkpt>
      <trkpt lat="48.40721560" lon="7.987327300">
        <ele>172.00000</ele>
      </trkpt>
      <trkpt lat="48.40711860" lon="7.987656200">
        <ele>172.00000</ele>
      </trkpt>
      <trkpt lat="48.40723440" lon="7.987722000">
        <ele>172.00000</ele>
      </trkpt>
    </trkseg>
  </trk>
</gpx>
