<?xml version='1.0' encoding='UTF-8'?>
<gpx version="1.1" creator="https://www.komoot.de" xmlns="http://www.topografix.com/GPX/1/1" xmlns:xsi="http://www.w3.org/2001/XMLSchema-instance" xsi:schemaLocation="http://www.topografix.com/GPX/1/1 http://www.topografix.com/GPX/1/1/gpx.xsd">
  <metadata>
    <name>Fuhrmannstadt Mengen 6 km Strecke</name>
    <author>
      <link href="https://www.komoot.de">
        <text>komoot</text>
        <type>text/html</type>
      </link>
    </author>
  </metadata>
  <trk>
    <name>Fuhrmannstadt Mengen 6 km Strecke</name>
    <trkseg>
      <trkpt lat="48.051128" lon="9.332759">
        <ele>560.586016</ele>
        <time>2022-10-05T14:29:07.879Z</time>
      </trkpt>
      <trkpt lat="48.051395" lon="9.333041">
        <ele>560.586016</ele>
        <time>2022-10-05T14:29:40.710Z</time>
      </trkpt>
      <trkpt lat="48.051463" lon="9.332983">
        <ele>560.586016</ele>
        <time>2022-10-05T14:29:48.652Z</time>
      </trkpt>
      <trkpt lat="48.051526" lon="9.333029">
        <ele>560.586016</ele>
        <time>2022-10-05T14:29:55.655Z</time>
      </trkpt>
      <trkpt lat="48.051518" lon="9.333185">
        <ele>560.586016</ele>
        <time>2022-10-05T14:30:06.198Z</time>
      </trkpt>
      <trkpt lat="48.052119" lon="9.334446">
        <ele>560.389615</ele>
        <time>2022-10-05T14:31:50.116Z</time>
      </trkpt>
      <trkpt lat="48.052249" lon="9.334704">
        <ele>560.330351</ele>
        <time>2022-10-05T14:32:11.927Z</time>
      </trkpt>
      <trkpt lat="48.052328" lon="9.334848">
        <ele>560.296180</ele>
        <time>2022-10-05T14:32:24.473Z</time>
      </trkpt>
      <trkpt lat="48.052644" lon="9.335460">
        <ele>560.154332</ele>
        <time>2022-10-05T14:33:16.607Z</time>
      </trkpt>
      <trkpt lat="48.052726" lon="9.335617">
        <ele>560.117785</ele>
        <time>2022-10-05T14:33:30.003Z</time>
      </trkpt>
      <trkpt lat="48.052775" lon="9.335535">
        <ele>560.097610</ele>
        <time>2022-10-05T14:33:37.433Z</time>
      </trkpt>
      <trkpt lat="48.052907" lon="9.335732">
        <ele>560.014243</ele>
        <time>2022-10-05T14:33:56.241Z</time>
      </trkpt>
      <trkpt lat="48.053028" lon="9.335773">
        <ele>559.956369</ele>
        <time>2022-10-05T14:34:08.777Z</time>
      </trkpt>
      <trkpt lat="48.053084" lon="9.335728">
        <ele>559.926717</ele>
        <time>2022-10-05T14:34:15.162Z</time>
      </trkpt>
      <trkpt lat="48.053152" lon="9.335787">
        <ele>559.890047</ele>
        <time>2022-10-05T14:34:23.183Z</time>
      </trkpt>
      <trkpt lat="48.053230" lon="9.335863">
        <ele>559.846625</ele>
        <time>2022-10-05T14:34:32.552Z</time>
      </trkpt>
      <trkpt lat="48.053213" lon="9.336161">
        <ele>559.753366</ele>
        <time>2022-10-05T14:34:52.688Z</time>
      </trkpt>
      <trkpt lat="48.053227" lon="9.336354">
        <ele>559.692833</ele>
        <time>2022-10-05T14:35:05.871Z</time>
      </trkpt>
      <trkpt lat="48.053142" lon="9.336365">
        <ele>559.653034</ele>
        <time>2022-10-05T14:35:14.499Z</time>
      </trkpt>
      <trkpt lat="48.053120" lon="9.336472">
        <ele>559.618127</ele>
        <time>2022-10-05T14:35:22.129Z</time>
      </trkpt>
      <trkpt lat="48.053174" lon="9.336534">
        <ele>559.586373</ele>
        <time>2022-10-05T14:35:29.051Z</time>
      </trkpt>
      <trkpt lat="48.053212" lon="9.336919">
        <ele>559.465023</ele>
        <time>2022-10-05T14:35:55.380Z</time>
      </trkpt>
      <trkpt lat="48.053237" lon="9.337252">
        <ele>559.360536</ele>
        <time>2022-10-05T14:36:18.085Z</time>
      </trkpt>
      <trkpt lat="48.053190" lon="9.337261">
        <ele>559.338433</ele>
        <time>2022-10-05T14:36:22.841Z</time>
      </trkpt>
      <trkpt lat="48.053374" lon="9.340602">
        <ele>558.216910</ele>
        <time>2022-10-05T14:40:08.942Z</time>
      </trkpt>
      <trkpt lat="48.053494" lon="9.341150">
        <ele>557.861804</ele>
        <time>2022-10-05T14:40:48.268Z</time>
      </trkpt>
      <trkpt lat="48.053607" lon="9.341378">
        <ele>557.687018</ele>
        <time>2022-10-05T14:41:07.631Z</time>
      </trkpt>
      <trkpt lat="48.053638" lon="9.341603">
        <ele>557.545550</ele>
        <time>2022-10-05T14:41:23.450Z</time>
      </trkpt>
      <trkpt lat="48.053709" lon="9.341783">
        <ele>557.416846</ele>
        <time>2022-10-05T14:41:37.702Z</time>
      </trkpt>
      <trkpt lat="48.053755" lon="9.342164">
        <ele>557.178430</ele>
        <time>2022-10-05T14:42:04.376Z</time>
      </trkpt>
      <trkpt lat="48.053814" lon="9.342646">
        <ele>556.876680</ele>
        <time>2022-10-05T14:42:37.919Z</time>
      </trkpt>
      <trkpt lat="48.053649" lon="9.342608">
        <ele>556.781411</ele>
        <time>2022-10-05T14:42:54.934Z</time>
      </trkpt>
      <trkpt lat="48.053687" lon="9.342814">
        <ele>556.750515</ele>
        <time>2022-10-05T14:43:09.570Z</time>
      </trkpt>
      <trkpt lat="48.053816" lon="9.343001">
        <ele>556.711663</ele>
        <time>2022-10-05T14:43:27.901Z</time>
      </trkpt>
      <trkpt lat="48.054448" lon="9.343424">
        <ele>556.561911</ele>
        <time>2022-10-05T14:44:37.587Z</time>
      </trkpt>
      <trkpt lat="48.054460" lon="9.343111">
        <ele>556.516585</ele>
        <time>2022-10-05T14:44:58.913Z</time>
      </trkpt>
      <trkpt lat="48.054133" lon="9.341835">
        <ele>556.696998</ele>
        <time>2022-10-05T14:46:31.420Z</time>
      </trkpt>
      <trkpt lat="48.054137" lon="9.341657">
        <ele>556.777823</ele>
        <time>2022-10-05T14:46:44.138Z</time>
      </trkpt>
      <trkpt lat="48.054260" lon="9.341413">
        <ele>556.916513</ele>
        <time>2022-10-05T14:47:04.836Z</time>
      </trkpt>
      <trkpt lat="48.054327" lon="9.340644">
        <ele>557.268449</ele>
        <time>2022-10-05T14:47:58.896Z</time>
      </trkpt>
      <trkpt lat="48.054265" lon="9.338463">
        <ele>557.818754</ele>
        <time>2022-10-05T14:50:27.533Z</time>
      </trkpt>
      <trkpt lat="48.054073" lon="9.335961">
        <ele>557.882585</ele>
        <time>2022-10-05T14:53:16.548Z</time>
      </trkpt>
      <trkpt lat="48.053964" lon="9.334527">
        <ele>557.747558</ele>
        <time>2022-10-05T14:54:53.413Z</time>
      </trkpt>
      <trkpt lat="48.053958" lon="9.334458">
        <ele>557.745945</ele>
        <time>2022-10-05T14:54:58.090Z</time>
      </trkpt>
      <trkpt lat="48.053829" lon="9.332589">
        <ele>557.852978</ele>
        <time>2022-10-05T14:57:03.863Z</time>
      </trkpt>
      <trkpt lat="48.053728" lon="9.331351">
        <ele>558.017123</ele>
        <time>2022-10-05T14:58:28.303Z</time>
      </trkpt>
      <trkpt lat="48.053668" lon="9.330401">
        <ele>558.261380</ele>
        <time>2022-10-05T14:59:32.961Z</time>
      </trkpt>
      <trkpt lat="48.053655" lon="9.330125">
        <ele>558.332204</ele>
        <time>2022-10-05T14:59:51.932Z</time>
      </trkpt>
      <trkpt lat="48.053583" lon="9.328455">
        <ele>558.756853</ele>
        <time>2022-10-05T15:01:45.166Z</time>
      </trkpt>
      <trkpt lat="48.053600" lon="9.328010">
        <ele>558.868518</ele>
        <time>2022-10-05T15:02:15.600Z</time>
      </trkpt>
      <trkpt lat="48.053636" lon="9.326427">
        <ele>559.260787</ele>
        <time>2022-10-05T15:04:03.134Z</time>
      </trkpt>
      <trkpt lat="48.053505" lon="9.326059">
        <ele>559.271548</ele>
        <time>2022-10-05T15:04:31.251Z</time>
      </trkpt>
      <trkpt lat="48.053210" lon="9.325662">
        <ele>559.286870</ele>
        <time>2022-10-05T15:05:11.231Z</time>
      </trkpt>
      <trkpt lat="48.053188" lon="9.325506">
        <ele>559.290985</ele>
        <time>2022-10-05T15:05:21.927Z</time>
      </trkpt>
      <trkpt lat="48.053211" lon="9.325328">
        <ele>559.295665</ele>
        <time>2022-10-05T15:05:34.042Z</time>
      </trkpt>
      <trkpt lat="48.053233" lon="9.325174">
        <ele>559.299729</ele>
        <time>2022-10-05T15:05:44.593Z</time>
      </trkpt>
      <trkpt lat="48.053262" lon="9.324989">
        <ele>559.304634</ele>
        <time>2022-10-05T15:05:57.371Z</time>
      </trkpt>
      <trkpt lat="48.053350" lon="9.324522">
        <ele>559.317158</ele>
        <time>2022-10-05T15:06:29.967Z</time>
      </trkpt>
      <trkpt lat="48.053533" lon="9.323581">
        <ele>559.416541</ele>
        <time>2022-10-05T15:07:35.694Z</time>
      </trkpt>
      <trkpt lat="48.053426" lon="9.323512">
        <ele>559.447217</ele>
        <time>2022-10-05T15:07:47.403Z</time>
      </trkpt>
      <trkpt lat="48.053324" lon="9.323438">
        <ele>559.477061</ele>
        <time>2022-10-05T15:07:58.734Z</time>
      </trkpt>
      <trkpt lat="48.052963" lon="9.322974">
        <ele>559.602362</ele>
        <time>2022-10-05T15:08:46.854Z</time>
      </trkpt>
      <trkpt lat="48.052511" lon="9.322441">
        <ele>559.753883</ele>
        <time>2022-10-05T15:09:45.363Z</time>
      </trkpt>
      <trkpt lat="48.052554" lon="9.322187">
        <ele>559.799994</ele>
        <time>2022-10-05T15:10:03.089Z</time>
      </trkpt>
      <trkpt lat="48.052521" lon="9.321883">
        <ele>559.908968</ele>
        <time>2022-10-05T15:10:24.252Z</time>
      </trkpt>
      <trkpt lat="48.052467" lon="9.321397">
        <ele>560.088886</ele>
        <time>2022-10-05T15:10:58.043Z</time>
      </trkpt>
      <trkpt lat="48.052328" lon="9.320234">
        <ele>560.520341</ele>
        <time>2022-10-05T15:12:18.786Z</time>
      </trkpt>
      <trkpt lat="48.052253" lon="9.319582">
        <ele>560.761947</ele>
        <time>2022-10-05T15:13:03.983Z</time>
      </trkpt>
      <trkpt lat="48.052190" lon="9.318970">
        <ele>560.843444</ele>
        <time>2022-10-05T15:13:45.744Z</time>
      </trkpt>
      <trkpt lat="48.052198" lon="9.318557">
        <ele>560.886392</ele>
        <time>2022-10-05T15:14:13.440Z</time>
      </trkpt>
      <trkpt lat="48.052249" lon="9.318373">
        <ele>560.907097</ele>
        <time>2022-10-05T15:14:26.733Z</time>
      </trkpt>
      <trkpt lat="48.052136" lon="9.318244">
        <ele>560.929201</ele>
        <time>2022-10-05T15:14:40.963Z</time>
      </trkpt>
      <trkpt lat="48.051990" lon="9.317485">
        <ele>561.011299</ele>
        <time>2022-10-05T15:15:33.803Z</time>
      </trkpt>
      <trkpt lat="48.051820" lon="9.317093">
        <ele>561.059871</ele>
        <time>2022-10-05T15:16:05.086Z</time>
      </trkpt>
      <trkpt lat="48.051456" lon="9.316669">
        <ele>561.248218</ele>
        <time>2022-10-05T15:16:51.650Z</time>
      </trkpt>
      <trkpt lat="48.051044" lon="9.316314">
        <ele>561.452743</ele>
        <time>2022-10-05T15:17:40.194Z</time>
      </trkpt>
      <trkpt lat="48.049955" lon="9.315223">
        <ele>562.064567</ele>
        <time>2022-10-05T15:19:54.079Z</time>
      </trkpt>
      <trkpt lat="48.049434" lon="9.314674">
        <ele>562.412986</ele>
        <time>2022-10-05T15:20:58.824Z</time>
      </trkpt>
      <trkpt lat="48.048919" lon="9.314015">
        <ele>562.783510</ele>
        <time>2022-10-05T15:22:07.462Z</time>
      </trkpt>
      <trkpt lat="48.048465" lon="9.313234">
        <ele>563.716074</ele>
        <time>2022-10-05T15:23:19.331Z</time>
      </trkpt>
      <trkpt lat="48.048135" lon="9.312503">
        <ele>564.565422</ele>
        <time>2022-10-05T15:24:21.719Z</time>
      </trkpt>
      <trkpt lat="48.048082" lon="9.312384">
        <ele>564.703110</ele>
        <time>2022-10-05T15:24:31.795Z</time>
      </trkpt>
      <trkpt lat="48.048683" lon="9.311613">
        <ele>565.850260</ele>
        <time>2022-10-05T15:25:56.642Z</time>
      </trkpt>
      <trkpt lat="48.048805" lon="9.311796">
        <ele>566.103013</ele>
        <time>2022-10-05T15:26:15.321Z</time>
      </trkpt>
      <trkpt lat="48.049725" lon="9.313574">
        <ele>567.774996</ele>
        <time>2022-10-05T15:28:54.026Z</time>
      </trkpt>
      <trkpt lat="48.049938" lon="9.313800">
        <ele>567.374248</ele>
        <time>2022-10-05T15:29:20.701Z</time>
      </trkpt>
      <trkpt lat="48.050120" lon="9.313993">
        <ele>567.031889</ele>
        <time>2022-10-05T15:29:43.670Z</time>
      </trkpt>
      <trkpt lat="48.050433" lon="9.314471">
        <ele>566.345467</ele>
        <time>2022-10-05T15:30:30.549Z</time>
      </trkpt>
      <trkpt lat="48.050634" lon="9.314915">
        <ele>565.795369</ele>
        <time>2022-10-05T15:31:08.250Z</time>
      </trkpt>
      <trkpt lat="48.051025" lon="9.316074">
        <ele>564.087891</ele>
        <time>2022-10-05T15:32:40.138Z</time>
      </trkpt>
      <trkpt lat="48.051044" lon="9.316314">
        <ele>563.726508</ele>
        <time>2022-10-05T15:32:57.428Z</time>
      </trkpt>
      <trkpt lat="48.051456" lon="9.316669">
        <ele>562.662949</ele>
        <time>2022-10-05T15:33:47.463Z</time>
      </trkpt>
      <trkpt lat="48.051820" lon="9.317093">
        <ele>561.630984</ele>
        <time>2022-10-05T15:34:35.303Z</time>
      </trkpt>
      <trkpt lat="48.051990" lon="9.317485">
        <ele>561.165218</ele>
        <time>2022-10-05T15:35:07.398Z</time>
      </trkpt>
      <trkpt lat="48.052136" lon="9.318244">
        <ele>560.820941</ele>
        <time>2022-10-05T15:36:00.935Z</time>
      </trkpt>
      <trkpt lat="48.051522" lon="9.318574">
        <ele>560.395492</ele>
        <time>2022-10-05T15:37:06.732Z</time>
      </trkpt>
      <trkpt lat="48.051453" lon="9.318763">
        <ele>560.301619</ele>
        <time>2022-10-05T15:37:21.332Z</time>
      </trkpt>
      <trkpt lat="48.051394" lon="9.318803">
        <ele>560.259378</ele>
        <time>2022-10-05T15:37:27.800Z</time>
      </trkpt>
      <trkpt lat="48.051245" lon="9.318878">
        <ele>560.156861</ele>
        <time>2022-10-05T15:37:43.687Z</time>
      </trkpt>
      <trkpt lat="48.050820" lon="9.319163">
        <ele>560.072125</ele>
        <time>2022-10-05T15:38:30.633Z</time>
      </trkpt>
      <trkpt lat="48.050751" lon="9.319305">
        <ele>560.066904</ele>
        <time>2022-10-05T15:38:42.461Z</time>
      </trkpt>
      <trkpt lat="48.050272" lon="9.319665">
        <ele>560.043055</ele>
        <time>2022-10-05T15:39:36.352Z</time>
      </trkpt>
      <trkpt lat="48.050100" lon="9.319780">
        <ele>560.034674</ele>
        <time>2022-10-05T15:39:55.281Z</time>
      </trkpt>
      <trkpt lat="48.049275" lon="9.320564">
        <ele>560.151824</ele>
        <time>2022-10-05T15:41:34.443Z</time>
      </trkpt>
      <trkpt lat="48.049076" lon="9.321021">
        <ele>560.289344</ele>
        <time>2022-10-05T15:42:11.483Z</time>
      </trkpt>
      <trkpt lat="48.049025" lon="9.321482">
        <ele>560.407164</ele>
        <time>2022-10-05T15:42:43.088Z</time>
      </trkpt>
      <trkpt lat="48.048822" lon="9.322090">
        <ele>560.578525</ele>
        <time>2022-10-05T15:43:29.333Z</time>
      </trkpt>
      <trkpt lat="48.048743" lon="9.322187">
        <ele>560.617075</ele>
        <time>2022-10-05T15:43:39.743Z</time>
      </trkpt>
      <trkpt lat="48.048711" lon="9.322230">
        <ele>560.633300</ele>
        <time>2022-10-05T15:43:44.095Z</time>
      </trkpt>
      <trkpt lat="48.048197" lon="9.321279">
        <ele>560.564119</ele>
        <time>2022-10-05T15:45:06.755Z</time>
      </trkpt>
      <trkpt lat="48.048084" lon="9.321278">
        <ele>560.543663</ele>
        <time>2022-10-05T15:45:18.110Z</time>
      </trkpt>
      <trkpt lat="48.047172" lon="9.321946">
        <ele>560.358677</ele>
        <time>2022-10-05T15:47:00.714Z</time>
      </trkpt>
      <trkpt lat="48.047285" lon="9.322176">
        <ele>560.288181</ele>
        <time>2022-10-05T15:47:20.185Z</time>
      </trkpt>
      <trkpt lat="48.047452" lon="9.322452">
        <ele>560.196240</ele>
        <time>2022-10-05T15:47:45.505Z</time>
      </trkpt>
      <trkpt lat="48.048082" lon="9.323493">
        <ele>559.849433</ele>
        <time>2022-10-05T15:49:20.397Z</time>
      </trkpt>
      <trkpt lat="48.048239" lon="9.323868">
        <ele>559.740153</ele>
        <time>2022-10-05T15:49:50.048Z</time>
      </trkpt>
      <trkpt lat="48.048511" lon="9.324411">
        <ele>559.830363</ele>
        <time>2022-10-05T15:50:35.787Z</time>
      </trkpt>
      <trkpt lat="48.048479" lon="9.324452">
        <ele>559.847189</ele>
        <time>2022-10-05T15:50:40.105Z</time>
      </trkpt>
      <trkpt lat="48.048404" lon="9.324545">
        <ele>559.886091</ele>
        <time>2022-10-05T15:50:49.853Z</time>
      </trkpt>
      <trkpt lat="48.048390" lon="9.324560">
        <ele>559.892968</ele>
        <time>2022-10-05T15:50:51.592Z</time>
      </trkpt>
      <trkpt lat="48.048879" lon="9.325479">
        <ele>560.206528</ele>
        <time>2022-10-05T15:52:11.319Z</time>
      </trkpt>
      <trkpt lat="48.049091" lon="9.325895">
        <ele>560.346170</ele>
        <time>2022-10-05T15:52:47.391Z</time>
      </trkpt>
      <trkpt lat="48.049251" lon="9.326243">
        <ele>560.451312</ele>
        <time>2022-10-05T15:53:16.469Z</time>
      </trkpt>
      <trkpt lat="48.049350" lon="9.326533">
        <ele>560.523274</ele>
        <time>2022-10-05T15:53:38.883Z</time>
      </trkpt>
      <trkpt lat="48.049541" lon="9.327001">
        <ele>560.644451</ele>
        <time>2022-10-05T15:54:16.084Z</time>
      </trkpt>
      <trkpt lat="48.049928" lon="9.327982">
        <ele>560.896181</ele>
        <time>2022-10-05T15:55:32.431Z</time>
      </trkpt>
      <trkpt lat="48.050376" lon="9.328962">
        <ele>561.104128</ele>
        <time>2022-10-05T15:56:52.416Z</time>
      </trkpt>
      <trkpt lat="48.050799" lon="9.329843">
        <ele>561.256409</ele>
        <time>2022-10-05T15:58:05.828Z</time>
      </trkpt>
      <trkpt lat="48.050764" lon="9.330043">
        <ele>561.285433</ele>
        <time>2022-10-05T15:58:19.681Z</time>
      </trkpt>
      <trkpt lat="48.050632" lon="9.330244">
        <ele>561.324990</ele>
        <time>2022-10-05T15:58:38.746Z</time>
      </trkpt>
      <trkpt lat="48.050757" lon="9.330495">
        <ele>561.368932</ele>
        <time>2022-10-05T15:58:59.685Z</time>
      </trkpt>
      <trkpt lat="48.050791" lon="9.330695">
        <ele>561.387074</ele>
        <time>2022-10-05T15:59:13.705Z</time>
      </trkpt>
      <trkpt lat="48.050787" lon="9.331057">
        <ele>561.387074</ele>
        <time>2022-10-05T15:59:38.074Z</time>
      </trkpt>
      <trkpt lat="48.050822" lon="9.331058">
        <ele>561.387074</ele>
        <time>2022-10-05T15:59:41.569Z</time>
      </trkpt>
      <trkpt lat="48.050819" lon="9.331113">
        <ele>561.387074</ele>
        <time>2022-10-05T15:59:45.276Z</time>
      </trkpt>
      <trkpt lat="48.050820" lon="9.331211">
        <ele>561.387074</ele>
        <time>2022-10-05T15:59:51.799Z</time>
      </trkpt>
      <trkpt lat="48.050840" lon="9.331272">
        <ele>561.387074</ele>
        <time>2022-10-05T15:59:56.376Z</time>
      </trkpt>
      <trkpt lat="48.050857" lon="9.331296">
        <ele>561.387074</ele>
        <time>2022-10-05T15:59:58.648Z</time>
      </trkpt>
      <trkpt lat="48.050868" lon="9.331304">
        <ele>561.387074</ele>
        <time>2022-10-05T15:59:59.921Z</time>
      </trkpt>
      <trkpt lat="48.050923" lon="9.331336">
        <ele>561.387074</ele>
        <time>2022-10-05T16:00:05.834Z</time>
      </trkpt>
      <trkpt lat="48.050982" lon="9.331393">
        <ele>561.387074</ele>
        <time>2022-10-05T16:00:12.873Z</time>
      </trkpt>
      <trkpt lat="48.051031" lon="9.331541">
        <ele>561.387074</ele>
        <time>2022-10-05T16:00:23.903Z</time>
      </trkpt>
      <trkpt lat="48.051037" lon="9.331757">
        <ele>561.387074</ele>
        <time>2022-10-05T16:00:38.346Z</time>
      </trkpt>
      <trkpt lat="48.051043" lon="9.331807">
        <ele>561.387074</ele>
        <time>2022-10-05T16:00:41.797Z</time>
      </trkpt>
      <trkpt lat="48.051051" lon="9.331887">
        <ele>561.387074</ele>
        <time>2022-10-05T16:00:47.221Z</time>
      </trkpt>
      <trkpt lat="48.051041" lon="9.332033">
        <ele>561.387074</ele>
        <time>2022-10-05T16:00:57.025Z</time>
      </trkpt>
      <trkpt lat="48.051039" lon="9.332079">
        <ele>561.387074</ele>
        <time>2022-10-05T16:01:00.087Z</time>
      </trkpt>
      <trkpt lat="48.051038" lon="9.332113">
        <ele>561.387074</ele>
        <time>2022-10-05T16:01:02.347Z</time>
      </trkpt>
      <trkpt lat="48.051040" lon="9.332164">
        <ele>561.387074</ele>
        <time>2022-10-05T16:01:05.777Z</time>
      </trkpt>
      <trkpt lat="48.051031" lon="9.332213">
        <ele>561.387074</ele>
        <time>2022-10-05T16:01:09.170Z</time>
      </trkpt>
      <trkpt lat="48.050989" lon="9.332331">
        <ele>561.387074</ele>
        <time>2022-10-05T16:01:18.105Z</time>
      </trkpt>
      <trkpt lat="48.050993" lon="9.332349">
        <ele>561.387074</ele>
        <time>2022-10-05T16:01:19.366Z</time>
      </trkpt>
      <trkpt lat="48.050994" lon="9.332369">
        <ele>561.387074</ele>
        <time>2022-10-05T16:01:20.744Z</time>
      </trkpt>
      <trkpt lat="48.051050" lon="9.332432">
        <ele>561.387074</ele>
        <time>2022-10-05T16:01:27.747Z</time>
      </trkpt>
      <trkpt lat="48.051035" lon="9.332446">
        <ele>561.387074</ele>
        <time>2022-10-05T16:01:29.575Z</time>
      </trkpt>
      <trkpt lat="48.051062" lon="9.332502">
        <ele>561.387074</ele>
        <time>2022-10-05T16:01:34.163Z</time>
      </trkpt>
    </trkseg>
  </trk>
</gpx>