<?xml version='1.0' encoding='UTF-8'?>
<gpx version="1.1" creator="https://www.komoot.de" xmlns="http://www.topografix.com/GPX/1/1" xmlns:xsi="http://www.w3.org/2001/XMLSchema-instance" xsi:schemaLocation="http://www.topografix.com/GPX/1/1 http://www.topografix.com/GPX/1/1/gpx.xsd">
  <metadata>
    <name>Bopfingen Rund um den Ipf 6 km Strecke</name>
    <author>
      <link href="https://www.komoot.de">
        <text>komoot</text>
        <type>text/html</type>
      </link>
    </author>
  </metadata>
  <trk>
    <name>Bopfingen Rund um den Ipf 6 km Strecke</name>
    <trkseg>
      <trkpt lat="48.861998" lon="10.346391">
        <ele>470.480063</ele>
        <time>2022-10-16T12:25:29.475Z</time>
      </trkpt>
      <trkpt lat="48.861973" lon="10.346457">
        <ele>470.480063</ele>
        <time>2022-10-16T12:25:34.744Z</time>
      </trkpt>
      <trkpt lat="48.861894" lon="10.346656">
        <ele>470.480063</ele>
        <time>2022-10-16T12:25:50.663Z</time>
      </trkpt>
      <trkpt lat="48.861712" lon="10.346609">
        <ele>470.480063</ele>
        <time>2022-10-16T12:26:09.644Z</time>
      </trkpt>
      <trkpt lat="48.861683" lon="10.346677">
        <ele>470.480063</ele>
        <time>2022-10-16T12:26:15.402Z</time>
      </trkpt>
      <trkpt lat="48.861661" lon="10.346732">
        <ele>470.480063</ele>
        <time>2022-10-16T12:26:19.788Z</time>
      </trkpt>
      <trkpt lat="48.861611" lon="10.346881">
        <ele>470.480063</ele>
        <time>2022-10-16T12:26:31.086Z</time>
      </trkpt>
      <trkpt lat="48.861535" lon="10.347103">
        <ele>470.480063</ele>
        <time>2022-10-16T12:26:48.173Z</time>
      </trkpt>
      <trkpt lat="48.861501" lon="10.347068">
        <ele>470.480063</ele>
        <time>2022-10-16T12:26:52.567Z</time>
      </trkpt>
      <trkpt lat="48.861337" lon="10.347381">
        <ele>470.052383</ele>
        <time>2022-10-16T12:27:19.837Z</time>
      </trkpt>
      <trkpt lat="48.861423" lon="10.347463">
        <ele>469.785922</ele>
        <time>2022-10-16T12:27:30.675Z</time>
      </trkpt>
      <trkpt lat="48.861304" lon="10.347813">
        <ele>469.105617</ele>
        <time>2022-10-16T12:27:57.695Z</time>
      </trkpt>
      <trkpt lat="48.861232" lon="10.348003">
        <ele>468.726996</ele>
        <time>2022-10-16T12:28:13.210Z</time>
      </trkpt>
      <trkpt lat="48.860900" lon="10.348873">
        <ele>466.990268</ele>
        <time>2022-10-16T12:29:23.544Z</time>
      </trkpt>
      <trkpt lat="48.860808" lon="10.349116">
        <ele>466.506140</ele>
        <time>2022-10-16T12:29:43.080Z</time>
      </trkpt>
      <trkpt lat="48.860753" lon="10.349259">
        <ele>466.220108</ele>
        <time>2022-10-16T12:29:54.562Z</time>
      </trkpt>
      <trkpt lat="48.860998" lon="10.349440">
        <ele>465.667372</ele>
        <time>2022-10-16T12:30:23.448Z</time>
      </trkpt>
      <trkpt lat="48.861027" lon="10.349469">
        <ele>465.634460</ele>
        <time>2022-10-16T12:30:27.154Z</time>
      </trkpt>
      <trkpt lat="48.861209" lon="10.349705">
        <ele>465.407642</ele>
        <time>2022-10-16T12:30:52.233Z</time>
      </trkpt>
      <trkpt lat="48.861302" lon="10.349834">
        <ele>465.288271</ele>
        <time>2022-10-16T12:31:05.263Z</time>
      </trkpt>
      <trkpt lat="48.861792" lon="10.350697">
        <ele>464.577217</ele>
        <time>2022-10-16T12:32:22.264Z</time>
      </trkpt>
      <trkpt lat="48.861946" lon="10.350986">
        <ele>464.345239</ele>
        <time>2022-10-16T12:32:47.004Z</time>
      </trkpt>
      <trkpt lat="48.862135" lon="10.351351">
        <ele>464.055509</ele>
        <time>2022-10-16T12:33:18.083Z</time>
      </trkpt>
      <trkpt lat="48.862245" lon="10.351573">
        <ele>464.745893</ele>
        <time>2022-10-16T12:33:37.377Z</time>
      </trkpt>
      <trkpt lat="48.862274" lon="10.351650">
        <ele>464.969052</ele>
        <time>2022-10-16T12:33:43.561Z</time>
      </trkpt>
      <trkpt lat="48.862301" lon="10.351719">
        <ele>465.170977</ele>
        <time>2022-10-16T12:33:49.265Z</time>
      </trkpt>
      <trkpt lat="48.862325" lon="10.351783">
        <ele>465.356263</ele>
        <time>2022-10-16T12:33:54.489Z</time>
      </trkpt>
      <trkpt lat="48.862363" lon="10.351880">
        <ele>465.640214</ele>
        <time>2022-10-16T12:34:02.596Z</time>
      </trkpt>
      <trkpt lat="48.862479" lon="10.352012">
        <ele>466.194205</ele>
        <time>2022-10-16T12:34:18.592Z</time>
      </trkpt>
      <trkpt lat="48.862722" lon="10.352173">
        <ele>467.207654</ele>
        <time>2022-10-16T12:34:48.887Z</time>
      </trkpt>
      <trkpt lat="48.862885" lon="10.352244">
        <ele>467.855914</ele>
        <time>2022-10-16T12:35:08.619Z</time>
      </trkpt>
      <trkpt lat="48.862958" lon="10.352277">
        <ele>468.147086</ele>
        <time>2022-10-16T12:35:17.639Z</time>
      </trkpt>
      <trkpt lat="48.863063" lon="10.352389">
        <ele>468.637495</ele>
        <time>2022-10-16T12:35:32.818Z</time>
      </trkpt>
      <trkpt lat="48.863264" lon="10.352602">
        <ele>469.574259</ele>
        <time>2022-10-16T12:36:01.878Z</time>
      </trkpt>
      <trkpt lat="48.863274" lon="10.352614">
        <ele>469.622968</ele>
        <time>2022-10-16T12:36:03.416Z</time>
      </trkpt>
      <trkpt lat="48.863378" lon="10.352745">
        <ele>470.139351</ele>
        <time>2022-10-16T12:36:19.435Z</time>
      </trkpt>
      <trkpt lat="48.863672" lon="10.353111">
        <ele>471.628955</ele>
        <time>2022-10-16T12:37:04.643Z</time>
      </trkpt>
      <trkpt lat="48.863785" lon="10.353335">
        <ele>472.378334</ele>
        <time>2022-10-16T12:37:26.763Z</time>
      </trkpt>
      <trkpt lat="48.863829" lon="10.353420">
        <ele>472.665470</ele>
        <time>2022-10-16T12:37:35.196Z</time>
      </trkpt>
      <trkpt lat="48.863853" lon="10.353469">
        <ele>472.827648</ele>
        <time>2022-10-16T12:37:39.891Z</time>
      </trkpt>
      <trkpt lat="48.864044" lon="10.353844">
        <ele>474.086681</ele>
        <time>2022-10-16T12:38:16.560Z</time>
      </trkpt>
      <trkpt lat="48.864105" lon="10.353964">
        <ele>474.489275</ele>
        <time>2022-10-16T12:38:28.053Z</time>
      </trkpt>
      <trkpt lat="48.864168" lon="10.353863">
        <ele>474.858772</ele>
        <time>2022-10-16T12:38:38.679Z</time>
      </trkpt>
      <trkpt lat="48.864227" lon="10.353844">
        <ele>475.102149</ele>
        <time>2022-10-16T12:38:45.762Z</time>
      </trkpt>
      <trkpt lat="48.864697" lon="10.353128">
        <ele>477.787348</ele>
        <time>2022-10-16T12:40:00.790Z</time>
      </trkpt>
      <trkpt lat="48.865643" lon="10.351791">
        <ele>478.710263</ele>
        <time>2022-10-16T12:42:14.010Z</time>
      </trkpt>
      <trkpt lat="48.867020" lon="10.349846">
        <ele>476.493306</ele>
        <time>2022-10-16T12:45:26.631Z</time>
      </trkpt>
      <trkpt lat="48.867176" lon="10.349706">
        <ele>476.140142</ele>
        <time>2022-10-16T12:45:45.673Z</time>
      </trkpt>
      <trkpt lat="48.867655" lon="10.348973">
        <ele>474.314177</ele>
        <time>2022-10-16T12:46:59.293Z</time>
      </trkpt>
      <trkpt lat="48.868098" lon="10.348576">
        <ele>472.543604</ele>
        <time>2022-10-16T12:47:56.000Z</time>
      </trkpt>
      <trkpt lat="48.868198" lon="10.348426">
        <ele>472.059911</ele>
        <time>2022-10-16T12:48:11.399Z</time>
      </trkpt>
      <trkpt lat="48.868259" lon="10.348223">
        <ele>471.554451</ele>
        <time>2022-10-16T12:48:27.433Z</time>
      </trkpt>
      <trkpt lat="48.868262" lon="10.347652">
        <ele>470.261196</ele>
        <time>2022-10-16T12:49:08.016Z</time>
      </trkpt>
      <trkpt lat="48.868160" lon="10.346975">
        <ele>469.829739</ele>
        <time>2022-10-16T12:49:54.972Z</time>
      </trkpt>
      <trkpt lat="48.868206" lon="10.346672">
        <ele>470.492722</ele>
        <time>2022-10-16T12:50:15.882Z</time>
      </trkpt>
      <trkpt lat="48.868250" lon="10.346514">
        <ele>470.858525</ele>
        <time>2022-10-16T12:50:27.651Z</time>
      </trkpt>
      <trkpt lat="48.868371" lon="10.346611">
        <ele>471.301892</ele>
        <time>2022-10-16T12:50:42.068Z</time>
      </trkpt>
      <trkpt lat="48.868693" lon="10.346767">
        <ele>472.397260</ele>
        <time>2022-10-16T12:51:18.695Z</time>
      </trkpt>
      <trkpt lat="48.868951" lon="10.346853">
        <ele>473.253345</ele>
        <time>2022-10-16T12:51:48.760Z</time>
      </trkpt>
      <trkpt lat="48.869435" lon="10.347234">
        <ele>475.019894</ele>
        <time>2022-10-16T12:52:55.525Z</time>
      </trkpt>
      <trkpt lat="48.869603" lon="10.347395">
        <ele>476.915870</ele>
        <time>2022-10-16T12:53:21.048Z</time>
      </trkpt>
      <trkpt lat="48.869933" lon="10.347750">
        <ele>481.168559</ele>
        <time>2022-10-16T12:54:13.920Z</time>
      </trkpt>
      <trkpt lat="48.870394" lon="10.348442">
        <ele>487.983694</ele>
        <time>2022-10-16T12:55:40.151Z</time>
      </trkpt>
      <trkpt lat="48.870584" lon="10.348735">
        <ele>490.830675</ele>
        <time>2022-10-16T12:56:17.970Z</time>
      </trkpt>
      <trkpt lat="48.870786" lon="10.349046">
        <ele>493.854971</ele>
        <time>2022-10-16T12:57:01.032Z</time>
      </trkpt>
      <trkpt lat="48.871380" lon="10.349945">
        <ele>507.215031</ele>
        <time>2022-10-16T12:59:24.238Z</time>
      </trkpt>
      <trkpt lat="48.871724" lon="10.351442">
        <ele>523.691915</ele>
        <time>2022-10-16T13:02:30.837Z</time>
      </trkpt>
      <trkpt lat="48.871989" lon="10.352032">
        <ele>529.378226</ele>
        <time>2022-10-16T13:03:52.396Z</time>
      </trkpt>
      <trkpt lat="48.873182" lon="10.354058">
        <ele>547.402307</ele>
        <time>2022-10-16T13:07:51.669Z</time>
      </trkpt>
      <trkpt lat="48.873437" lon="10.354901">
        <ele>550.588584</ele>
        <time>2022-10-16T13:09:00.346Z</time>
      </trkpt>
      <trkpt lat="48.874042" lon="10.357271">
        <ele>555.522961</ele>
        <time>2022-10-16T13:12:02.458Z</time>
      </trkpt>
      <trkpt lat="48.874088" lon="10.357753">
        <ele>555.991329</ele>
        <time>2022-10-16T13:12:35.218Z</time>
      </trkpt>
      <trkpt lat="48.874037" lon="10.358013">
        <ele>556.252239</ele>
        <time>2022-10-16T13:12:53.649Z</time>
      </trkpt>
      <trkpt lat="48.873684" lon="10.358996">
        <ele>556.568232</ele>
        <time>2022-10-16T13:14:08.282Z</time>
      </trkpt>
      <trkpt lat="48.873684" lon="10.358996">
        <ele>556.568232</ele>
        <time>2022-10-16T13:14:08.613Z</time>
      </trkpt>
      <trkpt lat="48.873781" lon="10.359077">
        <ele>556.541422</ele>
        <time>2022-10-16T13:14:19.692Z</time>
      </trkpt>
      <trkpt lat="48.873767" lon="10.359120">
        <ele>556.533777</ele>
        <time>2022-10-16T13:14:22.851Z</time>
      </trkpt>
      <trkpt lat="48.873764" lon="10.359141">
        <ele>556.530353</ele>
        <time>2022-10-16T13:14:24.265Z</time>
      </trkpt>
      <trkpt lat="48.873747" lon="10.359200">
        <ele>556.520089</ele>
        <time>2022-10-16T13:14:28.505Z</time>
      </trkpt>
      <trkpt lat="48.873729" lon="10.359293">
        <ele>556.504642</ele>
        <time>2022-10-16T13:14:34.886Z</time>
      </trkpt>
      <trkpt lat="48.873727" lon="10.359316">
        <ele>556.500946</ele>
        <time>2022-10-16T13:14:36.414Z</time>
      </trkpt>
      <trkpt lat="48.873713" lon="10.359404">
        <ele>556.486519</ele>
        <time>2022-10-16T13:14:42.374Z</time>
      </trkpt>
      <trkpt lat="48.873712" lon="10.359424">
        <ele>556.483323</ele>
        <time>2022-10-16T13:14:43.694Z</time>
      </trkpt>
      <trkpt lat="48.873704" lon="10.359469">
        <ele>556.475896</ele>
        <time>2022-10-16T13:14:46.770Z</time>
      </trkpt>
      <trkpt lat="48.873702" lon="10.359494">
        <ele>556.471883</ele>
        <time>2022-10-16T13:14:48.429Z</time>
      </trkpt>
      <trkpt lat="48.873698" lon="10.359515">
        <ele>556.468399</ele>
        <time>2022-10-16T13:14:49.868Z</time>
      </trkpt>
      <trkpt lat="48.873690" lon="10.359606">
        <ele>556.453770</ele>
        <time>2022-10-16T13:14:55.912Z</time>
      </trkpt>
      <trkpt lat="48.873680" lon="10.359675">
        <ele>556.442512</ele>
        <time>2022-10-16T13:15:00.563Z</time>
      </trkpt>
      <trkpt lat="48.873650" lon="10.359813">
        <ele>556.419353</ele>
        <time>2022-10-16T13:15:10.130Z</time>
      </trkpt>
      <trkpt lat="48.873642" lon="10.359874">
        <ele>556.409442</ele>
        <time>2022-10-16T13:15:14.225Z</time>
      </trkpt>
      <trkpt lat="48.873625" lon="10.359959">
        <ele>556.395286</ele>
        <time>2022-10-16T13:15:20.074Z</time>
      </trkpt>
      <trkpt lat="48.873616" lon="10.360021">
        <ele>556.385169</ele>
        <time>2022-10-16T13:15:24.255Z</time>
      </trkpt>
      <trkpt lat="48.873591" lon="10.360137">
        <ele>556.365718</ele>
        <time>2022-10-16T13:15:32.291Z</time>
      </trkpt>
      <trkpt lat="48.873586" lon="10.360155">
        <ele>556.362605</ele>
        <time>2022-10-16T13:15:33.577Z</time>
      </trkpt>
      <trkpt lat="48.873580" lon="10.360167">
        <ele>556.360203</ele>
        <time>2022-10-16T13:15:34.569Z</time>
      </trkpt>
      <trkpt lat="48.873581" lon="10.360169">
        <ele>556.359803</ele>
        <time>2022-10-16T13:15:34.735Z</time>
      </trkpt>
      <trkpt lat="48.873580" lon="10.360169">
        <ele>556.359561</ele>
        <time>2022-10-16T13:15:34.835Z</time>
      </trkpt>
      <trkpt lat="48.873580" lon="10.360167">
        <ele>556.359242</ele>
        <time>2022-10-16T13:15:34.967Z</time>
      </trkpt>
      <trkpt lat="48.873583" lon="10.360171">
        <ele>556.358275</ele>
        <time>2022-10-16T13:15:35.367Z</time>
      </trkpt>
      <trkpt lat="48.873589" lon="10.360208">
        <ele>556.352203</ele>
        <time>2022-10-16T13:15:37.875Z</time>
      </trkpt>
      <trkpt lat="48.873589" lon="10.360232">
        <ele>556.348379</ele>
        <time>2022-10-16T13:15:39.455Z</time>
      </trkpt>
      <trkpt lat="48.873586" lon="10.360257">
        <ele>556.344330</ele>
        <time>2022-10-16T13:15:41.128Z</time>
      </trkpt>
      <trkpt lat="48.873579" lon="10.360281">
        <ele>556.340146</ele>
        <time>2022-10-16T13:15:42.856Z</time>
      </trkpt>
      <trkpt lat="48.873569" lon="10.360327">
        <ele>556.332427</ele>
        <time>2022-10-16T13:15:46.045Z</time>
      </trkpt>
      <trkpt lat="48.873564" lon="10.360366">
        <ele>556.326095</ele>
        <time>2022-10-16T13:15:48.661Z</time>
      </trkpt>
      <trkpt lat="48.873558" lon="10.360444">
        <ele>556.313582</ele>
        <time>2022-10-16T13:15:53.831Z</time>
      </trkpt>
      <trkpt lat="48.873549" lon="10.360499">
        <ele>556.304551</ele>
        <time>2022-10-16T13:15:57.569Z</time>
      </trkpt>
      <trkpt lat="48.873542" lon="10.360576">
        <ele>556.292165</ele>
        <time>2022-10-16T13:16:02.689Z</time>
      </trkpt>
      <trkpt lat="48.873541" lon="10.360569">
        <ele>556.291024</ele>
        <time>2022-10-16T13:16:03.160Z</time>
      </trkpt>
      <trkpt lat="48.873554" lon="10.360515">
        <ele>556.281861</ele>
        <time>2022-10-16T13:16:06.946Z</time>
      </trkpt>
      <trkpt lat="48.873561" lon="10.360471">
        <ele>556.274648</ele>
        <time>2022-10-16T13:16:09.925Z</time>
      </trkpt>
      <trkpt lat="48.873571" lon="10.360437">
        <ele>556.268714</ele>
        <time>2022-10-16T13:16:12.377Z</time>
      </trkpt>
      <trkpt lat="48.873593" lon="10.360403">
        <ele>556.261114</ele>
        <time>2022-10-16T13:16:15.516Z</time>
      </trkpt>
      <trkpt lat="48.873625" lon="10.360363">
        <ele>556.251078</ele>
        <time>2022-10-16T13:16:19.662Z</time>
      </trkpt>
      <trkpt lat="48.873648" lon="10.360337">
        <ele>556.244134</ele>
        <time>2022-10-16T13:16:22.531Z</time>
      </trkpt>
      <trkpt lat="48.873672" lon="10.360303">
        <ele>556.266724</ele>
        <time>2022-10-16T13:16:25.814Z</time>
      </trkpt>
      <trkpt lat="48.873685" lon="10.360288">
        <ele>556.289730</ele>
        <time>2022-10-16T13:16:27.448Z</time>
      </trkpt>
      <trkpt lat="48.873729" lon="10.360245">
        <ele>556.363467</ele>
        <time>2022-10-16T13:16:32.687Z</time>
      </trkpt>
      <trkpt lat="48.873744" lon="10.360236">
        <ele>556.386199</ele>
        <time>2022-10-16T13:16:34.303Z</time>
      </trkpt>
      <trkpt lat="48.873758" lon="10.360224">
        <ele>556.408856</ele>
        <time>2022-10-16T13:16:35.914Z</time>
      </trkpt>
      <trkpt lat="48.873690" lon="10.360258">
        <ele>556.509768</ele>
        <time>2022-10-16T13:16:43.050Z</time>
      </trkpt>
      <trkpt lat="48.873579" lon="10.360404">
        <ele>556.716676</ele>
        <time>2022-10-16T13:16:58.029Z</time>
      </trkpt>
      <trkpt lat="48.873499" lon="10.360931">
        <ele>557.218160</ele>
        <time>2022-10-16T13:17:33.928Z</time>
      </trkpt>
      <trkpt lat="48.873266" lon="10.361891">
        <ele>558.166952</ele>
        <time>2022-10-16T13:18:44.753Z</time>
      </trkpt>
      <trkpt lat="48.873129" lon="10.362280">
        <ele>558.576090</ele>
        <time>2022-10-16T13:19:16.627Z</time>
      </trkpt>
      <trkpt lat="48.873031" lon="10.362439">
        <ele>558.781206</ele>
        <time>2022-10-16T13:19:33.099Z</time>
      </trkpt>
      <trkpt lat="48.872013" lon="10.364202">
        <ele>564.513100</ele>
        <time>2022-10-16T13:22:29.252Z</time>
      </trkpt>
      <trkpt lat="48.871721" lon="10.364641">
        <ele>565.483087</ele>
        <time>2022-10-16T13:23:15.586Z</time>
      </trkpt>
      <trkpt lat="48.871185" lon="10.365255">
        <ele>565.592332</ele>
        <time>2022-10-16T13:24:28.231Z</time>
      </trkpt>
      <trkpt lat="48.871466" lon="10.365771">
        <ele>565.664057</ele>
        <time>2022-10-16T13:25:12.729Z</time>
      </trkpt>
      <trkpt lat="48.871185" lon="10.365255">
        <ele>565.735783</ele>
        <time>2022-10-16T13:25:58.697Z</time>
      </trkpt>
      <trkpt lat="48.870260" lon="10.366097">
        <ele>561.131683</ele>
        <time>2022-10-16T13:27:56.619Z</time>
      </trkpt>
      <trkpt lat="48.869826" lon="10.366562">
        <ele>558.650202</ele>
        <time>2022-10-16T13:28:55.469Z</time>
      </trkpt>
      <trkpt lat="48.869790" lon="10.366605">
        <ele>558.436232</ele>
        <time>2022-10-16T13:29:00.539Z</time>
      </trkpt>
      <trkpt lat="48.869534" lon="10.366880">
        <ele>556.870013</ele>
        <time>2022-10-16T13:29:35.652Z</time>
      </trkpt>
      <trkpt lat="48.869066" lon="10.366379">
        <ele>553.468812</ele>
        <time>2022-10-16T13:30:38.974Z</time>
      </trkpt>
      <trkpt lat="48.868119" lon="10.365453">
        <ele>546.778082</ele>
        <time>2022-10-16T13:32:44.641Z</time>
      </trkpt>
      <trkpt lat="48.867491" lon="10.364997">
        <ele>540.240504</ele>
        <time>2022-10-16T13:34:05.923Z</time>
      </trkpt>
      <trkpt lat="48.866918" lon="10.364438">
        <ele>533.773678</ele>
        <time>2022-10-16T13:35:27.397Z</time>
      </trkpt>
      <trkpt lat="48.866643" lon="10.364238">
        <ele>530.878116</ele>
        <time>2022-10-16T13:36:05.074Z</time>
      </trkpt>
      <trkpt lat="48.865556" lon="10.363726">
        <ele>519.347584</ele>
        <time>2022-10-16T13:38:24.042Z</time>
      </trkpt>
      <trkpt lat="48.865373" lon="10.363573">
        <ele>517.213213</ele>
        <time>2022-10-16T13:38:49.233Z</time>
      </trkpt>
      <trkpt lat="48.865110" lon="10.363178">
        <ele>513.434908</ele>
        <time>2022-10-16T13:39:32.836Z</time>
      </trkpt>
      <trkpt lat="48.864734" lon="10.362616">
        <ele>508.951454</ele>
        <time>2022-10-16T13:40:33.914Z</time>
      </trkpt>
      <trkpt lat="48.864534" lon="10.362035">
        <ele>505.812237</ele>
        <time>2022-10-16T13:41:24.119Z</time>
      </trkpt>
      <trkpt lat="48.864190" lon="10.360387">
        <ele>497.537225</ele>
        <time>2022-10-16T13:43:32.784Z</time>
      </trkpt>
      <trkpt lat="48.864042" lon="10.360003">
        <ele>495.414718</ele>
        <time>2022-10-16T13:44:06.082Z</time>
      </trkpt>
      <trkpt lat="48.863746" lon="10.359876">
        <ele>493.184994</ele>
        <time>2022-10-16T13:44:41.066Z</time>
      </trkpt>
      <trkpt lat="48.863540" lon="10.359749">
        <ele>491.573424</ele>
        <time>2022-10-16T13:45:06.475Z</time>
      </trkpt>
      <trkpt lat="48.863446" lon="10.359682">
        <ele>490.820766</ele>
        <time>2022-10-16T13:45:18.397Z</time>
      </trkpt>
      <trkpt lat="48.863209" lon="10.359453">
        <ele>488.784875</ele>
        <time>2022-10-16T13:45:50.708Z</time>
      </trkpt>
      <trkpt lat="48.863146" lon="10.359370">
        <ele>488.180481</ele>
        <time>2022-10-16T13:46:00.388Z</time>
      </trkpt>
      <trkpt lat="48.863103" lon="10.359292">
        <ele>487.695135</ele>
        <time>2022-10-16T13:46:08.176Z</time>
      </trkpt>
      <trkpt lat="48.862959" lon="10.359027">
        <ele>486.055888</ele>
        <time>2022-10-16T13:46:34.378Z</time>
      </trkpt>
      <trkpt lat="48.862933" lon="10.358979">
        <ele>485.759351</ele>
        <time>2022-10-16T13:46:39.158Z</time>
      </trkpt>
      <trkpt lat="48.862699" lon="10.358424">
        <ele>482.553632</ele>
        <time>2022-10-16T13:47:29.279Z</time>
      </trkpt>
      <trkpt lat="48.862625" lon="10.358229">
        <ele>481.452858</ele>
        <time>2022-10-16T13:47:46.356Z</time>
      </trkpt>
      <trkpt lat="48.862457" lon="10.358048">
        <ele>479.922306</ele>
        <time>2022-10-16T13:48:10.066Z</time>
      </trkpt>
      <trkpt lat="48.862463" lon="10.357887">
        <ele>479.133787</ele>
        <time>2022-10-16T13:48:22.343Z</time>
      </trkpt>
      <trkpt lat="48.862440" lon="10.357642">
        <ele>477.923650</ele>
        <time>2022-10-16T13:48:41.118Z</time>
      </trkpt>
      <trkpt lat="48.862127" lon="10.356790">
        <ele>473.151963</ele>
        <time>2022-10-16T13:49:55.186Z</time>
      </trkpt>
      <trkpt lat="48.861810" lon="10.356167">
        <ele>470.214561</ele>
        <time>2022-10-16T13:50:53.727Z</time>
      </trkpt>
      <trkpt lat="48.861500" lon="10.355733">
        <ele>468.278486</ele>
        <time>2022-10-16T13:51:40.699Z</time>
      </trkpt>
      <trkpt lat="48.861202" lon="10.355369">
        <ele>466.522289</ele>
        <time>2022-10-16T13:52:22.598Z</time>
      </trkpt>
      <trkpt lat="48.860512" lon="10.355623">
        <ele>463.408856</ele>
        <time>2022-10-16T13:53:38.301Z</time>
      </trkpt>
      <trkpt lat="48.860400" lon="10.355635">
        <ele>463.342700</ele>
        <time>2022-10-16T13:53:50.078Z</time>
      </trkpt>
      <trkpt lat="48.860227" lon="10.355208">
        <ele>463.148306</ele>
        <time>2022-10-16T13:54:24.174Z</time>
      </trkpt>
      <trkpt lat="48.859876" lon="10.354590">
        <ele>462.831819</ele>
        <time>2022-10-16T13:55:18.397Z</time>
      </trkpt>
      <trkpt lat="48.859825" lon="10.354516">
        <ele>462.790275</ele>
        <time>2022-10-16T13:55:25.582Z</time>
      </trkpt>
      <trkpt lat="48.859729" lon="10.354378">
        <ele>462.712421</ele>
        <time>2022-10-16T13:55:38.789Z</time>
      </trkpt>
      <trkpt lat="48.859593" lon="10.354183">
        <ele>462.602259</ele>
        <time>2022-10-16T13:55:57.715Z</time>
      </trkpt>
      <trkpt lat="48.859316" lon="10.353952">
        <ele>462.416095</ele>
        <time>2022-10-16T13:56:29.861Z</time>
      </trkpt>
      <trkpt lat="48.859377" lon="10.353704">
        <ele>462.493295</ele>
        <time>2022-10-16T13:56:47.760Z</time>
      </trkpt>
      <trkpt lat="48.859579" lon="10.352898">
        <ele>463.206971</ele>
        <time>2022-10-16T13:57:46.757Z</time>
      </trkpt>
      <trkpt lat="48.859657" lon="10.352512">
        <ele>463.541092</ele>
        <time>2022-10-16T13:58:15.091Z</time>
      </trkpt>
      <trkpt lat="48.859679" lon="10.352377">
        <ele>463.656174</ele>
        <time>2022-10-16T13:58:24.910Z</time>
      </trkpt>
      <trkpt lat="48.859780" lon="10.351646">
        <ele>464.274232</ele>
        <time>2022-10-16T13:59:16.714Z</time>
      </trkpt>
      <trkpt lat="48.859855" lon="10.351220">
        <ele>464.639703</ele>
        <time>2022-10-16T13:59:47.010Z</time>
      </trkpt>
      <trkpt lat="48.859943" lon="10.350896">
        <ele>464.956944</ele>
        <time>2022-10-16T14:00:11.130Z</time>
      </trkpt>
      <trkpt lat="48.859800" lon="10.350787">
        <ele>465.177012</ele>
        <time>2022-10-16T14:00:27.629Z</time>
      </trkpt>
      <trkpt lat="48.859759" lon="10.350558">
        <ele>465.391806</ele>
        <time>2022-10-16T14:00:44.001Z</time>
      </trkpt>
      <trkpt lat="48.859822" lon="10.350400">
        <ele>465.559016</ele>
        <time>2022-10-16T14:00:56.679Z</time>
      </trkpt>
      <trkpt lat="48.859866" lon="10.350198">
        <ele>465.751595</ele>
        <time>2022-10-16T14:01:11.186Z</time>
      </trkpt>
      <trkpt lat="48.860011" lon="10.350099">
        <ele>465.970265</ele>
        <time>2022-10-16T14:01:27.995Z</time>
      </trkpt>
      <trkpt lat="48.860144" lon="10.350204">
        <ele>466.176434</ele>
        <time>2022-10-16T14:01:43.450Z</time>
      </trkpt>
      <trkpt lat="48.860415" lon="10.349868">
        <ele>466.657531</ele>
        <time>2022-10-16T14:02:20.096Z</time>
      </trkpt>
      <trkpt lat="48.860458" lon="10.349811">
        <ele>466.736019</ele>
        <time>2022-10-16T14:02:26.088Z</time>
      </trkpt>
      <trkpt lat="48.860753" lon="10.349259">
        <ele>467.107297</ele>
        <time>2022-10-16T14:03:16.125Z</time>
      </trkpt>
      <trkpt lat="48.860808" lon="10.349116">
        <ele>467.107297</ele>
        <time>2022-10-16T14:03:27.718Z</time>
      </trkpt>
      <trkpt lat="48.860900" lon="10.348873">
        <ele>467.107297</ele>
        <time>2022-10-16T14:03:47.053Z</time>
      </trkpt>
      <trkpt lat="48.861232" lon="10.348003">
        <ele>467.107297</ele>
        <time>2022-10-16T14:04:57.930Z</time>
      </trkpt>
      <trkpt lat="48.861304" lon="10.347813">
        <ele>467.107297</ele>
        <time>2022-10-16T14:05:13.815Z</time>
      </trkpt>
      <trkpt lat="48.861423" lon="10.347463">
        <ele>467.107297</ele>
        <time>2022-10-16T14:05:41.217Z</time>
      </trkpt>
      <trkpt lat="48.861337" lon="10.347381">
        <ele>467.107297</ele>
        <time>2022-10-16T14:05:52.441Z</time>
      </trkpt>
      <trkpt lat="48.861501" lon="10.347068">
        <ele>467.107297</ele>
        <time>2022-10-16T14:06:20.339Z</time>
      </trkpt>
      <trkpt lat="48.861535" lon="10.347103">
        <ele>467.107297</ele>
        <time>2022-10-16T14:06:24.968Z</time>
      </trkpt>
      <trkpt lat="48.861611" lon="10.346881">
        <ele>467.107297</ele>
        <time>2022-10-16T14:06:42.472Z</time>
      </trkpt>
      <trkpt lat="48.861661" lon="10.346732">
        <ele>467.107297</ele>
        <time>2022-10-16T14:06:54.005Z</time>
      </trkpt>
      <trkpt lat="48.861683" lon="10.346677">
        <ele>467.107297</ele>
        <time>2022-10-16T14:06:58.504Z</time>
      </trkpt>
      <trkpt lat="48.861712" lon="10.346609">
        <ele>467.107297</ele>
        <time>2022-10-16T14:07:04.539Z</time>
      </trkpt>
      <trkpt lat="48.861894" lon="10.346656">
        <ele>467.107297</ele>
        <time>2022-10-16T14:07:23.907Z</time>
      </trkpt>
      <trkpt lat="48.861973" lon="10.346457">
        <ele>467.107297</ele>
        <time>2022-10-16T14:07:40.254Z</time>
      </trkpt>
    </trkseg>
  </trk>
</gpx>