<?xml version="1.0" encoding="UTF-8" standalone="no" ?>
<gpx xmlns="http://www.topografix.com/GPX/1/1" creator="MapSource 6.16.3" version="1.1" xmlns:xsi="http://www.w3.org/2001/XMLSchema-instance" xsi:schemaLocation="http://www.topografix.com/GPX/1/1 http://www.topografix.com/GPX/1/1/gpx.xsd">

  <metadata>
    <link href="http://www.garmin.com">
      <text>Garmin International</text>
    </link>
    <time>2026-03-09T07:00:01Z</time>
    <bounds maxlat="48.029193989932537" maxlon="8.632405987009406" minlat="48.01643799059093" minlon="8.603036971762776"/>
  </metadata>

  <trk>
    <name>Tuningen - PW233BW - Auf dem Weg der Kelten</name>
    <extensions>
      <gpxx:TrackExtension xmlns:gpxx="http://www.garmin.com/xmlschemas/GpxExtensions/v3">
        <gpxx:DisplayColor>DarkBlue</gpxx:DisplayColor>
      </gpxx:TrackExtension>
    </extensions>
    <trkseg>
      <trkpt lat="48.027263972908258" lon="8.604061994701624">
        <ele>740.018415</ele>
        <time>2025-10-14T08:14:58Z</time>
      </trkpt>
      <trkpt lat="48.027295991778374" lon="8.604193003848195">
        <ele>740.018415</ele>
        <time>2025-10-14T08:15:10Z</time>
      </trkpt>
      <trkpt lat="48.027319964021444" lon="8.604328036308289">
        <ele>740.018415</ele>
        <time>2025-10-14T08:15:20Z</time>
      </trkpt>
      <trkpt lat="48.027375033125281" lon="8.604448987171054">
        <ele>740.018415</ele>
        <time>2025-10-14T08:15:30Z</time>
      </trkpt>
      <trkpt lat="48.027433035895228" lon="8.604553006589413">
        <ele>740.018415</ele>
        <time>2025-10-14T08:15:38Z</time>
      </trkpt>
      <trkpt lat="48.027478968724608" lon="8.604692984372377">
        <ele>740.018415</ele>
        <time>2025-10-14T08:15:47Z</time>
      </trkpt>
      <trkpt lat="48.027514005079865" lon="8.604830028489232">
        <ele>740.018415</ele>
        <time>2025-10-14T08:15:57Z</time>
      </trkpt>
      <trkpt lat="48.027520962059498" lon="8.60497604124248">
        <ele>740.018415</ele>
        <time>2025-10-14T08:16:07Z</time>
      </trkpt>
      <trkpt lat="48.027563039213419" lon="8.60510503873229">
        <ele>740.018415</ele>
        <time>2025-10-14T08:16:19Z</time>
      </trkpt>
      <trkpt lat="48.027617018669844" lon="8.605215009301901">
        <ele>740.018415</ele>
        <time>2025-10-14T08:16:27Z</time>
      </trkpt>
      <trkpt lat="48.027664963155985" lon="8.605330009013414">
        <ele>740.09966399999996</ele>
        <time>2025-10-14T08:16:34Z</time>
      </trkpt>
      <trkpt lat="48.027698993682861" lon="8.605458000674844">
        <ele>740.23842400000001</ele>
        <time>2025-10-14T08:16:45Z</time>
      </trkpt>
      <trkpt lat="48.027732018381357" lon="8.605589009821415">
        <ele>740.379459</ele>
        <time>2025-10-14T08:17:00Z</time>
      </trkpt>
      <trkpt lat="48.027772000059485" lon="8.605722030624747">
        <ele>740.52638300000001</ele>
        <time>2025-10-14T08:17:11Z</time>
      </trkpt>
      <trkpt lat="48.027790021151304" lon="8.60585798509419">
        <ele>740.66606000000002</ele>
        <time>2025-10-14T08:17:20Z</time>
      </trkpt>
      <trkpt lat="48.027821034193039" lon="8.605988994240761">
        <ele>740.806061</ele>
        <time>2025-10-14T08:17:30Z</time>
      </trkpt>
      <trkpt lat="48.027850035578012" lon="8.606131989508867">
        <ele>740.95661199999995</ele>
        <time>2025-10-14T08:17:41Z</time>
      </trkpt>
      <trkpt lat="48.027854980900884" lon="8.606267021968961">
        <ele>741.09283300000004</ele>
        <time>2025-10-14T08:17:50Z</time>
      </trkpt>
      <trkpt lat="48.027863027527928" lon="8.6064169742167">
        <ele>741.24443699999995</ele>
        <time>2025-10-14T08:17:59Z</time>
      </trkpt>
      <trkpt lat="48.027871996164322" lon="8.606556029990315">
        <ele>741.38513399999999</ele>
        <time>2025-10-14T08:18:08Z</time>
      </trkpt>
      <trkpt lat="48.027916001155972" lon="8.6066759750247">
        <ele>741.52301299999999</ele>
        <time>2025-10-14T08:18:19Z</time>
      </trkpt>
      <trkpt lat="48.027966963127255" lon="8.606792986392975">
        <ele>741.66371900000001</ele>
        <time>2025-10-14T08:18:29Z</time>
      </trkpt>
      <trkpt lat="48.027989007532597" lon="8.606931958347559">
        <ele>741.80762900000002</ele>
        <time>2025-10-14T08:18:38Z</time>
      </trkpt>
      <trkpt lat="48.028023038059473" lon="8.607072019949555">
        <ele>741.95769099999995</ele>
        <time>2025-10-14T08:18:47Z</time>
      </trkpt>
      <trkpt lat="48.028050027787685" lon="8.60721099190414">
        <ele>742.10352</ele>
        <time>2025-10-14T08:18:58Z</time>
      </trkpt>
      <trkpt lat="48.028096966445446" lon="8.607335966080427">
        <ele>742.24799700000005</ele>
        <time>2025-10-14T08:19:17Z</time>
      </trkpt>
      <trkpt lat="48.028127979487181" lon="8.607486002147198">
        <ele>742.40617199999997</ele>
        <time>2025-10-14T08:19:28Z</time>
      </trkpt>
      <trkpt lat="48.028151029720902" lon="8.607621034607291">
        <ele>742.54652799999997</ele>
        <time>2025-10-14T08:19:38Z</time>
      </trkpt>
      <trkpt lat="48.028162010014057" lon="8.607756989076734">
        <ele>742.68454499999996</ele>
        <time>2025-10-14T08:19:47Z</time>
      </trkpt>
      <trkpt lat="48.028199980035424" lon="8.607885986566544">
        <ele>742.92021699999998</ele>
        <time>2025-10-14T08:19:58Z</time>
      </trkpt>
      <trkpt lat="48.028245996683836" lon="8.608008027076721">
        <ele>743.19548999999995</ele>
        <time>2025-10-14T08:20:07Z</time>
      </trkpt>
      <trkpt lat="48.028290001675487" lon="8.608139036223292">
        <ele>743.48361499999999</ele>
        <time>2025-10-14T08:20:18Z</time>
      </trkpt>
      <trkpt lat="48.028329983353615" lon="8.608266022056341">
        <ele>743.75952600000005</ele>
        <time>2025-10-14T08:20:28Z</time>
      </trkpt>
      <trkpt lat="48.028348004445434" lon="8.608399964869022">
        <ele>744.02815899999996</ele>
        <time>2025-10-14T08:20:37Z</time>
      </trkpt>
      <trkpt lat="48.028387986123562" lon="8.608531979843974">
        <ele>744.31299100000001</ele>
        <time>2025-10-14T08:20:45Z</time>
      </trkpt>
      <trkpt lat="48.028435008600354" lon="8.608648991212249">
        <ele>744.58124699999996</ele>
        <time>2025-10-14T08:20:54Z</time>
      </trkpt>
      <trkpt lat="48.028474990278482" lon="8.608781006187201">
        <ele>744.86608000000001</ele>
        <time>2025-10-14T08:21:04Z</time>
      </trkpt>
      <trkpt lat="48.028503991663456" lon="8.608919978141785">
        <ele>745.15226399999995</ele>
        <time>2025-10-14T08:21:14Z</time>
      </trkpt>
      <trkpt lat="48.028540033847094" lon="8.609057022258639">
        <ele>745.44157299999995</ele>
        <time>2025-10-14T08:21:24Z</time>
      </trkpt>
      <trkpt lat="48.02855403162539" lon="8.609191970899701">
        <ele>745.71007999999995</ele>
        <time>2025-10-14T08:21:34Z</time>
      </trkpt>
      <trkpt lat="48.02859895862639" lon="8.60931602306664">
        <ele>745.98736799999995</ele>
        <time>2025-10-14T08:21:43Z</time>
      </trkpt>
      <trkpt lat="48.028631983324885" lon="8.609459018334746">
        <ele>746.28469099999995</ele>
        <time>2025-10-14T08:21:53Z</time>
      </trkpt>
      <trkpt lat="48.028648998588324" lon="8.609595978632569">
        <ele>746.55855399999996</ele>
        <time>2025-10-14T08:22:03Z</time>
      </trkpt>
      <trkpt lat="48.028681017458439" lon="8.609726987779141">
        <ele>746.83266700000001</ele>
        <time>2025-10-14T08:22:14Z</time>
      </trkpt>
      <trkpt lat="48.028707001358271" lon="8.609855985268951">
        <ele>747.09747400000003</ele>
        <time>2025-10-14T08:22:23Z</time>
      </trkpt>
      <trkpt lat="48.028743965551257" lon="8.609988000243902">
        <ele>747.378781</ele>
        <time>2025-10-14T08:22:33Z</time>
      </trkpt>
      <trkpt lat="48.028773972764611" lon="8.610126972198486">
        <ele>747.66585299999997</ele>
        <time>2025-10-14T08:22:42Z</time>
      </trkpt>
      <trkpt lat="48.028792999684811" lon="8.610257981345058">
        <ele>747.92931299999998</ele>
        <time>2025-10-14T08:22:51Z</time>
      </trkpt>
      <trkpt lat="48.028829963877797" lon="8.610383961349726">
        <ele>748.09342200000003</ele>
        <time>2025-10-14T08:23:04Z</time>
      </trkpt>
      <trkpt lat="48.028865000233054" lon="8.610511031001806">
        <ele>748.20867299999998</ele>
        <time>2025-10-14T08:23:13Z</time>
      </trkpt>
      <trkpt lat="48.028872963041067" lon="8.610665006563067">
        <ele>748.33827399999996</ele>
        <time>2025-10-14T08:23:22Z</time>
      </trkpt>
      <trkpt lat="48.028915962204337" lon="8.610796015709639">
        <ele>748.46071400000005</ele>
        <time>2025-10-14T08:23:50Z</time>
      </trkpt>
      <trkpt lat="48.028945969417691" lon="8.610926019027829">
        <ele>748.57610099999999</ele>
        <time>2025-10-14T08:23:59Z</time>
      </trkpt>
      <trkpt lat="48.028943035751581" lon="8.611068008467555">
        <ele>748.69530299999997</ele>
        <time>2025-10-14T08:24:08Z</time>
      </trkpt>
      <trkpt lat="48.028979999944568" lon="8.611191976815462">
        <ele>748.80922999999996</ele>
        <time>2025-10-14T08:24:19Z</time>
      </trkpt>
      <trkpt lat="48.028960973024368" lon="8.611327009275556">
        <ele>748.924981</ele>
        <time>2025-10-14T08:24:33Z</time>
      </trkpt>
      <trkpt lat="48.028977988287807" lon="8.611462963744998">
        <ele>749.041067</ele>
        <time>2025-10-14T08:24:43Z</time>
      </trkpt>
      <trkpt lat="48.028989974409342" lon="8.611600007861853">
        <ele>749.15699600000005</ele>
        <time>2025-10-14T08:24:53Z</time>
      </trkpt>
      <trkpt lat="48.029012018814683" lon="8.611733028665185">
        <ele>749.27195099999994</ele>
        <time>2025-10-14T08:25:02Z</time>
      </trkpt>
      <trkpt lat="48.029024004936218" lon="8.611875018104911">
        <ele>749.39204199999995</ele>
        <time>2025-10-14T08:25:12Z</time>
      </trkpt>
      <trkpt lat="48.029014030471444" lon="8.612010972574353">
        <ele>749.50683800000002</ele>
        <time>2025-10-14T08:25:21Z</time>
      </trkpt>
      <trkpt lat="48.029030961915851" lon="8.612155979499221">
        <ele>749.63035400000001</ele>
        <time>2025-10-14T08:25:31Z</time>
      </trkpt>
      <trkpt lat="48.029057029634714" lon="8.612295035272837">
        <ele>749.75145599999996</ele>
        <time>2025-10-14T08:25:41Z</time>
      </trkpt>
      <trkpt lat="48.029088964685798" lon="8.612425038591027">
        <ele>749.86768500000005</ele>
        <time>2025-10-14T08:25:49Z</time>
      </trkpt>
      <trkpt lat="48.029146967455745" lon="8.61254096031189">
        <ele>749.98920799999996</ele>
        <time>2025-10-14T08:26:00Z</time>
      </trkpt>
      <trkpt lat="48.029191978275776" lon="8.612657971680164">
        <ele>750.10245199999997</ele>
        <time>2025-10-14T08:26:08Z</time>
      </trkpt>
      <trkpt lat="48.029193989932537" lon="8.6129289586097">
        <ele>750.31365200000005</ele>
        <time>2025-10-14T08:27:48Z</time>
      </trkpt>
      <trkpt lat="48.029157025739551" lon="8.613053010776639">
        <ele>750.39632400000005</ele>
        <time>2025-10-14T08:28:00Z</time>
      </trkpt>
      <trkpt lat="48.029087036848068" lon="8.613152001053095">
        <ele>750.48404400000004</ele>
        <time>2025-10-14T08:28:15Z</time>
      </trkpt>
      <trkpt lat="48.029047977179289" lon="8.613287033513188">
        <ele>750.57358099999999</ele>
        <time>2025-10-14T08:28:25Z</time>
      </trkpt>
      <trkpt lat="48.029002966359258" lon="8.613406978547573">
        <ele>750.65734599999996</ele>
        <time>2025-10-14T08:28:37Z</time>
      </trkpt>
      <trkpt lat="48.028954016044736" lon="8.613521978259087">
        <ele>750.74036899999999</ele>
        <time>2025-10-14T08:29:04Z</time>
      </trkpt>
      <trkpt lat="48.028911016881466" lon="8.613653993234038">
        <ele>750.82976499999995</ele>
        <time>2025-10-14T08:29:38Z</time>
      </trkpt>
      <trkpt lat="48.028868017718196" lon="8.613793971017003">
        <ele>750.92356600000005</ele>
        <time>2025-10-14T08:29:50Z</time>
      </trkpt>
      <trkpt lat="48.028830969706178" lon="8.613919029012322">
        <ele>751.00679500000001</ele>
        <time>2025-10-14T08:30:00Z</time>
      </trkpt>
      <trkpt lat="48.028811020776629" lon="8.614055989310145">
        <ele>751.09217200000001</ele>
        <time>2025-10-14T08:30:09Z</time>
      </trkpt>
      <trkpt lat="48.028797022998333" lon="8.61419202759862">
        <ele>751.17595200000005</ele>
        <time>2025-10-14T08:30:18Z</time>
      </trkpt>
      <trkpt lat="48.028768021613359" lon="8.614332005381584">
        <ele>751.26518799999997</ele>
        <time>2025-10-14T08:30:27Z</time>
      </trkpt>
      <trkpt lat="48.028732985258102" lon="8.614465026184917">
        <ele>751.35221000000001</ele>
        <time>2025-10-14T08:30:36Z</time>
      </trkpt>
      <trkpt lat="48.028709013015032" lon="8.614601986482739">
        <ele>751.43843800000002</ele>
        <time>2025-10-14T08:30:45Z</time>
      </trkpt>
      <trkpt lat="48.028699038550258" lon="8.614737018942833">
        <ele>751.52113699999995</ele>
        <time>2025-10-14T08:30:54Z</time>
      </trkpt>
      <trkpt lat="48.028670959174633" lon="8.614880014210939">
        <ele>751.61185899999998</ele>
        <time>2025-10-14T08:31:03Z</time>
      </trkpt>
      <trkpt lat="48.028647992759943" lon="8.615019991993904">
        <ele>751.69963399999995</ele>
        <time>2025-10-14T08:31:11Z</time>
      </trkpt>
      <trkpt lat="48.02861999720335" lon="8.615157958120108">
        <ele>751.78743899999995</ele>
        <time>2025-10-14T08:31:20Z</time>
      </trkpt>
      <trkpt lat="48.028588984161615" lon="8.615297013893724">
        <ele>751.87665200000004</ele>
        <time>2025-10-14T08:31:30Z</time>
      </trkpt>
      <trkpt lat="48.028560988605022" lon="8.615433974191546">
        <ele>751.96199300000001</ele>
        <time>2025-10-14T08:31:39Z</time>
      </trkpt>
      <trkpt lat="48.028524024412036" lon="8.615568000823259">
        <ele>752.04726900000003</ele>
        <time>2025-10-14T08:31:48Z</time>
      </trkpt>
      <trkpt lat="48.028509020805359" lon="8.615704039111733">
        <ele>752.12834799999996</ele>
        <time>2025-10-14T08:31:57Z</time>
      </trkpt>
      <trkpt lat="48.028474990278482" lon="8.615843011066318">
        <ele>752.21540900000002</ele>
        <time>2025-10-14T08:32:12Z</time>
      </trkpt>
      <trkpt lat="48.028434002771974" lon="8.616003021597862">
        <ele>752.31619699999999</ele>
        <time>2025-10-14T08:32:19Z</time>
      </trkpt>
      <trkpt lat="48.028380023315549" lon="8.616120032966137">
        <ele>752.39981799999998</ele>
        <time>2025-10-14T08:32:24Z</time>
      </trkpt>
      <trkpt lat="48.028334006667137" lon="8.616244001314044">
        <ele>752.48322800000005</ele>
        <time>2025-10-14T08:32:31Z</time>
      </trkpt>
      <trkpt lat="48.02827600389719" lon="8.616348020732403">
        <ele>752.56288400000005</ele>
        <time>2025-10-14T08:32:40Z</time>
      </trkpt>
      <trkpt lat="48.028240967541933" lon="8.616476012393832">
        <ele>752.644227</ele>
        <time>2025-10-14T08:32:50Z</time>
      </trkpt>
      <trkpt lat="48.028207020834088" lon="8.616611966863275">
        <ele>752.72963300000004</ele>
        <time>2025-10-14T08:33:00Z</time>
      </trkpt>
      <trkpt lat="48.028177013620734" lon="8.616739958524704">
        <ele>752.80941600000006</ele>
        <time>2025-10-14T08:33:10Z</time>
      </trkpt>
      <trkpt lat="48.028154969215393" lon="8.616881025955081">
        <ele>752.89458300000001</ele>
        <time>2025-10-14T08:33:19Z</time>
      </trkpt>
      <trkpt lat="48.028113981708884" lon="8.617017986252904">
        <ele>752.98287200000004</ele>
        <time>2025-10-14T08:33:28Z</time>
      </trkpt>
      <trkpt lat="48.028091015294194" lon="8.617150001227856">
        <ele>753.06311000000005</ele>
        <time>2025-10-14T08:33:37Z</time>
      </trkpt>
      <trkpt lat="48.028068970888853" lon="8.617281010374427">
        <ele>753.14256</ele>
        <time>2025-10-14T08:33:46Z</time>
      </trkpt>
      <trkpt lat="48.028026977553964" lon="8.617404978722334">
        <ele>753.22432200000003</ele>
        <time>2025-10-14T08:33:55Z</time>
      </trkpt>
      <trkpt lat="48.027984984219074" lon="8.617534982040525">
        <ele>753.30924800000003</ele>
        <time>2025-10-14T08:34:04Z</time>
      </trkpt>
      <trkpt lat="48.027959000319242" lon="8.617664985358715">
        <ele>753.38906399999996</ele>
        <time>2025-10-14T08:34:13Z</time>
      </trkpt>
      <trkpt lat="48.027922036126256" lon="8.617801023647189">
        <ele>753.47542899999996</ele>
        <time>2025-10-14T08:34:23Z</time>
      </trkpt>
      <trkpt lat="48.027902003377676" lon="8.617935972288251">
        <ele>753.69184600000006</ele>
        <time>2025-10-14T08:34:32Z</time>
      </trkpt>
      <trkpt lat="48.027869984507561" lon="8.618077961727977">
        <ele>753.95939899999996</ele>
        <time>2025-10-14T08:34:42Z</time>
      </trkpt>
      <trkpt lat="48.027833020314574" lon="8.618201008066535">
        <ele>754.20021399999996</ele>
        <time>2025-10-14T08:34:50Z</time>
      </trkpt>
      <trkpt lat="48.027791026979685" lon="8.618326988071203">
        <ele>754.45158800000002</ele>
        <time>2025-10-14T08:35:01Z</time>
      </trkpt>
      <trkpt lat="48.02776001393795" lon="8.618457997217774">
        <ele>754.699704</ele>
        <time>2025-10-14T08:35:11Z</time>
      </trkpt>
      <trkpt lat="48.027726989239454" lon="8.618591018021107">
        <ele>754.95299799999998</ele>
        <time>2025-10-14T08:35:21Z</time>
      </trkpt>
      <trkpt lat="48.027705028653145" lon="8.61872797831893">
        <ele>755.20456899999999</ele>
        <time>2025-10-14T08:35:31Z</time>
      </trkpt>
      <trkpt lat="48.027669992297888" lon="8.618858987465501">
        <ele>755.45645000000002</ele>
        <time>2025-10-14T08:35:40Z</time>
      </trkpt>
      <trkpt lat="48.027636967599392" lon="8.618994019925594">
        <ele>755.71309499999995</ele>
        <time>2025-10-14T08:35:49Z</time>
      </trkpt>
      <trkpt lat="48.027600003406405" lon="8.61913500353694">
        <ele>755.98354300000005</ele>
        <time>2025-10-14T08:35:59Z</time>
      </trkpt>
      <trkpt lat="48.027576031163335" lon="8.619270035997033">
        <ele>756.23296200000004</ele>
        <time>2025-10-14T08:36:09Z</time>
      </trkpt>
      <trkpt lat="48.027518028393388" lon="8.61937296576798">
        <ele>756.47338400000001</ele>
        <time>2025-10-14T08:36:23Z</time>
      </trkpt>
      <trkpt lat="48.027430018410087" lon="8.619405990466476">
        <ele>756.71560899999997</ele>
        <time>2025-10-14T08:36:33Z</time>
      </trkpt>
      <trkpt lat="48.027374027296901" lon="8.619519984349608">
        <ele>756.96817099999998</ele>
        <time>2025-10-14T08:36:45Z</time>
      </trkpt>
      <trkpt lat="48.027302026748657" lon="8.619610005989671">
        <ele>757.21872499999995</ele>
        <time>2025-10-14T08:36:59Z</time>
      </trkpt>
      <trkpt lat="48.027213010936975" lon="8.619578992947936">
        <ele>757.46270500000003</ele>
        <time>2025-10-14T08:37:28Z</time>
      </trkpt>
      <trkpt lat="48.027127012610435" lon="8.619536999613047">
        <ele>757.704251</ele>
        <time>2025-10-14T08:37:38Z</time>
      </trkpt>
      <trkpt lat="48.027036990970373" lon="8.619486037641764">
        <ele>757.96121700000003</ele>
        <time>2025-10-14T08:37:49Z</time>
      </trkpt>
      <trkpt lat="48.02692299708724" lon="8.619414959102869">
        <ele>758.29093</ele>
        <time>2025-10-14T08:38:15Z</time>
      </trkpt>
      <trkpt lat="48.026830963790417" lon="8.619354022666812">
        <ele>758.63316899999995</ele>
        <time>2025-10-14T08:38:27Z</time>
      </trkpt>
      <trkpt lat="48.026739014312625" lon="8.61928797326982">
        <ele>758.98062800000002</ele>
        <time>2025-10-14T08:38:40Z</time>
      </trkpt>
      <trkpt lat="48.026648992672563" lon="8.619256038218737">
        <ele>759.29563199999996</ele>
        <time>2025-10-14T08:38:50Z</time>
      </trkpt>
      <trkpt lat="48.0265589710325" lon="8.619207004085183">
        <ele>759.62177499999996</ele>
        <time>2025-10-14T08:38:59Z</time>
      </trkpt>
      <trkpt lat="48.026464004069567" lon="8.619188982993364">
        <ele>759.94784600000003</ele>
        <time>2025-10-14T08:39:07Z</time>
      </trkpt>
      <trkpt lat="48.026365013793111" lon="8.619180014356971">
        <ele>760.285574</ele>
        <time>2025-10-14T08:39:16Z</time>
      </trkpt>
      <trkpt lat="48.026269041001797" lon="8.619170039892197">
        <ele>760.61325599999998</ele>
        <time>2025-10-14T08:39:24Z</time>
      </trkpt>
      <trkpt lat="48.026177007704973" lon="8.619147995486856">
        <ele>760.93050600000004</ele>
        <time>2025-10-14T08:39:33Z</time>
      </trkpt>
      <trkpt lat="48.026082962751389" lon="8.619153024628758">
        <ele>761.25078799999994</ele>
        <time>2025-10-14T08:39:43Z</time>
      </trkpt>
      <trkpt lat="48.025992019101977" lon="8.619165010750294">
        <ele>761.56185500000004</ele>
        <time>2025-10-14T08:39:52Z</time>
      </trkpt>
      <trkpt lat="48.025897974148393" lon="8.619153024628758">
        <ele>761.88309900000002</ele>
        <time>2025-10-14T08:40:02Z</time>
      </trkpt>
      <trkpt lat="48.025808036327362" lon="8.619133997708559">
        <ele>762.19259799999998</ele>
        <time>2025-10-14T08:40:12Z</time>
      </trkpt>
      <trkpt lat="48.025713991373777" lon="8.619099967181683">
        <ele>762.52190900000005</ele>
        <time>2025-10-14T08:40:22Z</time>
      </trkpt>
      <trkpt lat="48.02563201636076" lon="8.619039030745626">
        <ele>762.83377599999994</ele>
        <time>2025-10-14T08:40:31Z</time>
      </trkpt>
      <trkpt lat="48.025550041347742" lon="8.618956971913576">
        <ele>763.16968499999996</ele>
        <time>2025-10-14T08:40:42Z</time>
      </trkpt>
      <trkpt lat="48.025478040799499" lon="8.618853958323598">
        <ele>763.50899000000004</ele>
        <time>2025-10-14T08:40:53Z</time>
      </trkpt>
      <trkpt lat="48.025408973917365" lon="8.618761003017426">
        <ele>763.82530999999994</ele>
        <time>2025-10-14T08:41:02Z</time>
      </trkpt>
      <trkpt lat="48.025361029431224" lon="8.618648014962673">
        <ele>764.13016600000003</ele>
        <time>2025-10-14T08:41:12Z</time>
      </trkpt>
      <trkpt lat="48.025103034451604" lon="8.618543995544314">
        <ele>765.16979600000002</ele>
        <time>2025-10-14T08:47:23Z</time>
      </trkpt>
      <trkpt lat="48.0250099953264" lon="8.618531003594399">
        <ele>765.55409799999995</ele>
        <time>2025-10-14T08:47:32Z</time>
      </trkpt>
      <trkpt lat="48.024918967857957" lon="8.618504013866186">
        <ele>765.93580199999997</ele>
        <time>2025-10-14T08:47:43Z</time>
      </trkpt>
      <trkpt lat="48.024831041693687" lon="8.618475012481213">
        <ele>766.30655400000001</ele>
        <time>2025-10-14T08:48:12Z</time>
      </trkpt>
      <trkpt lat="48.024740014225245" lon="8.618473000824451">
        <ele>766.68099900000004</ele>
        <time>2025-10-14T08:48:23Z</time>
      </trkpt>
      <trkpt lat="48.024648986756802" lon="8.618454979732633">
        <ele>767.05866500000002</ele>
        <time>2025-10-14T08:48:33Z</time>
      </trkpt>
      <trkpt lat="48.024546978995204" lon="8.618449028581381">
        <ele>767.47865200000001</ele>
        <time>2025-10-14T08:48:44Z</time>
      </trkpt>
      <trkpt lat="48.024446982890368" lon="8.61842799000442">
        <ele>767.89412400000003</ele>
        <time>2025-10-14T08:48:58Z</time>
      </trkpt>
      <trkpt lat="48.024351010099053" lon="8.618418015539646">
        <ele>768.29005700000005</ele>
        <time>2025-10-14T08:49:09Z</time>
      </trkpt>
      <trkpt lat="48.024137020111084" lon="8.618380967527628">
        <ele>769.17639199999996</ele>
        <time>2025-10-14T08:52:30Z</time>
      </trkpt>
      <trkpt lat="48.024046998471022" lon="8.61836495809257">
        <ele>769.54929000000004</ele>
        <time>2025-10-14T08:52:42Z</time>
      </trkpt>
      <trkpt lat="48.023955971002579" lon="8.618342997506261">
        <ele>769.92855699999996</ele>
        <time>2025-10-14T08:52:52Z</time>
      </trkpt>
      <trkpt lat="48.023863015696406" lon="8.618330005556345">
        <ele>770.312859</ele>
        <time>2025-10-14T08:53:02Z</time>
      </trkpt>
      <trkpt lat="48.02376301959157" lon="8.618310978636146">
        <ele>770.72760100000005</ele>
        <time>2025-10-14T08:53:14Z</time>
      </trkpt>
      <trkpt lat="48.023672997951508" lon="8.618279965594411">
        <ele>771.10758999999996</ele>
        <time>2025-10-14T08:53:25Z</time>
      </trkpt>
      <trkpt lat="48.023581970483065" lon="8.61827602609992">
        <ele>771.48215700000003</ele>
        <time>2025-10-14T08:53:34Z</time>
      </trkpt>
      <trkpt lat="48.023479962721467" lon="8.618273008614779">
        <ele>771.85305600000004</ele>
        <time>2025-10-14T08:53:45Z</time>
      </trkpt>
      <trkpt lat="48.023386001586914" lon="8.618279965594411">
        <ele>772.016616</ele>
        <time>2025-10-14T08:53:56Z</time>
      </trkpt>
      <trkpt lat="48.023286005482078" lon="8.618286000564694">
        <ele>772.19054100000005</ele>
        <time>2025-10-14T08:54:08Z</time>
      </trkpt>
      <trkpt lat="48.023187015205622" lon="8.618293041363359">
        <ele>772.36278000000004</ele>
        <time>2025-10-14T08:54:18Z</time>
      </trkpt>
      <trkpt lat="48.023093976080418" lon="8.618303015828133">
        <ele>772.52481699999998</ele>
        <time>2025-10-14T08:54:28Z</time>
      </trkpt>
      <trkpt lat="48.023009989410639" lon="8.618381973356009">
        <ele>772.69727399999999</ele>
        <time>2025-10-14T08:54:40Z</time>
      </trkpt>
      <trkpt lat="48.023006971925497" lon="8.618518011644483">
        <ele>772.85543700000005</ele>
        <time>2025-10-14T08:54:50Z</time>
      </trkpt>
      <trkpt lat="48.023025998845696" lon="8.61866201274097">
        <ele>773.02603799999997</ele>
        <time>2025-10-14T08:55:00Z</time>
      </trkpt>
      <trkpt lat="48.023063968867064" lon="8.618784975260496">
        <ele>773.18351900000005</ele>
        <time>2025-10-14T08:55:08Z</time>
      </trkpt>
      <trkpt lat="48.023105040192604" lon="8.61892000772059">
        <ele>773.35585200000003</ele>
        <time>2025-10-14T08:55:19Z</time>
      </trkpt>
      <trkpt lat="48.023164970800281" lon="8.619025032967329">
        <ele>773.51637400000004</ele>
        <time>2025-10-14T08:55:27Z</time>
      </trkpt>
      <trkpt lat="48.023228002712131" lon="8.619141960516572">
        <ele>773.69096100000002</ele>
        <time>2025-10-14T08:55:37Z</time>
      </trkpt>
      <trkpt lat="48.023277958855033" lon="8.61926500685513">
        <ele>773.85826099999997</ele>
        <time>2025-10-14T08:55:47Z</time>
      </trkpt>
      <trkpt lat="48.023339984938502" lon="8.619375983253121">
        <ele>774.02635299999997</ele>
        <time>2025-10-14T08:55:57Z</time>
      </trkpt>
      <trkpt lat="48.023430006578565" lon="8.619400961324573">
        <ele>774.18543599999998</ele>
        <time>2025-10-14T08:56:40Z</time>
      </trkpt>
      <trkpt lat="48.023501001298428" lon="8.619486037641764">
        <ele>774.34350300000006</ele>
        <time>2025-10-14T08:56:50Z</time>
      </trkpt>
      <trkpt lat="48.023579036816955" lon="8.619572035968304">
        <ele>774.51192500000002</ele>
        <time>2025-10-14T08:57:00Z</time>
      </trkpt>
      <trkpt lat="48.023645002394915" lon="8.61967395991087">
        <ele>774.67688299999998</ele>
        <time>2025-10-14T08:57:10Z</time>
      </trkpt>
      <trkpt lat="48.023691019043326" lon="8.619799017906189">
        <ele>774.842713</ele>
        <time>2025-10-14T08:57:35Z</time>
      </trkpt>
      <trkpt lat="48.023780034855008" lon="8.619869006797671">
        <ele>774.84576300000003</ele>
        <time>2025-10-14T08:57:44Z</time>
      </trkpt>
      <trkpt lat="48.023853041231632" lon="8.619975037872791">
        <ele>774.61430099999995</ele>
        <time>2025-10-14T08:57:54Z</time>
      </trkpt>
      <trkpt lat="48.023931998759508" lon="8.620063969865441">
        <ele>774.38931100000002</ele>
        <time>2025-10-14T08:58:03Z</time>
      </trkpt>
      <trkpt lat="48.023998970165849" lon="8.620171006768942">
        <ele>774.16632900000002</ele>
        <time>2025-10-14T08:58:13Z</time>
      </trkpt>
      <trkpt lat="48.024072982370853" lon="8.620263962075114">
        <ele>773.94644800000003</ele>
        <time>2025-10-14T08:58:23Z</time>
      </trkpt>
      <trkpt lat="48.024148000404239" lon="8.62035901285708">
        <ele>773.72286699999995</ele>
        <time>2025-10-14T08:58:33Z</time>
      </trkpt>
      <trkpt lat="48.024183958768845" lon="8.620493039488792">
        <ele>773.50318400000003</ele>
        <time>2025-10-14T08:58:44Z</time>
      </trkpt>
      <trkpt lat="48.024232992902398" lon="8.620613990351558">
        <ele>773.28799700000002</ele>
        <time>2025-10-14T08:59:00Z</time>
      </trkpt>
      <trkpt lat="48.024298036471009" lon="8.620719015598297">
        <ele>773.07034199999998</ele>
        <time>2025-10-14T08:59:11Z</time>
      </trkpt>
      <trkpt lat="48.024372970685363" lon="8.620799984782934">
        <ele>772.85990000000004</ele>
        <time>2025-10-14T08:59:21Z</time>
      </trkpt>
      <trkpt lat="48.024446982890368" lon="8.620892018079758">
        <ele>772.64099599999997</ele>
        <time>2025-10-14T08:59:33Z</time>
      </trkpt>
      <trkpt lat="48.02451797761023" lon="8.620991008356214">
        <ele>772.42017299999998</ele>
        <time>2025-10-14T08:59:43Z</time>
      </trkpt>
      <trkpt lat="48.024573968723416" lon="8.621097039431334">
        <ele>772.21467900000005</ele>
        <time>2025-10-14T08:59:53Z</time>
      </trkpt>
      <trkpt lat="48.024639012292027" lon="8.621209021657705">
        <ele>771.98909400000002</ele>
        <time>2025-10-14T09:00:04Z</time>
      </trkpt>
      <trkpt lat="48.0246870405972" lon="8.621330978348851">
        <ele>771.77376800000002</ele>
        <time>2025-10-14T09:00:14Z</time>
      </trkpt>
      <trkpt lat="48.024742025882006" lon="8.621448995545507">
        <ele>771.55496700000003</ele>
        <time>2025-10-14T09:00:24Z</time>
      </trkpt>
      <trkpt lat="48.024788964539766" lon="8.621578998863697">
        <ele>771.33015799999998</ele>
        <time>2025-10-14T09:00:33Z</time>
      </trkpt>
      <trkpt lat="48.024833975359797" lon="8.621698021888733">
        <ele>771.12219500000003</ele>
        <time>2025-10-14T09:00:42Z</time>
      </trkpt>
      <trkpt lat="48.024889966472983" lon="8.621818972751498">
        <ele>770.89834900000005</ele>
        <time>2025-10-14T09:00:53Z</time>
      </trkpt>
      <trkpt lat="48.024946041405201" lon="8.621925003826618">
        <ele>770.52489300000002</ele>
        <time>2025-10-14T09:01:02Z</time>
      </trkpt>
      <trkpt lat="48.025002032518387" lon="8.622033968567848">
        <ele>770.09505000000001</ele>
        <time>2025-10-14T09:01:11Z</time>
      </trkpt>
      <trkpt lat="48.025062968954444" lon="8.622144022956491">
        <ele>769.64817500000004</ele>
        <time>2025-10-14T09:01:20Z</time>
      </trkpt>
      <trkpt lat="48.025115020573139" lon="8.622274026274681">
        <ele>769.17446199999995</ele>
        <time>2025-10-14T09:01:30Z</time>
      </trkpt>
      <trkpt lat="48.02515902556479" lon="8.622410986572504">
        <ele>768.69918199999995</ele>
        <time>2025-10-14T09:01:40Z</time>
      </trkpt>
      <trkpt lat="48.02520495839417" lon="8.622535038739443">
        <ele>768.25573699999995</ele>
        <time>2025-10-14T09:01:51Z</time>
      </trkpt>
      <trkpt lat="48.02522599697113" lon="8.622671999037266">
        <ele>767.81618900000001</ele>
        <time>2025-10-14T09:02:08Z</time>
      </trkpt>
      <trkpt lat="48.025275031104684" lon="8.622789010405541">
        <ele>767.38447699999995</ele>
        <time>2025-10-14T09:02:17Z</time>
      </trkpt>
      <trkpt lat="48.025314006954432" lon="8.622913984581828">
        <ele>766.95312100000001</ele>
        <time>2025-10-14T09:02:26Z</time>
      </trkpt>
      <trkpt lat="48.025368992239237" lon="8.623034013435245">
        <ele>766.49818000000005</ele>
        <time>2025-10-14T09:02:36Z</time>
      </trkpt>
      <trkpt lat="48.025412997230887" lon="8.623159993439913">
        <ele>766.05366200000003</ele>
        <time>2025-10-14T09:02:46Z</time>
      </trkpt>
      <trkpt lat="48.025450967252254" lon="8.623289996758103">
        <ele>765.60998099999995</ele>
        <time>2025-10-14T09:02:56Z</time>
      </trkpt>
      <trkpt lat="48.025490026921034" lon="8.623417988419533">
        <ele>765.17010600000003</ele>
        <time>2025-10-14T09:03:07Z</time>
      </trkpt>
      <trkpt lat="48.025541994720697" lon="8.62354296259582">
        <ele>764.709745</ele>
        <time>2025-10-14T09:03:18Z</time>
      </trkpt>
      <trkpt lat="48.025584993883967" lon="8.623676989227533">
        <ele>764.24494900000002</ele>
        <time>2025-10-14T09:03:29Z</time>
      </trkpt>
      <trkpt lat="48.02567602135241" lon="8.623697021976113">
        <ele>763.81486500000005</ele>
        <time>2025-10-14T09:04:04Z</time>
      </trkpt>
      <trkpt lat="48.025642996653914" lon="8.623833982273936">
        <ele>763.35948800000006</ele>
        <time>2025-10-14T09:04:16Z</time>
      </trkpt>
      <trkpt lat="48.025647019967437" lon="8.623976977542043">
        <ele>762.91189699999995</ele>
        <time>2025-10-14T09:04:26Z</time>
      </trkpt>
      <trkpt lat="48.025641990825534" lon="8.624118966981769">
        <ele>762.46720900000003</ele>
        <time>2025-10-14T09:04:37Z</time>
      </trkpt>
      <trkpt lat="48.02563302218914" lon="8.624255005270243">
        <ele>762.34182599999997</ele>
        <time>2025-10-14T09:04:46Z</time>
      </trkpt>
      <trkpt lat="48.025628998875618" lon="8.624393977224827">
        <ele>762.23380499999996</ele>
        <time>2025-10-14T09:04:55Z</time>
      </trkpt>
      <trkpt lat="48.025621036067605" lon="8.624535966664553">
        <ele>762.12316499999997</ele>
        <time>2025-10-14T09:05:05Z</time>
      </trkpt>
      <trkpt lat="48.025625981390476" lon="8.624678961932659">
        <ele>762.01198699999998</ele>
        <time>2025-10-14T09:05:15Z</time>
      </trkpt>
      <trkpt lat="48.025606032460928" lon="8.624810976907611">
        <ele>761.90690400000005</ele>
        <time>2025-10-14T09:05:24Z</time>
      </trkpt>
      <trkpt lat="48.025595974177122" lon="8.624946009367704">
        <ele>761.80144800000005</ele>
        <time>2025-10-14T09:05:34Z</time>
      </trkpt>
      <trkpt lat="48.025588011369109" lon="8.625082969665527">
        <ele>761.69467499999996</ele>
        <time>2025-10-14T09:05:44Z</time>
      </trkpt>
      <trkpt lat="48.025584993883967" lon="8.625223031267524">
        <ele>761.58592199999998</ele>
        <time>2025-10-14T09:05:53Z</time>
      </trkpt>
      <trkpt lat="48.025585999712348" lon="8.62536896020174">
        <ele>761.47256000000004</ele>
        <time>2025-10-14T09:06:02Z</time>
      </trkpt>
      <trkpt lat="48.025584993883967" lon="8.625508015975356">
        <ele>761.36463300000003</ele>
        <time>2025-10-14T09:06:13Z</time>
      </trkpt>
      <trkpt lat="48.025563033297658" lon="8.625640030950308">
        <ele>761.25901299999998</ele>
        <time>2025-10-14T09:06:23Z</time>
      </trkpt>
      <trkpt lat="48.025554986670613" lon="8.625780008733273">
        <ele>761.14991899999995</ele>
        <time>2025-10-14T09:06:34Z</time>
      </trkpt>
      <trkpt lat="48.025523973628879" lon="8.625911017879844">
        <ele>761.04202999999995</ele>
        <time>2025-10-14T09:06:45Z</time>
      </trkpt>
      <trkpt lat="48.025508970022202" lon="8.62605300731957">
        <ele>760.93041300000004</ele>
        <time>2025-10-14T09:06:54Z</time>
      </trkpt>
      <trkpt lat="48.025502013042569" lon="8.626192985102534">
        <ele>760.82141300000001</ele>
        <time>2025-10-14T09:07:04Z</time>
      </trkpt>
      <trkpt lat="48.025509975850582" lon="8.62633396871388">
        <ele>760.711546</ele>
        <time>2025-10-14T09:07:13Z</time>
      </trkpt>
      <trkpt lat="48.025492038577795" lon="8.626481993123889">
        <ele>760.59475199999997</ele>
        <time>2025-10-14T09:07:24Z</time>
      </trkpt>
      <trkpt lat="48.025468988344073" lon="8.626615013927221">
        <ele>760.48809300000005</ele>
        <time>2025-10-14T09:07:34Z</time>
      </trkpt>
      <trkpt lat="48.025458008050919" lon="8.626748034730554">
        <ele>760.38404400000002</ele>
        <time>2025-10-14T09:07:44Z</time>
      </trkpt>
      <trkpt lat="48.025434035807848" lon="8.626884995028377">
        <ele>760.62989500000003</ele>
        <time>2025-10-14T09:07:54Z</time>
      </trkpt>
      <trkpt lat="48.0254209600389" lon="8.62702296115458">
        <ele>761.00637200000006</ele>
        <time>2025-10-14T09:08:06Z</time>
      </trkpt>
      <trkpt lat="48.025429006665945" lon="8.627168973907828">
        <ele>761.40210100000002</ele>
        <time>2025-10-14T09:08:17Z</time>
      </trkpt>
      <trkpt lat="48.025436969473958" lon="8.627310963347554">
        <ele>761.78706199999999</ele>
        <time>2025-10-14T09:08:27Z</time>
      </trkpt>
      <trkpt lat="48.025434035807848" lon="8.627445995807648">
        <ele>762.15195500000004</ele>
        <time>2025-10-14T09:08:38Z</time>
      </trkpt>
      <trkpt lat="48.025435963645577" lon="8.627596031874418">
        <ele>762.55724899999996</ele>
        <time>2025-10-14T09:08:49Z</time>
      </trkpt>
      <trkpt lat="48.025451973080635" lon="8.62773098051548">
        <ele>762.92762300000004</ele>
        <time>2025-10-14T09:08:58Z</time>
      </trkpt>
      <trkpt lat="48.025443004444242" lon="8.627868024632335">
        <ele>763.29949899999997</ele>
        <time>2025-10-14T09:09:07Z</time>
      </trkpt>
      <trkpt lat="48.025435041636229" lon="8.628008002415299">
        <ele>763.67907600000001</ele>
        <time>2025-10-14T09:09:16Z</time>
      </trkpt>
      <trkpt lat="48.0254399869591" lon="8.628144040703774">
        <ele>764.04702399999996</ele>
        <time>2025-10-14T09:09:24Z</time>
      </trkpt>
      <trkpt lat="48.025466976687312" lon="8.628282006829977">
        <ele>764.43544499999996</ele>
        <time>2025-10-14T09:09:34Z</time>
      </trkpt>
      <trkpt lat="48.025500001385808" lon="8.628422990441322">
        <ele>764.83899499999995</ele>
        <time>2025-10-14T09:09:45Z</time>
      </trkpt>
      <trkpt lat="48.025538977235556" lon="8.628555005416274">
        <ele>765.22882800000002</ele>
        <time>2025-10-14T09:09:56Z</time>
      </trkpt>
      <trkpt lat="48.025578958913684" lon="8.628689032047987">
        <ele>765.62523799999997</ele>
        <time>2025-10-14T09:10:07Z</time>
      </trkpt>
      <trkpt lat="48.025630004703999" lon="8.62880595959723">
        <ele>766.00250900000003</ele>
        <time>2025-10-14T09:10:18Z</time>
      </trkpt>
      <trkpt lat="48.025679038837552" lon="8.628929005935788">
        <ele>766.38926300000003</ele>
        <time>2025-10-14T09:10:29Z</time>
      </trkpt>
      <trkpt lat="48.025726983323693" lon="8.629042999818921">
        <ele>766.75317199999995</ele>
        <time>2025-10-14T09:10:39Z</time>
      </trkpt>
      <trkpt lat="48.025789009407163" lon="8.629141990095377">
        <ele>767.11955899999998</ele>
        <time>2025-10-14T09:10:49Z</time>
      </trkpt>
      <trkpt lat="48.025850029662251" lon="8.629262018948793">
        <ele>767.52673700000003</ele>
        <time>2025-10-14T09:10:59Z</time>
      </trkpt>
      <trkpt lat="48.025898979976773" lon="8.629382969811559">
        <ele>767.99869799999999</ele>
        <time>2025-10-14T09:11:10Z</time>
      </trkpt>
      <trkpt lat="48.025940973311663" lon="8.629519008100033">
        <ele>768.52862200000004</ele>
        <time>2025-10-14T09:11:20Z</time>
      </trkpt>
      <trkpt lat="48.025993024930358" lon="8.629633001983166">
        <ele>769.01677199999995</ele>
        <time>2025-10-14T09:11:31Z</time>
      </trkpt>
      <trkpt lat="48.026034012436867" lon="8.629765016958118">
        <ele>769.53163199999995</ele>
        <time>2025-10-14T09:11:40Z</time>
      </trkpt>
      <trkpt lat="48.026080029085279" lon="8.629883034154773">
        <ele>770.01480000000004</ele>
        <time>2025-10-14T09:11:50Z</time>
      </trkpt>
      <trkpt lat="48.026109030470252" lon="8.630013959482312">
        <ele>770.50294699999995</ele>
        <time>2025-10-14T09:11:59Z</time>
      </trkpt>
      <trkpt lat="48.026138031855226" lon="8.630145974457264">
        <ele>770.99445300000002</ele>
        <time>2025-10-14T09:12:09Z</time>
      </trkpt>
      <trkpt lat="48.026153035461903" lon="8.630289975553751">
        <ele>771.51000199999999</ele>
        <time>2025-10-14T09:12:19Z</time>
      </trkpt>
      <trkpt lat="48.02617097273469" lon="8.630427019670606">
        <ele>772.00390900000002</ele>
        <time>2025-10-14T09:12:29Z</time>
      </trkpt>
      <trkpt lat="48.026202991604805" lon="8.630564985796809">
        <ele>772.52060100000006</ele>
        <time>2025-10-14T09:12:39Z</time>
      </trkpt>
      <trkpt lat="48.026240039616823" lon="8.630691971629858">
        <ele>773.01064599999995</ele>
        <time>2025-10-14T09:12:48Z</time>
      </trkpt>
      <trkpt lat="48.026259988546371" lon="8.630830021575093">
        <ele>773.51015800000005</ele>
        <time>2025-10-14T09:12:57Z</time>
      </trkpt>
      <trkpt lat="48.026295024901628" lon="8.630967987701297">
        <ele>774.03226299999994</ele>
        <time>2025-10-14T09:13:08Z</time>
      </trkpt>
      <trkpt lat="48.026349004358053" lon="8.631091034039855">
        <ele>774.55275500000005</ele>
        <time>2025-10-14T09:13:19Z</time>
      </trkpt>
      <trkpt lat="48.026398038491607" lon="8.631219025701284">
        <ele>775.07448999999997</ele>
        <time>2025-10-14T09:13:28Z</time>
      </trkpt>
      <trkpt lat="48.026437014341354" lon="8.631354980170727">
        <ele>775.59795599999995</ele>
        <time>2025-10-14T09:13:39Z</time>
      </trkpt>
      <trkpt lat="48.02625797688961" lon="8.631507027894259">
        <ele>776.68680099999995</ele>
        <time>2025-10-14T09:15:15Z</time>
      </trkpt>
      <trkpt lat="48.026164015755057" lon="8.631548015400767">
        <ele>777.14423899999997</ele>
        <time>2025-10-14T09:15:24Z</time>
      </trkpt>
      <trkpt lat="48.02608598023653" lon="8.631623033434153">
        <ele>777.22414400000002</ele>
        <time>2025-10-14T09:15:34Z</time>
      </trkpt>
      <trkpt lat="48.025991013273597" lon="8.631672989577055">
        <ele>777.310923</ele>
        <time>2025-10-14T09:15:46Z</time>
      </trkpt>
      <trkpt lat="48.025901997461915" lon="8.631708025932312">
        <ele>777.39021700000001</ele>
        <time>2025-10-14T09:15:57Z</time>
      </trkpt>
      <trkpt lat="48.025821028277278" lon="8.631774997338653">
        <ele>777.46997699999997</ele>
        <time>2025-10-14T09:16:12Z</time>
      </trkpt>
      <trkpt lat="48.02584701217711" lon="8.631912963464856">
        <ele>777.55259599999999</ele>
        <time>2025-10-14T09:16:43Z</time>
      </trkpt>
      <trkpt lat="48.025751039385796" lon="8.631880022585392">
        <ele>777.637472</ele>
        <time>2025-10-14T09:17:01Z</time>
      </trkpt>
      <trkpt lat="48.025656994432211" lon="8.631895026192069">
        <ele>777.71892600000001</ele>
        <time>2025-10-14T09:17:10Z</time>
      </trkpt>
      <trkpt lat="48.025519028306007" lon="8.63192000426352">
        <ele>777.83870200000001</ele>
        <time>2025-10-14T09:17:42Z</time>
      </trkpt>
      <trkpt lat="48.025431018322706" lon="8.631970966234803">
        <ele>777.92002200000002</ele>
        <time>2025-10-14T09:17:53Z</time>
      </trkpt>
      <trkpt lat="48.025338985025883" lon="8.632001979276538">
        <ele>778.00128099999995</ele>
        <time>2025-10-14T09:18:04Z</time>
      </trkpt>
      <trkpt lat="48.025233037769794" lon="8.632035003975034">
        <ele>778.09457399999997</ele>
        <time>2025-10-14T09:18:14Z</time>
      </trkpt>
      <trkpt lat="48.025144021958113" lon="8.632107004523277">
        <ele>778.18176500000004</ele>
        <time>2025-10-14T09:18:26Z</time>
      </trkpt>
      <trkpt lat="48.02505299448967" lon="8.63213399425149">
        <ele>778.26170300000001</ele>
        <time>2025-10-14T09:18:35Z</time>
      </trkpt>
      <trkpt lat="48.024960961192846" lon="8.632170958444476">
        <ele>778.34379100000001</ele>
        <time>2025-10-14T09:18:44Z</time>
      </trkpt>
      <trkpt lat="48.024877980351448" lon="8.632232984527946">
        <ele>778.42373599999996</ele>
        <time>2025-10-14T09:18:54Z</time>
      </trkpt>
      <trkpt lat="48.024787036702037" lon="8.6322629917413">
        <ele>778.50402799999995</ele>
        <time>2025-10-14T09:19:03Z</time>
      </trkpt>
      <trkpt lat="48.024696009233594" lon="8.63230599090457">
        <ele>778.58626000000004</ele>
        <time>2025-10-14T09:19:12Z</time>
      </trkpt>
      <trkpt lat="48.024607999250293" lon="8.632347984239459">
        <ele>778.66585299999997</ele>
        <time>2025-10-14T09:19:21Z</time>
      </trkpt>
      <trkpt lat="48.024513032287359" lon="8.632389977574348">
        <ele>778.777467</ele>
        <time>2025-10-14T09:19:31Z</time>
      </trkpt>
      <trkpt lat="48.024419993162155" lon="8.632405987009406">
        <ele>778.88883599999997</ele>
        <time>2025-10-14T09:19:41Z</time>
      </trkpt>
      <trkpt lat="48.02432301454246" lon="8.632403975352645">
        <ele>779.00424499999997</ele>
        <time>2025-10-14T09:19:51Z</time>
      </trkpt>
      <trkpt lat="48.024235004559159" lon="8.632340021431446">
        <ele>779.12066400000003</ele>
        <time>2025-10-14T09:20:01Z</time>
      </trkpt>
      <trkpt lat="48.024163004010916" lon="8.632237007841468">
        <ele>779.23921099999995</ele>
        <time>2025-10-14T09:20:11Z</time>
      </trkpt>
      <trkpt lat="48.024111036211252" lon="8.632119996473193">
        <ele>779.35098500000004</ele>
        <time>2025-10-14T09:20:27Z</time>
      </trkpt>
      <trkpt lat="48.024006010964513" lon="8.631837023422122">
        <ele>779.60848799999997</ele>
        <time>2025-10-14T09:22:40Z</time>
      </trkpt>
      <trkpt lat="48.023959994316101" lon="8.631715988740325">
        <ele>779.71923100000004</ele>
        <time>2025-10-14T09:22:50Z</time>
      </trkpt>
      <trkpt lat="48.023896962404251" lon="8.631607023999095">
        <ele>779.83385699999997</ele>
        <time>2025-10-14T09:22:59Z</time>
      </trkpt>
      <trkpt lat="48.023844994604588" lon="8.631493030115962">
        <ele>779.94365100000005</ele>
        <time>2025-10-14T09:23:14Z</time>
      </trkpt>
      <trkpt lat="48.023809036239982" lon="8.631363026797772">
        <ele>780.05560500000001</ele>
        <time>2025-10-14T09:23:24Z</time>
      </trkpt>
      <trkpt lat="48.023794032633305" lon="8.631227994337678">
        <ele>780.16449399999999</ele>
        <time>2025-10-14T09:23:33Z</time>
      </trkpt>
      <trkpt lat="48.023795960471034" lon="8.631089022383094">
        <ele>780.27511800000002</ele>
        <time>2025-10-14T09:23:44Z</time>
      </trkpt>
      <trkpt lat="48.023784980177879" lon="8.630943009629846">
        <ele>780.392022</ele>
        <time>2025-10-14T09:23:53Z</time>
      </trkpt>
      <trkpt lat="48.023770982399583" lon="8.63080102019012">
        <ele>780.50622899999996</ele>
        <time>2025-10-14T09:24:02Z</time>
      </trkpt>
      <trkpt lat="48.023772994056344" lon="8.630665987730026">
        <ele>780.61367199999995</ele>
        <time>2025-10-14T09:24:12Z</time>
      </trkpt>
      <trkpt lat="48.023752961307764" lon="8.630519974976778">
        <ele>780.73225200000002</ele>
        <time>2025-10-14T09:24:23Z</time>
      </trkpt>
      <trkpt lat="48.023707028478384" lon="8.630386032164097">
        <ele>780.92910400000005</ele>
        <time>2025-10-14T09:24:35Z</time>
      </trkpt>
      <trkpt lat="48.023676015436649" lon="8.630256028845906">
        <ele>781.32027000000005</ele>
        <time>2025-10-14T09:24:50Z</time>
      </trkpt>
      <trkpt lat="48.023666962981224" lon="8.630118984729052">
        <ele>781.71042599999998</ele>
        <time>2025-10-14T09:24:59Z</time>
      </trkpt>
      <trkpt lat="48.023665035143495" lon="8.629982024431229">
        <ele>782.09880599999997</ele>
        <time>2025-10-14T09:25:07Z</time>
      </trkpt>
      <trkpt lat="48.023639973253012" lon="8.6298350058496">
        <ele>782.52869399999997</ele>
        <time>2025-10-14T09:25:18Z</time>
      </trkpt>
      <trkpt lat="48.023612983524799" lon="8.629702990874648">
        <ele>782.91991499999995</ele>
        <time>2025-10-14T09:25:27Z</time>
      </trkpt>
      <trkpt lat="48.023593034595251" lon="8.629565024748445">
        <ele>783.32011399999999</ele>
        <time>2025-10-14T09:25:36Z</time>
      </trkpt>
      <trkpt lat="48.023571996018291" lon="8.629418006166816">
        <ele>783.74614299999996</ele>
        <time>2025-10-14T09:25:45Z</time>
      </trkpt>
      <trkpt lat="48.023546012118459" lon="8.629277022555471">
        <ele>784.16067799999996</ele>
        <time>2025-10-14T09:25:55Z</time>
      </trkpt>
      <trkpt lat="48.023533020168543" lon="8.629141990095377">
        <ele>784.54724299999998</ele>
        <time>2025-10-14T09:26:04Z</time>
      </trkpt>
      <trkpt lat="48.023502007126808" lon="8.629006035625935">
        <ele>784.95446800000002</ele>
        <time>2025-10-14T09:26:15Z</time>
      </trkpt>
      <trkpt lat="48.023459007963538" lon="8.628886006772518">
        <ele>785.34031300000004</ele>
        <time>2025-10-14T09:26:23Z</time>
      </trkpt>
      <trkpt lat="48.023422965779901" lon="8.628751980140805">
        <ele>785.749593</ele>
        <time>2025-10-14T09:26:33Z</time>
      </trkpt>
      <trkpt lat="48.023396981880069" lon="8.628621976822615">
        <ele>786.13416400000006</ele>
        <time>2025-10-14T09:26:42Z</time>
      </trkpt>
      <trkpt lat="48.02335599437356" lon="8.628498008474708">
        <ele>786.52620899999999</ele>
        <time>2025-10-14T09:26:54Z</time>
      </trkpt>
      <trkpt lat="48.023325987160206" lon="8.628349984064698">
        <ele>786.964517</ele>
        <time>2025-10-14T09:27:03Z</time>
      </trkpt>
      <trkpt lat="48.023282987996936" lon="8.628220986574888">
        <ele>787.37302399999999</ele>
        <time>2025-10-14T09:27:13Z</time>
      </trkpt>
      <trkpt lat="48.023239988833666" lon="8.628102969378233">
        <ele>787.75388299999997</ele>
        <time>2025-10-14T09:27:22Z</time>
      </trkpt>
      <trkpt lat="48.023175029084086" lon="8.627992998808622">
        <ele>788.16989799999999</ele>
        <time>2025-10-14T09:27:30Z</time>
      </trkpt>
      <trkpt lat="48.023087019100785" lon="8.627952011302114">
        <ele>788.53693999999996</ele>
        <time>2025-10-14T09:27:44Z</time>
      </trkpt>
      <trkpt lat="48.023030022159219" lon="8.627660991623998">
        <ele>789.22260000000006</ele>
        <time>2025-10-14T09:29:38Z</time>
      </trkpt>
      <trkpt lat="48.022995991632342" lon="8.627531994134188">
        <ele>789.53613199999995</ele>
        <time>2025-10-14T09:29:50Z</time>
      </trkpt>
      <trkpt lat="48.022974031046033" lon="8.62738598138094">
        <ele>789.874549</ele>
        <time>2025-10-14T09:30:00Z</time>
      </trkpt>
      <trkpt lat="48.022930026054382" lon="8.627258995547891">
        <ele>790.19796899999994</ele>
        <time>2025-10-14T09:30:09Z</time>
      </trkpt>
      <trkpt lat="48.022900018841028" lon="8.627126980572939">
        <ele>790.51321600000006</ele>
        <time>2025-10-14T09:30:19Z</time>
      </trkpt>
      <trkpt lat="48.022856013849378" lon="8.627003012225032">
        <ele>790.83062800000005</ele>
        <time>2025-10-14T09:30:28Z</time>
      </trkpt>
      <trkpt lat="48.022822989150882" lon="8.626863034442067">
        <ele>791.16628700000001</ele>
        <time>2025-10-14T09:30:37Z</time>
      </trkpt>
      <trkpt lat="48.022786024957895" lon="8.62674099393189">
        <ele>791.46919700000001</ele>
        <time>2025-10-14T09:30:47Z</time>
      </trkpt>
      <trkpt lat="48.022770015522838" lon="8.626605039462447">
        <ele>791.78144799999995</ele>
        <time>2025-10-14T09:30:56Z</time>
      </trkpt>
      <trkpt lat="48.022745959460735" lon="8.626473024487495">
        <ele>792.09076600000003</ele>
        <time>2025-10-14T09:31:07Z</time>
      </trkpt>
      <trkpt lat="48.022726010531187" lon="8.62633396871388">
        <ele>792.41227100000003</ele>
        <time>2025-10-14T09:31:17Z</time>
      </trkpt>
      <trkpt lat="48.022708995267749" lon="8.626197008416057">
        <ele>792.72735</ele>
        <time>2025-10-14T09:31:27Z</time>
      </trkpt>
      <trkpt lat="48.022694997489452" lon="8.626061975955963">
        <ele>793.03626699999995</ele>
        <time>2025-10-14T09:31:36Z</time>
      </trkpt>
      <trkpt lat="48.022688962519169" lon="8.625910012051463">
        <ele>793.38057600000002</ele>
        <time>2025-10-14T09:31:46Z</time>
      </trkpt>
      <trkpt lat="48.02266800776124" lon="8.625760981813073">
        <ele>793.72490300000004</ele>
        <time>2025-10-14T09:31:57Z</time>
      </trkpt>
      <trkpt lat="48.022663984447718" lon="8.625625027343631">
        <ele>794.03273100000001</ele>
        <time>2025-10-14T09:32:05Z</time>
      </trkpt>
      <trkpt lat="48.022664990276098" lon="8.625470967963338">
        <ele>794.38098100000002</ele>
        <time>2025-10-14T09:32:17Z</time>
      </trkpt>
      <trkpt lat="48.022651998326182" lon="8.625325039029121">
        <ele>794.779134</ele>
        <time>2025-10-14T09:32:28Z</time>
      </trkpt>
      <trkpt lat="48.022642023861408" lon="8.625176008790731">
        <ele>795.23435600000005</ele>
        <time>2025-10-14T09:32:39Z</time>
      </trkpt>
      <trkpt lat="48.022632971405983" lon="8.625038964673877">
        <ele>795.652828</ele>
        <time>2025-10-14T09:32:50Z</time>
      </trkpt>
      <trkpt lat="48.022598018869758" lon="8.624907033517957">
        <ele>796.08447899999999</ele>
        <time>2025-10-14T09:32:59Z</time>
      </trkpt>
      <trkpt lat="48.022589972242713" lon="8.624768983572722">
        <ele>796.50556099999994</ele>
        <time>2025-10-14T09:33:11Z</time>
      </trkpt>
      <trkpt lat="48.022572034969926" lon="8.62463696859777">
        <ele>796.91508499999998</ele>
        <time>2025-10-14T09:33:19Z</time>
      </trkpt>
      <trkpt lat="48.022574968636036" lon="8.624496990814805">
        <ele>797.34089200000005</ele>
        <time>2025-10-14T09:33:29Z</time>
      </trkpt>
      <trkpt lat="48.022569017484784" lon="8.62435701303184">
        <ele>797.76735299999996</ele>
        <time>2025-10-14T09:33:39Z</time>
      </trkpt>
      <trkpt lat="48.022568011656404" lon="8.624222986400127">
        <ele>798.17472799999996</ele>
        <time>2025-10-14T09:33:48Z</time>
      </trkpt>
      <trkpt lat="48.022538004443049" lon="8.624087031930685">
        <ele>798.61006199999997</ele>
        <time>2025-10-14T09:33:58Z</time>
      </trkpt>
      <trkpt lat="48.022534986957908" lon="8.623950993642211">
        <ele>799.02371600000004</ele>
        <time>2025-10-14T09:34:08Z</time>
      </trkpt>
      <trkpt lat="48.022515038028359" lon="8.623818978667259">
        <ele>799.43515300000001</ele>
        <time>2025-10-14T09:34:17Z</time>
      </trkpt>
      <trkpt lat="48.022486958652735" lon="8.623685035854578">
        <ele>799.86191899999994</ele>
        <time>2025-10-14T09:34:26Z</time>
      </trkpt>
      <trkpt lat="48.022471033036709" lon="8.623545980080962">
        <ele>800.29067999999995</ele>
        <time>2025-10-14T09:34:37Z</time>
      </trkpt>
      <trkpt lat="48.022451000288129" lon="8.623404996469617">
        <ele>800.72884299999998</ele>
        <time>2025-10-14T09:34:50Z</time>
      </trkpt>
      <trkpt lat="48.022400960326195" lon="8.623292008414865">
        <ele>801.14072199999998</ele>
        <time>2025-10-14T09:34:58Z</time>
      </trkpt>
      <trkpt lat="48.022352010011673" lon="8.623166028410196">
        <ele>801.58379300000001</ele>
        <time>2025-10-14T09:35:09Z</time>
      </trkpt>
      <trkpt lat="48.022288978099823" lon="8.623063014820218">
        <ele>802.00809300000003</ele>
        <time>2025-10-14T09:35:18Z</time>
      </trkpt>
      <trkpt lat="48.022222006693482" lon="8.622966958209872">
        <ele>802.42987500000004</ele>
        <time>2025-10-14T09:35:26Z</time>
      </trkpt>
      <trkpt lat="48.022147994488478" lon="8.622875008732081">
        <ele>802.75538100000006</ele>
        <time>2025-10-14T09:35:35Z</time>
      </trkpt>
      <trkpt lat="48.022070964798331" lon="8.622792027890682">
        <ele>802.89826200000005</ele>
        <time>2025-10-14T09:35:44Z</time>
      </trkpt>
      <trkpt lat="48.022001981735229" lon="8.62270200625062">
        <ele>803.03608899999995</ele>
        <time>2025-10-14T09:35:53Z</time>
      </trkpt>
      <trkpt lat="48.021864015609026" lon="8.622559010982513">
        <ele>803.28881799999999</ele>
        <time>2025-10-14T09:53:49Z</time>
      </trkpt>
      <trkpt lat="48.021782962605357" lon="8.622491033747792">
        <ele>803.42864399999996</ele>
        <time>2025-10-14T09:54:00Z</time>
      </trkpt>
      <trkpt lat="48.021692018955946" lon="8.622441999614239">
        <ele>803.57422899999995</ele>
        <time>2025-10-14T09:54:12Z</time>
      </trkpt>
      <trkpt lat="48.02159302867949" lon="8.622402017936111">
        <ele>803.72858900000006</ele>
        <time>2025-10-14T09:54:24Z</time>
      </trkpt>
      <trkpt lat="48.021494038403034" lon="8.622359018772841">
        <ele>803.88376400000004</ele>
        <time>2025-10-14T09:54:34Z</time>
      </trkpt>
      <trkpt lat="48.021403010934591" lon="8.622309984639287">
        <ele>804.02935000000002</ele>
        <time>2025-10-14T09:54:48Z</time>
      </trkpt>
      <trkpt lat="48.02131500095129" lon="8.622276959940791">
        <ele>804.16591000000005</ele>
        <time>2025-10-14T09:54:56Z</time>
      </trkpt>
      <trkpt lat="48.021223973482847" lon="8.622249970212579">
        <ele>804.30555400000003</ele>
        <time>2025-10-14T09:55:08Z</time>
      </trkpt>
      <trkpt lat="48.021128000691533" lon="8.622214011847973">
        <ele>804.45452799999998</ele>
        <time>2025-10-14T09:55:17Z</time>
      </trkpt>
      <trkpt lat="48.02103403955698" lon="8.622189033776522">
        <ele>804.59823800000004</ele>
        <time>2025-10-14T09:55:27Z</time>
      </trkpt>
      <trkpt lat="48.020942006260157" lon="8.622152991592884">
        <ele>804.74138000000005</ele>
        <time>2025-10-14T09:55:37Z</time>
      </trkpt>
      <trkpt lat="48.020852990448475" lon="8.622124996036291">
        <ele>804.87827600000003</ele>
        <time>2025-10-14T09:55:47Z</time>
      </trkpt>
      <trkpt lat="48.020749976858497" lon="8.622093982994556">
        <ele>805.03642200000002</ele>
        <time>2025-10-14T09:55:58Z</time>
      </trkpt>
      <trkpt lat="48.020655009895563" lon="8.622073028236628">
        <ele>805.18097</ele>
        <time>2025-10-14T09:56:09Z</time>
      </trkpt>
      <trkpt lat="48.020559037104249" lon="8.622067999094725">
        <ele>805.32555600000001</ele>
        <time>2025-10-14T09:56:17Z</time>
      </trkpt>
      <trkpt lat="48.020460968837142" lon="8.622058024629951">
        <ele>805.46674900000005</ele>
        <time>2025-10-14T09:56:25Z</time>
      </trkpt>
      <trkpt lat="48.02036801353097" lon="8.622035980224609">
        <ele>805.59420299999999</ele>
        <time>2025-10-14T09:56:35Z</time>
      </trkpt>
      <trkpt lat="48.020280003547668" lon="8.622001027688384">
        <ele>805.71746599999994</ele>
        <time>2025-10-14T09:57:01Z</time>
      </trkpt>
      <trkpt lat="48.02017598412931" lon="8.621845040470362">
        <ele>805.91688399999998</ele>
        <time>2025-10-14T09:59:30Z</time>
      </trkpt>
      <trkpt lat="48.020098032429814" lon="8.621752001345158">
        <ele>806.05193199999997</ele>
        <time>2025-10-14T09:59:40Z</time>
      </trkpt>
      <trkpt lat="48.020021002739668" lon="8.621654016897082">
        <ele>806.18881399999998</ele>
        <time>2025-10-14T09:59:51Z</time>
      </trkpt>
      <trkpt lat="48.019949002191424" lon="8.621555026620626">
        <ele>806.32122700000002</ele>
        <time>2025-10-14T10:00:01Z</time>
      </trkpt>
      <trkpt lat="48.019878007471561" lon="8.621465004980564">
        <ele>806.44722999999999</ele>
        <time>2025-10-14T10:00:10Z</time>
      </trkpt>
      <trkpt lat="48.019823022186756" lon="8.621356962248683">
        <ele>806.57013099999995</ele>
        <time>2025-10-14T10:00:19Z</time>
      </trkpt>
      <trkpt lat="48.019765019416809" lon="8.621237017214298">
        <ele>806.70417699999996</ele>
        <time>2025-10-14T10:00:30Z</time>
      </trkpt>
      <trkpt lat="48.019717996940017" lon="8.62111397087574">
        <ele>806.83243400000003</ele>
        <time>2025-10-14T10:00:40Z</time>
      </trkpt>
      <trkpt lat="48.019676003605127" lon="8.620993020012975">
        <ele>806.95586200000002</ele>
        <time>2025-10-14T10:00:50Z</time>
      </trkpt>
      <trkpt lat="48.019628981128335" lon="8.620861005038023">
        <ele>807.09125500000005</ele>
        <time>2025-10-14T10:01:00Z</time>
      </trkpt>
      <trkpt lat="48.019591011106968" lon="8.620731001719832">
        <ele>807.21970699999997</ele>
        <time>2025-10-14T10:01:10Z</time>
      </trkpt>
      <trkpt lat="48.019535019993782" lon="8.620622036978602">
        <ele>807.34414900000002</ele>
        <time>2025-10-14T10:01:19Z</time>
      </trkpt>
      <trkpt lat="48.019453966990113" lon="8.620557999238372">
        <ele>807.468164</ele>
        <time>2025-10-14T10:01:30Z</time>
      </trkpt>
      <trkpt lat="48.019363023340702" lon="8.620608039200306">
        <ele>807.59939999999995</ele>
        <time>2025-10-14T10:01:40Z</time>
      </trkpt>
      <trkpt lat="48.019276019185781" lon="8.620659001171589">
        <ele>807.72589500000004</ele>
        <time>2025-10-14T10:02:13Z</time>
      </trkpt>
      <trkpt lat="48.019111985340714" lon="8.620803002268076">
        <ele>808.22147800000005</ele>
        <time>2025-10-14T10:02:53Z</time>
      </trkpt>
      <trkpt lat="48.019033027812839" lon="8.620870979502797">
        <ele>808.55272300000001</ele>
        <time>2025-10-14T10:03:02Z</time>
      </trkpt>
      <trkpt lat="48.01895298063755" lon="8.620934011414647">
        <ele>808.88128500000005</ele>
        <time>2025-10-14T10:03:11Z</time>
      </trkpt>
      <trkpt lat="48.018905036151409" lon="8.621049011126161">
        <ele>809.21075499999995</ele>
        <time>2025-10-14T10:03:23Z</time>
      </trkpt>
      <trkpt lat="48.018874023109674" lon="8.621192006394267">
        <ele>809.57612200000005</ele>
        <time>2025-10-14T10:03:35Z</time>
      </trkpt>
      <trkpt lat="48.018829012289643" lon="8.621309017762542">
        <ele>809.90415800000005</ele>
        <time>2025-10-14T10:03:46Z</time>
      </trkpt>
      <trkpt lat="48.018763968721032" lon="8.621423011645675">
        <ele>810.26824999999997</ele>
        <time>2025-10-14T10:03:57Z</time>
      </trkpt>
      <trkpt lat="48.018716024234891" lon="8.621543040499091">
        <ele>810.60809099999994</ele>
        <time>2025-10-14T10:04:06Z</time>
      </trkpt>
      <trkpt lat="48.018532041460276" lon="8.621535999700427">
        <ele>811.27691600000003</ele>
        <time>2025-10-14T10:05:50Z</time>
      </trkpt>
      <trkpt lat="48.018434979021549" lon="8.621540023013949">
        <ele>811.62952199999995</ele>
        <time>2025-10-14T10:06:03Z</time>
      </trkpt>
      <trkpt lat="48.018341017886996" lon="8.621557038277388">
        <ele>811.97358399999996</ele>
        <time>2025-10-14T10:06:13Z</time>
      </trkpt>
      <trkpt lat="48.018248984590173" lon="8.621570030227304">
        <ele>812.30937800000004</ele>
        <time>2025-10-14T10:06:25Z</time>
      </trkpt>
      <trkpt lat="48.018152005970478" lon="8.621572963893414">
        <ele>812.66192599999999</ele>
        <time>2025-10-14T10:06:38Z</time>
      </trkpt>
      <trkpt lat="48.018057961016893" lon="8.621506998315454">
        <ele>813.03929200000005</ele>
        <time>2025-10-14T10:06:52Z</time>
      </trkpt>
      <trkpt lat="48.018040023744106" lon="8.621288985013962">
        <ele>813.57318399999997</ele>
        <time>2025-10-14T10:08:10Z</time>
      </trkpt>
      <trkpt lat="48.01802602596581" lon="8.621148001402617">
        <ele>813.91965300000004</ele>
        <time>2025-10-14T10:08:20Z</time>
      </trkpt>
      <trkpt lat="48.018010016530752" lon="8.621012968942523">
        <ele>814.25289499999997</ele>
        <time>2025-10-14T10:08:30Z</time>
      </trkpt>
      <trkpt lat="48.01800699904561" lon="8.620865028351545">
        <ele>813.88120500000002</ele>
        <time>2025-10-14T10:08:40Z</time>
      </trkpt>
      <trkpt lat="48.018011022359133" lon="8.620719015598297">
        <ele>813.13075900000001</ele>
        <time>2025-10-14T10:08:50Z</time>
      </trkpt>
      <trkpt lat="48.018024014309049" lon="8.62057501450181">
        <ele>812.38450899999998</ele>
        <time>2025-10-14T10:09:00Z</time>
      </trkpt>
      <trkpt lat="48.018011022359133" lon="8.620431013405323">
        <ele>811.63825799999995</ele>
        <time>2025-10-14T10:09:10Z</time>
      </trkpt>
      <trkpt lat="48.017999958246946" lon="8.620290029793978">
        <ele>810.90921200000003</ele>
        <time>2025-10-14T10:09:20Z</time>
      </trkpt>
      <trkpt lat="48.01798596046865" lon="8.620153991505504">
        <ele>810.20252900000003</ele>
        <time>2025-10-14T10:09:30Z</time>
      </trkpt>
      <trkpt lat="48.01798302680254" lon="8.620008984580636">
        <ele>809.457491</ele>
        <time>2025-10-14T10:09:40Z</time>
      </trkpt>
      <trkpt lat="48.017979003489017" lon="8.619859032332897">
        <ele>808.68651899999998</ele>
        <time>2025-10-14T10:09:51Z</time>
      </trkpt>
      <trkpt lat="48.017975986003876" lon="8.619719976559281">
        <ele>807.97228099999995</ele>
        <time>2025-10-14T10:10:02Z</time>
      </trkpt>
      <trkpt lat="48.017948996275663" lon="8.619587039574981">
        <ele>807.25846300000001</ele>
        <time>2025-10-14T10:11:06Z</time>
      </trkpt>
      <trkpt lat="48.017937010154128" lon="8.619443038478494">
        <ele>806.51319899999999</ele>
        <time>2025-10-14T10:11:16Z</time>
      </trkpt>
      <trkpt lat="48.017946984618902" lon="8.619303982704878">
        <ele>805.79521499999998</ele>
        <time>2025-10-14T10:11:32Z</time>
      </trkpt>
      <trkpt lat="48.017951007932425" lon="8.619124023243785">
        <ele>804.870272</ele>
        <time>2025-10-14T10:12:12Z</time>
      </trkpt>
      <trkpt lat="48.017965005710721" lon="8.618978010490537">
        <ele>804.11278900000002</ele>
        <time>2025-10-14T10:12:24Z</time>
      </trkpt>
      <trkpt lat="48.017999036237597" lon="8.618850018829107">
        <ele>803.40547900000001</ele>
        <time>2025-10-14T10:12:36Z</time>
      </trkpt>
      <trkpt lat="48.01800699904561" lon="8.618699982762337">
        <ele>802.63267399999995</ele>
        <time>2025-10-14T10:12:46Z</time>
      </trkpt>
      <trkpt lat="48.018024014309049" lon="8.618566039949656">
        <ele>801.93221800000003</ele>
        <time>2025-10-14T10:12:55Z</time>
      </trkpt>
      <trkpt lat="48.018038012087345" lon="8.618422960862517">
        <ele>801.18998399999998</ele>
        <time>2025-10-14T10:13:05Z</time>
      </trkpt>
      <trkpt lat="48.018046980723739" lon="8.618274014443159">
        <ele>800.46147499999995</ele>
        <time>2025-10-14T10:13:15Z</time>
      </trkpt>
      <trkpt lat="48.018053015694022" lon="8.618133030831814">
        <ele>799.93340499999999</ele>
        <time>2025-10-14T10:13:25Z</time>
      </trkpt>
      <trkpt lat="48.018055027350783" lon="8.617991963401437">
        <ele>799.40628100000004</ele>
        <time>2025-10-14T10:13:36Z</time>
      </trkpt>
      <trkpt lat="48.018052009865642" lon="8.617852991446853">
        <ele>798.886481</ele>
        <time>2025-10-14T10:13:46Z</time>
      </trkpt>
      <trkpt lat="48.018058966845274" lon="8.617706978693605">
        <ele>798.33938799999999</ele>
        <time>2025-10-14T10:13:57Z</time>
      </trkpt>
      <trkpt lat="48.018059972673655" lon="8.617572030052543">
        <ele>797.83477700000003</ele>
        <time>2025-10-14T10:14:07Z</time>
      </trkpt>
      <trkpt lat="48.01806902512908" lon="8.617430962622166">
        <ele>797.30537800000002</ele>
        <time>2025-10-14T10:14:17Z</time>
      </trkpt>
      <trkpt lat="48.018067013472319" lon="8.617284027859569">
        <ele>796.75583400000005</ele>
        <time>2025-10-14T10:14:27Z</time>
      </trkpt>
      <trkpt lat="48.01806902512908" lon="8.617144972085953">
        <ele>796.23618399999998</ele>
        <time>2025-10-14T10:14:38Z</time>
      </trkpt>
      <trkpt lat="48.018040023744106" lon="8.617010023444891">
        <ele>795.70622300000002</ele>
        <time>2025-10-14T10:14:49Z</time>
      </trkpt>
      <trkpt lat="48.018025020137429" lon="8.616865016520023">
        <ele>795.15782400000001</ele>
        <time>2025-10-14T10:15:00Z</time>
      </trkpt>
      <trkpt lat="48.018000964075327" lon="8.616726966574788">
        <ele>794.62488199999996</ele>
        <time>2025-10-14T10:15:11Z</time>
      </trkpt>
      <trkpt lat="48.017991995438933" lon="8.616581959649921">
        <ele>794.08059800000001</ele>
        <time>2025-10-14T10:15:22Z</time>
      </trkpt>
      <trkpt lat="48.017982020974159" lon="8.616448016837239">
        <ele>793.57664799999998</ele>
        <time>2025-10-14T10:15:31Z</time>
      </trkpt>
      <trkpt lat="48.017967017367482" lon="8.616314996033907">
        <ele>793.07252600000004</ele>
        <time>2025-10-14T10:15:41Z</time>
      </trkpt>
      <trkpt lat="48.017947990447283" lon="8.616180969402194">
        <ele>792.56055500000002</ele>
        <time>2025-10-14T10:15:50Z</time>
      </trkpt>
      <trkpt lat="48.01794103346765" lon="8.616044009104371">
        <ele>792.04700700000001</ele>
        <time>2025-10-14T10:16:00Z</time>
      </trkpt>
      <trkpt lat="48.01789996214211" lon="8.615920040756464">
        <ele>791.53000899999995</ele>
        <time>2025-10-14T10:16:10Z</time>
      </trkpt>
      <trkpt lat="48.017870960757136" lon="8.615782996639609">
        <ele>790.99292400000002</ele>
        <time>2025-10-14T10:16:19Z</time>
      </trkpt>
      <trkpt lat="48.017836008220911" lon="8.615650981664658">
        <ele>790.45716000000004</ele>
        <time>2025-10-14T10:16:29Z</time>
      </trkpt>
      <trkpt lat="48.017803989350796" lon="8.615516033023596">
        <ele>789.87304600000004</ele>
        <time>2025-10-14T10:16:40Z</time>
      </trkpt>
      <trkpt lat="48.017780017107725" lon="8.615385023877025">
        <ele>789.31911600000001</ele>
        <time>2025-10-14T10:16:50Z</time>
      </trkpt>
      <trkpt lat="48.017738023772836" lon="8.615258038043976">
        <ele>788.74132999999995</ele>
        <time>2025-10-14T10:17:00Z</time>
      </trkpt>
      <trkpt lat="48.017711034044623" lon="8.615123005583882">
        <ele>788.16667900000004</ele>
        <time>2025-10-14T10:17:11Z</time>
      </trkpt>
      <trkpt lat="48.01768203265965" lon="8.614983027800918">
        <ele>787.56896900000004</ele>
        <time>2025-10-14T10:17:22Z</time>
      </trkpt>
      <trkpt lat="48.017660994082689" lon="8.614840032532811">
        <ele>786.97188500000004</ele>
        <time>2025-10-14T10:17:31Z</time>
      </trkpt>
      <trkpt lat="48.017654959112406" lon="8.614696031436324">
        <ele>786.38347399999998</ele>
        <time>2025-10-14T10:17:42Z</time>
      </trkpt>
      <trkpt lat="48.017640961334109" lon="8.614560998976231">
        <ele>785.82632799999999</ele>
        <time>2025-10-14T10:17:51Z</time>
      </trkpt>
      <trkpt lat="48.0176190007478" lon="8.614428984001279">
        <ele>785.27153499999997</ele>
        <time>2025-10-14T10:18:01Z</time>
      </trkpt>
      <trkpt lat="48.017592011019588" lon="8.614283977076411">
        <ele>784.65769799999998</ele>
        <time>2025-10-14T10:18:12Z</time>
      </trkpt>
      <trkpt lat="48.017568038776517" lon="8.61415296792984">
        <ele>784.10376499999995</ele>
        <time>2025-10-14T10:18:22Z</time>
      </trkpt>
      <trkpt lat="48.01753400824964" lon="8.614018019288778">
        <ele>783.51546399999995</ele>
        <time>2025-10-14T10:18:31Z</time>
      </trkpt>
      <trkpt lat="48.017493020743132" lon="8.613882986828685">
        <ele>782.91080199999999</ele>
        <time>2025-10-14T10:18:41Z</time>
      </trkpt>
      <trkpt lat="48.017453961074352" lon="8.613750971853733">
        <ele>782.32229099999995</ele>
        <time>2025-10-14T10:18:51Z</time>
      </trkpt>
      <trkpt lat="48.017401993274689" lon="8.613629015162587">
        <ele>781.73231199999998</ele>
        <time>2025-10-14T10:19:01Z</time>
      </trkpt>
      <trkpt lat="48.017349019646645" lon="8.613518960773945">
        <ele>781.17943400000001</ele>
        <time>2025-10-14T10:19:10Z</time>
      </trkpt>
      <trkpt lat="48.017285987734795" lon="8.613417958840728">
        <ele>780.61622</ele>
        <time>2025-10-14T10:19:19Z</time>
      </trkpt>
      <trkpt lat="48.017237037420273" lon="8.613287033513188">
        <ele>780.00410399999998</ele>
        <time>2025-10-14T10:19:29Z</time>
      </trkpt>
      <trkpt lat="48.017186997458339" lon="8.613172033801675">
        <ele>779.43854399999998</ele>
        <time>2025-10-14T10:19:39Z</time>
      </trkpt>
      <trkpt lat="48.017123965546489" lon="8.613056028261781">
        <ele>778.79378299999996</ele>
        <time>2025-10-14T10:19:49Z</time>
      </trkpt>
      <trkpt lat="48.017066968604922" lon="8.612944968044758">
        <ele>778.18994499999997</ele>
        <time>2025-10-14T10:19:59Z</time>
      </trkpt>
      <trkpt lat="48.017005026340485" lon="8.612829968333244">
        <ele>777.55259599999999</ele>
        <time>2025-10-14T10:20:10Z</time>
      </trkpt>
      <trkpt lat="48.016940988600254" lon="8.61273298971355">
        <ele>776.96467800000005</ele>
        <time>2025-10-14T10:20:19Z</time>
      </trkpt>
      <trkpt lat="48.016883991658688" lon="8.612626036629081">
        <ele>776.37443599999995</ele>
        <time>2025-10-14T10:20:28Z</time>
      </trkpt>
      <trkpt lat="48.016815008595586" lon="8.612512964755297">
        <ele>775.71421999999995</ele>
        <time>2025-10-14T10:20:38Z</time>
      </trkpt>
      <trkpt lat="48.016767986118793" lon="8.612395031377673">
        <ele>775.12160500000005</ele>
        <time>2025-10-14T10:20:48Z</time>
      </trkpt>
      <trkpt lat="48.016717024147511" lon="8.61228003166616">
        <ele>774.52621399999998</ele>
        <time>2025-10-14T10:21:00Z</time>
      </trkpt>
      <trkpt lat="48.016674024984241" lon="8.61215497367084">
        <ele>773.91967899999997</ele>
        <time>2025-10-14T10:21:11Z</time>
      </trkpt>
      <trkpt lat="48.016602024435997" lon="8.61204500310123">
        <ele>773.25557500000002</ele>
        <time>2025-10-14T10:21:21Z</time>
      </trkpt>
      <trkpt lat="48.016539998352528" lon="8.611934026703239">
        <ele>772.63156700000002</ele>
        <time>2025-10-14T10:21:30Z</time>
      </trkpt>
      <trkpt lat="48.016490964218974" lon="8.611811986193061">
        <ele>772.017515</ele>
        <time>2025-10-14T10:21:39Z</time>
      </trkpt>
      <trkpt lat="48.016461962834001" lon="8.611669996753335">
        <ele>771.376845</ele>
        <time>2025-10-14T10:21:49Z</time>
      </trkpt>
      <trkpt lat="48.016443019732833" lon="8.611535970121622">
        <ele>770.78576999999996</ele>
        <time>2025-10-14T10:21:58Z</time>
      </trkpt>
      <trkpt lat="48.016441008076072" lon="8.611393980681896">
        <ele>770.17288499999995</ele>
        <time>2025-10-14T10:22:07Z</time>
      </trkpt>
      <trkpt lat="48.01643799059093" lon="8.611259032040834">
        <ele>769.59002099999998</ele>
        <time>2025-10-14T10:22:16Z</time>
      </trkpt>
      <trkpt lat="48.016461040824652" lon="8.611127017065883">
        <ele>769.00141699999995</ele>
        <time>2025-10-14T10:22:36Z</time>
      </trkpt>
      <trkpt lat="48.016549972817302" lon="8.61110296100378">
        <ele>768.41801899999996</ele>
        <time>2025-10-14T10:23:07Z</time>
      </trkpt>
      <trkpt lat="48.016649968922138" lon="8.61114202067256">
        <ele>767.80864399999996</ele>
        <time>2025-10-14T10:23:18Z</time>
      </trkpt>
      <trkpt lat="48.016739990562201" lon="8.611168004572392">
        <ele>767.38929499999995</ele>
        <time>2025-10-14T10:23:29Z</time>
      </trkpt>
      <trkpt lat="48.016834035515785" lon="8.611199017614126">
        <ele>766.94892500000003</ele>
        <time>2025-10-14T10:23:42Z</time>
      </trkpt>
      <trkpt lat="48.016925984993577" lon="8.611198011785746">
        <ele>766.52803200000005</ele>
        <time>2025-10-14T10:23:52Z</time>
      </trkpt>
      <trkpt lat="48.017019024118781" lon="8.611212009564042">
        <ele>766.10042399999998</ele>
        <time>2025-10-14T10:24:01Z</time>
      </trkpt>
      <trkpt lat="48.017109967768192" lon="8.611242016777396">
        <ele>765.67411600000003</ele>
        <time>2025-10-14T10:24:10Z</time>
      </trkpt>
      <trkpt lat="48.017204012721777" lon="8.611270012333989">
        <ele>765.23563100000001</ele>
        <time>2025-10-14T10:24:21Z</time>
      </trkpt>
      <trkpt lat="48.01729504019022" lon="8.61129398457706">
        <ele>764.81289600000002</ele>
        <time>2025-10-14T10:24:29Z</time>
      </trkpt>
      <trkpt lat="48.017385983839631" lon="8.611306976526976">
        <ele>764.39469299999996</ele>
        <time>2025-10-14T10:24:39Z</time>
      </trkpt>
      <trkpt lat="48.017478017136455" lon="8.611328015103936">
        <ele>763.96893399999999</ele>
        <time>2025-10-14T10:24:50Z</time>
      </trkpt>
      <trkpt lat="48.01757600158453" lon="8.61135701648891">
        <ele>763.51190599999995</ele>
        <time>2025-10-14T10:24:58Z</time>
      </trkpt>
      <trkpt lat="48.017669040709734" lon="8.611374031752348">
        <ele>763.08328100000006</ele>
        <time>2025-10-14T10:25:08Z</time>
      </trkpt>
      <trkpt lat="48.017760990187526" lon="8.611415019258857">
        <ele>762.64409699999999</ele>
        <time>2025-10-14T10:25:19Z</time>
      </trkpt>
      <trkpt lat="48.017852017655969" lon="8.611424993723631">
        <ele>762.22666700000002</ele>
        <time>2025-10-14T10:25:28Z</time>
      </trkpt>
      <trkpt lat="48.017942039296031" lon="8.611445026472211">
        <ele>761.81041200000004</ele>
        <time>2025-10-14T10:25:36Z</time>
      </trkpt>
      <trkpt lat="48.018034994602203" lon="8.61146598123014">
        <ele>761.38013000000001</ele>
        <time>2025-10-14T10:25:45Z</time>
      </trkpt>
      <trkpt lat="48.018129039555788" lon="8.611450977623463">
        <ele>760.94765600000005</ele>
        <time>2025-10-14T10:25:57Z</time>
      </trkpt>
      <trkpt lat="48.01822098903358" lon="8.61144301481545">
        <ele>760.52606300000002</ele>
        <time>2025-10-14T10:26:09Z</time>
      </trkpt>
      <trkpt lat="48.018311010673642" lon="8.611474027857184">
        <ele>760.10354500000005</ele>
        <time>2025-10-14T10:26:40Z</time>
      </trkpt>
      <trkpt lat="48.01841402426362" lon="8.611490037292242">
        <ele>759.64993100000004</ele>
        <time>2025-10-14T10:26:52Z</time>
      </trkpt>
      <trkpt lat="48.018485018983483" lon="8.611405966803432">
        <ele>759.32819800000004</ele>
        <time>2025-10-14T10:27:00Z</time>
      </trkpt>
      <trkpt lat="48.01804999820888" lon="8.608226962387562">
        <ele>752.39292399999999</ele>
        <time>2025-10-14T10:34:01Z</time>
      </trkpt>
      <trkpt lat="48.018044969066978" lon="8.608088996261358">
        <ele>752.21347700000001</ele>
        <time>2025-10-14T10:34:22Z</time>
      </trkpt>
      <trkpt lat="48.018045974895358" lon="8.607948012650013">
        <ele>752.03038600000002</ele>
        <time>2025-10-14T10:34:33Z</time>
      </trkpt>
      <trkpt lat="48.018037006258965" lon="8.607810968533158">
        <ele>751.85164399999996</ele>
        <time>2025-10-14T10:34:43Z</time>
      </trkpt>
      <trkpt lat="48.018028037622571" lon="8.607676019892097">
        <ele>751.67548599999998</ele>
        <time>2025-10-14T10:34:53Z</time>
      </trkpt>
      <trkpt lat="48.018025020137429" lon="8.607529001310468">
        <ele>751.48452699999996</ele>
        <time>2025-10-14T10:35:25Z</time>
      </trkpt>
      <trkpt lat="48.018031977117062" lon="8.607391035184264">
        <ele>751.30482700000005</ele>
        <time>2025-10-14T10:35:36Z</time>
      </trkpt>
      <trkpt lat="48.018186036497355" lon="8.607338983565569">
        <ele>750.99835800000005</ele>
        <time>2025-10-14T10:36:30Z</time>
      </trkpt>
      <trkpt lat="48.01828402094543" lon="8.607306964695454">
        <ele>750.80363899999998</ele>
        <time>2025-10-14T10:36:40Z</time>
      </trkpt>
      <trkpt lat="48.018375970423222" lon="8.607261031866074">
        <ele>750.61532799999998</ele>
        <time>2025-10-14T10:36:54Z</time>
      </trkpt>
      <trkpt lat="48.018464986234903" lon="8.607219960540533">
        <ele>750.43454799999995</ele>
        <time>2025-10-14T10:37:04Z</time>
      </trkpt>
      <trkpt lat="48.018556013703346" lon="8.607176961377263">
        <ele>750.24928799999998</ele>
        <time>2025-10-14T10:37:13Z</time>
      </trkpt>
      <trkpt lat="48.018647963181138" lon="8.607127005234361">
        <ele>750.05926699999998</ele>
        <time>2025-10-14T10:37:23Z</time>
      </trkpt>
      <trkpt lat="48.018742008134723" lon="8.607071014121175">
        <ele>749.862843</ele>
        <time>2025-10-14T10:37:33Z</time>
      </trkpt>
      <trkpt lat="48.018827000632882" lon="8.607020974159241">
        <ele>749.76820799999996</ele>
        <time>2025-10-14T10:37:42Z</time>
      </trkpt>
      <trkpt lat="48.018919033929706" lon="8.606977974995971">
        <ele>749.683089</ele>
        <time>2025-10-14T10:37:51Z</time>
      </trkpt>
      <trkpt lat="48.019007965922356" lon="8.606940004974604">
        <ele>749.60135400000001</ele>
        <time>2025-10-14T10:38:00Z</time>
      </trkpt>
      <trkpt lat="48.01910201087594" lon="8.60689097084105">
        <ele>749.51344500000005</ele>
        <time>2025-10-14T10:38:09Z</time>
      </trkpt>
      <trkpt lat="48.0191870033741" lon="8.60684503801167">
        <ele>749.43361800000002</ele>
        <time>2025-10-14T10:38:18Z</time>
      </trkpt>
      <trkpt lat="48.019278030842543" lon="8.606794998049736">
        <ele>749.34800499999994</ele>
        <time>2025-10-14T10:38:27Z</time>
      </trkpt>
      <trkpt lat="48.019362017512321" lon="8.606742024421692">
        <ele>749.26749199999995</ele>
        <time>2025-10-14T10:38:56Z</time>
      </trkpt>
      <trkpt lat="48.019541976973414" lon="8.606655020266771">
        <ele>749.10044100000005</ele>
        <time>2025-10-14T10:40:49Z</time>
      </trkpt>
      <trkpt lat="48.019630992785096" lon="8.606604980304837">
        <ele>749.01648299999999</ele>
        <time>2025-10-14T10:40:59Z</time>
      </trkpt>
      <trkpt lat="48.019721014425159" lon="8.606556029990315">
        <ele>748.93190100000004</ele>
        <time>2025-10-14T10:41:09Z</time>
      </trkpt>
      <trkpt lat="48.019813969731331" lon="8.606516970321536">
        <ele>748.84660699999995</ele>
        <time>2025-10-14T10:41:19Z</time>
      </trkpt>
      <trkpt lat="48.019907008856535" lon="8.606472965329886">
        <ele>748.76046799999995</ele>
        <time>2025-10-14T10:41:30Z</time>
      </trkpt>
      <trkpt lat="48.019994013011456" lon="8.606426026672125">
        <ele>748.67877999999996</ele>
        <time>2025-10-14T10:41:39Z</time>
      </trkpt>
      <trkpt lat="48.020083028823137" lon="8.606381015852094">
        <ele>748.59581500000002</ele>
        <time>2025-10-14T10:41:49Z</time>
      </trkpt>
      <trkpt lat="48.020174978300929" lon="8.606334999203682">
        <ele>748.51014999999995</ele>
        <time>2025-10-14T10:41:59Z</time>
      </trkpt>
      <trkpt lat="48.02026198245585" lon="8.606275990605354">
        <ele>748.42579000000001</ele>
        <time>2025-10-14T10:42:08Z</time>
      </trkpt>
      <trkpt lat="48.020344963297248" lon="8.606224022805691">
        <ele>748.34632099999999</ele>
        <time>2025-10-14T10:42:18Z</time>
      </trkpt>
      <trkpt lat="48.020429033786058" lon="8.606170965358615">
        <ele>748.26580799999999</ele>
        <time>2025-10-14T10:42:27Z</time>
      </trkpt>
      <trkpt lat="48.020513020455837" lon="8.606122015044093">
        <ele>748.10892899999999</ele>
        <time>2025-10-14T10:42:36Z</time>
      </trkpt>
      <trkpt lat="48.02060698159039" lon="8.606066023930907">
        <ele>747.909492</ele>
        <time>2025-10-14T10:42:46Z</time>
      </trkpt>
      <trkpt lat="48.020695997402072" lon="8.606012966483831">
        <ele>747.72067400000003</ele>
        <time>2025-10-14T10:42:56Z</time>
      </trkpt>
      <trkpt lat="48.020794987678528" lon="8.605969967320561">
        <ele>747.51748199999997</ele>
        <time>2025-10-14T10:43:06Z</time>
      </trkpt>
      <trkpt lat="48.020886015146971" lon="8.605914982035756">
        <ele>747.32402300000001</ele>
        <time>2025-10-14T10:43:16Z</time>
      </trkpt>
      <trkpt lat="48.020976958796382" lon="8.605882963165641">
        <ele>747.13977199999999</ele>
        <time>2025-10-14T10:43:26Z</time>
      </trkpt>
      <trkpt lat="48.021072009578347" lon="8.60583895817399">
        <ele>746.94375200000002</ele>
        <time>2025-10-14T10:43:36Z</time>
      </trkpt>
      <trkpt lat="48.021166976541281" lon="8.60579595901072">
        <ele>746.74811799999998</ele>
        <time>2025-10-14T10:43:45Z</time>
      </trkpt>
      <trkpt lat="48.021263033151627" lon="8.605761006474495">
        <ele>746.553361</ele>
        <time>2025-10-14T10:43:55Z</time>
      </trkpt>
      <trkpt lat="48.02135699428618" lon="8.605723036453128">
        <ele>746.36143800000002</ele>
        <time>2025-10-14T10:44:05Z</time>
      </trkpt>
      <trkpt lat="48.021454978734255" lon="8.605683976784349">
        <ele>746.16155900000001</ele>
        <time>2025-10-14T10:44:15Z</time>
      </trkpt>
      <trkpt lat="48.021546006202698" lon="8.605660004541278">
        <ele>745.97943299999997</ele>
        <time>2025-10-14T10:44:24Z</time>
      </trkpt>
      <trkpt lat="48.021633010357618" lon="8.605622034519911">
        <ele>745.800792</ele>
        <time>2025-10-14T10:44:33Z</time>
      </trkpt>
      <trkpt lat="48.021719008684158" lon="8.605583980679512">
        <ele>745.62404200000003</ele>
        <time>2025-10-14T10:44:42Z</time>
      </trkpt>
      <trkpt lat="48.021807018667459" lon="8.605550033971667">
        <ele>745.44489999999996</ele>
        <time>2025-10-14T10:44:52Z</time>
      </trkpt>
      <trkpt lat="48.02189402282238" lon="8.605508962646127">
        <ele>745.26511000000005</ele>
        <time>2025-10-14T10:45:02Z</time>
      </trkpt>
      <trkpt lat="48.021982032805681" lon="8.605469986796379">
        <ele>745.08420599999999</ele>
        <time>2025-10-14T10:45:12Z</time>
      </trkpt>
      <trkpt lat="48.022069036960602" lon="8.605430005118251">
        <ele>744.904808</ele>
        <time>2025-10-14T10:45:27Z</time>
      </trkpt>
      <trkpt lat="48.022166015580297" lon="8.605394968762994">
        <ele>744.70813599999997</ele>
        <time>2025-10-14T10:45:39Z</time>
      </trkpt>
      <trkpt lat="48.022259976714849" lon="8.605360016226769">
        <ele>744.50915799999996</ele>
        <time>2025-10-14T10:45:49Z</time>
      </trkpt>
      <trkpt lat="48.022353015840054" lon="8.60532296821475">
        <ele>744.31129999999996</ele>
        <time>2025-10-14T10:45:59Z</time>
      </trkpt>
      <trkpt lat="48.022444965317845" lon="8.605282986536622">
        <ele>744.11431600000003</ele>
        <time>2025-10-14T10:46:09Z</time>
      </trkpt>
      <trkpt lat="48.022540016099811" lon="8.605246022343636">
        <ele>743.91248199999995</ele>
        <time>2025-10-14T10:46:19Z</time>
      </trkpt>
      <trkpt lat="48.022622996941209" lon="8.605188019573689">
        <ele>743.72411899999997</ele>
        <time>2025-10-14T10:46:42Z</time>
      </trkpt>
      <trkpt lat="48.022717041894794" lon="8.605161029845476">
        <ele>743.52732500000002</ele>
        <time>2025-10-14T10:46:53Z</time>
      </trkpt>
      <trkpt lat="48.022806979715824" lon="8.605140997096896">
        <ele>743.34025599999995</ele>
        <time>2025-10-14T10:47:03Z</time>
      </trkpt>
      <trkpt lat="48.022900018841028" lon="8.60512800514698">
        <ele>743.14821700000005</ele>
        <time>2025-10-14T10:47:46Z</time>
      </trkpt>
      <trkpt lat="48.023023987188935" lon="8.605050975456834">
        <ele>742.872165</ele>
        <time>2025-10-14T10:48:24Z</time>
      </trkpt>
      <trkpt lat="48.023113003000617" lon="8.605013005435467">
        <ele>742.68187</ele>
        <time>2025-10-14T10:48:34Z</time>
      </trkpt>
      <trkpt lat="48.023209981620312" lon="8.60497796908021">
        <ele>742.47671600000001</ele>
        <time>2025-10-14T10:48:44Z</time>
      </trkpt>
      <trkpt lat="48.023304026573896" lon="8.604941004887223">
        <ele>742.27687100000003</ele>
        <time>2025-10-14T10:48:54Z</time>
      </trkpt>
      <trkpt lat="48.023393964394927" lon="8.604905968531966">
        <ele>742.08567800000003</ele>
        <time>2025-10-14T10:49:04Z</time>
      </trkpt>
      <trkpt lat="48.023485997691751" lon="8.604893982410431">
        <ele>741.89581099999998</ele>
        <time>2025-10-14T10:49:13Z</time>
      </trkpt>
      <trkpt lat="48.023579036816955" lon="8.604855006560683">
        <ele>741.69722899999999</ele>
        <time>2025-10-14T10:49:23Z</time>
      </trkpt>
      <trkpt lat="48.023676015436649" lon="8.60482701100409">
        <ele>741.49411799999996</ele>
        <time>2025-10-14T10:49:34Z</time>
      </trkpt>
      <trkpt lat="48.023762013763189" lon="8.604782000184059">
        <ele>741.30678999999998</ele>
        <time>2025-10-14T10:49:43Z</time>
      </trkpt>
      <trkpt lat="48.023855974897742" lon="8.604736989364028">
        <ele>741.10386600000004</ele>
        <time>2025-10-14T10:49:54Z</time>
      </trkpt>
      <trkpt lat="48.023948008194566" lon="8.604716034606099">
        <ele>740.95048599999996</ele>
        <time>2025-10-14T10:50:03Z</time>
      </trkpt>
      <trkpt lat="48.024042975157499" lon="8.604694996029139">
        <ele>740.83331099999998</ele>
        <time>2025-10-14T10:50:13Z</time>
      </trkpt>
      <trkpt lat="48.024145988747478" lon="8.604684015735984">
        <ele>740.707314</ele>
        <time>2025-10-14T10:50:22Z</time>
      </trkpt>
      <trkpt lat="48.024238022044301" lon="8.604645039886236">
        <ele>740.59063500000002</ele>
        <time>2025-10-14T10:50:31Z</time>
      </trkpt>
      <trkpt lat="48.024327959865332" lon="8.60459097661078">
        <ele>740.472309</ele>
        <time>2025-10-14T10:50:41Z</time>
      </trkpt>
      <trkpt lat="48.024419993162155" lon="8.604559963569045">
        <ele>740.35723900000005</ele>
        <time>2025-10-14T10:50:53Z</time>
      </trkpt>
      <trkpt lat="48.024514960125089" lon="8.604534985497594">
        <ele>740.23954200000003</ele>
        <time>2025-10-14T10:51:02Z</time>
      </trkpt>
      <trkpt lat="48.024607999250293" lon="8.604477988556027">
        <ele>740.11690299999998</ele>
        <time>2025-10-14T10:51:12Z</time>
      </trkpt>
      <trkpt lat="48.024701038375497" lon="8.60443901270628">
        <ele>739.99905000000001</ele>
        <time>2025-10-14T10:51:21Z</time>
      </trkpt>
      <trkpt lat="48.024776978418231" lon="8.604365000501275">
        <ele>739.88838799999996</ele>
        <time>2025-10-14T10:51:32Z</time>
      </trkpt>
      <trkpt lat="48.02486197091639" lon="8.604283025488257">
        <ele>739.76496099999997</ele>
        <time>2025-10-14T10:51:47Z</time>
      </trkpt>
      <trkpt lat="48.024952998384833" lon="8.604238014668226">
        <ele>739.648011</ele>
        <time>2025-10-14T10:51:58Z</time>
      </trkpt>
      <trkpt lat="48.025046037510037" lon="8.604269027709961">
        <ele>739.53175099999999</ele>
        <time>2025-10-14T10:52:07Z</time>
      </trkpt>
      <trkpt lat="48.025137986987829" lon="8.604234997183085">
        <ele>739.41611799999998</ele>
        <time>2025-10-14T10:52:17Z</time>
      </trkpt>
      <trkpt lat="48.025233959779143" lon="8.604175988584757">
        <ele>739.28947300000004</ele>
        <time>2025-10-14T10:52:27Z</time>
      </trkpt>
      <trkpt lat="48.025300009176135" lon="8.604059983044863">
        <ele>739.16519100000005</ele>
        <time>2025-10-14T10:52:38Z</time>
      </trkpt>
      <trkpt lat="48.025351976975799" lon="8.603940038010478">
        <ele>739.04850799999997</ele>
        <time>2025-10-14T10:52:47Z</time>
      </trkpt>
      <trkpt lat="48.025410985574126" lon="8.603836018592119">
        <ele>738.93721900000003</ele>
        <time>2025-10-14T10:53:09Z</time>
      </trkpt>
      <trkpt lat="48.02546102553606" lon="8.603713978081942">
        <ele>738.82045600000004</ele>
        <time>2025-10-14T10:53:19Z</time>
      </trkpt>
      <trkpt lat="48.025507964193821" lon="8.603591015562415">
        <ele>738.81127100000003</ele>
        <time>2025-10-14T10:53:28Z</time>
      </trkpt>
      <trkpt lat="48.025553980842233" lon="8.603462018072605">
        <ele>738.81127100000003</ele>
        <time>2025-10-14T10:53:38Z</time>
      </trkpt>
      <trkpt lat="48.025597985833883" lon="8.603327991440892">
        <ele>738.81127100000003</ele>
        <time>2025-10-14T10:53:48Z</time>
      </trkpt>
      <trkpt lat="48.025651965290308" lon="8.603219026699662">
        <ele>738.81127100000003</ele>
        <time>2025-10-14T10:53:57Z</time>
      </trkpt>
      <trkpt lat="48.025707034394145" lon="8.603102015331388">
        <ele>738.81127100000003</ele>
        <time>2025-10-14T10:54:14Z</time>
      </trkpt>
      <trkpt lat="48.025785991922021" lon="8.603036971762776">
        <ele>738.81127100000003</ele>
        <time>2025-10-14T10:54:32Z</time>
      </trkpt>
      <trkpt lat="48.025842988863587" lon="8.603145014494658">
        <ele>738.81127100000003</ele>
        <time>2025-10-14T10:54:48Z</time>
      </trkpt>
      <trkpt lat="48.025887999683619" lon="8.603268982842565">
        <ele>738.81127100000003</ele>
        <time>2025-10-14T10:55:25Z</time>
      </trkpt>
      <trkpt lat="48.0259770154953" lon="8.603290021419525">
        <ele>738.81127100000003</ele>
        <time>2025-10-14T10:55:35Z</time>
      </trkpt>
      <trkpt lat="48.026070976629853" lon="8.603347018361092">
        <ele>738.81127100000003</ele>
        <time>2025-10-14T10:55:45Z</time>
      </trkpt>
      <trkpt lat="48.026156974956393" lon="8.603411978110671">
        <ele>738.81127100000003</ele>
        <time>2025-10-14T10:55:56Z</time>
      </trkpt>
      <trkpt lat="48.026243979111314" lon="8.603480961173773">
        <ele>738.81127100000003</ele>
        <time>2025-10-14T10:56:08Z</time>
      </trkpt>
      <trkpt lat="48.026326037943363" lon="8.60353896394372">
        <ele>738.81127100000003</ele>
        <time>2025-10-14T10:56:19Z</time>
      </trkpt>
      <trkpt lat="48.026395021006465" lon="8.60362596809864">
        <ele>738.81127100000003</ele>
        <time>2025-10-14T10:56:30Z</time>
      </trkpt>
      <trkpt lat="48.026476996019483" lon="8.603684976696968">
        <ele>738.81127100000003</ele>
        <time>2025-10-14T10:56:42Z</time>
      </trkpt>
      <trkpt lat="48.026546984910965" lon="8.603770975023508">
        <ele>738.81127100000003</ele>
        <time>2025-10-14T10:57:00Z</time>
      </trkpt>
      <trkpt lat="48.026628037914634" lon="8.603843981400132">
        <ele>738.81127100000003</ele>
        <time>2025-10-14T10:57:10Z</time>
      </trkpt>
      <trkpt lat="48.026711018756032" lon="8.603915981948376">
        <ele>738.81127100000003</ele>
        <time>2025-10-14T10:57:22Z</time>
      </trkpt>
      <trkpt lat="48.026796011254191" lon="8.603984965011478">
        <ele>738.81127100000003</ele>
        <time>2025-10-14T10:57:32Z</time>
      </trkpt>
      <trkpt lat="48.026889972388744" lon="8.60398999415338">
        <ele>738.81127100000003</ele>
        <time>2025-10-14T10:57:41Z</time>
      </trkpt>
      <trkpt lat="48.026977982372046" lon="8.604027964174748">
        <ele>738.81127100000003</ele>
        <time>2025-10-14T10:57:51Z</time>
      </trkpt>
      <trkpt lat="48.027061969041824" lon="8.603973984718323">
        <ele>738.81127100000003</ele>
        <time>2025-10-14T10:58:05Z</time>
      </trkpt>
      <trkpt lat="48.027155008167028" lon="8.603948000818491">
        <ele>738.81127100000003</ele>
        <time>2025-10-14T10:58:19Z</time>
      </trkpt>
      <trkpt lat="48.027257015928626" lon="8.603952024132013">
        <ele>738.81127100000003</ele>
        <time>2025-10-14T10:58:37Z</time>
      </trkpt>
      <trkpt lat="48.027347037568688" lon="8.603954035788775">
        <ele>738.81127100000003</ele>
        <time>2025-10-14T10:58:48Z</time>
      </trkpt>
    </trkseg>
  </trk>

</gpx>
