<?xml version="1.0" standalone="yes"?>
<gpx
	xmlns="http://www.topografix.com/GPX/1/1" creator="KML2GPX.COM" version="1.1"
	xmlns:xsi="http://www.w3.org/2001/XMLSchema-instance" xsi:schemaLocation="http://www.topografix.com/GPX/1/1 http://www.topografix.com/GPX/1/1/gpx.xsd">
	<metadata>
		<name><![CDATA[MWV Edelweiß Ittlingen: Permanenter "Edelweiß-Weg" 5km]]></name>
	</metadata>
	<trk>
		<name><![CDATA[MWV Edelweiß Ittlingen: Permanenter "Edelweiß-Weg" 5km]]></name>
		<number>1</number>
		<trkseg>
			<trkpt lat="49.19327" lon="8.93464">
				<ele>0</ele>
				<name>1</name>
			</trkpt>
			<trkpt lat="49.19321" lon="8.93451">
				<ele>0</ele>
				<name>2</name>
			</trkpt>
			<trkpt lat="49.19319" lon="8.93444">
				<ele>0</ele>
				<name>3</name>
			</trkpt>
			<trkpt lat="49.19312" lon="8.93421">
				<ele>0</ele>
				<name>4</name>
			</trkpt>
			<trkpt lat="49.19304" lon="8.93381">
				<ele>0</ele>
				<name>5</name>
			</trkpt>
			<trkpt lat="49.19282" lon="8.93374">
				<ele>0</ele>
				<name>6</name>
			</trkpt>
			<trkpt lat="49.19259" lon="8.93367">
				<ele>0</ele>
				<name>7</name>
			</trkpt>
			<trkpt lat="49.19253" lon="8.93365">
				<ele>0</ele>
				<name>8</name>
			</trkpt>
			<trkpt lat="49.19241" lon="8.93361">
				<ele>0</ele>
				<name>9</name>
			</trkpt>
			<trkpt lat="49.19224" lon="8.93354">
				<ele>0</ele>
				<name>10</name>
			</trkpt>
			<trkpt lat="49.19201" lon="8.93338">
				<ele>0</ele>
				<name>11</name>
			</trkpt>
			<trkpt lat="49.19192" lon="8.93333">
				<ele>0</ele>
				<name>12</name>
			</trkpt>
			<trkpt lat="49.19182" lon="8.9333">
				<ele>0</ele>
				<name>13</name>
			</trkpt>
			<trkpt lat="49.19149" lon="8.93328">
				<ele>0</ele>
				<name>14</name>
			</trkpt>
			<trkpt lat="49.19132" lon="8.93333">
				<ele>0</ele>
				<name>15</name>
			</trkpt>
			<trkpt lat="49.19116" lon="8.93338">
				<ele>0</ele>
				<name>16</name>
			</trkpt>
			<trkpt lat="49.19098" lon="8.93341">
				<ele>0</ele>
				<name>17</name>
			</trkpt>
			<trkpt lat="49.19081" lon="8.93336">
				<ele>0</ele>
				<name>18</name>
			</trkpt>
			<trkpt lat="49.19062" lon="8.93329">
				<ele>0</ele>
				<name>19</name>
			</trkpt>
			<trkpt lat="49.19038" lon="8.93314">
				<ele>0</ele>
				<name>20</name>
			</trkpt>
			<trkpt lat="49.18998" lon="8.93283">
				<ele>0</ele>
				<name>21</name>
			</trkpt>
			<trkpt lat="49.18973" lon="8.93262">
				<ele>0</ele>
				<name>22</name>
			</trkpt>
			<trkpt lat="49.18965" lon="8.9325">
				<ele>0</ele>
				<name>23</name>
			</trkpt>
			<trkpt lat="49.1896" lon="8.93238">
				<ele>0</ele>
				<name>24</name>
			</trkpt>
			<trkpt lat="49.18966" lon="8.93213">
				<ele>0</ele>
				<name>25</name>
			</trkpt>
			<trkpt lat="49.18971" lon="8.93197">
				<ele>0</ele>
				<name>26</name>
			</trkpt>
			<trkpt lat="49.18972" lon="8.93187">
				<ele>0</ele>
				<name>27</name>
			</trkpt>
			<trkpt lat="49.18981" lon="8.93144">
				<ele>0</ele>
				<name>28</name>
			</trkpt>
			<trkpt lat="49.18987" lon="8.93108">
				<ele>0</ele>
				<name>29</name>
			</trkpt>
			<trkpt lat="49.18988" lon="8.93101">
				<ele>0</ele>
				<name>30</name>
			</trkpt>
			<trkpt lat="49.18989" lon="8.93075">
				<ele>0</ele>
				<name>31</name>
			</trkpt>
			<trkpt lat="49.18989" lon="8.93053">
				<ele>0</ele>
				<name>32</name>
			</trkpt>
			<trkpt lat="49.18981" lon="8.93038">
				<ele>0</ele>
				<name>33</name>
			</trkpt>
			<trkpt lat="49.18972" lon="8.93012">
				<ele>0</ele>
				<name>34</name>
			</trkpt>
			<trkpt lat="49.18969" lon="8.92995">
				<ele>0</ele>
				<name>35</name>
			</trkpt>
			<trkpt lat="49.18965" lon="8.92976">
				<ele>0</ele>
				<name>36</name>
			</trkpt>
			<trkpt lat="49.18964" lon="8.92969">
				<ele>0</ele>
				<name>37</name>
			</trkpt>
			<trkpt lat="49.18958" lon="8.92927">
				<ele>0</ele>
				<name>38</name>
			</trkpt>
			<trkpt lat="49.18956" lon="8.92888">
				<ele>0</ele>
				<name>39</name>
			</trkpt>
			<trkpt lat="49.18956" lon="8.92847">
				<ele>0</ele>
				<name>40</name>
			</trkpt>
			<trkpt lat="49.18957" lon="8.92832">
				<ele>0</ele>
				<name>41</name>
			</trkpt>
			<trkpt lat="49.18957" lon="8.92814">
				<ele>0</ele>
				<name>42</name>
			</trkpt>
			<trkpt lat="49.18957" lon="8.92805">
				<ele>0</ele>
				<name>43</name>
			</trkpt>
			<trkpt lat="49.18959" lon="8.92773">
				<ele>0</ele>
				<name>44</name>
			</trkpt>
			<trkpt lat="49.18965" lon="8.92698">
				<ele>0</ele>
				<name>45</name>
			</trkpt>
			<trkpt lat="49.18966" lon="8.92663">
				<ele>0</ele>
				<name>46</name>
			</trkpt>
			<trkpt lat="49.18967" lon="8.92653">
				<ele>0</ele>
				<name>47</name>
			</trkpt>
			<trkpt lat="49.18968" lon="8.92635">
				<ele>0</ele>
				<name>48</name>
			</trkpt>
			<trkpt lat="49.18969" lon="8.92626">
				<ele>0</ele>
				<name>49</name>
			</trkpt>
			<trkpt lat="49.18972" lon="8.92599">
				<ele>0</ele>
				<name>50</name>
			</trkpt>
			<trkpt lat="49.18972" lon="8.92596">
				<ele>0</ele>
				<name>51</name>
			</trkpt>
			<trkpt lat="49.18972" lon="8.92571">
				<ele>0</ele>
				<name>52</name>
			</trkpt>
			<trkpt lat="49.18972" lon="8.92564">
				<ele>0</ele>
				<name>53</name>
			</trkpt>
			<trkpt lat="49.18971" lon="8.92544">
				<ele>0</ele>
				<name>54</name>
			</trkpt>
			<trkpt lat="49.1897" lon="8.92511">
				<ele>0</ele>
				<name>55</name>
			</trkpt>
			<trkpt lat="49.1897" lon="8.92489">
				<ele>0</ele>
				<name>56</name>
			</trkpt>
			<trkpt lat="49.1897" lon="8.92461">
				<ele>0</ele>
				<name>57</name>
			</trkpt>
			<trkpt lat="49.1897" lon="8.92431">
				<ele>0</ele>
				<name>58</name>
			</trkpt>
			<trkpt lat="49.1897" lon="8.92379">
				<ele>0</ele>
				<name>59</name>
			</trkpt>
			<trkpt lat="49.18964" lon="8.92366">
				<ele>0</ele>
				<name>60</name>
			</trkpt>
			<trkpt lat="49.1896" lon="8.92354">
				<ele>0</ele>
				<name>61</name>
			</trkpt>
			<trkpt lat="49.18957" lon="8.92342">
				<ele>0</ele>
				<name>62</name>
			</trkpt>
			<trkpt lat="49.18955" lon="8.92335">
				<ele>0</ele>
				<name>63</name>
			</trkpt>
			<trkpt lat="49.18986" lon="8.92273">
				<ele>0</ele>
				<name>64</name>
			</trkpt>
			<trkpt lat="49.19007" lon="8.92229">
				<ele>0</ele>
				<name>65</name>
			</trkpt>
			<trkpt lat="49.19063" lon="8.92116">
				<ele>0</ele>
				<name>66</name>
			</trkpt>
			<trkpt lat="49.19071" lon="8.92096">
				<ele>0</ele>
				<name>67</name>
			</trkpt>
			<trkpt lat="49.19074" lon="8.92083">
				<ele>0</ele>
				<name>68</name>
			</trkpt>
			<trkpt lat="49.19078" lon="8.92067">
				<ele>0</ele>
				<name>69</name>
			</trkpt>
			<trkpt lat="49.19093" lon="8.91999">
				<ele>0</ele>
				<name>70</name>
			</trkpt>
			<trkpt lat="49.19104" lon="8.91947">
				<ele>0</ele>
				<name>71</name>
			</trkpt>
			<trkpt lat="49.19107" lon="8.91919">
				<ele>0</ele>
				<name>72</name>
			</trkpt>
			<trkpt lat="49.19109" lon="8.91898">
				<ele>0</ele>
				<name>73</name>
			</trkpt>
			<trkpt lat="49.19109" lon="8.91883">
				<ele>0</ele>
				<name>74</name>
			</trkpt>
			<trkpt lat="49.19108" lon="8.91869">
				<ele>0</ele>
				<name>75</name>
			</trkpt>
			<trkpt lat="49.19104" lon="8.91801">
				<ele>0</ele>
				<name>76</name>
			</trkpt>
			<trkpt lat="49.19101" lon="8.91758">
				<ele>0</ele>
				<name>77</name>
			</trkpt>
			<trkpt lat="49.19096" lon="8.91676">
				<ele>0</ele>
				<name>78</name>
			</trkpt>
			<trkpt lat="49.19095" lon="8.91648">
				<ele>0</ele>
				<name>79</name>
			</trkpt>
			<trkpt lat="49.19096" lon="8.916">
				<ele>0</ele>
				<name>80</name>
			</trkpt>
			<trkpt lat="49.19103" lon="8.91544">
				<ele>0</ele>
				<name>81</name>
			</trkpt>
			<trkpt lat="49.19109" lon="8.91498">
				<ele>0</ele>
				<name>82</name>
			</trkpt>
			<trkpt lat="49.19119" lon="8.91444">
				<ele>0</ele>
				<name>83</name>
			</trkpt>
			<trkpt lat="49.19134" lon="8.9137">
				<ele>0</ele>
				<name>84</name>
			</trkpt>
			<trkpt lat="49.19144" lon="8.91331">
				<ele>0</ele>
				<name>85</name>
			</trkpt>
			<trkpt lat="49.19155" lon="8.91286">
				<ele>0</ele>
				<name>86</name>
			</trkpt>
			<trkpt lat="49.19162" lon="8.9126">
				<ele>0</ele>
				<name>87</name>
			</trkpt>
			<trkpt lat="49.19163" lon="8.91258">
				<ele>0</ele>
				<name>88</name>
			</trkpt>
			<trkpt lat="49.19173" lon="8.91215">
				<ele>0</ele>
				<name>89</name>
			</trkpt>
			<trkpt lat="49.19178" lon="8.91182">
				<ele>0</ele>
				<name>90</name>
			</trkpt>
			<trkpt lat="49.19178" lon="8.9118">
				<ele>0</ele>
				<name>91</name>
			</trkpt>
			<trkpt lat="49.19186" lon="8.91129">
				<ele>0</ele>
				<name>92</name>
			</trkpt>
			<trkpt lat="49.19194" lon="8.91074">
				<ele>0</ele>
				<name>93</name>
			</trkpt>
			<trkpt lat="49.19203" lon="8.91031">
				<ele>0</ele>
				<name>94</name>
			</trkpt>
			<trkpt lat="49.19214" lon="8.9097">
				<ele>0</ele>
				<name>95</name>
			</trkpt>
			<trkpt lat="49.19228" lon="8.90917">
				<ele>0</ele>
				<name>96</name>
			</trkpt>
			<trkpt lat="49.1924" lon="8.90864">
				<ele>0</ele>
				<name>97</name>
			</trkpt>
			<trkpt lat="49.19246" lon="8.90863">
				<ele>0</ele>
				<name>98</name>
			</trkpt>
			<trkpt lat="49.19283" lon="8.90858">
				<ele>0</ele>
				<name>99</name>
			</trkpt>
			<trkpt lat="49.19316" lon="8.90854">
				<ele>0</ele>
				<name>100</name>
			</trkpt>
			<trkpt lat="49.19318" lon="8.90853">
				<ele>0</ele>
				<name>101</name>
			</trkpt>
			<trkpt lat="49.19299" lon="8.90922">
				<ele>0</ele>
				<name>102</name>
			</trkpt>
			<trkpt lat="49.19297" lon="8.90929">
				<ele>0</ele>
				<name>103</name>
			</trkpt>
			<trkpt lat="49.19276" lon="8.91006">
				<ele>0</ele>
				<name>104</name>
			</trkpt>
			<trkpt lat="49.19269" lon="8.91031">
				<ele>0</ele>
				<name>105</name>
			</trkpt>
			<trkpt lat="49.19262" lon="8.91056">
				<ele>0</ele>
				<name>106</name>
			</trkpt>
			<trkpt lat="49.19257" lon="8.91078">
				<ele>0</ele>
				<name>107</name>
			</trkpt>
			<trkpt lat="49.19251" lon="8.91132">
				<ele>0</ele>
				<name>108</name>
			</trkpt>
			<trkpt lat="49.19243" lon="8.91183">
				<ele>0</ele>
				<name>109</name>
			</trkpt>
			<trkpt lat="49.19242" lon="8.91193">
				<ele>0</ele>
				<name>110</name>
			</trkpt>
			<trkpt lat="49.1924" lon="8.91217">
				<ele>0</ele>
				<name>111</name>
			</trkpt>
			<trkpt lat="49.1924" lon="8.91223">
				<ele>0</ele>
				<name>112</name>
			</trkpt>
			<trkpt lat="49.19237" lon="8.91243">
				<ele>0</ele>
				<name>113</name>
			</trkpt>
			<trkpt lat="49.19237" lon="8.91244">
				<ele>0</ele>
				<name>114</name>
			</trkpt>
			<trkpt lat="49.19236" lon="8.91257">
				<ele>0</ele>
				<name>115</name>
			</trkpt>
			<trkpt lat="49.19228" lon="8.91293">
				<ele>0</ele>
				<name>116</name>
			</trkpt>
			<trkpt lat="49.19227" lon="8.91297">
				<ele>0</ele>
				<name>117</name>
			</trkpt>
			<trkpt lat="49.19221" lon="8.91332">
				<ele>0</ele>
				<name>118</name>
			</trkpt>
			<trkpt lat="49.1922" lon="8.91344">
				<ele>0</ele>
				<name>119</name>
			</trkpt>
			<trkpt lat="49.19216" lon="8.91371">
				<ele>0</ele>
				<name>120</name>
			</trkpt>
			<trkpt lat="49.19215" lon="8.91379">
				<ele>0</ele>
				<name>121</name>
			</trkpt>
			<trkpt lat="49.19203" lon="8.91479">
				<ele>0</ele>
				<name>122</name>
			</trkpt>
			<trkpt lat="49.19199" lon="8.91507">
				<ele>0</ele>
				<name>123</name>
			</trkpt>
			<trkpt lat="49.19196" lon="8.91533">
				<ele>0</ele>
				<name>124</name>
			</trkpt>
			<trkpt lat="49.19189" lon="8.91587">
				<ele>0</ele>
				<name>125</name>
			</trkpt>
			<trkpt lat="49.19182" lon="8.9164">
				<ele>0</ele>
				<name>126</name>
			</trkpt>
			<trkpt lat="49.1921" lon="8.91639">
				<ele>0</ele>
				<name>127</name>
			</trkpt>
			<trkpt lat="49.19229" lon="8.91637">
				<ele>0</ele>
				<name>128</name>
			</trkpt>
			<trkpt lat="49.19247" lon="8.91635">
				<ele>0</ele>
				<name>129</name>
			</trkpt>
			<trkpt lat="49.1926" lon="8.91634">
				<ele>0</ele>
				<name>130</name>
			</trkpt>
			<trkpt lat="49.19282" lon="8.91633">
				<ele>0</ele>
				<name>131</name>
			</trkpt>
			<trkpt lat="49.19291" lon="8.91633">
				<ele>0</ele>
				<name>132</name>
			</trkpt>
			<trkpt lat="49.19316" lon="8.91636">
				<ele>0</ele>
				<name>133</name>
			</trkpt>
			<trkpt lat="49.19336" lon="8.91641">
				<ele>0</ele>
				<name>134</name>
			</trkpt>
			<trkpt lat="49.19354" lon="8.91645">
				<ele>0</ele>
				<name>135</name>
			</trkpt>
			<trkpt lat="49.19356" lon="8.91645">
				<ele>0</ele>
				<name>136</name>
			</trkpt>
			<trkpt lat="49.19376" lon="8.91648">
				<ele>0</ele>
				<name>137</name>
			</trkpt>
			<trkpt lat="49.19389" lon="8.91644">
				<ele>0</ele>
				<name>138</name>
			</trkpt>
			<trkpt lat="49.19412" lon="8.9163">
				<ele>0</ele>
				<name>139</name>
			</trkpt>
			<trkpt lat="49.19429" lon="8.91619">
				<ele>0</ele>
				<name>140</name>
			</trkpt>
			<trkpt lat="49.19433" lon="8.91616">
				<ele>0</ele>
				<name>141</name>
			</trkpt>
			<trkpt lat="49.1948" lon="8.91596">
				<ele>0</ele>
				<name>142</name>
			</trkpt>
			<trkpt lat="49.1949" lon="8.91589">
				<ele>0</ele>
				<name>143</name>
			</trkpt>
			<trkpt lat="49.195" lon="8.9158">
				<ele>0</ele>
				<name>144</name>
			</trkpt>
			<trkpt lat="49.19515" lon="8.91566">
				<ele>0</ele>
				<name>145</name>
			</trkpt>
			<trkpt lat="49.19533" lon="8.91549">
				<ele>0</ele>
				<name>146</name>
			</trkpt>
			<trkpt lat="49.19553" lon="8.91533">
				<ele>0</ele>
				<name>147</name>
			</trkpt>
			<trkpt lat="49.19558" lon="8.9153">
				<ele>0</ele>
				<name>148</name>
			</trkpt>
			<trkpt lat="49.1957" lon="8.91523">
				<ele>0</ele>
				<name>149</name>
			</trkpt>
			<trkpt lat="49.1958" lon="8.91518">
				<ele>0</ele>
				<name>150</name>
			</trkpt>
			<trkpt lat="49.19612" lon="8.91505">
				<ele>0</ele>
				<name>151</name>
			</trkpt>
			<trkpt lat="49.19622" lon="8.91502">
				<ele>0</ele>
				<name>152</name>
			</trkpt>
			<trkpt lat="49.19674" lon="8.91483">
				<ele>0</ele>
				<name>153</name>
			</trkpt>
			<trkpt lat="49.1971" lon="8.91471">
				<ele>0</ele>
				<name>154</name>
			</trkpt>
			<trkpt lat="49.19733" lon="8.91463">
				<ele>0</ele>
				<name>155</name>
			</trkpt>
			<trkpt lat="49.19745" lon="8.91459">
				<ele>0</ele>
				<name>156</name>
			</trkpt>
			<trkpt lat="49.19772" lon="8.9145">
				<ele>0</ele>
				<name>157</name>
			</trkpt>
			<trkpt lat="49.1978" lon="8.91447">
				<ele>0</ele>
				<name>158</name>
			</trkpt>
			<trkpt lat="49.19797" lon="8.91442">
				<ele>0</ele>
				<name>159</name>
			</trkpt>
			<trkpt lat="49.19791" lon="8.91495">
				<ele>0</ele>
				<name>160</name>
			</trkpt>
			<trkpt lat="49.19791" lon="8.91496">
				<ele>0</ele>
				<name>161</name>
			</trkpt>
			<trkpt lat="49.19782" lon="8.9157">
				<ele>0</ele>
				<name>162</name>
			</trkpt>
			<trkpt lat="49.19776" lon="8.91622">
				<ele>0</ele>
				<name>163</name>
			</trkpt>
			<trkpt lat="49.19766" lon="8.91731">
				<ele>0</ele>
				<name>164</name>
			</trkpt>
			<trkpt lat="49.19764" lon="8.91758">
				<ele>0</ele>
				<name>165</name>
			</trkpt>
			<trkpt lat="49.19761" lon="8.91785">
				<ele>0</ele>
				<name>166</name>
			</trkpt>
			<trkpt lat="49.19756" lon="8.91838">
				<ele>0</ele>
				<name>167</name>
			</trkpt>
			<trkpt lat="49.19752" lon="8.91893">
				<ele>0</ele>
				<name>168</name>
			</trkpt>
			<trkpt lat="49.19751" lon="8.9192">
				<ele>0</ele>
				<name>169</name>
			</trkpt>
			<trkpt lat="49.19749" lon="8.91948">
				<ele>0</ele>
				<name>170</name>
			</trkpt>
			<trkpt lat="49.19745" lon="8.92002">
				<ele>0</ele>
				<name>171</name>
			</trkpt>
			<trkpt lat="49.19743" lon="8.9203">
				<ele>0</ele>
				<name>172</name>
			</trkpt>
			<trkpt lat="49.19742" lon="8.92057">
				<ele>0</ele>
				<name>173</name>
			</trkpt>
			<trkpt lat="49.19738" lon="8.92112">
				<ele>0</ele>
				<name>174</name>
			</trkpt>
			<trkpt lat="49.19735" lon="8.92156">
				<ele>0</ele>
				<name>175</name>
			</trkpt>
			<trkpt lat="49.19735" lon="8.9216">
				<ele>0</ele>
				<name>176</name>
			</trkpt>
			<trkpt lat="49.1962" lon="8.92175">
				<ele>0</ele>
				<name>177</name>
			</trkpt>
			<trkpt lat="49.19566" lon="8.92181">
				<ele>0</ele>
				<name>178</name>
			</trkpt>
			<trkpt lat="49.19549" lon="8.92184">
				<ele>0</ele>
				<name>179</name>
			</trkpt>
			<trkpt lat="49.19515" lon="8.92188">
				<ele>0</ele>
				<name>180</name>
			</trkpt>
			<trkpt lat="49.19511" lon="8.92215">
				<ele>0</ele>
				<name>181</name>
			</trkpt>
			<trkpt lat="49.19507" lon="8.92241">
				<ele>0</ele>
				<name>182</name>
			</trkpt>
			<trkpt lat="49.19503" lon="8.92268">
				<ele>0</ele>
				<name>183</name>
			</trkpt>
			<trkpt lat="49.19496" lon="8.92322">
				<ele>0</ele>
				<name>184</name>
			</trkpt>
			<trkpt lat="49.19492" lon="8.92349">
				<ele>0</ele>
				<name>185</name>
			</trkpt>
			<trkpt lat="49.19484" lon="8.92403">
				<ele>0</ele>
				<name>186</name>
			</trkpt>
			<trkpt lat="49.1948" lon="8.9243">
				<ele>0</ele>
				<name>187</name>
			</trkpt>
			<trkpt lat="49.19472" lon="8.92484">
				<ele>0</ele>
				<name>188</name>
			</trkpt>
			<trkpt lat="49.19469" lon="8.92511">
				<ele>0</ele>
				<name>189</name>
			</trkpt>
			<trkpt lat="49.19465" lon="8.92537">
				<ele>0</ele>
				<name>190</name>
			</trkpt>
			<trkpt lat="49.19461" lon="8.92564">
				<ele>0</ele>
				<name>191</name>
			</trkpt>
			<trkpt lat="49.19459" lon="8.92577">
				<ele>0</ele>
				<name>192</name>
			</trkpt>
			<trkpt lat="49.19474" lon="8.92582">
				<ele>0</ele>
				<name>193</name>
			</trkpt>
			<trkpt lat="49.19471" lon="8.92598">
				<ele>0</ele>
				<name>194</name>
			</trkpt>
			<trkpt lat="49.1947" lon="8.92603">
				<ele>0</ele>
				<name>195</name>
			</trkpt>
			<trkpt lat="49.1947" lon="8.92608">
				<ele>0</ele>
				<name>196</name>
			</trkpt>
			<trkpt lat="49.1947" lon="8.92609">
				<ele>0</ele>
				<name>197</name>
			</trkpt>
			<trkpt lat="49.19471" lon="8.92612">
				<ele>0</ele>
				<name>198</name>
			</trkpt>
			<trkpt lat="49.19473" lon="8.92615">
				<ele>0</ele>
				<name>199</name>
			</trkpt>
			<trkpt lat="49.19482" lon="8.9263">
				<ele>0</ele>
				<name>200</name>
			</trkpt>
			<trkpt lat="49.19493" lon="8.92649">
				<ele>0</ele>
				<name>201</name>
			</trkpt>
			<trkpt lat="49.19498" lon="8.92659">
				<ele>0</ele>
				<name>202</name>
			</trkpt>
			<trkpt lat="49.19505" lon="8.92687">
				<ele>0</ele>
				<name>203</name>
			</trkpt>
			<trkpt lat="49.19509" lon="8.92708">
				<ele>0</ele>
				<name>204</name>
			</trkpt>
			<trkpt lat="49.19515" lon="8.92738">
				<ele>0</ele>
				<name>205</name>
			</trkpt>
			<trkpt lat="49.19524" lon="8.92783">
				<ele>0</ele>
				<name>206</name>
			</trkpt>
			<trkpt lat="49.19528" lon="8.92794">
				<ele>0</ele>
				<name>207</name>
			</trkpt>
			<trkpt lat="49.19531" lon="8.92811">
				<ele>0</ele>
				<name>208</name>
			</trkpt>
			<trkpt lat="49.19539" lon="8.92849">
				<ele>0</ele>
				<name>209</name>
			</trkpt>
			<trkpt lat="49.19541" lon="8.92862">
				<ele>0</ele>
				<name>210</name>
			</trkpt>
			<trkpt lat="49.19544" lon="8.92878">
				<ele>0</ele>
				<name>211</name>
			</trkpt>
			<trkpt lat="49.19545" lon="8.92885">
				<ele>0</ele>
				<name>212</name>
			</trkpt>
			<trkpt lat="49.19546" lon="8.92891">
				<ele>0</ele>
				<name>213</name>
			</trkpt>
			<trkpt lat="49.19546" lon="8.92902">
				<ele>0</ele>
				<name>214</name>
			</trkpt>
			<trkpt lat="49.19546" lon="8.92915">
				<ele>0</ele>
				<name>215</name>
			</trkpt>
			<trkpt lat="49.19546" lon="8.92929">
				<ele>0</ele>
				<name>216</name>
			</trkpt>
			<trkpt lat="49.19546" lon="8.92943">
				<ele>0</ele>
				<name>217</name>
			</trkpt>
			<trkpt lat="49.19546" lon="8.92969">
				<ele>0</ele>
				<name>218</name>
			</trkpt>
			<trkpt lat="49.19546" lon="8.9297">
				<ele>0</ele>
				<name>219</name>
			</trkpt>
			<trkpt lat="49.19546" lon="8.93004">
				<ele>0</ele>
				<name>220</name>
			</trkpt>
			<trkpt lat="49.19551" lon="8.93004">
				<ele>0</ele>
				<name>221</name>
			</trkpt>
			<trkpt lat="49.19551" lon="8.93116">
				<ele>0</ele>
				<name>222</name>
			</trkpt>
			<trkpt lat="49.19552" lon="8.93139">
				<ele>0</ele>
				<name>223</name>
			</trkpt>
			<trkpt lat="49.19552" lon="8.93143">
				<ele>0</ele>
				<name>224</name>
			</trkpt>
			<trkpt lat="49.1955" lon="8.9315">
				<ele>0</ele>
				<name>225</name>
			</trkpt>
			<trkpt lat="49.19549" lon="8.93155">
				<ele>0</ele>
				<name>226</name>
			</trkpt>
			<trkpt lat="49.19547" lon="8.9317">
				<ele>0</ele>
				<name>227</name>
			</trkpt>
			<trkpt lat="49.19548" lon="8.93181">
				<ele>0</ele>
				<name>228</name>
			</trkpt>
			<trkpt lat="49.19548" lon="8.93204">
				<ele>0</ele>
				<name>229</name>
			</trkpt>
			<trkpt lat="49.19549" lon="8.93259">
				<ele>0</ele>
				<name>230</name>
			</trkpt>
			<trkpt lat="49.19549" lon="8.93286">
				<ele>0</ele>
				<name>231</name>
			</trkpt>
			<trkpt lat="49.19549" lon="8.93312">
				<ele>0</ele>
				<name>232</name>
			</trkpt>
			<trkpt lat="49.19521" lon="8.93313">
				<ele>0</ele>
				<name>233</name>
			</trkpt>
			<trkpt lat="49.19517" lon="8.93314">
				<ele>0</ele>
				<name>234</name>
			</trkpt>
			<trkpt lat="49.19495" lon="8.93315">
				<ele>0</ele>
				<name>235</name>
			</trkpt>
			<trkpt lat="49.19461" lon="8.93314">
				<ele>0</ele>
				<name>236</name>
			</trkpt>
			<trkpt lat="49.19452" lon="8.93326">
				<ele>0</ele>
				<name>237</name>
			</trkpt>
			<trkpt lat="49.19447" lon="8.93331">
				<ele>0</ele>
				<name>238</name>
			</trkpt>
			<trkpt lat="49.19444" lon="8.93334">
				<ele>0</ele>
				<name>239</name>
			</trkpt>
			<trkpt lat="49.19435" lon="8.93345">
				<ele>0</ele>
				<name>240</name>
			</trkpt>
			<trkpt lat="49.19433" lon="8.93347">
				<ele>0</ele>
				<name>241</name>
			</trkpt>
			<trkpt lat="49.19418" lon="8.93363">
				<ele>0</ele>
				<name>242</name>
			</trkpt>
			<trkpt lat="49.19413" lon="8.93369">
				<ele>0</ele>
				<name>243</name>
			</trkpt>
			<trkpt lat="49.19408" lon="8.93372">
				<ele>0</ele>
				<name>244</name>
			</trkpt>
			<trkpt lat="49.19402" lon="8.93375">
				<ele>0</ele>
				<name>245</name>
			</trkpt>
			<trkpt lat="49.19384" lon="8.93376">
				<ele>0</ele>
				<name>246</name>
			</trkpt>
			<trkpt lat="49.1938" lon="8.93377">
				<ele>0</ele>
				<name>247</name>
			</trkpt>
			<trkpt lat="49.19376" lon="8.93377">
				<ele>0</ele>
				<name>248</name>
			</trkpt>
			<trkpt lat="49.19345" lon="8.93378">
				<ele>0</ele>
				<name>249</name>
			</trkpt>
			<trkpt lat="49.19304" lon="8.93381">
				<ele>0</ele>
				<name>250</name>
			</trkpt>
			<trkpt lat="49.19312" lon="8.93421">
				<ele>0</ele>
				<name>251</name>
			</trkpt>
			<trkpt lat="49.19319" lon="8.93444">
				<ele>0</ele>
				<name>252</name>
			</trkpt>
			<trkpt lat="49.19321" lon="8.93451">
				<ele>0</ele>
				<name>253</name>
			</trkpt>
			<trkpt lat="49.19327" lon="8.93464">
				<ele>0</ele>
				<name>254</name>
			</trkpt>
		</trkseg>
	</trk>
</gpx>