<?xml version='1.0' encoding='UTF-8'?>
<gpx version="1.1" creator="https://www.komoot.de" xmlns="http://www.topografix.com/GPX/1/1" xmlns:xsi="http://www.w3.org/2001/XMLSchema-instance" xsi:schemaLocation="http://www.topografix.com/GPX/1/1 http://www.topografix.com/GPX/1/1/gpx.xsd">
  <metadata>
    <name>PW Bad Rappenau Drei Seen-Weg  6 km29.05.2021 15:28</name>
    <author>
      <link href="https://www.komoot.de">
        <text>komoot</text>
        <type>text/html</type>
      </link>
    </author>
  </metadata>
  <trk>
    <name>PW Bad Rappenau Drei Seen-Weg  6 km29.05.2021 15:28</name>
    <trkseg>
      <trkpt lat="49.238186" lon="9.101859">
        <ele>308.347350</ele>
        <time>2021-05-29T12:08:11.879Z</time>
      </trkpt>
      <trkpt lat="49.238278" lon="9.101765">
        <ele>308.347350</ele>
        <time>2021-05-29T12:08:15.476Z</time>
      </trkpt>
      <trkpt lat="49.238386" lon="9.101775">
        <ele>308.347350</ele>
        <time>2021-05-29T12:08:18.473Z</time>
      </trkpt>
      <trkpt lat="49.238472" lon="9.101701">
        <ele>308.347350</ele>
        <time>2021-05-29T12:08:27.894Z</time>
      </trkpt>
      <trkpt lat="49.238562" lon="9.101727">
        <ele>308.347350</ele>
        <time>2021-05-29T12:08:32.907Z</time>
      </trkpt>
      <trkpt lat="49.238669" lon="9.101794">
        <ele>308.347350</ele>
        <time>2021-05-29T12:08:36.904Z</time>
      </trkpt>
      <trkpt lat="49.238755" lon="9.101875">
        <ele>308.347350</ele>
        <time>2021-05-29T12:08:40.934Z</time>
      </trkpt>
      <trkpt lat="49.238846" lon="9.101955">
        <ele>308.347350</ele>
        <time>2021-05-29T12:08:46.926Z</time>
      </trkpt>
      <trkpt lat="49.238938" lon="9.102009">
        <ele>308.347350</ele>
        <time>2021-05-29T12:09:03.946Z</time>
      </trkpt>
      <trkpt lat="49.239027" lon="9.101967">
        <ele>308.155370</ele>
        <time>2021-05-29T12:09:13.903Z</time>
      </trkpt>
      <trkpt lat="49.239127" lon="9.101929">
        <ele>307.289076</ele>
        <time>2021-05-29T12:09:24.908Z</time>
      </trkpt>
      <trkpt lat="49.239219" lon="9.101907">
        <ele>306.506166</ele>
        <time>2021-05-29T12:09:29.949Z</time>
      </trkpt>
      <trkpt lat="49.239311" lon="9.101905">
        <ele>305.732549</ele>
        <time>2021-05-29T12:09:35.923Z</time>
      </trkpt>
      <trkpt lat="49.239411" lon="9.101912">
        <ele>304.890868</ele>
        <time>2021-05-29T12:09:41.924Z</time>
      </trkpt>
      <trkpt lat="49.239502" lon="9.101930">
        <ele>304.119384</ele>
        <time>2021-05-29T12:09:48.931Z</time>
      </trkpt>
      <trkpt lat="49.239596" lon="9.101925">
        <ele>303.328552</ele>
        <time>2021-05-29T12:09:55.939Z</time>
      </trkpt>
      <trkpt lat="49.239723" lon="9.101863">
        <ele>302.207803</ele>
        <time>2021-05-29T12:10:03.937Z</time>
      </trkpt>
      <trkpt lat="49.239813" lon="9.101783">
        <ele>301.332877</ele>
        <time>2021-05-29T12:10:07.934Z</time>
      </trkpt>
      <trkpt lat="49.239905" lon="9.101720">
        <ele>300.485547</ele>
        <time>2021-05-29T12:10:13.928Z</time>
      </trkpt>
      <trkpt lat="49.240001" lon="9.101694">
        <ele>299.665854</ele>
        <time>2021-05-29T12:10:19.953Z</time>
      </trkpt>
      <trkpt lat="49.240096" lon="9.101632">
        <ele>298.797602</ele>
        <time>2021-05-29T12:10:29.920Z</time>
      </trkpt>
      <trkpt lat="49.240170" lon="9.101532">
        <ele>297.967859</ele>
        <time>2021-05-29T12:10:36.936Z</time>
      </trkpt>
      <trkpt lat="49.240255" lon="9.101444">
        <ele>297.105227</ele>
        <time>2021-05-29T12:10:42.953Z</time>
      </trkpt>
      <trkpt lat="49.240313" lon="9.101298">
        <ele>296.167054</ele>
        <time>2021-05-29T12:10:48.933Z</time>
      </trkpt>
      <trkpt lat="49.240340" lon="9.101158">
        <ele>295.365696</ele>
        <time>2021-05-29T12:10:55.935Z</time>
      </trkpt>
      <trkpt lat="49.240432" lon="9.101153">
        <ele>294.591671</ele>
        <time>2021-05-29T12:11:03.919Z</time>
      </trkpt>
      <trkpt lat="49.240474" lon="9.101290">
        <ele>293.760828</ele>
        <time>2021-05-29T12:11:27.924Z</time>
      </trkpt>
      <trkpt lat="49.240570" lon="9.101277">
        <ele>293.180414</ele>
        <time>2021-05-29T12:11:50.926Z</time>
      </trkpt>
      <trkpt lat="49.240725" lon="9.101169">
        <ele>292.950899</ele>
        <time>2021-05-29T12:12:18.938Z</time>
      </trkpt>
      <trkpt lat="49.240830" lon="9.101141">
        <ele>292.807247</ele>
        <time>2021-05-29T12:12:25.932Z</time>
      </trkpt>
      <trkpt lat="49.240939" lon="9.101129">
        <ele>292.659955</ele>
        <time>2021-05-29T12:12:34.910Z</time>
      </trkpt>
      <trkpt lat="49.241031" lon="9.101081">
        <ele>292.528958</ele>
        <time>2021-05-29T12:12:39.917Z</time>
      </trkpt>
      <trkpt lat="49.241126" lon="9.101062">
        <ele>292.399827</ele>
        <time>2021-05-29T12:12:51.934Z</time>
      </trkpt>
      <trkpt lat="49.241218" lon="9.101021">
        <ele>292.270684</ele>
        <time>2021-05-29T12:12:57.928Z</time>
      </trkpt>
      <trkpt lat="49.241354" lon="9.100953">
        <ele>292.077859</ele>
        <time>2021-05-29T12:13:24.922Z</time>
      </trkpt>
      <trkpt lat="49.241444" lon="9.100907">
        <ele>291.949979</ele>
        <time>2021-05-29T12:13:32.920Z</time>
      </trkpt>
      <trkpt lat="49.241535" lon="9.100868">
        <ele>291.822616</ele>
        <time>2021-05-29T12:13:38.936Z</time>
      </trkpt>
      <trkpt lat="49.241623" lon="9.100813">
        <ele>291.694512</ele>
        <time>2021-05-29T12:13:43.934Z</time>
      </trkpt>
      <trkpt lat="49.241708" lon="9.100748">
        <ele>291.566462</ele>
        <time>2021-05-29T12:13:48.924Z</time>
      </trkpt>
      <trkpt lat="49.241793" lon="9.100667">
        <ele>291.431533</ele>
        <time>2021-05-29T12:13:54.924Z</time>
      </trkpt>
      <trkpt lat="49.241872" lon="9.100555">
        <ele>291.286444</ele>
        <time>2021-05-29T12:14:01.931Z</time>
      </trkpt>
      <trkpt lat="49.241939" lon="9.100461">
        <ele>291.163983</ele>
        <time>2021-05-29T12:14:06.920Z</time>
      </trkpt>
      <trkpt lat="49.242009" lon="9.100372">
        <ele>291.041366</ele>
        <time>2021-05-29T12:14:11.943Z</time>
      </trkpt>
      <trkpt lat="49.242065" lon="9.100260">
        <ele>290.917228</ele>
        <time>2021-05-29T12:14:21.921Z</time>
      </trkpt>
      <trkpt lat="49.242090" lon="9.100109">
        <ele>290.794638</ele>
        <time>2021-05-29T12:14:26.935Z</time>
      </trkpt>
      <trkpt lat="49.242076" lon="9.099956">
        <ele>290.757746</ele>
        <time>2021-05-29T12:14:32.933Z</time>
      </trkpt>
      <trkpt lat="49.242103" lon="9.099807">
        <ele>290.720821</ele>
        <time>2021-05-29T12:14:38.929Z</time>
      </trkpt>
      <trkpt lat="49.242104" lon="9.099662">
        <ele>290.686195</ele>
        <time>2021-05-29T12:14:45.932Z</time>
      </trkpt>
      <trkpt lat="49.242115" lon="9.099524">
        <ele>290.652997</ele>
        <time>2021-05-29T12:14:54.938Z</time>
      </trkpt>
      <trkpt lat="49.242132" lon="9.099388">
        <ele>290.619931</ele>
        <time>2021-05-29T12:15:00.926Z</time>
      </trkpt>
      <trkpt lat="49.242152" lon="9.099219">
        <ele>290.578918</ele>
        <time>2021-05-29T12:15:05.931Z</time>
      </trkpt>
      <trkpt lat="49.242178" lon="9.099082">
        <ele>290.544849</ele>
        <time>2021-05-29T12:15:11.932Z</time>
      </trkpt>
      <trkpt lat="49.242235" lon="9.098958">
        <ele>290.508636</ele>
        <time>2021-05-29T12:15:18.920Z</time>
      </trkpt>
      <trkpt lat="49.242302" lon="9.098865">
        <ele>290.475565</ele>
        <time>2021-05-29T12:15:27.938Z</time>
      </trkpt>
      <trkpt lat="49.242374" lon="9.098763">
        <ele>290.439693</ele>
        <time>2021-05-29T12:15:37.942Z</time>
      </trkpt>
      <trkpt lat="49.242446" lon="9.098661">
        <ele>290.403822</ele>
        <time>2021-05-29T12:15:43.917Z</time>
      </trkpt>
      <trkpt lat="49.242531" lon="9.098568">
        <ele>290.365616</ele>
        <time>2021-05-29T12:15:48.923Z</time>
      </trkpt>
      <trkpt lat="49.242612" lon="9.098477">
        <ele>290.328874</ele>
        <time>2021-05-29T12:15:53.933Z</time>
      </trkpt>
      <trkpt lat="49.242686" lon="9.098368">
        <ele>290.291324</ele>
        <time>2021-05-29T12:16:01.916Z</time>
      </trkpt>
      <trkpt lat="49.242779" lon="9.098287">
        <ele>290.252194</ele>
        <time>2021-05-29T12:16:06.930Z</time>
      </trkpt>
      <trkpt lat="49.242860" lon="9.098213">
        <ele>290.217698</ele>
        <time>2021-05-29T12:16:13.938Z</time>
      </trkpt>
      <trkpt lat="49.242933" lon="9.098110">
        <ele>290.181396</ele>
        <time>2021-05-29T12:16:20.924Z</time>
      </trkpt>
      <trkpt lat="49.243019" lon="9.098026">
        <ele>290.144090</ele>
        <time>2021-05-29T12:16:26.923Z</time>
      </trkpt>
      <trkpt lat="49.243092" lon="9.097930">
        <ele>290.226741</ele>
        <time>2021-05-29T12:16:36.930Z</time>
      </trkpt>
      <trkpt lat="49.243194" lon="9.097836">
        <ele>290.337439</ele>
        <time>2021-05-29T12:16:42.914Z</time>
      </trkpt>
      <trkpt lat="49.243270" lon="9.097762">
        <ele>290.421185</ele>
        <time>2021-05-29T12:16:50.928Z</time>
      </trkpt>
      <trkpt lat="49.243351" lon="9.097656">
        <ele>290.520257</ele>
        <time>2021-05-29T12:16:57.924Z</time>
      </trkpt>
      <trkpt lat="49.243426" lon="9.097579">
        <ele>290.604220</ele>
        <time>2021-05-29T12:17:02.928Z</time>
      </trkpt>
      <trkpt lat="49.243509" lon="9.097485">
        <ele>290.700211</ele>
        <time>2021-05-29T12:17:12.923Z</time>
      </trkpt>
      <trkpt lat="49.243578" lon="9.097379">
        <ele>290.791088</ele>
        <time>2021-05-29T12:17:18.922Z</time>
      </trkpt>
      <trkpt lat="49.243653" lon="9.097283">
        <ele>290.881980</ele>
        <time>2021-05-29T12:17:23.922Z</time>
      </trkpt>
      <trkpt lat="49.243734" lon="9.097189">
        <ele>290.976482</ele>
        <time>2021-05-29T12:17:27.922Z</time>
      </trkpt>
      <trkpt lat="49.243813" lon="9.097088">
        <ele>291.072174</ele>
        <time>2021-05-29T12:17:33.951Z</time>
      </trkpt>
      <trkpt lat="49.243891" lon="9.096999">
        <ele>291.162622</ele>
        <time>2021-05-29T12:17:39.943Z</time>
      </trkpt>
      <trkpt lat="49.243982" lon="9.096898">
        <ele>291.267127</ele>
        <time>2021-05-29T12:17:45.922Z</time>
      </trkpt>
      <trkpt lat="49.244048" lon="9.096795">
        <ele>291.354746</ele>
        <time>2021-05-29T12:17:51.935Z</time>
      </trkpt>
      <trkpt lat="49.244123" lon="9.096692">
        <ele>291.448419</ele>
        <time>2021-05-29T12:18:05.930Z</time>
      </trkpt>
      <trkpt lat="49.244182" lon="9.096573">
        <ele>291.539137</ele>
        <time>2021-05-29T12:18:10.928Z</time>
      </trkpt>
      <trkpt lat="49.244231" lon="9.096458">
        <ele>291.622508</ele>
        <time>2021-05-29T12:18:16.929Z</time>
      </trkpt>
      <trkpt lat="49.244276" lon="9.096330">
        <ele>291.710768</ele>
        <time>2021-05-29T12:18:23.939Z</time>
      </trkpt>
      <trkpt lat="49.244330" lon="9.096203">
        <ele>291.802781</ele>
        <time>2021-05-29T12:18:29.927Z</time>
      </trkpt>
      <trkpt lat="49.244387" lon="9.096080">
        <ele>291.949397</ele>
        <time>2021-05-29T12:18:36.931Z</time>
      </trkpt>
      <trkpt lat="49.244452" lon="9.095979">
        <ele>292.095069</ele>
        <time>2021-05-29T12:18:41.928Z</time>
      </trkpt>
      <trkpt lat="49.244500" lon="9.095847">
        <ele>292.250263</ele>
        <time>2021-05-29T12:18:48.932Z</time>
      </trkpt>
      <trkpt lat="49.244560" lon="9.095730">
        <ele>292.403080</ele>
        <time>2021-05-29T12:18:55.927Z</time>
      </trkpt>
      <trkpt lat="49.244618" lon="9.095603">
        <ele>292.562274</ele>
        <time>2021-05-29T12:19:02.933Z</time>
      </trkpt>
      <trkpt lat="49.244671" lon="9.095480">
        <ele>292.713648</ele>
        <time>2021-05-29T12:19:08.914Z</time>
      </trkpt>
      <trkpt lat="49.244711" lon="9.095345">
        <ele>292.865922</ele>
        <time>2021-05-29T12:19:14.916Z</time>
      </trkpt>
      <trkpt lat="49.244761" lon="9.095213">
        <ele>293.022671</ele>
        <time>2021-05-29T12:19:21.935Z</time>
      </trkpt>
      <trkpt lat="49.244810" lon="9.095084">
        <ele>293.175965</ele>
        <time>2021-05-29T12:19:27.922Z</time>
      </trkpt>
      <trkpt lat="49.244876" lon="9.094968">
        <ele>293.334010</ele>
        <time>2021-05-29T12:19:35.932Z</time>
      </trkpt>
      <trkpt lat="49.244924" lon="9.094838">
        <ele>293.487412</ele>
        <time>2021-05-29T12:19:48.921Z</time>
      </trkpt>
      <trkpt lat="49.245005" lon="9.094732">
        <ele>293.655026</ele>
        <time>2021-05-29T12:19:56.922Z</time>
      </trkpt>
      <trkpt lat="49.245094" lon="9.094638">
        <ele>293.825111</ele>
        <time>2021-05-29T12:20:01.920Z</time>
      </trkpt>
      <trkpt lat="49.245176" lon="9.094577">
        <ele>293.968533</ele>
        <time>2021-05-29T12:20:05.933Z</time>
      </trkpt>
      <trkpt lat="49.245263" lon="9.094535">
        <ele>294.112050</ele>
        <time>2021-05-29T12:20:12.915Z</time>
      </trkpt>
      <trkpt lat="49.245365" lon="9.094497">
        <ele>294.277207</ele>
        <time>2021-05-29T12:20:21.933Z</time>
      </trkpt>
      <trkpt lat="49.245454" lon="9.094460">
        <ele>294.422299</ele>
        <time>2021-05-29T12:20:27.915Z</time>
      </trkpt>
      <trkpt lat="49.245547" lon="9.094429">
        <ele>294.572043</ele>
        <time>2021-05-29T12:20:33.924Z</time>
      </trkpt>
      <trkpt lat="49.245636" lon="9.094369">
        <ele>294.743835</ele>
        <time>2021-05-29T12:20:38.947Z</time>
      </trkpt>
      <trkpt lat="49.245722" lon="9.094319">
        <ele>294.922418</ele>
        <time>2021-05-29T12:20:46.942Z</time>
      </trkpt>
      <trkpt lat="49.245823" lon="9.094349">
        <ele>295.122154</ele>
        <time>2021-05-29T12:20:52.928Z</time>
      </trkpt>
      <trkpt lat="49.245913" lon="9.094337">
        <ele>295.297543</ele>
        <time>2021-05-29T12:20:58.924Z</time>
      </trkpt>
      <trkpt lat="49.246019" lon="9.094334">
        <ele>295.503369</ele>
        <time>2021-05-29T12:21:05.905Z</time>
      </trkpt>
      <trkpt lat="49.246120" lon="9.094327">
        <ele>295.699653</ele>
        <time>2021-05-29T12:21:15.940Z</time>
      </trkpt>
      <trkpt lat="49.246165" lon="9.094201">
        <ele>295.881679</ele>
        <time>2021-05-29T12:21:32.944Z</time>
      </trkpt>
      <trkpt lat="49.246258" lon="9.094156">
        <ele>296.071025</ele>
        <time>2021-05-29T12:22:19.932Z</time>
      </trkpt>
      <trkpt lat="49.246345" lon="9.094109">
        <ele>296.250124</ele>
        <time>2021-05-29T12:22:26.926Z</time>
      </trkpt>
      <trkpt lat="49.246437" lon="9.094029">
        <ele>296.455506</ele>
        <time>2021-05-29T12:22:34.933Z</time>
      </trkpt>
      <trkpt lat="49.246505" lon="9.093928">
        <ele>296.639391</ele>
        <time>2021-05-29T12:22:43.923Z</time>
      </trkpt>
      <trkpt lat="49.246599" lon="9.093877">
        <ele>296.832993</ele>
        <time>2021-05-29T12:22:51.925Z</time>
      </trkpt>
      <trkpt lat="49.246693" lon="9.093850">
        <ele>297.018667</ele>
        <time>2021-05-29T12:22:56.920Z</time>
      </trkpt>
      <trkpt lat="49.246780" lon="9.093772">
        <ele>297.214373</ele>
        <time>2021-05-29T12:23:06.919Z</time>
      </trkpt>
      <trkpt lat="49.246860" lon="9.093710">
        <ele>297.388432</ele>
        <time>2021-05-29T12:23:11.926Z</time>
      </trkpt>
      <trkpt lat="49.246937" lon="9.093625">
        <ele>297.572693</ele>
        <time>2021-05-29T12:23:19.928Z</time>
      </trkpt>
      <trkpt lat="49.246990" lon="9.093507">
        <ele>297.754221</ele>
        <time>2021-05-29T12:23:27.937Z</time>
      </trkpt>
      <trkpt lat="49.247068" lon="9.093412">
        <ele>297.947682</ele>
        <time>2021-05-29T12:23:37.924Z</time>
      </trkpt>
      <trkpt lat="49.247158" lon="9.093324">
        <ele>298.152629</ele>
        <time>2021-05-29T12:23:42.930Z</time>
      </trkpt>
      <trkpt lat="49.247236" lon="9.093233">
        <ele>298.318739</ele>
        <time>2021-05-29T12:23:51.930Z</time>
      </trkpt>
      <trkpt lat="49.247314" lon="9.093144">
        <ele>298.483518</ele>
        <time>2021-05-29T12:24:02.935Z</time>
      </trkpt>
      <trkpt lat="49.247392" lon="9.093067">
        <ele>298.640729</ele>
        <time>2021-05-29T12:24:09.925Z</time>
      </trkpt>
      <trkpt lat="49.247472" lon="9.092967">
        <ele>298.815664</ele>
        <time>2021-05-29T12:24:14.954Z</time>
      </trkpt>
      <trkpt lat="49.247568" lon="9.092902">
        <ele>298.993487</ele>
        <time>2021-05-29T12:24:22.934Z</time>
      </trkpt>
      <trkpt lat="49.247650" lon="9.092825">
        <ele>299.156437</ele>
        <time>2021-05-29T12:24:30.932Z</time>
      </trkpt>
      <trkpt lat="49.247733" lon="9.092769">
        <ele>299.310092</ele>
        <time>2021-05-29T12:24:38.936Z</time>
      </trkpt>
      <trkpt lat="49.247814" lon="9.092693">
        <ele>299.471018</ele>
        <time>2021-05-29T12:24:46.930Z</time>
      </trkpt>
      <trkpt lat="49.247914" lon="9.092619">
        <ele>299.659172</ele>
        <time>2021-05-29T12:24:53.931Z</time>
      </trkpt>
      <trkpt lat="49.247997" lon="9.092548">
        <ele>299.820230</ele>
        <time>2021-05-29T12:24:58.951Z</time>
      </trkpt>
      <trkpt lat="49.248063" lon="9.092452">
        <ele>299.974424</ele>
        <time>2021-05-29T12:25:06.919Z</time>
      </trkpt>
      <trkpt lat="49.248149" lon="9.092376">
        <ele>300.142633</ele>
        <time>2021-05-29T12:25:16.924Z</time>
      </trkpt>
      <trkpt lat="49.248228" lon="9.092280">
        <ele>300.313473</ele>
        <time>2021-05-29T12:25:22.937Z</time>
      </trkpt>
      <trkpt lat="49.248288" lon="9.092175">
        <ele>300.467805</ele>
        <time>2021-05-29T12:25:29.920Z</time>
      </trkpt>
      <trkpt lat="49.248355" lon="9.092073">
        <ele>300.627838</ele>
        <time>2021-05-29T12:25:40.939Z</time>
      </trkpt>
      <trkpt lat="49.248445" lon="9.092026">
        <ele>300.788934</ele>
        <time>2021-05-29T12:25:51.915Z</time>
      </trkpt>
      <trkpt lat="49.248535" lon="9.091947">
        <ele>300.964671</ele>
        <time>2021-05-29T12:25:55.935Z</time>
      </trkpt>
      <trkpt lat="49.248618" lon="9.091891">
        <ele>301.118325</ele>
        <time>2021-05-29T12:26:02.929Z</time>
      </trkpt>
      <trkpt lat="49.248702" lon="9.091822">
        <ele>301.238397</ele>
        <time>2021-05-29T12:26:08.922Z</time>
      </trkpt>
      <trkpt lat="49.248783" lon="9.091748">
        <ele>301.329208</ele>
        <time>2021-05-29T12:26:12.935Z</time>
      </trkpt>
      <trkpt lat="49.248870" lon="9.091710">
        <ele>301.416319</ele>
        <time>2021-05-29T12:26:22.931Z</time>
      </trkpt>
      <trkpt lat="49.248956" lon="9.091668">
        <ele>301.503235</ele>
        <time>2021-05-29T12:26:32.920Z</time>
      </trkpt>
      <trkpt lat="49.249041" lon="9.091575">
        <ele>301.603813</ele>
        <time>2021-05-29T12:26:40.921Z</time>
      </trkpt>
      <trkpt lat="49.249126" lon="9.091514">
        <ele>301.694196</ele>
        <time>2021-05-29T12:26:49.959Z</time>
      </trkpt>
      <trkpt lat="49.249224" lon="9.091516">
        <ele>301.788568</ele>
        <time>2021-05-29T12:27:05.932Z</time>
      </trkpt>
      <trkpt lat="49.249303" lon="9.091447">
        <ele>301.876133</ele>
        <time>2021-05-29T12:27:14.932Z</time>
      </trkpt>
      <trkpt lat="49.249390" lon="9.091354">
        <ele>301.978284</ele>
        <time>2021-05-29T12:27:21.958Z</time>
      </trkpt>
      <trkpt lat="49.249469" lon="9.091284">
        <ele>302.066161</ele>
        <time>2021-05-29T12:27:30.927Z</time>
      </trkpt>
      <trkpt lat="49.249548" lon="9.091190">
        <ele>302.162480</ele>
        <time>2021-05-29T12:27:38.936Z</time>
      </trkpt>
      <trkpt lat="49.249626" lon="9.091096">
        <ele>302.258041</ele>
        <time>2021-05-29T12:27:44.934Z</time>
      </trkpt>
      <trkpt lat="49.249712" lon="9.090990">
        <ele>302.364326</ele>
        <time>2021-05-29T12:27:52.925Z</time>
      </trkpt>
      <trkpt lat="49.249784" lon="9.090884">
        <ele>302.460479</ele>
        <time>2021-05-29T12:27:58.933Z</time>
      </trkpt>
      <trkpt lat="49.249855" lon="9.090798">
        <ele>302.547634</ele>
        <time>2021-05-29T12:28:04.921Z</time>
      </trkpt>
      <trkpt lat="49.249921" lon="9.090684">
        <ele>302.643410</ele>
        <time>2021-05-29T12:28:12.930Z</time>
      </trkpt>
      <trkpt lat="49.249988" lon="9.090562">
        <ele>302.743621</ele>
        <time>2021-05-29T12:28:17.919Z</time>
      </trkpt>
      <trkpt lat="49.250075" lon="9.090490">
        <ele>302.838836</ele>
        <time>2021-05-29T12:28:24.931Z</time>
      </trkpt>
      <trkpt lat="49.250139" lon="9.090392">
        <ele>302.920665</ele>
        <time>2021-05-29T12:28:30.936Z</time>
      </trkpt>
      <trkpt lat="49.250204" lon="9.090284">
        <ele>302.964893</ele>
        <time>2021-05-29T12:28:37.926Z</time>
      </trkpt>
      <trkpt lat="49.250271" lon="9.090178">
        <ele>303.009317</ele>
        <time>2021-05-29T12:28:45.928Z</time>
      </trkpt>
      <trkpt lat="49.250335" lon="9.090071">
        <ele>303.053012</ele>
        <time>2021-05-29T12:28:51.925Z</time>
      </trkpt>
      <trkpt lat="49.250401" lon="9.089970">
        <ele>303.096040</ele>
        <time>2021-05-29T12:28:57.920Z</time>
      </trkpt>
      <trkpt lat="49.250456" lon="9.089846">
        <ele>303.141177</ele>
        <time>2021-05-29T12:29:05.918Z</time>
      </trkpt>
      <trkpt lat="49.250525" lon="9.089747">
        <ele>303.184780</ele>
        <time>2021-05-29T12:29:12.918Z</time>
      </trkpt>
      <trkpt lat="49.250593" lon="9.089647">
        <ele>303.228256</ele>
        <time>2021-05-29T12:29:18.916Z</time>
      </trkpt>
      <trkpt lat="49.250682" lon="9.089551">
        <ele>303.278461</ele>
        <time>2021-05-29T12:29:26.922Z</time>
      </trkpt>
      <trkpt lat="49.250750" lon="9.089446">
        <ele>303.322993</ele>
        <time>2021-05-29T12:29:32.928Z</time>
      </trkpt>
      <trkpt lat="49.250903" lon="9.089187">
        <ele>303.428163</ele>
        <time>2021-05-29T12:30:33.898Z</time>
      </trkpt>
      <trkpt lat="49.250970" lon="9.089087">
        <ele>303.471307</ele>
        <time>2021-05-29T12:30:38.922Z</time>
      </trkpt>
      <trkpt lat="49.251059" lon="9.088999">
        <ele>303.520165</ele>
        <time>2021-05-29T12:30:45.920Z</time>
      </trkpt>
      <trkpt lat="49.251135" lon="9.088899">
        <ele>303.566373</ele>
        <time>2021-05-29T12:30:50.938Z</time>
      </trkpt>
      <trkpt lat="49.251203" lon="9.088805">
        <ele>303.608618</ele>
        <time>2021-05-29T12:30:56.926Z</time>
      </trkpt>
      <trkpt lat="49.251280" lon="9.088722">
        <ele>303.652044</ele>
        <time>2021-05-29T12:31:06.922Z</time>
      </trkpt>
      <trkpt lat="49.251346" lon="9.088821">
        <ele>303.694648</ele>
        <time>2021-05-29T12:31:12.927Z</time>
      </trkpt>
      <trkpt lat="49.251397" lon="9.088949">
        <ele>303.739797</ele>
        <time>2021-05-29T12:31:19.939Z</time>
      </trkpt>
      <trkpt lat="49.251417" lon="9.089093">
        <ele>303.688950</ele>
        <time>2021-05-29T12:31:26.930Z</time>
      </trkpt>
      <trkpt lat="49.251424" lon="9.089239">
        <ele>303.624712</ele>
        <time>2021-05-29T12:31:31.930Z</time>
      </trkpt>
      <trkpt lat="49.251448" lon="9.089377">
        <ele>303.562045</ele>
        <time>2021-05-29T12:31:37.914Z</time>
      </trkpt>
      <trkpt lat="49.251464" lon="9.089530">
        <ele>303.494052</ele>
        <time>2021-05-29T12:31:42.923Z</time>
      </trkpt>
      <trkpt lat="49.251483" lon="9.089665">
        <ele>303.433453</ele>
        <time>2021-05-29T12:31:48.921Z</time>
      </trkpt>
      <trkpt lat="49.251500" lon="9.089802">
        <ele>303.372261</ele>
        <time>2021-05-29T12:32:03.880Z</time>
      </trkpt>
      <trkpt lat="49.251576" lon="9.089878">
        <ele>303.311249</ele>
        <time>2021-05-29T12:32:13.881Z</time>
      </trkpt>
      <trkpt lat="49.251640" lon="9.089766">
        <ele>303.245932</ele>
        <time>2021-05-29T12:32:22.912Z</time>
      </trkpt>
      <trkpt lat="49.251655" lon="9.089611">
        <ele>303.177175</ele>
        <time>2021-05-29T12:33:05.921Z</time>
      </trkpt>
      <trkpt lat="49.251698" lon="9.089481">
        <ele>303.113225</ele>
        <time>2021-05-29T12:33:10.931Z</time>
      </trkpt>
      <trkpt lat="49.251751" lon="9.089355">
        <ele>303.047450</ele>
        <time>2021-05-29T12:33:17.939Z</time>
      </trkpt>
      <trkpt lat="49.251799" lon="9.089236">
        <ele>302.986068</ele>
        <time>2021-05-29T12:33:23.922Z</time>
      </trkpt>
      <trkpt lat="49.251847" lon="9.089106">
        <ele>302.920530</ele>
        <time>2021-05-29T12:33:30.931Z</time>
      </trkpt>
      <trkpt lat="49.251887" lon="9.088978">
        <ele>302.858259</ele>
        <time>2021-05-29T12:33:36.921Z</time>
      </trkpt>
      <trkpt lat="49.251943" lon="9.088858">
        <ele>302.793530</ele>
        <time>2021-05-29T12:33:44.927Z</time>
      </trkpt>
      <trkpt lat="49.252001" lon="9.088733">
        <ele>302.726234</ele>
        <time>2021-05-29T12:33:56.938Z</time>
      </trkpt>
      <trkpt lat="49.252056" lon="9.088622">
        <ele>302.665084</ele>
        <time>2021-05-29T12:34:03.930Z</time>
      </trkpt>
      <trkpt lat="49.252130" lon="9.088539">
        <ele>302.603431</ele>
        <time>2021-05-29T12:34:11.936Z</time>
      </trkpt>
      <trkpt lat="49.252225" lon="9.088479">
        <ele>302.533790</ele>
        <time>2021-05-29T12:34:21.918Z</time>
      </trkpt>
      <trkpt lat="49.252281" lon="9.088358">
        <ele>302.449496</ele>
        <time>2021-05-29T12:34:30.928Z</time>
      </trkpt>
      <trkpt lat="49.252336" lon="9.088243">
        <ele>302.368477</ele>
        <time>2021-05-29T12:34:37.926Z</time>
      </trkpt>
      <trkpt lat="49.252396" lon="9.088123">
        <ele>302.282574</ele>
        <time>2021-05-29T12:34:44.906Z</time>
      </trkpt>
      <trkpt lat="49.252465" lon="9.088012">
        <ele>302.195466</ele>
        <time>2021-05-29T12:34:50.919Z</time>
      </trkpt>
      <trkpt lat="49.252525" lon="9.087901">
        <ele>302.113564</ele>
        <time>2021-05-29T12:34:56.919Z</time>
      </trkpt>
      <trkpt lat="49.252583" lon="9.087790">
        <ele>302.032762</ele>
        <time>2021-05-29T12:35:05.917Z</time>
      </trkpt>
      <trkpt lat="49.252644" lon="9.087684">
        <ele>301.952455</ele>
        <time>2021-05-29T12:35:12.922Z</time>
      </trkpt>
      <trkpt lat="49.252721" lon="9.087555">
        <ele>301.853116</ele>
        <time>2021-05-29T12:35:19.951Z</time>
      </trkpt>
      <trkpt lat="49.252797" lon="9.087466">
        <ele>301.769831</ele>
        <time>2021-05-29T12:35:26.934Z</time>
      </trkpt>
      <trkpt lat="49.252878" lon="9.087403">
        <ele>301.690743</ele>
        <time>2021-05-29T12:35:34.932Z</time>
      </trkpt>
      <trkpt lat="49.252966" lon="9.087326">
        <ele>301.602512</ele>
        <time>2021-05-29T12:35:42.923Z</time>
      </trkpt>
      <trkpt lat="49.253052" lon="9.087257">
        <ele>301.517991</ele>
        <time>2021-05-29T12:35:48.926Z</time>
      </trkpt>
      <trkpt lat="49.253135" lon="9.087181">
        <ele>301.433805</ele>
        <time>2021-05-29T12:35:55.932Z</time>
      </trkpt>
      <trkpt lat="49.253226" lon="9.087102">
        <ele>301.342742</ele>
        <time>2021-05-29T12:36:04.933Z</time>
      </trkpt>
      <trkpt lat="49.253310" lon="9.087037">
        <ele>301.260810</ele>
        <time>2021-05-29T12:36:12.907Z</time>
      </trkpt>
      <trkpt lat="49.253400" lon="9.086916">
        <ele>301.156561</ele>
        <time>2021-05-29T12:36:43.949Z</time>
      </trkpt>
      <trkpt lat="49.253480" lon="9.086853">
        <ele>301.078247</ele>
        <time>2021-05-29T12:36:50.933Z</time>
      </trkpt>
      <trkpt lat="49.253568" lon="9.086792">
        <ele>300.994154</ele>
        <time>2021-05-29T12:36:59.939Z</time>
      </trkpt>
      <trkpt lat="49.253658" lon="9.086727">
        <ele>300.982552</ele>
        <time>2021-05-29T12:37:09.932Z</time>
      </trkpt>
      <trkpt lat="49.253721" lon="9.086608">
        <ele>300.999537</ele>
        <time>2021-05-29T12:37:16.932Z</time>
      </trkpt>
      <trkpt lat="49.253796" lon="9.086499">
        <ele>301.017094</ele>
        <time>2021-05-29T12:37:22.928Z</time>
      </trkpt>
      <trkpt lat="49.253875" lon="9.086402">
        <ele>301.034288</ele>
        <time>2021-05-29T12:37:30.930Z</time>
      </trkpt>
      <trkpt lat="49.253943" lon="9.086305">
        <ele>301.050067</ele>
        <time>2021-05-29T12:37:37.933Z</time>
      </trkpt>
      <trkpt lat="49.254007" lon="9.086200">
        <ele>301.065993</ele>
        <time>2021-05-29T12:37:45.922Z</time>
      </trkpt>
      <trkpt lat="49.254061" lon="9.086088">
        <ele>301.081428</ele>
        <time>2021-05-29T12:37:50.921Z</time>
      </trkpt>
      <trkpt lat="49.254123" lon="9.085975">
        <ele>301.097793</ele>
        <time>2021-05-29T12:37:57.919Z</time>
      </trkpt>
      <trkpt lat="49.254183" lon="9.085867">
        <ele>301.113514</ele>
        <time>2021-05-29T12:38:05.920Z</time>
      </trkpt>
      <trkpt lat="49.254264" lon="9.085751">
        <ele>301.132345</ele>
        <time>2021-05-29T12:38:12.917Z</time>
      </trkpt>
      <trkpt lat="49.254308" lon="9.085627">
        <ele>301.147990</ele>
        <time>2021-05-29T12:38:19.922Z</time>
      </trkpt>
      <trkpt lat="49.254353" lon="9.085496">
        <ele>301.164400</ele>
        <time>2021-05-29T12:38:27.932Z</time>
      </trkpt>
      <trkpt lat="49.254418" lon="9.085367">
        <ele>301.182465</ele>
        <time>2021-05-29T12:38:36.923Z</time>
      </trkpt>
      <trkpt lat="49.254486" lon="9.085230">
        <ele>301.201544</ele>
        <time>2021-05-29T12:38:43.924Z</time>
      </trkpt>
      <trkpt lat="49.254550" lon="9.085106">
        <ele>301.219068</ele>
        <time>2021-05-29T12:38:49.930Z</time>
      </trkpt>
      <trkpt lat="49.254613" lon="9.084996">
        <ele>301.235290</ele>
        <time>2021-05-29T12:38:57.919Z</time>
      </trkpt>
      <trkpt lat="49.254656" lon="9.084870">
        <ele>301.251052</ele>
        <time>2021-05-29T12:39:05.917Z</time>
      </trkpt>
      <trkpt lat="49.254707" lon="9.084745">
        <ele>301.267392</ele>
        <time>2021-05-29T12:39:11.954Z</time>
      </trkpt>
      <trkpt lat="49.254770" lon="9.084639">
        <ele>301.299206</ele>
        <time>2021-05-29T12:39:16.936Z</time>
      </trkpt>
      <trkpt lat="49.254818" lon="9.084515">
        <ele>301.349084</ele>
        <time>2021-05-29T12:39:22.949Z</time>
      </trkpt>
      <trkpt lat="49.254865" lon="9.084395">
        <ele>301.397502</ele>
        <time>2021-05-29T12:39:29.931Z</time>
      </trkpt>
      <trkpt lat="49.254908" lon="9.084246">
        <ele>301.453865</ele>
        <time>2021-05-29T12:39:35.916Z</time>
      </trkpt>
      <trkpt lat="49.254968" lon="9.084127">
        <ele>301.505889</ele>
        <time>2021-05-29T12:40:19.901Z</time>
      </trkpt>
      <trkpt lat="49.255108" lon="9.084046">
        <ele>301.585214</ele>
        <time>2021-05-29T12:41:06.945Z</time>
      </trkpt>
      <trkpt lat="49.255028" lon="9.083969">
        <ele>301.635292</ele>
        <time>2021-05-29T12:41:16.941Z</time>
      </trkpt>
      <trkpt lat="49.255043" lon="9.083826">
        <ele>301.685401</ele>
        <time>2021-05-29T12:41:24.925Z</time>
      </trkpt>
      <trkpt lat="49.255018" lon="9.083673">
        <ele>301.739968</ele>
        <time>2021-05-29T12:41:31.934Z</time>
      </trkpt>
      <trkpt lat="49.255038" lon="9.083528">
        <ele>301.791241</ele>
        <time>2021-05-29T12:41:38.922Z</time>
      </trkpt>
      <trkpt lat="49.255068" lon="9.083395">
        <ele>301.839926</ele>
        <time>2021-05-29T12:41:44.924Z</time>
      </trkpt>
      <trkpt lat="49.255081" lon="9.083253">
        <ele>301.889534</ele>
        <time>2021-05-29T12:41:51.922Z</time>
      </trkpt>
      <trkpt lat="49.255084" lon="9.083105">
        <ele>301.940762</ele>
        <time>2021-05-29T12:41:58.914Z</time>
      </trkpt>
      <trkpt lat="49.255109" lon="9.082953">
        <ele>301.994994</ele>
        <time>2021-05-29T12:42:05.907Z</time>
      </trkpt>
      <trkpt lat="49.255098" lon="9.082789">
        <ele>302.052032</ele>
        <time>2021-05-29T12:42:13.933Z</time>
      </trkpt>
      <trkpt lat="49.255216" lon="9.082698">
        <ele>302.122056</ele>
        <time>2021-05-29T12:42:54.933Z</time>
      </trkpt>
      <trkpt lat="49.255124" lon="9.082615">
        <ele>302.178648</ele>
        <time>2021-05-29T12:43:52.906Z</time>
      </trkpt>
      <trkpt lat="49.255029" lon="9.082596">
        <ele>302.229615</ele>
        <time>2021-05-29T12:44:03.922Z</time>
      </trkpt>
      <trkpt lat="49.254935" lon="9.082582">
        <ele>302.315583</ele>
        <time>2021-05-29T12:44:10.929Z</time>
      </trkpt>
      <trkpt lat="49.254841" lon="9.082552">
        <ele>302.402984</ele>
        <time>2021-05-29T12:44:19.950Z</time>
      </trkpt>
      <trkpt lat="49.254742" lon="9.082585">
        <ele>302.495207</ele>
        <time>2021-05-29T12:44:28.929Z</time>
      </trkpt>
      <trkpt lat="49.254651" lon="9.082607">
        <ele>302.579066</ele>
        <time>2021-05-29T12:44:35.915Z</time>
      </trkpt>
      <trkpt lat="49.254554" lon="9.082606">
        <ele>302.667363</ele>
        <time>2021-05-29T12:44:43.926Z</time>
      </trkpt>
      <trkpt lat="49.254457" lon="9.082650">
        <ele>302.759446</ele>
        <time>2021-05-29T12:44:55.926Z</time>
      </trkpt>
      <trkpt lat="49.254358" lon="9.082674">
        <ele>302.850683</ele>
        <time>2021-05-29T12:45:05.916Z</time>
      </trkpt>
      <trkpt lat="49.254265" lon="9.082676">
        <ele>302.935346</ele>
        <time>2021-05-29T12:45:11.916Z</time>
      </trkpt>
      <trkpt lat="49.254175" lon="9.082700">
        <ele>303.018500</ele>
        <time>2021-05-29T12:45:16.934Z</time>
      </trkpt>
      <trkpt lat="49.254080" lon="9.082718">
        <ele>303.105634</ele>
        <time>2021-05-29T12:45:20.932Z</time>
      </trkpt>
      <trkpt lat="49.253985" lon="9.082689">
        <ele>303.193808</ele>
        <time>2021-05-29T12:45:27.944Z</time>
      </trkpt>
      <trkpt lat="49.253890" lon="9.082717">
        <ele>303.281868</ele>
        <time>2021-05-29T12:45:36.925Z</time>
      </trkpt>
      <trkpt lat="49.253794" lon="9.082733">
        <ele>303.369769</ele>
        <time>2021-05-29T12:45:43.918Z</time>
      </trkpt>
      <trkpt lat="49.253703" lon="9.082757">
        <ele>303.453820</ele>
        <time>2021-05-29T12:45:49.954Z</time>
      </trkpt>
      <trkpt lat="49.253598" lon="9.082739">
        <ele>303.549994</ele>
        <time>2021-05-29T12:45:56.920Z</time>
      </trkpt>
      <trkpt lat="49.253491" lon="9.082736">
        <ele>303.647408</ele>
        <time>2021-05-29T12:46:05.912Z</time>
      </trkpt>
      <trkpt lat="49.253401" lon="9.082773">
        <ele>303.732229</ele>
        <time>2021-05-29T12:46:10.926Z</time>
      </trkpt>
      <trkpt lat="49.253307" lon="9.082799">
        <ele>303.819177</ele>
        <time>2021-05-29T12:46:16.918Z</time>
      </trkpt>
      <trkpt lat="49.253210" lon="9.082800">
        <ele>303.927528</ele>
        <time>2021-05-29T12:46:23.908Z</time>
      </trkpt>
      <trkpt lat="49.253111" lon="9.082809">
        <ele>304.061883</ele>
        <time>2021-05-29T12:46:31.913Z</time>
      </trkpt>
      <trkpt lat="49.253018" lon="9.082845">
        <ele>304.191833</ele>
        <time>2021-05-29T12:46:37.921Z</time>
      </trkpt>
      <trkpt lat="49.252924" lon="9.082872">
        <ele>304.321398</ele>
        <time>2021-05-29T12:46:44.912Z</time>
      </trkpt>
      <trkpt lat="49.252832" lon="9.082884">
        <ele>304.446485</ele>
        <time>2021-05-29T12:46:55.914Z</time>
      </trkpt>
      <trkpt lat="49.252741" lon="9.082914">
        <ele>304.572588</ele>
        <time>2021-05-29T12:47:03.928Z</time>
      </trkpt>
      <trkpt lat="49.252645" lon="9.082982">
        <ele>304.715871</ele>
        <time>2021-05-29T12:47:33.915Z</time>
      </trkpt>
      <trkpt lat="49.252563" lon="9.083068">
        <ele>304.850497</ele>
        <time>2021-05-29T12:47:41.934Z</time>
      </trkpt>
      <trkpt lat="49.252471" lon="9.083149">
        <ele>304.994248</ele>
        <time>2021-05-29T12:47:49.916Z</time>
      </trkpt>
      <trkpt lat="49.252402" lon="9.083249">
        <ele>305.122924</ele>
        <time>2021-05-29T12:47:56.920Z</time>
      </trkpt>
      <trkpt lat="49.252322" lon="9.083341">
        <ele>305.258439</ele>
        <time>2021-05-29T12:48:05.912Z</time>
      </trkpt>
      <trkpt lat="49.252254" lon="9.083449">
        <ele>305.391132</ele>
        <time>2021-05-29T12:48:12.918Z</time>
      </trkpt>
      <trkpt lat="49.252171" lon="9.083526">
        <ele>305.522584</ele>
        <time>2021-05-29T12:48:18.925Z</time>
      </trkpt>
      <trkpt lat="49.252083" lon="9.083570">
        <ele>305.647990</ele>
        <time>2021-05-29T12:48:26.930Z</time>
      </trkpt>
      <trkpt lat="49.251995" lon="9.083604">
        <ele>305.770940</ele>
        <time>2021-05-29T12:48:34.937Z</time>
      </trkpt>
      <trkpt lat="49.251911" lon="9.083665">
        <ele>305.896875</ele>
        <time>2021-05-29T12:48:42.917Z</time>
      </trkpt>
      <trkpt lat="49.251817" lon="9.083703">
        <ele>306.028580</ele>
        <time>2021-05-29T12:48:50.927Z</time>
      </trkpt>
      <trkpt lat="49.251713" lon="9.083739">
        <ele>306.173024</ele>
        <time>2021-05-29T12:48:58.938Z</time>
      </trkpt>
      <trkpt lat="49.251641" lon="9.083828">
        <ele>306.298357</ele>
        <time>2021-05-29T12:49:02.933Z</time>
      </trkpt>
      <trkpt lat="49.251569" lon="9.083942">
        <ele>306.376113</ele>
        <time>2021-05-29T12:49:06.928Z</time>
      </trkpt>
      <trkpt lat="49.251489" lon="9.084010">
        <ele>306.442882</ele>
        <time>2021-05-29T12:49:12.931Z</time>
      </trkpt>
      <trkpt lat="49.251396" lon="9.084065">
        <ele>306.515636</ele>
        <time>2021-05-29T12:49:19.931Z</time>
      </trkpt>
      <trkpt lat="49.251322" lon="9.084148">
        <ele>306.582569</ele>
        <time>2021-05-29T12:49:26.918Z</time>
      </trkpt>
      <trkpt lat="49.251233" lon="9.084222">
        <ele>306.656472</ele>
        <time>2021-05-29T12:49:33.944Z</time>
      </trkpt>
      <trkpt lat="49.251154" lon="9.084294">
        <ele>306.723558</ele>
        <time>2021-05-29T12:49:38.928Z</time>
      </trkpt>
      <trkpt lat="49.251072" lon="9.084367">
        <ele>306.792773</ele>
        <time>2021-05-29T12:49:44.928Z</time>
      </trkpt>
      <trkpt lat="49.250981" lon="9.084437">
        <ele>306.867087</ele>
        <time>2021-05-29T12:49:50.933Z</time>
      </trkpt>
      <trkpt lat="49.250890" lon="9.084460">
        <ele>306.934398</ele>
        <time>2021-05-29T12:49:58.926Z</time>
      </trkpt>
      <trkpt lat="49.250796" lon="9.084538">
        <ele>307.012417</ele>
        <time>2021-05-29T12:50:05.930Z</time>
      </trkpt>
      <trkpt lat="49.250685" lon="9.084546">
        <ele>307.093515</ele>
        <time>2021-05-29T12:50:14.926Z</time>
      </trkpt>
      <trkpt lat="49.250587" lon="9.084590">
        <ele>307.168045</ele>
        <time>2021-05-29T12:50:23.916Z</time>
      </trkpt>
      <trkpt lat="49.250488" lon="9.084645">
        <ele>307.244900</ele>
        <time>2021-05-29T12:50:29.926Z</time>
      </trkpt>
      <trkpt lat="49.250395" lon="9.084700">
        <ele>307.317655</ele>
        <time>2021-05-29T12:50:33.922Z</time>
      </trkpt>
      <trkpt lat="49.250313" lon="9.084768">
        <ele>307.385704</ele>
        <time>2021-05-29T12:50:41.923Z</time>
      </trkpt>
      <trkpt lat="49.250225" lon="9.084847">
        <ele>307.460142</ele>
        <time>2021-05-29T12:50:49.926Z</time>
      </trkpt>
      <trkpt lat="49.250134" lon="9.084929">
        <ele>307.537192</ele>
        <time>2021-05-29T12:50:53.917Z</time>
      </trkpt>
      <trkpt lat="49.250044" lon="9.084999">
        <ele>307.610855</ele>
        <time>2021-05-29T12:50:58.923Z</time>
      </trkpt>
      <trkpt lat="49.249977" lon="9.085096">
        <ele>307.696531</ele>
        <time>2021-05-29T12:51:05.940Z</time>
      </trkpt>
      <trkpt lat="49.249890" lon="9.085173">
        <ele>307.791492</ele>
        <time>2021-05-29T12:51:13.935Z</time>
      </trkpt>
      <trkpt lat="49.249808" lon="9.085254">
        <ele>307.883706</ele>
        <time>2021-05-29T12:51:20.920Z</time>
      </trkpt>
      <trkpt lat="49.249722" lon="9.085344">
        <ele>307.982141</ele>
        <time>2021-05-29T12:51:28.915Z</time>
      </trkpt>
      <trkpt lat="49.249626" lon="9.085404">
        <ele>308.080132</ele>
        <time>2021-05-29T12:51:35.926Z</time>
      </trkpt>
      <trkpt lat="49.249533" lon="9.085483">
        <ele>308.180637</ele>
        <time>2021-05-29T12:51:40.954Z</time>
      </trkpt>
      <trkpt lat="49.249460" lon="9.085566">
        <ele>308.266556</ele>
        <time>2021-05-29T12:51:45.923Z</time>
      </trkpt>
      <trkpt lat="49.249386" lon="9.085652">
        <ele>308.354343</ele>
        <time>2021-05-29T12:51:54.912Z</time>
      </trkpt>
      <trkpt lat="49.249298" lon="9.085710">
        <ele>308.444884</ele>
        <time>2021-05-29T12:52:04.928Z</time>
      </trkpt>
      <trkpt lat="49.249174" lon="9.085879">
        <ele>308.601745</ele>
        <time>2021-05-29T12:58:08.928Z</time>
      </trkpt>
      <trkpt lat="49.249093" lon="9.085943">
        <ele>308.687882</ele>
        <time>2021-05-29T12:58:15.945Z</time>
      </trkpt>
      <trkpt lat="49.249025" lon="9.086041">
        <ele>308.776120</ele>
        <time>2021-05-29T12:58:24.911Z</time>
      </trkpt>
      <trkpt lat="49.248950" lon="9.086131">
        <ele>308.866162</ele>
        <time>2021-05-29T12:58:30.931Z</time>
      </trkpt>
      <trkpt lat="49.248882" lon="9.086222">
        <ele>308.951498</ele>
        <time>2021-05-29T12:58:35.919Z</time>
      </trkpt>
      <trkpt lat="49.248806" lon="9.086317">
        <ele>309.044205</ele>
        <time>2021-05-29T12:58:41.917Z</time>
      </trkpt>
      <trkpt lat="49.248729" lon="9.086390">
        <ele>309.129788</ele>
        <time>2021-05-29T12:58:47.916Z</time>
      </trkpt>
      <trkpt lat="49.248653" lon="9.086485">
        <ele>309.222495</ele>
        <time>2021-05-29T12:58:52.937Z</time>
      </trkpt>
      <trkpt lat="49.248572" lon="9.086575">
        <ele>309.318393</ele>
        <time>2021-05-29T12:58:59.933Z</time>
      </trkpt>
      <trkpt lat="49.248504" lon="9.086682">
        <ele>309.500031</ele>
        <time>2021-05-29T12:59:07.927Z</time>
      </trkpt>
      <trkpt lat="49.248432" lon="9.086766">
        <ele>309.668664</ele>
        <time>2021-05-29T12:59:14.942Z</time>
      </trkpt>
      <trkpt lat="49.248344" lon="9.086842">
        <ele>309.856897</ele>
        <time>2021-05-29T12:59:22.922Z</time>
      </trkpt>
      <trkpt lat="49.248261" lon="9.086909">
        <ele>310.031708</ele>
        <time>2021-05-29T12:59:26.937Z</time>
      </trkpt>
      <trkpt lat="49.248162" lon="9.086984">
        <ele>310.237499</ele>
        <time>2021-05-29T12:59:32.899Z</time>
      </trkpt>
      <trkpt lat="49.248073" lon="9.087025">
        <ele>310.410669</ele>
        <time>2021-05-29T12:59:37.917Z</time>
      </trkpt>
      <trkpt lat="49.247999" lon="9.087128">
        <ele>310.596969</ele>
        <time>2021-05-29T12:59:42.911Z</time>
      </trkpt>
      <trkpt lat="49.247930" lon="9.087230">
        <ele>310.775637</ele>
        <time>2021-05-29T12:59:54.915Z</time>
      </trkpt>
      <trkpt lat="49.247914" lon="9.087377">
        <ele>310.956907</ele>
        <time>2021-05-29T13:00:08.915Z</time>
      </trkpt>
      <trkpt lat="49.247825" lon="9.087341">
        <ele>311.128424</ele>
        <time>2021-05-29T13:00:52.911Z</time>
      </trkpt>
      <trkpt lat="49.247767" lon="9.087458">
        <ele>311.307120</ele>
        <time>2021-05-29T13:01:09.920Z</time>
      </trkpt>
      <trkpt lat="49.247685" lon="9.087542">
        <ele>311.490924</ele>
        <time>2021-05-29T13:01:16.913Z</time>
      </trkpt>
      <trkpt lat="49.247612" lon="9.087623">
        <ele>311.658879</ele>
        <time>2021-05-29T13:01:23.920Z</time>
      </trkpt>
      <trkpt lat="49.247530" lon="9.087713">
        <ele>311.846838</ele>
        <time>2021-05-29T13:01:30.912Z</time>
      </trkpt>
      <trkpt lat="49.247444" lon="9.087790">
        <ele>312.032446</ele>
        <time>2021-05-29T13:01:36.911Z</time>
      </trkpt>
      <trkpt lat="49.247359" lon="9.087854">
        <ele>312.208923</ele>
        <time>2021-05-29T13:01:42.928Z</time>
      </trkpt>
      <trkpt lat="49.247251" lon="9.087951">
        <ele>312.442198</ele>
        <time>2021-05-29T13:01:49.925Z</time>
      </trkpt>
      <trkpt lat="49.247174" lon="9.088033">
        <ele>312.616935</ele>
        <time>2021-05-29T13:01:55.935Z</time>
      </trkpt>
      <trkpt lat="49.247085" lon="9.088089">
        <ele>312.774990</ele>
        <time>2021-05-29T13:02:04.927Z</time>
      </trkpt>
      <trkpt lat="49.247000" lon="9.088178">
        <ele>312.935297</ele>
        <time>2021-05-29T13:02:12.925Z</time>
      </trkpt>
      <trkpt lat="49.246911" lon="9.088266">
        <ele>313.100230</ele>
        <time>2021-05-29T13:02:17.928Z</time>
      </trkpt>
      <trkpt lat="49.246834" lon="9.088349">
        <ele>313.246826</ele>
        <time>2021-05-29T13:02:23.922Z</time>
      </trkpt>
      <trkpt lat="49.246748" lon="9.088409">
        <ele>313.393961</ele>
        <time>2021-05-29T13:02:30.925Z</time>
      </trkpt>
      <trkpt lat="49.246661" lon="9.088468">
        <ele>313.542101</ele>
        <time>2021-05-29T13:02:37.929Z</time>
      </trkpt>
      <trkpt lat="49.246615" lon="9.088586">
        <ele>313.681796</ele>
        <time>2021-05-29T13:02:51.954Z</time>
      </trkpt>
      <trkpt lat="49.246557" lon="9.088703">
        <ele>313.831119</ele>
        <time>2021-05-29T13:03:21.920Z</time>
      </trkpt>
      <trkpt lat="49.246468" lon="9.088845">
        <ele>314.031204</ele>
        <time>2021-05-29T13:03:57.922Z</time>
      </trkpt>
      <trkpt lat="49.246379" lon="9.088914">
        <ele>314.186514</ele>
        <time>2021-05-29T13:04:02.934Z</time>
      </trkpt>
      <trkpt lat="49.246281" lon="9.088986">
        <ele>314.355743</ele>
        <time>2021-05-29T13:04:09.924Z</time>
      </trkpt>
      <trkpt lat="49.246191" lon="9.089025">
        <ele>314.501372</ele>
        <time>2021-05-29T13:04:14.914Z</time>
      </trkpt>
      <trkpt lat="49.246097" lon="9.089099">
        <ele>314.665926</ele>
        <time>2021-05-29T13:04:22.906Z</time>
      </trkpt>
      <trkpt lat="49.246009" lon="9.089163">
        <ele>314.817600</ele>
        <time>2021-05-29T13:04:29.908Z</time>
      </trkpt>
      <trkpt lat="49.245918" lon="9.089235">
        <ele>314.977071</ele>
        <time>2021-05-29T13:04:36.923Z</time>
      </trkpt>
      <trkpt lat="49.245841" lon="9.089347">
        <ele>315.142398</ele>
        <time>2021-05-29T13:04:41.916Z</time>
      </trkpt>
      <trkpt lat="49.245774" lon="9.089442">
        <ele>315.284548</ele>
        <time>2021-05-29T13:04:48.925Z</time>
      </trkpt>
      <trkpt lat="49.245697" lon="9.089542">
        <ele>315.441726</ele>
        <time>2021-05-29T13:04:55.907Z</time>
      </trkpt>
      <trkpt lat="49.245613" lon="9.089645">
        <ele>315.470824</ele>
        <time>2021-05-29T13:05:01.919Z</time>
      </trkpt>
      <trkpt lat="49.245520" lon="9.089731">
        <ele>315.474675</ele>
        <time>2021-05-29T13:05:08.907Z</time>
      </trkpt>
      <trkpt lat="49.245442" lon="9.089808">
        <ele>315.477963</ele>
        <time>2021-05-29T13:05:13.918Z</time>
      </trkpt>
      <trkpt lat="49.245354" lon="9.089857">
        <ele>315.481282</ele>
        <time>2021-05-29T13:05:33.914Z</time>
      </trkpt>
      <trkpt lat="49.245267" lon="9.089896">
        <ele>315.484495</ele>
        <time>2021-05-29T13:05:49.925Z</time>
      </trkpt>
      <trkpt lat="49.245195" lon="9.090012">
        <ele>315.488198</ele>
        <time>2021-05-29T13:05:56.930Z</time>
      </trkpt>
      <trkpt lat="49.245106" lon="9.090066">
        <ele>315.491591</ele>
        <time>2021-05-29T13:06:04.918Z</time>
      </trkpt>
      <trkpt lat="49.245021" lon="9.090129">
        <ele>315.494938</ele>
        <time>2021-05-29T13:06:10.919Z</time>
      </trkpt>
      <trkpt lat="49.244936" lon="9.090234">
        <ele>315.498808</ele>
        <time>2021-05-29T13:06:16.923Z</time>
      </trkpt>
      <trkpt lat="49.244859" lon="9.090322">
        <ele>315.502213</ele>
        <time>2021-05-29T13:06:22.917Z</time>
      </trkpt>
      <trkpt lat="49.244781" lon="9.090415">
        <ele>315.505717</ele>
        <time>2021-05-29T13:06:29.913Z</time>
      </trkpt>
      <trkpt lat="49.244702" lon="9.090513">
        <ele>315.509320</ele>
        <time>2021-05-29T13:06:36.915Z</time>
      </trkpt>
      <trkpt lat="49.244626" lon="9.090597">
        <ele>315.512641</ele>
        <time>2021-05-29T13:06:42.915Z</time>
      </trkpt>
      <trkpt lat="49.244539" lon="9.090674">
        <ele>315.516202</ele>
        <time>2021-05-29T13:06:47.916Z</time>
      </trkpt>
      <trkpt lat="49.244465" lon="9.090776">
        <ele>315.519731</ele>
        <time>2021-05-29T13:06:56.935Z</time>
      </trkpt>
      <trkpt lat="49.244390" lon="9.090853">
        <ele>315.522931</ele>
        <time>2021-05-29T13:07:02.926Z</time>
      </trkpt>
      <trkpt lat="49.244308" lon="9.090913">
        <ele>315.526152</ele>
        <time>2021-05-29T13:07:15.920Z</time>
      </trkpt>
      <trkpt lat="49.244283" lon="9.091054">
        <ele>315.529532</ele>
        <time>2021-05-29T13:07:29.929Z</time>
      </trkpt>
      <trkpt lat="49.244298" lon="9.091192">
        <ele>315.493317</ele>
        <time>2021-05-29T13:07:35.933Z</time>
      </trkpt>
      <trkpt lat="49.244371" lon="9.091312">
        <ele>315.391717</ele>
        <time>2021-05-29T13:08:31.910Z</time>
      </trkpt>
      <trkpt lat="49.244380" lon="9.091458">
        <ele>315.300879</ele>
        <time>2021-05-29T13:08:39.923Z</time>
      </trkpt>
      <trkpt lat="49.244399" lon="9.091607">
        <ele>315.206841</ele>
        <time>2021-05-29T13:08:47.940Z</time>
      </trkpt>
      <trkpt lat="49.244439" lon="9.091818">
        <ele>315.070744</ele>
        <time>2021-05-29T13:09:05.928Z</time>
      </trkpt>
      <trkpt lat="49.244431" lon="9.091958">
        <ele>314.983693</ele>
        <time>2021-05-29T13:09:10.924Z</time>
      </trkpt>
      <trkpt lat="49.244415" lon="9.092114">
        <ele>314.885878</ele>
        <time>2021-05-29T13:09:17.910Z</time>
      </trkpt>
      <trkpt lat="49.244382" lon="9.092254">
        <ele>314.793679</ele>
        <time>2021-05-29T13:09:26.910Z</time>
      </trkpt>
      <trkpt lat="49.244344" lon="9.092390">
        <ele>314.702046</ele>
        <time>2021-05-29T13:09:33.924Z</time>
      </trkpt>
      <trkpt lat="49.244323" lon="9.092534">
        <ele>314.610651</ele>
        <time>2021-05-29T13:09:45.907Z</time>
      </trkpt>
      <trkpt lat="49.244324" lon="9.092671">
        <ele>314.525784</ele>
        <time>2021-05-29T13:09:51.919Z</time>
      </trkpt>
      <trkpt lat="49.244339" lon="9.092813">
        <ele>314.436682</ele>
        <time>2021-05-29T13:09:59.912Z</time>
      </trkpt>
      <trkpt lat="49.244354" lon="9.092953">
        <ele>314.348803</ele>
        <time>2021-05-29T13:10:06.919Z</time>
      </trkpt>
      <trkpt lat="49.244388" lon="9.093106">
        <ele>314.248691</ele>
        <time>2021-05-29T13:10:16.915Z</time>
      </trkpt>
      <trkpt lat="49.244408" lon="9.093251">
        <ele>314.156892</ele>
        <time>2021-05-29T13:10:23.934Z</time>
      </trkpt>
      <trkpt lat="49.244434" lon="9.093397">
        <ele>314.063152</ele>
        <time>2021-05-29T13:10:32.915Z</time>
      </trkpt>
      <trkpt lat="49.244388" lon="9.093518">
        <ele>313.976420</ele>
        <time>2021-05-29T13:10:40.905Z</time>
      </trkpt>
      <trkpt lat="49.244297" lon="9.093563">
        <ele>313.885689</ele>
        <time>2021-05-29T13:10:48.874Z</time>
      </trkpt>
      <trkpt lat="49.244205" lon="9.093583">
        <ele>313.776430</ele>
        <time>2021-05-29T13:10:56.940Z</time>
      </trkpt>
      <trkpt lat="49.244102" lon="9.093612">
        <ele>313.600107</ele>
        <time>2021-05-29T13:11:05.916Z</time>
      </trkpt>
      <trkpt lat="49.244013" lon="9.093646">
        <ele>313.445670</ele>
        <time>2021-05-29T13:11:11.926Z</time>
      </trkpt>
      <trkpt lat="49.243917" lon="9.093681">
        <ele>313.279522</ele>
        <time>2021-05-29T13:11:19.922Z</time>
      </trkpt>
      <trkpt lat="49.243823" lon="9.093711">
        <ele>313.117858</ele>
        <time>2021-05-29T13:11:26.914Z</time>
      </trkpt>
      <trkpt lat="49.243727" lon="9.093726">
        <ele>312.955386</ele>
        <time>2021-05-29T13:11:34.907Z</time>
      </trkpt>
      <trkpt lat="49.243629" lon="9.093761">
        <ele>312.785961</ele>
        <time>2021-05-29T13:11:41.955Z</time>
      </trkpt>
      <trkpt lat="49.243530" lon="9.093796">
        <ele>312.614895</ele>
        <time>2021-05-29T13:11:48.921Z</time>
      </trkpt>
      <trkpt lat="49.243436" lon="9.093819">
        <ele>312.454623</ele>
        <time>2021-05-29T13:11:54.956Z</time>
      </trkpt>
      <trkpt lat="49.243347" lon="9.093866">
        <ele>312.296121</ele>
        <time>2021-05-29T13:12:14.918Z</time>
      </trkpt>
      <trkpt lat="49.243253" lon="9.093880">
        <ele>312.137109</ele>
        <time>2021-05-29T13:12:23.922Z</time>
      </trkpt>
      <trkpt lat="49.243155" lon="9.093876">
        <ele>311.972051</ele>
        <time>2021-05-29T13:12:36.923Z</time>
      </trkpt>
      <trkpt lat="49.243057" lon="9.093900">
        <ele>311.804955</ele>
        <time>2021-05-29T13:12:44.917Z</time>
      </trkpt>
      <trkpt lat="49.242968" lon="9.093922">
        <ele>311.653170</ele>
        <time>2021-05-29T13:12:50.911Z</time>
      </trkpt>
      <trkpt lat="49.242875" lon="9.093918">
        <ele>311.496526</ele>
        <time>2021-05-29T13:12:57.929Z</time>
      </trkpt>
      <trkpt lat="49.242774" lon="9.093886">
        <ele>311.322876</ele>
        <time>2021-05-29T13:13:06.944Z</time>
      </trkpt>
      <trkpt lat="49.242676" lon="9.093874">
        <ele>311.157349</ele>
        <time>2021-05-29T13:13:13.963Z</time>
      </trkpt>
      <trkpt lat="49.242573" lon="9.093852">
        <ele>310.982253</ele>
        <time>2021-05-29T13:13:20.932Z</time>
      </trkpt>
      <trkpt lat="49.242479" lon="9.093830">
        <ele>310.822151</ele>
        <time>2021-05-29T13:13:28.915Z</time>
      </trkpt>
      <trkpt lat="49.242387" lon="9.093817">
        <ele>310.671262</ele>
        <time>2021-05-29T13:13:36.929Z</time>
      </trkpt>
      <trkpt lat="49.242281" lon="9.093789">
        <ele>310.496668</ele>
        <time>2021-05-29T13:13:42.919Z</time>
      </trkpt>
      <trkpt lat="49.242187" lon="9.093737">
        <ele>310.334446</ele>
        <time>2021-05-29T13:13:48.926Z</time>
      </trkpt>
      <trkpt lat="49.242099" lon="9.093689">
        <ele>310.182823</ele>
        <time>2021-05-29T13:13:56.912Z</time>
      </trkpt>
      <trkpt lat="49.242011" lon="9.093647">
        <ele>310.033212</ele>
        <time>2021-05-29T13:14:04.911Z</time>
      </trkpt>
      <trkpt lat="49.241916" lon="9.093595">
        <ele>309.869462</ele>
        <time>2021-05-29T13:14:13.932Z</time>
      </trkpt>
      <trkpt lat="49.241838" lon="9.093518">
        <ele>309.718839</ele>
        <time>2021-05-29T13:14:21.913Z</time>
      </trkpt>
      <trkpt lat="49.241742" lon="9.093476">
        <ele>309.556785</ele>
        <time>2021-05-29T13:14:27.912Z</time>
      </trkpt>
      <trkpt lat="49.241645" lon="9.093441">
        <ele>309.395030</ele>
        <time>2021-05-29T13:14:33.920Z</time>
      </trkpt>
      <trkpt lat="49.241546" lon="9.093402">
        <ele>309.229108</ele>
        <time>2021-05-29T13:14:41.945Z</time>
      </trkpt>
      <trkpt lat="49.241449" lon="9.093362">
        <ele>309.066056</ele>
        <time>2021-05-29T13:14:48.926Z</time>
      </trkpt>
      <trkpt lat="49.241353" lon="9.093317">
        <ele>308.903100</ele>
        <time>2021-05-29T13:14:55.922Z</time>
      </trkpt>
      <trkpt lat="49.241257" lon="9.093305">
        <ele>308.746759</ele>
        <time>2021-05-29T13:15:04.932Z</time>
      </trkpt>
      <trkpt lat="49.241160" lon="9.093262">
        <ele>308.582852</ele>
        <time>2021-05-29T13:15:12.928Z</time>
      </trkpt>
      <trkpt lat="49.241074" lon="9.093211">
        <ele>308.433164</ele>
        <time>2021-05-29T13:15:19.940Z</time>
      </trkpt>
      <trkpt lat="49.240981" lon="9.093182">
        <ele>308.279114</ele>
        <time>2021-05-29T13:15:26.910Z</time>
      </trkpt>
      <trkpt lat="49.240888" lon="9.093153">
        <ele>308.125064</ele>
        <time>2021-05-29T13:15:32.932Z</time>
      </trkpt>
      <trkpt lat="49.240801" lon="9.093095">
        <ele>307.971054</ele>
        <time>2021-05-29T13:15:41.918Z</time>
      </trkpt>
      <trkpt lat="49.240714" lon="9.093056">
        <ele>307.817684</ele>
        <time>2021-05-29T13:15:48.927Z</time>
      </trkpt>
      <trkpt lat="49.240615" lon="9.093009">
        <ele>307.629685</ele>
        <time>2021-05-29T13:15:55.915Z</time>
      </trkpt>
      <trkpt lat="49.240516" lon="9.092978">
        <ele>307.446400</ele>
        <time>2021-05-29T13:16:02.930Z</time>
      </trkpt>
      <trkpt lat="49.240422" lon="9.092919">
        <ele>307.262137</ele>
        <time>2021-05-29T13:16:08.915Z</time>
      </trkpt>
      <trkpt lat="49.240334" lon="9.092874">
        <ele>307.093858</ele>
        <time>2021-05-29T13:16:20.929Z</time>
      </trkpt>
      <trkpt lat="49.240247" lon="9.092829">
        <ele>306.927297</ele>
        <time>2021-05-29T13:16:34.923Z</time>
      </trkpt>
      <trkpt lat="49.240151" lon="9.092791">
        <ele>306.747447</ele>
        <time>2021-05-29T13:16:41.912Z</time>
      </trkpt>
      <trkpt lat="49.240066" lon="9.092728">
        <ele>306.576167</ele>
        <time>2021-05-29T13:16:48.939Z</time>
      </trkpt>
      <trkpt lat="49.239998" lon="9.092827">
        <ele>306.405995</ele>
        <time>2021-05-29T13:16:58.925Z</time>
      </trkpt>
      <trkpt lat="49.239982" lon="9.092991">
        <ele>306.209622</ele>
        <time>2021-05-29T13:17:05.956Z</time>
      </trkpt>
      <trkpt lat="49.239956" lon="9.093128">
        <ele>306.040665</ele>
        <time>2021-05-29T13:17:11.930Z</time>
      </trkpt>
      <trkpt lat="49.239920" lon="9.093267">
        <ele>305.863576</ele>
        <time>2021-05-29T13:17:17.942Z</time>
      </trkpt>
      <trkpt lat="49.239885" lon="9.093401">
        <ele>305.692659</ele>
        <time>2021-05-29T13:17:25.914Z</time>
      </trkpt>
      <trkpt lat="49.239863" lon="9.093553">
        <ele>305.508283</ele>
        <time>2021-05-29T13:17:33.915Z</time>
      </trkpt>
      <trkpt lat="49.239848" lon="9.093703">
        <ele>305.328573</ele>
        <time>2021-05-29T13:17:40.927Z</time>
      </trkpt>
      <trkpt lat="49.239833" lon="9.093852">
        <ele>305.150035</ele>
        <time>2021-05-29T13:17:45.912Z</time>
      </trkpt>
      <trkpt lat="49.239817" lon="9.094000">
        <ele>304.972379</ele>
        <time>2021-05-29T13:17:52.921Z</time>
      </trkpt>
      <trkpt lat="49.239781" lon="9.094141">
        <ele>304.793086</ele>
        <time>2021-05-29T13:18:01.903Z</time>
      </trkpt>
      <trkpt lat="49.239759" lon="9.094290">
        <ele>304.611942</ele>
        <time>2021-05-29T13:18:09.919Z</time>
      </trkpt>
      <trkpt lat="49.239726" lon="9.094419">
        <ele>304.431253</ele>
        <time>2021-05-29T13:18:15.919Z</time>
      </trkpt>
      <trkpt lat="49.239708" lon="9.094557">
        <ele>304.247722</ele>
        <time>2021-05-29T13:18:20.918Z</time>
      </trkpt>
      <trkpt lat="49.239714" lon="9.094694">
        <ele>304.068651</ele>
        <time>2021-05-29T13:18:30.920Z</time>
      </trkpt>
      <trkpt lat="49.239714" lon="9.094838">
        <ele>303.880853</ele>
        <time>2021-05-29T13:18:37.918Z</time>
      </trkpt>
      <trkpt lat="49.239674" lon="9.094970">
        <ele>303.691065</ele>
        <time>2021-05-29T13:18:44.909Z</time>
      </trkpt>
      <trkpt lat="49.239645" lon="9.095119">
        <ele>303.488295</ele>
        <time>2021-05-29T13:18:51.952Z</time>
      </trkpt>
      <trkpt lat="49.239601" lon="9.095263">
        <ele>303.280947</ele>
        <time>2021-05-29T13:18:59.921Z</time>
      </trkpt>
      <trkpt lat="49.239563" lon="9.095393">
        <ele>303.095190</ele>
        <time>2021-05-29T13:19:05.928Z</time>
      </trkpt>
      <trkpt lat="49.239464" lon="9.095435">
        <ele>302.889992</ele>
        <time>2021-05-29T13:19:12.922Z</time>
      </trkpt>
      <trkpt lat="49.239411" lon="9.095552">
        <ele>302.704275</ele>
        <time>2021-05-29T13:19:22.919Z</time>
      </trkpt>
      <trkpt lat="49.239428" lon="9.095698">
        <ele>302.510863</ele>
        <time>2021-05-29T13:19:30.916Z</time>
      </trkpt>
      <trkpt lat="49.239438" lon="9.095851">
        <ele>302.310328</ele>
        <time>2021-05-29T13:19:37.907Z</time>
      </trkpt>
      <trkpt lat="49.239456" lon="9.096000">
        <ele>302.112710</ele>
        <time>2021-05-29T13:19:44.922Z</time>
      </trkpt>
      <trkpt lat="49.239373" lon="9.096087">
        <ele>301.911810</ele>
        <time>2021-05-29T13:20:00.938Z</time>
      </trkpt>
      <trkpt lat="49.239298" lon="9.096171">
        <ele>301.726216</ele>
        <time>2021-05-29T13:20:07.918Z</time>
      </trkpt>
      <trkpt lat="49.239301" lon="9.096317">
        <ele>301.535713</ele>
        <time>2021-05-29T13:20:13.916Z</time>
      </trkpt>
      <trkpt lat="49.239345" lon="9.096455">
        <ele>301.335424</ele>
        <time>2021-05-29T13:20:20.934Z</time>
      </trkpt>
      <trkpt lat="49.239360" lon="9.096592">
        <ele>301.154258</ele>
        <time>2021-05-29T13:20:28.917Z</time>
      </trkpt>
      <trkpt lat="49.239324" lon="9.096720">
        <ele>300.957896</ele>
        <time>2021-05-29T13:20:36.920Z</time>
      </trkpt>
      <trkpt lat="49.239294" lon="9.096862">
        <ele>300.705507</ele>
        <time>2021-05-29T13:20:44.928Z</time>
      </trkpt>
      <trkpt lat="49.239244" lon="9.096995">
        <ele>300.445976</ele>
        <time>2021-05-29T13:20:50.934Z</time>
      </trkpt>
      <trkpt lat="49.239171" lon="9.097097">
        <ele>300.190042</ele>
        <time>2021-05-29T13:20:59.916Z</time>
      </trkpt>
      <trkpt lat="49.239113" lon="9.097227">
        <ele>299.923779</ele>
        <time>2021-05-29T13:21:04.922Z</time>
      </trkpt>
      <trkpt lat="49.239078" lon="9.097358">
        <ele>299.684418</ele>
        <time>2021-05-29T13:22:55.923Z</time>
      </trkpt>
      <trkpt lat="49.238971" lon="9.097369">
        <ele>299.406656</ele>
        <time>2021-05-29T13:23:02.931Z</time>
      </trkpt>
      <trkpt lat="49.238881" lon="9.097399">
        <ele>299.168093</ele>
        <time>2021-05-29T13:23:10.918Z</time>
      </trkpt>
      <trkpt lat="49.238840" lon="9.097554">
        <ele>298.885282</ele>
        <time>2021-05-29T13:23:49.898Z</time>
      </trkpt>
      <trkpt lat="49.238751" lon="9.097586">
        <ele>298.648498</ele>
        <time>2021-05-29T13:23:54.944Z</time>
      </trkpt>
      <trkpt lat="49.238655" lon="9.097638">
        <ele>298.384759</ele>
        <time>2021-05-29T13:23:59.927Z</time>
      </trkpt>
      <trkpt lat="49.238561" lon="9.097715">
        <ele>298.108658</ele>
        <time>2021-05-29T13:24:07.925Z</time>
      </trkpt>
      <trkpt lat="49.238485" lon="9.097790">
        <ele>297.874491</ele>
        <time>2021-05-29T13:24:12.928Z</time>
      </trkpt>
      <trkpt lat="49.238412" lon="9.097886">
        <ele>297.625281</ele>
        <time>2021-05-29T13:24:18.936Z</time>
      </trkpt>
      <trkpt lat="49.238389" lon="9.098031">
        <ele>297.372940</ele>
        <time>2021-05-29T13:24:28.925Z</time>
      </trkpt>
      <trkpt lat="49.238440" lon="9.098179">
        <ele>297.089939</ele>
        <time>2021-05-29T13:24:35.899Z</time>
      </trkpt>
      <trkpt lat="49.238460" lon="9.098320">
        <ele>296.845933</ele>
        <time>2021-05-29T13:24:41.908Z</time>
      </trkpt>
      <trkpt lat="49.238471" lon="9.098475">
        <ele>296.582270</ele>
        <time>2021-05-29T13:24:47.922Z</time>
      </trkpt>
      <trkpt lat="49.238461" lon="9.098625">
        <ele>296.363087</ele>
        <time>2021-05-29T13:24:57.944Z</time>
      </trkpt>
      <trkpt lat="49.238473" lon="9.098770">
        <ele>296.363087</ele>
        <time>2021-05-29T13:25:03.932Z</time>
      </trkpt>
      <trkpt lat="49.238488" lon="9.098905">
        <ele>296.363087</ele>
        <time>2021-05-29T13:25:09.917Z</time>
      </trkpt>
      <trkpt lat="49.238499" lon="9.099065">
        <ele>296.363087</ele>
        <time>2021-05-29T13:25:15.932Z</time>
      </trkpt>
      <trkpt lat="49.238502" lon="9.099225">
        <ele>296.363087</ele>
        <time>2021-05-29T13:25:21.948Z</time>
      </trkpt>
      <trkpt lat="49.238527" lon="9.099362">
        <ele>296.363087</ele>
        <time>2021-05-29T13:25:28.915Z</time>
      </trkpt>
      <trkpt lat="49.238513" lon="9.099505">
        <ele>296.363087</ele>
        <time>2021-05-29T13:25:38.921Z</time>
      </trkpt>
      <trkpt lat="49.238523" lon="9.099646">
        <ele>296.363087</ele>
        <time>2021-05-29T13:25:45.924Z</time>
      </trkpt>
      <trkpt lat="49.238516" lon="9.099786">
        <ele>296.363087</ele>
        <time>2021-05-29T13:25:51.924Z</time>
      </trkpt>
      <trkpt lat="49.238514" lon="9.099926">
        <ele>296.363087</ele>
        <time>2021-05-29T13:25:56.912Z</time>
      </trkpt>
      <trkpt lat="49.238509" lon="9.100085">
        <ele>296.363087</ele>
        <time>2021-05-29T13:26:03.938Z</time>
      </trkpt>
      <trkpt lat="49.238503" lon="9.100231">
        <ele>296.363087</ele>
        <time>2021-05-29T13:26:11.924Z</time>
      </trkpt>
      <trkpt lat="49.238545" lon="9.100369">
        <ele>296.363087</ele>
        <time>2021-05-29T13:26:17.910Z</time>
      </trkpt>
      <trkpt lat="49.238553" lon="9.100516">
        <ele>296.363087</ele>
        <time>2021-05-29T13:26:23.919Z</time>
      </trkpt>
      <trkpt lat="49.238550" lon="9.100671">
        <ele>296.363087</ele>
        <time>2021-05-29T13:26:29.915Z</time>
      </trkpt>
      <trkpt lat="49.238539" lon="9.100810">
        <ele>296.363087</ele>
        <time>2021-05-29T13:26:35.913Z</time>
      </trkpt>
      <trkpt lat="49.238544" lon="9.100967">
        <ele>296.363087</ele>
        <time>2021-05-29T13:26:43.946Z</time>
      </trkpt>
      <trkpt lat="49.238558" lon="9.101116">
        <ele>296.363087</ele>
        <time>2021-05-29T13:26:52.919Z</time>
      </trkpt>
      <trkpt lat="49.238588" lon="9.101266">
        <ele>296.363087</ele>
        <time>2021-05-29T13:27:01.905Z</time>
      </trkpt>
      <trkpt lat="49.238606" lon="9.101412">
        <ele>296.363087</ele>
        <time>2021-05-29T13:27:09.916Z</time>
      </trkpt>
      <trkpt lat="49.238539" lon="9.101517">
        <ele>296.363087</ele>
        <time>2021-05-29T13:27:43.947Z</time>
      </trkpt>
      <trkpt lat="49.238441" lon="9.101552">
        <ele>296.363087</ele>
        <time>2021-05-29T13:27:49.930Z</time>
      </trkpt>
      <trkpt lat="49.238343" lon="9.101571">
        <ele>296.363087</ele>
        <time>2021-05-29T13:27:57.932Z</time>
      </trkpt>
      <trkpt lat="49.238243" lon="9.101561">
        <ele>296.363087</ele>
        <time>2021-05-29T13:28:04.914Z</time>
      </trkpt>
      <trkpt lat="49.238154" lon="9.101608">
        <ele>296.363087</ele>
        <time>2021-05-29T13:28:11.892Z</time>
      </trkpt>
      <trkpt lat="49.238169" lon="9.101754">
        <ele>296.363087</ele>
        <time>2021-05-29T13:28:20.956Z</time>
      </trkpt>
      <trkpt lat="49.238176" lon="9.101894">
        <ele>296.363087</ele>
        <time>2021-05-29T13:28:26.875Z</time>
      </trkpt>
      <trkpt lat="49.238210" lon="9.101959">
        <ele>296.363087</ele>
        <time>2021-05-29T13:28:33.819Z</time>
      </trkpt>
    </trkseg>
  </trk>
</gpx>