<?xml version="1.0" encoding="UTF-8" standalone="yes"?>
<gpx version="1.1" creator="outdooractive - http://www.outdooractive.com" xmlns="http://www.topografix.com/GPX/1/1" xmlns:xsi="http://www.w3.org/2001/XMLSchema-instance" xsi:schemaLocation="http://www.topografix.com/GPX/1/1 http://www.topografix.com/GPX/1/1/gpx.xsd" xmlns:oa="http://www.outdooractive.com/GPX/Extensions/1">
  <metadata>
    <name>PW 6,3km</name>
    <author>
      <name>Bianca Kern - Community</name>
    </author>
    <link href="https://www.outdooractive.com/r/127090921"/>
    <time>2022-11-14T19:02:54.423</time>
    <extensions>
      <oa:oaCategory>hikingTourTrail</oa:oaCategory>
    </extensions>
  </metadata>
  <trk>
    <name>PW 6,3km</name>
    <type>hikingTourTrail</type>
    <trkseg>
      <trkpt lat="48.089204" lon="7.638771">
        <ele>216.2</ele>
      </trkpt>
      <trkpt lat="48.089133" lon="7.638812">
        <ele>216.1</ele>
      </trkpt>
      <trkpt lat="48.089171" lon="7.63898">
        <ele>215.9</ele>
      </trkpt>
      <trkpt lat="48.089189" lon="7.639109">
        <ele>216.1</ele>
      </trkpt>
      <trkpt lat="48.089204" lon="7.639249">
        <ele>216.5</ele>
      </trkpt>
      <trkpt lat="48.089209" lon="7.639344">
        <ele>216.7</ele>
      </trkpt>
      <trkpt lat="48.089209" lon="7.639452">
        <ele>216.6</ele>
      </trkpt>
      <trkpt lat="48.089282" lon="7.639482">
        <ele>216.5</ele>
      </trkpt>
      <trkpt lat="48.08946" lon="7.639736">
        <ele>216.3</ele>
      </trkpt>
      <trkpt lat="48.089481" lon="7.639768">
        <ele>216.3</ele>
      </trkpt>
      <trkpt lat="48.089526" lon="7.639834">
        <ele>216.4</ele>
      </trkpt>
      <trkpt lat="48.089722" lon="7.639981">
        <ele>216.6</ele>
      </trkpt>
      <trkpt lat="48.089984" lon="7.64016">
        <ele>217.2</ele>
      </trkpt>
      <trkpt lat="48.090246" lon="7.64034">
        <ele>218.2</ele>
      </trkpt>
      <trkpt lat="48.090326" lon="7.640297">
        <ele>218.4</ele>
      </trkpt>
      <trkpt lat="48.0907" lon="7.63995">
        <ele>224.1</ele>
      </trkpt>
      <trkpt lat="48.090754" lon="7.639947">
        <ele>225.9</ele>
      </trkpt>
      <trkpt lat="48.090768" lon="7.639951">
        <ele>226.3</ele>
      </trkpt>
      <trkpt lat="48.090797" lon="7.639963">
        <ele>227.2</ele>
      </trkpt>
      <trkpt lat="48.090998" lon="7.640113">
        <ele>230.9</ele>
      </trkpt>
      <trkpt lat="48.091053" lon="7.640154">
        <ele>231.4</ele>
      </trkpt>
      <trkpt lat="48.091278" lon="7.640338">
        <ele>234.1</ele>
      </trkpt>
      <trkpt lat="48.091389" lon="7.640366">
        <ele>236.7</ele>
      </trkpt>
      <trkpt lat="48.091502" lon="7.64044">
        <ele>238.8</ele>
      </trkpt>
      <trkpt lat="48.091816" lon="7.6407">
        <ele>243.1</ele>
      </trkpt>
      <trkpt lat="48.091952" lon="7.640825">
        <ele>244.6</ele>
      </trkpt>
      <trkpt lat="48.092141" lon="7.641003">
        <ele>245.1</ele>
      </trkpt>
      <trkpt lat="48.092325" lon="7.6412">
        <ele>245.6</ele>
      </trkpt>
      <trkpt lat="48.092427" lon="7.641318">
        <ele>245.6</ele>
      </trkpt>
      <trkpt lat="48.092461" lon="7.641425">
        <ele>244.8</ele>
      </trkpt>
      <trkpt lat="48.092525" lon="7.641538">
        <ele>245.2</ele>
      </trkpt>
      <trkpt lat="48.09276" lon="7.641952">
        <ele>246.0</ele>
      </trkpt>
      <trkpt lat="48.092846" lon="7.642128">
        <ele>246.7</ele>
      </trkpt>
      <trkpt lat="48.092846" lon="7.642128">
        <ele>246.7</ele>
      </trkpt>
      <trkpt lat="48.092928" lon="7.642297">
        <ele>247.3</ele>
      </trkpt>
      <trkpt lat="48.093096" lon="7.642643">
        <ele>248.9</ele>
      </trkpt>
      <trkpt lat="48.093357" lon="7.643186">
        <ele>249.0</ele>
      </trkpt>
      <trkpt lat="48.093407" lon="7.643234">
        <ele>249.7</ele>
      </trkpt>
      <trkpt lat="48.093436" lon="7.643337">
        <ele>248.9</ele>
      </trkpt>
      <trkpt lat="48.093613" lon="7.643722">
        <ele>249.2</ele>
      </trkpt>
      <trkpt lat="48.093832" lon="7.644165">
        <ele>250.5</ele>
      </trkpt>
      <trkpt lat="48.093963" lon="7.64438">
        <ele>249.4</ele>
      </trkpt>
      <trkpt lat="48.094107" lon="7.644614">
        <ele>248.1</ele>
      </trkpt>
      <trkpt lat="48.094194" lon="7.644785">
        <ele>247.4</ele>
      </trkpt>
      <trkpt lat="48.094268" lon="7.64498">
        <ele>245.8</ele>
      </trkpt>
      <trkpt lat="48.094293" lon="7.645155">
        <ele>244.2</ele>
      </trkpt>
      <trkpt lat="48.09429" lon="7.64534">
        <ele>241.7</ele>
      </trkpt>
      <trkpt lat="48.094282" lon="7.645468">
        <ele>240.3</ele>
      </trkpt>
      <trkpt lat="48.094151" lon="7.645586">
        <ele>238.0</ele>
      </trkpt>
      <trkpt lat="48.093946" lon="7.645734">
        <ele>236.4</ele>
      </trkpt>
      <trkpt lat="48.093913" lon="7.645759">
        <ele>236.2</ele>
      </trkpt>
      <trkpt lat="48.094058" lon="7.646142">
        <ele>236.5</ele>
      </trkpt>
      <trkpt lat="48.094197" lon="7.646435">
        <ele>237.0</ele>
      </trkpt>
      <trkpt lat="48.094337" lon="7.646727">
        <ele>237.3</ele>
      </trkpt>
      <trkpt lat="48.094466" lon="7.647028">
        <ele>237.7</ele>
      </trkpt>
      <trkpt lat="48.094595" lon="7.647329">
        <ele>237.4</ele>
      </trkpt>
      <trkpt lat="48.094686" lon="7.64758">
        <ele>237.2</ele>
      </trkpt>
      <trkpt lat="48.094686" lon="7.64758">
        <ele>237.2</ele>
      </trkpt>
      <trkpt lat="48.094707" lon="7.647638">
        <ele>237.2</ele>
      </trkpt>
      <trkpt lat="48.094757" lon="7.647755">
        <ele>237.4</ele>
      </trkpt>
      <trkpt lat="48.094807" lon="7.647841">
        <ele>237.6</ele>
      </trkpt>
      <trkpt lat="48.094852" lon="7.647798">
        <ele>238.6</ele>
      </trkpt>
      <trkpt lat="48.095005" lon="7.648077">
        <ele>239.4</ele>
      </trkpt>
      <trkpt lat="48.095104" lon="7.648267">
        <ele>239.6</ele>
      </trkpt>
      <trkpt lat="48.095243" lon="7.64857">
        <ele>240.3</ele>
      </trkpt>
      <trkpt lat="48.095334" lon="7.648859">
        <ele>240.5</ele>
      </trkpt>
      <trkpt lat="48.095417" lon="7.64913">
        <ele>239.5</ele>
      </trkpt>
      <trkpt lat="48.095489" lon="7.649392">
        <ele>239.2</ele>
      </trkpt>
      <trkpt lat="48.095537" lon="7.649518">
        <ele>240.1</ele>
      </trkpt>
      <trkpt lat="48.095625" lon="7.649753">
        <ele>242.1</ele>
      </trkpt>
      <trkpt lat="48.095709" lon="7.650087">
        <ele>242.5</ele>
      </trkpt>
      <trkpt lat="48.095793" lon="7.650421">
        <ele>242.0</ele>
      </trkpt>
      <trkpt lat="48.095808" lon="7.650475">
        <ele>242.2</ele>
      </trkpt>
      <trkpt lat="48.09593" lon="7.650923">
        <ele>242.0</ele>
      </trkpt>
      <trkpt lat="48.095951" lon="7.651009">
        <ele>241.4</ele>
      </trkpt>
      <trkpt lat="48.096039" lon="7.651325">
        <ele>241.7</ele>
      </trkpt>
      <trkpt lat="48.09606" lon="7.651532">
        <ele>241.9</ele>
      </trkpt>
      <trkpt lat="48.096057" lon="7.65171">
        <ele>241.2</ele>
      </trkpt>
      <trkpt lat="48.096075" lon="7.65195">
        <ele>239.6</ele>
      </trkpt>
      <trkpt lat="48.096111" lon="7.652243">
        <ele>240.1</ele>
      </trkpt>
      <trkpt lat="48.096209" lon="7.65252">
        <ele>242.5</ele>
      </trkpt>
      <trkpt lat="48.096109" lon="7.652612">
        <ele>241.2</ele>
      </trkpt>
      <trkpt lat="48.095955" lon="7.652675">
        <ele>240.0</ele>
      </trkpt>
      <trkpt lat="48.095761" lon="7.652801">
        <ele>239.5</ele>
      </trkpt>
      <trkpt lat="48.0958" lon="7.653133">
        <ele>239.7</ele>
      </trkpt>
      <trkpt lat="48.095839" lon="7.653464">
        <ele>240.1</ele>
      </trkpt>
      <trkpt lat="48.09585" lon="7.653639">
        <ele>240.2</ele>
      </trkpt>
      <trkpt lat="48.09586" lon="7.653748">
        <ele>240.3</ele>
      </trkpt>
      <trkpt lat="48.095928" lon="7.654208">
        <ele>240.8</ele>
      </trkpt>
      <trkpt lat="48.095963" lon="7.6543">
        <ele>240.9</ele>
      </trkpt>
      <trkpt lat="48.096093" lon="7.654652">
        <ele>241.4</ele>
      </trkpt>
      <trkpt lat="48.096228" lon="7.655066">
        <ele>242.1</ele>
      </trkpt>
      <trkpt lat="48.096343" lon="7.655409">
        <ele>242.8</ele>
      </trkpt>
      <trkpt lat="48.096343" lon="7.655409">
        <ele>242.8</ele>
      </trkpt>
      <trkpt lat="48.096366" lon="7.655479">
        <ele>243.0</ele>
      </trkpt>
      <trkpt lat="48.096377" lon="7.65562">
        <ele>243.1</ele>
      </trkpt>
      <trkpt lat="48.096405" lon="7.656011">
        <ele>243.0</ele>
      </trkpt>
      <trkpt lat="48.096423" lon="7.656195">
        <ele>242.8</ele>
      </trkpt>
      <trkpt lat="48.096433" lon="7.656258">
        <ele>242.7</ele>
      </trkpt>
      <trkpt lat="48.096454" lon="7.656382">
        <ele>242.6</ele>
      </trkpt>
      <trkpt lat="48.09647" lon="7.656498">
        <ele>242.6</ele>
      </trkpt>
      <trkpt lat="48.09648" lon="7.656572">
        <ele>242.6</ele>
      </trkpt>
      <trkpt lat="48.096672" lon="7.656414">
        <ele>242.8</ele>
      </trkpt>
      <trkpt lat="48.096877" lon="7.656312">
        <ele>243.2</ele>
      </trkpt>
      <trkpt lat="48.096909" lon="7.656304">
        <ele>243.3</ele>
      </trkpt>
      <trkpt lat="48.096909" lon="7.656304">
        <ele>243.3</ele>
      </trkpt>
      <trkpt lat="48.097011" lon="7.656279">
        <ele>243.4</ele>
      </trkpt>
      <trkpt lat="48.0971" lon="7.65626">
        <ele>243.5</ele>
      </trkpt>
      <trkpt lat="48.097147" lon="7.656642">
        <ele>245.0</ele>
      </trkpt>
      <trkpt lat="48.097147" lon="7.656642">
        <ele>245.0</ele>
      </trkpt>
      <trkpt lat="48.097167" lon="7.656806">
        <ele>245.6</ele>
      </trkpt>
      <trkpt lat="48.097172" lon="7.656853">
        <ele>245.9</ele>
      </trkpt>
      <trkpt lat="48.097183" lon="7.656967">
        <ele>246.4</ele>
      </trkpt>
      <trkpt lat="48.097183" lon="7.656967">
        <ele>246.4</ele>
      </trkpt>
      <trkpt lat="48.097193" lon="7.657064">
        <ele>246.8</ele>
      </trkpt>
      <trkpt lat="48.097203" lon="7.657165">
        <ele>247.2</ele>
      </trkpt>
      <trkpt lat="48.097209" lon="7.657278">
        <ele>247.5</ele>
      </trkpt>
      <trkpt lat="48.097219" lon="7.657378">
        <ele>247.7</ele>
      </trkpt>
      <trkpt lat="48.09722" lon="7.657395">
        <ele>247.8</ele>
      </trkpt>
      <trkpt lat="48.09722" lon="7.657395">
        <ele>247.8</ele>
      </trkpt>
      <trkpt lat="48.097232" lon="7.657562">
        <ele>248.3</ele>
      </trkpt>
      <trkpt lat="48.097254" lon="7.657645">
        <ele>249.2</ele>
      </trkpt>
      <trkpt lat="48.09729" lon="7.657882">
        <ele>249.7</ele>
      </trkpt>
      <trkpt lat="48.097336" lon="7.658079">
        <ele>250.5</ele>
      </trkpt>
      <trkpt lat="48.097363" lon="7.658254">
        <ele>250.8</ele>
      </trkpt>
      <trkpt lat="48.097363" lon="7.658254">
        <ele>250.8</ele>
      </trkpt>
      <trkpt lat="48.097402" lon="7.658506">
        <ele>251.2</ele>
      </trkpt>
      <trkpt lat="48.097453" lon="7.658816">
        <ele>252.6</ele>
      </trkpt>
      <trkpt lat="48.097482" lon="7.65908">
        <ele>251.7</ele>
      </trkpt>
      <trkpt lat="48.097482" lon="7.65908">
        <ele>251.57248</ele>
      </trkpt>
      <trkpt lat="48.097484" lon="7.659092">
        <ele>251.7</ele>
      </trkpt>
      <trkpt lat="48.097515" lon="7.6593">
        <ele>252.3</ele>
      </trkpt>
      <trkpt lat="48.097528" lon="7.659385">
        <ele>252.4</ele>
      </trkpt>
      <trkpt lat="48.097547" lon="7.659495">
        <ele>252.6</ele>
      </trkpt>
      <trkpt lat="48.097561" lon="7.659552">
        <ele>253.0</ele>
      </trkpt>
      <trkpt lat="48.097654" lon="7.659894">
        <ele>255.6</ele>
      </trkpt>
      <trkpt lat="48.097678" lon="7.660079">
        <ele>255.6</ele>
      </trkpt>
      <trkpt lat="48.097678" lon="7.660079">
        <ele>255.6</ele>
      </trkpt>
      <trkpt lat="48.097701" lon="7.660252">
        <ele>255.6</ele>
      </trkpt>
      <trkpt lat="48.097708" lon="7.660355">
        <ele>255.6</ele>
      </trkpt>
      <trkpt lat="48.097742" lon="7.660875">
        <ele>257.0</ele>
      </trkpt>
      <trkpt lat="48.097762" lon="7.661362">
        <ele>256.6</ele>
      </trkpt>
      <trkpt lat="48.097636" lon="7.661392">
        <ele>253.4</ele>
      </trkpt>
      <trkpt lat="48.097636" lon="7.661392">
        <ele>253.4</ele>
      </trkpt>
      <trkpt lat="48.097516" lon="7.661422">
        <ele>250.4</ele>
      </trkpt>
      <trkpt lat="48.09743" lon="7.661448">
        <ele>249.9</ele>
      </trkpt>
      <trkpt lat="48.09741" lon="7.661277">
        <ele>249.4</ele>
      </trkpt>
      <trkpt lat="48.09736" lon="7.660971">
        <ele>248.5</ele>
      </trkpt>
      <trkpt lat="48.097304" lon="7.660765">
        <ele>248.0</ele>
      </trkpt>
      <trkpt lat="48.097256" lon="7.660651">
        <ele>247.7</ele>
      </trkpt>
      <trkpt lat="48.097165" lon="7.660437">
        <ele>247.2</ele>
      </trkpt>
      <trkpt lat="48.096993" lon="7.660049">
        <ele>246.5</ele>
      </trkpt>
      <trkpt lat="48.096993" lon="7.660049">
        <ele>246.5</ele>
      </trkpt>
      <trkpt lat="48.096972" lon="7.660002">
        <ele>246.4</ele>
      </trkpt>
      <trkpt lat="48.096883" lon="7.659769">
        <ele>246.1</ele>
      </trkpt>
      <trkpt lat="48.096848" lon="7.659678">
        <ele>246.0</ele>
      </trkpt>
      <trkpt lat="48.09674" lon="7.659805">
        <ele>246.5</ele>
      </trkpt>
      <trkpt lat="48.096623" lon="7.659978">
        <ele>247.3</ele>
      </trkpt>
      <trkpt lat="48.096498" lon="7.660178">
        <ele>248.7</ele>
      </trkpt>
      <trkpt lat="48.096469" lon="7.660422">
        <ele>249.3</ele>
      </trkpt>
      <trkpt lat="48.096451" lon="7.660717">
        <ele>250.6</ele>
      </trkpt>
      <trkpt lat="48.096467" lon="7.660933">
        <ele>251.4</ele>
      </trkpt>
      <trkpt lat="48.096487" lon="7.661174">
        <ele>252.4</ele>
      </trkpt>
      <trkpt lat="48.096494" lon="7.661252">
        <ele>252.8</ele>
      </trkpt>
      <trkpt lat="48.096494" lon="7.661252">
        <ele>252.8</ele>
      </trkpt>
      <trkpt lat="48.096512" lon="7.66149">
        <ele>253.7</ele>
      </trkpt>
      <trkpt lat="48.096494" lon="7.661499">
        <ele>254.2</ele>
      </trkpt>
      <trkpt lat="48.096439" lon="7.661477">
        <ele>255.1</ele>
      </trkpt>
      <trkpt lat="48.09639" lon="7.661065">
        <ele>253.9</ele>
      </trkpt>
      <trkpt lat="48.096336" lon="7.660818">
        <ele>253.7</ele>
      </trkpt>
      <trkpt lat="48.096296" lon="7.660839">
        <ele>254.9</ele>
      </trkpt>
      <trkpt lat="48.096337" lon="7.661453">
        <ele>257.3</ele>
      </trkpt>
      <trkpt lat="48.096325" lon="7.661748">
        <ele>258.8</ele>
      </trkpt>
      <trkpt lat="48.096315" lon="7.661773">
        <ele>259.1</ele>
      </trkpt>
      <trkpt lat="48.096286" lon="7.661853">
        <ele>259.9</ele>
      </trkpt>
      <trkpt lat="48.096223" lon="7.66191">
        <ele>261.6</ele>
      </trkpt>
      <trkpt lat="48.096168" lon="7.661912">
        <ele>263.1</ele>
      </trkpt>
      <trkpt lat="48.096022" lon="7.661816">
        <ele>266.3</ele>
      </trkpt>
      <trkpt lat="48.095972" lon="7.661783">
        <ele>267.2</ele>
      </trkpt>
      <trkpt lat="48.095923" lon="7.661746">
        <ele>268.1</ele>
      </trkpt>
      <trkpt lat="48.095884" lon="7.661716">
        <ele>268.7</ele>
      </trkpt>
      <trkpt lat="48.095561" lon="7.661482">
        <ele>272.1</ele>
      </trkpt>
      <trkpt lat="48.095391" lon="7.661341">
        <ele>273.4</ele>
      </trkpt>
      <trkpt lat="48.095378" lon="7.661333">
        <ele>273.4</ele>
      </trkpt>
      <trkpt lat="48.095326" lon="7.6613">
        <ele>273.9</ele>
      </trkpt>
      <trkpt lat="48.095259" lon="7.661258">
        <ele>274.9</ele>
      </trkpt>
      <trkpt lat="48.095179" lon="7.661198">
        <ele>276.6</ele>
      </trkpt>
      <trkpt lat="48.094957" lon="7.661061">
        <ele>280.1</ele>
      </trkpt>
      <trkpt lat="48.094947" lon="7.661055">
        <ele>280.1</ele>
      </trkpt>
      <trkpt lat="48.094834" lon="7.660997">
        <ele>280.8</ele>
      </trkpt>
      <trkpt lat="48.094815" lon="7.660984">
        <ele>281.0</ele>
      </trkpt>
      <trkpt lat="48.094672" lon="7.660945">
        <ele>282.4</ele>
      </trkpt>
      <trkpt lat="48.094651" lon="7.660966">
        <ele>282.8</ele>
      </trkpt>
      <trkpt lat="48.094569" lon="7.661094">
        <ele>285.5</ele>
      </trkpt>
      <trkpt lat="48.094686" lon="7.661141">
        <ele>284.8</ele>
      </trkpt>
      <trkpt lat="48.094857" lon="7.661192">
        <ele>283.4</ele>
      </trkpt>
      <trkpt lat="48.09489" lon="7.661198">
        <ele>283.3</ele>
      </trkpt>
      <trkpt lat="48.09489" lon="7.661198">
        <ele>283.3</ele>
      </trkpt>
      <trkpt lat="48.094857" lon="7.661192">
        <ele>283.4</ele>
      </trkpt>
      <trkpt lat="48.094686" lon="7.661141">
        <ele>284.8</ele>
      </trkpt>
      <trkpt lat="48.094569" lon="7.661094">
        <ele>285.5</ele>
      </trkpt>
      <trkpt lat="48.094492" lon="7.661054">
        <ele>286.1</ele>
      </trkpt>
      <trkpt lat="48.094422" lon="7.661003">
        <ele>286.5</ele>
      </trkpt>
      <trkpt lat="48.094228" lon="7.660889">
        <ele>288.1</ele>
      </trkpt>
      <trkpt lat="48.093979" lon="7.660765">
        <ele>293.1</ele>
      </trkpt>
      <trkpt lat="48.093748" lon="7.660603">
        <ele>293.2</ele>
      </trkpt>
      <trkpt lat="48.093721" lon="7.660569">
        <ele>294.0</ele>
      </trkpt>
      <trkpt lat="48.09373" lon="7.660502">
        <ele>293.4</ele>
      </trkpt>
      <trkpt lat="48.093753" lon="7.660331">
        <ele>293.3</ele>
      </trkpt>
      <trkpt lat="48.093777" lon="7.660173">
        <ele>292.9</ele>
      </trkpt>
      <trkpt lat="48.093795" lon="7.660059">
        <ele>292.9</ele>
      </trkpt>
      <trkpt lat="48.0938" lon="7.660029">
        <ele>293.0</ele>
      </trkpt>
      <trkpt lat="48.093802" lon="7.659965">
        <ele>293.3</ele>
      </trkpt>
      <trkpt lat="48.093798" lon="7.659918">
        <ele>293.8</ele>
      </trkpt>
      <trkpt lat="48.093773" lon="7.659865">
        <ele>294.9</ele>
      </trkpt>
      <trkpt lat="48.093738" lon="7.659811">
        <ele>296.3</ele>
      </trkpt>
      <trkpt lat="48.093722" lon="7.659785">
        <ele>297.0</ele>
      </trkpt>
      <trkpt lat="48.093707" lon="7.659714">
        <ele>298.2</ele>
      </trkpt>
      <trkpt lat="48.093675" lon="7.659561">
        <ele>301.3</ele>
      </trkpt>
      <trkpt lat="48.093665" lon="7.659502">
        <ele>302.4</ele>
      </trkpt>
      <trkpt lat="48.093653" lon="7.659414">
        <ele>303.8</ele>
      </trkpt>
      <trkpt lat="48.09364" lon="7.659351">
        <ele>304.7</ele>
      </trkpt>
      <trkpt lat="48.093585" lon="7.65917">
        <ele>306.5</ele>
      </trkpt>
      <trkpt lat="48.093557" lon="7.659088">
        <ele>307.7</ele>
      </trkpt>
      <trkpt lat="48.093523" lon="7.659001">
        <ele>309.4</ele>
      </trkpt>
      <trkpt lat="48.09349" lon="7.658933">
        <ele>310.8</ele>
      </trkpt>
      <trkpt lat="48.093475" lon="7.658915">
        <ele>311.5</ele>
      </trkpt>
      <trkpt lat="48.093451" lon="7.658863">
        <ele>312.5</ele>
      </trkpt>
      <trkpt lat="48.093439" lon="7.658831">
        <ele>313.0</ele>
      </trkpt>
      <trkpt lat="48.093378" lon="7.658722">
        <ele>315.2</ele>
      </trkpt>
      <trkpt lat="48.093334" lon="7.658663">
        <ele>316.7</ele>
      </trkpt>
      <trkpt lat="48.093298" lon="7.658596">
        <ele>317.8</ele>
      </trkpt>
      <trkpt lat="48.093177" lon="7.658482">
        <ele>320.9</ele>
      </trkpt>
      <trkpt lat="48.09316" lon="7.658466">
        <ele>321.2</ele>
      </trkpt>
      <trkpt lat="48.093085" lon="7.658453">
        <ele>322.6</ele>
      </trkpt>
      <trkpt lat="48.092832" lon="7.658492">
        <ele>325.8</ele>
      </trkpt>
      <trkpt lat="48.092718" lon="7.658506">
        <ele>326.6</ele>
      </trkpt>
      <trkpt lat="48.092529" lon="7.65853">
        <ele>328.2</ele>
      </trkpt>
      <trkpt lat="48.092352" lon="7.658571">
        <ele>330.8</ele>
      </trkpt>
      <trkpt lat="48.092239" lon="7.658618">
        <ele>332.0</ele>
      </trkpt>
      <trkpt lat="48.092182" lon="7.658651">
        <ele>332.5</ele>
      </trkpt>
      <trkpt lat="48.092093" lon="7.658667">
        <ele>333.3</ele>
      </trkpt>
      <trkpt lat="48.091973" lon="7.658677">
        <ele>334.7</ele>
      </trkpt>
      <trkpt lat="48.091832" lon="7.658692">
        <ele>338.7</ele>
      </trkpt>
      <trkpt lat="48.091715" lon="7.658557">
        <ele>336.4</ele>
      </trkpt>
      <trkpt lat="48.091588" lon="7.658381">
        <ele>340.4</ele>
      </trkpt>
      <trkpt lat="48.091477" lon="7.658196">
        <ele>340.7</ele>
      </trkpt>
      <trkpt lat="48.091416" lon="7.65804">
        <ele>341.1</ele>
      </trkpt>
      <trkpt lat="48.091381" lon="7.657889">
        <ele>341.9</ele>
      </trkpt>
      <trkpt lat="48.09138" lon="7.657881">
        <ele>341.9</ele>
      </trkpt>
      <trkpt lat="48.09138" lon="7.657881">
        <ele>341.9</ele>
      </trkpt>
      <trkpt lat="48.091367" lon="7.657768">
        <ele>342.4</ele>
      </trkpt>
      <trkpt lat="48.091375" lon="7.657651">
        <ele>342.4</ele>
      </trkpt>
      <trkpt lat="48.091402" lon="7.65753">
        <ele>341.9</ele>
      </trkpt>
      <trkpt lat="48.091447" lon="7.65738">
        <ele>340.4</ele>
      </trkpt>
      <trkpt lat="48.091479" lon="7.657309">
        <ele>339.4</ele>
      </trkpt>
      <trkpt lat="48.091524" lon="7.657206">
        <ele>339.9</ele>
      </trkpt>
      <trkpt lat="48.091572" lon="7.65708">
        <ele>339.5</ele>
      </trkpt>
      <trkpt lat="48.091592" lon="7.657003">
        <ele>339.2</ele>
      </trkpt>
      <trkpt lat="48.0916" lon="7.656894">
        <ele>339.0</ele>
      </trkpt>
      <trkpt lat="48.091588" lon="7.656822">
        <ele>339.2</ele>
      </trkpt>
      <trkpt lat="48.09157" lon="7.656759">
        <ele>339.7</ele>
      </trkpt>
      <trkpt lat="48.091554" lon="7.656707">
        <ele>340.0</ele>
      </trkpt>
      <trkpt lat="48.09146" lon="7.656491">
        <ele>340.6</ele>
      </trkpt>
      <trkpt lat="48.091383" lon="7.656358">
        <ele>340.7</ele>
      </trkpt>
      <trkpt lat="48.091322" lon="7.656301">
        <ele>341.2</ele>
      </trkpt>
      <trkpt lat="48.091242" lon="7.656255">
        <ele>341.4</ele>
      </trkpt>
      <trkpt lat="48.091139" lon="7.6562">
        <ele>342.1</ele>
      </trkpt>
      <trkpt lat="48.091082" lon="7.656175">
        <ele>342.8</ele>
      </trkpt>
      <trkpt lat="48.090945" lon="7.656099">
        <ele>343.8</ele>
      </trkpt>
      <trkpt lat="48.090871" lon="7.656006">
        <ele>343.6</ele>
      </trkpt>
      <trkpt lat="48.090568" lon="7.655515">
        <ele>342.4</ele>
      </trkpt>
      <trkpt lat="48.090496" lon="7.655417">
        <ele>342.1</ele>
      </trkpt>
      <trkpt lat="48.090389" lon="7.6553">
        <ele>343.1</ele>
      </trkpt>
      <trkpt lat="48.09029" lon="7.655211">
        <ele>343.6</ele>
      </trkpt>
      <trkpt lat="48.089997" lon="7.654904">
        <ele>342.0</ele>
      </trkpt>
      <trkpt lat="48.089891" lon="7.654784">
        <ele>342.7</ele>
      </trkpt>
      <trkpt lat="48.089852" lon="7.654753">
        <ele>342.3</ele>
      </trkpt>
      <trkpt lat="48.089852" lon="7.654753">
        <ele>342.3</ele>
      </trkpt>
      <trkpt lat="48.089662" lon="7.654598">
        <ele>340.1</ele>
      </trkpt>
      <trkpt lat="48.089581" lon="7.654469">
        <ele>338.9</ele>
      </trkpt>
      <trkpt lat="48.089718" lon="7.654098">
        <ele>334.2</ele>
      </trkpt>
      <trkpt lat="48.089778" lon="7.65386">
        <ele>329.6</ele>
      </trkpt>
      <trkpt lat="48.089794" lon="7.653783">
        <ele>328.3</ele>
      </trkpt>
      <trkpt lat="48.089816" lon="7.653676">
        <ele>326.4</ele>
      </trkpt>
      <trkpt lat="48.089816" lon="7.653601">
        <ele>325.4</ele>
      </trkpt>
      <trkpt lat="48.089819" lon="7.653389">
        <ele>322.3</ele>
      </trkpt>
      <trkpt lat="48.089796" lon="7.653217">
        <ele>321.4</ele>
      </trkpt>
      <trkpt lat="48.089794" lon="7.65317">
        <ele>321.2</ele>
      </trkpt>
      <trkpt lat="48.089785" lon="7.653079">
        <ele>320.4</ele>
      </trkpt>
      <trkpt lat="48.089747" lon="7.652848">
        <ele>318.1</ele>
      </trkpt>
      <trkpt lat="48.08973" lon="7.652776">
        <ele>317.3</ele>
      </trkpt>
      <trkpt lat="48.089707" lon="7.652689">
        <ele>316.3</ele>
      </trkpt>
      <trkpt lat="48.089677" lon="7.652582">
        <ele>314.4</ele>
      </trkpt>
      <trkpt lat="48.089643" lon="7.652524">
        <ele>313.4</ele>
      </trkpt>
      <trkpt lat="48.089587" lon="7.65243">
        <ele>311.7</ele>
      </trkpt>
      <trkpt lat="48.089545" lon="7.652407">
        <ele>311.2</ele>
      </trkpt>
      <trkpt lat="48.089481" lon="7.652384">
        <ele>310.6</ele>
      </trkpt>
      <trkpt lat="48.089399" lon="7.652402">
        <ele>309.7</ele>
      </trkpt>
      <trkpt lat="48.089326" lon="7.652505">
        <ele>308.7</ele>
      </trkpt>
      <trkpt lat="48.089287" lon="7.652675">
        <ele>308.9</ele>
      </trkpt>
      <trkpt lat="48.089258" lon="7.65273">
        <ele>308.6</ele>
      </trkpt>
      <trkpt lat="48.089197" lon="7.652725">
        <ele>306.2</ele>
      </trkpt>
      <trkpt lat="48.089202" lon="7.652635">
        <ele>305.0</ele>
      </trkpt>
      <trkpt lat="48.089201" lon="7.652608">
        <ele>304.7</ele>
      </trkpt>
      <trkpt lat="48.089198" lon="7.652485">
        <ele>303.7</ele>
      </trkpt>
      <trkpt lat="48.08918" lon="7.652337">
        <ele>302.3</ele>
      </trkpt>
      <trkpt lat="48.08917" lon="7.652232">
        <ele>301.5</ele>
      </trkpt>
      <trkpt lat="48.089152" lon="7.652112">
        <ele>300.2</ele>
      </trkpt>
      <trkpt lat="48.08917" lon="7.652004">
        <ele>299.8</ele>
      </trkpt>
      <trkpt lat="48.089207" lon="7.651893">
        <ele>299.4</ele>
      </trkpt>
      <trkpt lat="48.089224" lon="7.651853">
        <ele>299.1</ele>
      </trkpt>
      <trkpt lat="48.089299" lon="7.651677">
        <ele>296.4</ele>
      </trkpt>
      <trkpt lat="48.089338" lon="7.651609">
        <ele>295.5</ele>
      </trkpt>
      <trkpt lat="48.089394" lon="7.651513">
        <ele>294.4</ele>
      </trkpt>
      <trkpt lat="48.089415" lon="7.651484">
        <ele>294.2</ele>
      </trkpt>
      <trkpt lat="48.089465" lon="7.651414">
        <ele>293.4</ele>
      </trkpt>
      <trkpt lat="48.08953" lon="7.651363">
        <ele>292.4</ele>
      </trkpt>
      <trkpt lat="48.08957" lon="7.651332">
        <ele>291.6</ele>
      </trkpt>
      <trkpt lat="48.089637" lon="7.651286">
        <ele>290.1</ele>
      </trkpt>
      <trkpt lat="48.089659" lon="7.651276">
        <ele>289.7</ele>
      </trkpt>
      <trkpt lat="48.089706" lon="7.651253">
        <ele>288.8</ele>
      </trkpt>
      <trkpt lat="48.089747" lon="7.651247">
        <ele>288.4</ele>
      </trkpt>
      <trkpt lat="48.089823" lon="7.651248">
        <ele>287.5</ele>
      </trkpt>
      <trkpt lat="48.089889" lon="7.65127">
        <ele>287.0</ele>
      </trkpt>
      <trkpt lat="48.090012" lon="7.651356">
        <ele>286.7</ele>
      </trkpt>
      <trkpt lat="48.090131" lon="7.651395">
        <ele>285.8</ele>
      </trkpt>
      <trkpt lat="48.090213" lon="7.651395">
        <ele>284.9</ele>
      </trkpt>
      <trkpt lat="48.090335" lon="7.651383">
        <ele>282.9</ele>
      </trkpt>
      <trkpt lat="48.090439" lon="7.651372">
        <ele>282.3</ele>
      </trkpt>
      <trkpt lat="48.090529" lon="7.651318">
        <ele>280.1</ele>
      </trkpt>
      <trkpt lat="48.090631" lon="7.651224">
        <ele>278.8</ele>
      </trkpt>
      <trkpt lat="48.090661" lon="7.651202">
        <ele>278.3</ele>
      </trkpt>
      <trkpt lat="48.090761" lon="7.651126">
        <ele>275.8</ele>
      </trkpt>
      <trkpt lat="48.090899" lon="7.651039">
        <ele>273.5</ele>
      </trkpt>
      <trkpt lat="48.091211" lon="7.650869">
        <ele>267.5</ele>
      </trkpt>
      <trkpt lat="48.091304" lon="7.650821">
        <ele>266.6</ele>
      </trkpt>
      <trkpt lat="48.091304" lon="7.650821">
        <ele>266.6</ele>
      </trkpt>
      <trkpt lat="48.091371" lon="7.650787">
        <ele>266.0</ele>
      </trkpt>
      <trkpt lat="48.09152" lon="7.650719">
        <ele>264.1</ele>
      </trkpt>
      <trkpt lat="48.091562" lon="7.650684">
        <ele>263.1</ele>
      </trkpt>
      <trkpt lat="48.091454" lon="7.650287">
        <ele>262.6</ele>
      </trkpt>
      <trkpt lat="48.091071" lon="7.650401">
        <ele>264.8</ele>
      </trkpt>
      <trkpt lat="48.090687" lon="7.650516">
        <ele>266.8</ele>
      </trkpt>
      <trkpt lat="48.090348" lon="7.650647">
        <ele>270.3</ele>
      </trkpt>
      <trkpt lat="48.090208" lon="7.650646">
        <ele>270.5</ele>
      </trkpt>
      <trkpt lat="48.090074" lon="7.650603">
        <ele>271.9</ele>
      </trkpt>
      <trkpt lat="48.089921" lon="7.65052">
        <ele>269.6</ele>
      </trkpt>
      <trkpt lat="48.089807" lon="7.650498">
        <ele>270.7</ele>
      </trkpt>
      <trkpt lat="48.089596" lon="7.65051">
        <ele>272.2</ele>
      </trkpt>
      <trkpt lat="48.089456" lon="7.650616">
        <ele>273.4</ele>
      </trkpt>
      <trkpt lat="48.089306" lon="7.650795">
        <ele>274.2</ele>
      </trkpt>
      <trkpt lat="48.089158" lon="7.651008">
        <ele>274.8</ele>
      </trkpt>
      <trkpt lat="48.088968" lon="7.651338">
        <ele>275.3</ele>
      </trkpt>
      <trkpt lat="48.088902" lon="7.651283">
        <ele>275.2</ele>
      </trkpt>
      <trkpt lat="48.088902" lon="7.651283">
        <ele>275.2</ele>
      </trkpt>
      <trkpt lat="48.088782" lon="7.651182">
        <ele>274.8</ele>
      </trkpt>
      <trkpt lat="48.088734" lon="7.651095">
        <ele>275.1</ele>
      </trkpt>
      <trkpt lat="48.088715" lon="7.650965">
        <ele>275.5</ele>
      </trkpt>
      <trkpt lat="48.088677" lon="7.650836">
        <ele>275.9</ele>
      </trkpt>
      <trkpt lat="48.088519" lon="7.650257">
        <ele>277.1</ele>
      </trkpt>
      <trkpt lat="48.088481" lon="7.650074">
        <ele>278.2</ele>
      </trkpt>
      <trkpt lat="48.088477" lon="7.649948">
        <ele>278.3</ele>
      </trkpt>
      <trkpt lat="48.088483" lon="7.649804">
        <ele>278.5</ele>
      </trkpt>
      <trkpt lat="48.088507" lon="7.649655">
        <ele>279.1</ele>
      </trkpt>
      <trkpt lat="48.088541" lon="7.649548">
        <ele>279.7</ele>
      </trkpt>
      <trkpt lat="48.088521" lon="7.649536">
        <ele>280.2</ele>
      </trkpt>
      <trkpt lat="48.088176" lon="7.649323">
        <ele>279.8</ele>
      </trkpt>
      <trkpt lat="48.088075" lon="7.648847">
        <ele>279.1</ele>
      </trkpt>
      <trkpt lat="48.087953" lon="7.648265">
        <ele>277.9</ele>
      </trkpt>
      <trkpt lat="48.08783" lon="7.647683">
        <ele>272.9</ele>
      </trkpt>
      <trkpt lat="48.087708" lon="7.647102">
        <ele>273.1</ele>
      </trkpt>
      <trkpt lat="48.087696" lon="7.646955">
        <ele>271.2</ele>
      </trkpt>
      <trkpt lat="48.087874" lon="7.646897">
        <ele>271.1</ele>
      </trkpt>
      <trkpt lat="48.088053" lon="7.646835">
        <ele>272.6</ele>
      </trkpt>
      <trkpt lat="48.088171" lon="7.646777">
        <ele>271.5</ele>
      </trkpt>
      <trkpt lat="48.08823" lon="7.646741">
        <ele>270.3</ele>
      </trkpt>
      <trkpt lat="48.08823" lon="7.646741">
        <ele>270.3</ele>
      </trkpt>
      <trkpt lat="48.088254" lon="7.646727">
        <ele>269.8</ele>
      </trkpt>
      <trkpt lat="48.088318" lon="7.646662">
        <ele>269.1</ele>
      </trkpt>
      <trkpt lat="48.088353" lon="7.646645">
        <ele>268.5</ele>
      </trkpt>
      <trkpt lat="48.088395" lon="7.646608">
        <ele>267.3</ele>
      </trkpt>
      <trkpt lat="48.088457" lon="7.646532">
        <ele>264.8</ele>
      </trkpt>
      <trkpt lat="48.088531" lon="7.646423">
        <ele>261.6</ele>
      </trkpt>
      <trkpt lat="48.088603" lon="7.646316">
        <ele>260.0</ele>
      </trkpt>
      <trkpt lat="48.088682" lon="7.646202">
        <ele>258.1</ele>
      </trkpt>
      <trkpt lat="48.088754" lon="7.646089">
        <ele>256.6</ele>
      </trkpt>
      <trkpt lat="48.088818" lon="7.646004">
        <ele>255.5</ele>
      </trkpt>
      <trkpt lat="48.088907" lon="7.645904">
        <ele>254.4</ele>
      </trkpt>
      <trkpt lat="48.08906" lon="7.645748">
        <ele>253.5</ele>
      </trkpt>
      <trkpt lat="48.089271" lon="7.645535">
        <ele>251.2</ele>
      </trkpt>
      <trkpt lat="48.089409" lon="7.645382">
        <ele>248.4</ele>
      </trkpt>
      <trkpt lat="48.089388" lon="7.64528">
        <ele>250.0</ele>
      </trkpt>
      <trkpt lat="48.089383" lon="7.645153">
        <ele>250.5</ele>
      </trkpt>
      <trkpt lat="48.089363" lon="7.644662">
        <ele>246.7</ele>
      </trkpt>
      <trkpt lat="48.089356" lon="7.644611">
        <ele>245.8</ele>
      </trkpt>
      <trkpt lat="48.089341" lon="7.644551">
        <ele>244.8</ele>
      </trkpt>
      <trkpt lat="48.089314" lon="7.644504">
        <ele>244.1</ele>
      </trkpt>
      <trkpt lat="48.089305" lon="7.644489">
        <ele>243.9</ele>
      </trkpt>
      <trkpt lat="48.089124" lon="7.644212">
        <ele>244.3</ele>
      </trkpt>
      <trkpt lat="48.088943" lon="7.643935">
        <ele>245.7</ele>
      </trkpt>
      <trkpt lat="48.088917" lon="7.643893">
        <ele>245.3</ele>
      </trkpt>
      <trkpt lat="48.088904" lon="7.643859">
        <ele>244.9</ele>
      </trkpt>
      <trkpt lat="48.088904" lon="7.643813">
        <ele>244.1</ele>
      </trkpt>
      <trkpt lat="48.088911" lon="7.643776">
        <ele>243.4</ele>
      </trkpt>
      <trkpt lat="48.088928" lon="7.643743">
        <ele>243.1</ele>
      </trkpt>
      <trkpt lat="48.088967" lon="7.643688">
        <ele>243.2</ele>
      </trkpt>
      <trkpt lat="48.089024" lon="7.643625">
        <ele>243.0</ele>
      </trkpt>
      <trkpt lat="48.089045" lon="7.64359">
        <ele>242.7</ele>
      </trkpt>
      <trkpt lat="48.089045" lon="7.64359">
        <ele>242.7</ele>
      </trkpt>
      <trkpt lat="48.089062" lon="7.643562">
        <ele>242.5</ele>
      </trkpt>
      <trkpt lat="48.089078" lon="7.643518">
        <ele>241.8</ele>
      </trkpt>
      <trkpt lat="48.089083" lon="7.643472">
        <ele>241.1</ele>
      </trkpt>
      <trkpt lat="48.089075" lon="7.643423">
        <ele>240.4</ele>
      </trkpt>
      <trkpt lat="48.089049" lon="7.64337">
        <ele>240.0</ele>
      </trkpt>
      <trkpt lat="48.088939" lon="7.64322">
        <ele>240.3</ele>
      </trkpt>
      <trkpt lat="48.088906" lon="7.643169">
        <ele>240.6</ele>
      </trkpt>
      <trkpt lat="48.088892" lon="7.643111">
        <ele>240.5</ele>
      </trkpt>
      <trkpt lat="48.088883" lon="7.643021">
        <ele>240.3</ele>
      </trkpt>
      <trkpt lat="48.088888" lon="7.64295">
        <ele>239.9</ele>
      </trkpt>
      <trkpt lat="48.088901" lon="7.642888">
        <ele>239.2</ele>
      </trkpt>
      <trkpt lat="48.08892" lon="7.642809">
        <ele>238.2</ele>
      </trkpt>
      <trkpt lat="48.088928" lon="7.642739">
        <ele>237.4</ele>
      </trkpt>
      <trkpt lat="48.088928" lon="7.642676">
        <ele>237.0</ele>
      </trkpt>
      <trkpt lat="48.088916" lon="7.642606">
        <ele>236.9</ele>
      </trkpt>
      <trkpt lat="48.08889" lon="7.642521">
        <ele>237.4</ele>
      </trkpt>
      <trkpt lat="48.088741" lon="7.642192">
        <ele>241.6</ele>
      </trkpt>
      <trkpt lat="48.088653" lon="7.642052">
        <ele>241.8</ele>
      </trkpt>
      <trkpt lat="48.088598" lon="7.641936">
        <ele>241.7</ele>
      </trkpt>
      <trkpt lat="48.088569" lon="7.641832">
        <ele>241.6</ele>
      </trkpt>
      <trkpt lat="48.088548" lon="7.641704">
        <ele>241.0</ele>
      </trkpt>
      <trkpt lat="48.088543" lon="7.641583">
        <ele>239.8</ele>
      </trkpt>
      <trkpt lat="48.088545" lon="7.641413">
        <ele>238.2</ele>
      </trkpt>
      <trkpt lat="48.088546" lon="7.641321">
        <ele>237.6</ele>
      </trkpt>
      <trkpt lat="48.088538" lon="7.64124">
        <ele>237.5</ele>
      </trkpt>
      <trkpt lat="48.088523" lon="7.641155">
        <ele>237.6</ele>
      </trkpt>
      <trkpt lat="48.088492" lon="7.641095">
        <ele>238.4</ele>
      </trkpt>
      <trkpt lat="48.08838" lon="7.640966">
        <ele>241.1</ele>
      </trkpt>
      <trkpt lat="48.08838" lon="7.640966">
        <ele>241.1</ele>
      </trkpt>
      <trkpt lat="48.088343" lon="7.640924">
        <ele>242.0</ele>
      </trkpt>
      <trkpt lat="48.088261" lon="7.640873">
        <ele>242.3</ele>
      </trkpt>
      <trkpt lat="48.088178" lon="7.64086">
        <ele>242.3</ele>
      </trkpt>
      <trkpt lat="48.088111" lon="7.640852">
        <ele>242.2</ele>
      </trkpt>
      <trkpt lat="48.087965" lon="7.640763">
        <ele>242.1</ele>
      </trkpt>
      <trkpt lat="48.08787" lon="7.640658">
        <ele>242.0</ele>
      </trkpt>
      <trkpt lat="48.087787" lon="7.640523">
        <ele>241.6</ele>
      </trkpt>
      <trkpt lat="48.087702" lon="7.640381">
        <ele>241.0</ele>
      </trkpt>
      <trkpt lat="48.087603" lon="7.640244">
        <ele>240.7</ele>
      </trkpt>
      <trkpt lat="48.08757" lon="7.640192">
        <ele>240.5</ele>
      </trkpt>
      <trkpt lat="48.087514" lon="7.640127">
        <ele>240.6</ele>
      </trkpt>
      <trkpt lat="48.087507" lon="7.640065">
        <ele>239.7</ele>
      </trkpt>
      <trkpt lat="48.087531" lon="7.64002">
        <ele>238.3</ele>
      </trkpt>
      <trkpt lat="48.087638" lon="7.640083">
        <ele>237.1</ele>
      </trkpt>
      <trkpt lat="48.08772" lon="7.640177">
        <ele>237.0</ele>
      </trkpt>
      <trkpt lat="48.087859" lon="7.640381">
        <ele>237.9</ele>
      </trkpt>
      <trkpt lat="48.088038" lon="7.640551">
        <ele>238.0</ele>
      </trkpt>
      <trkpt lat="48.088134" lon="7.640576">
        <ele>236.9</ele>
      </trkpt>
      <trkpt lat="48.088268" lon="7.640578">
        <ele>233.9</ele>
      </trkpt>
      <trkpt lat="48.088423" lon="7.640593">
        <ele>229.9</ele>
      </trkpt>
      <trkpt lat="48.08849" lon="7.64062">
        <ele>228.5</ele>
      </trkpt>
      <trkpt lat="48.08849" lon="7.64062">
        <ele>228.5</ele>
      </trkpt>
      <trkpt lat="48.088687" lon="7.640699">
        <ele>224.7</ele>
      </trkpt>
      <trkpt lat="48.088761" lon="7.640568">
        <ele>222.1</ele>
      </trkpt>
      <trkpt lat="48.088823" lon="7.640526">
        <ele>221.3</ele>
      </trkpt>
      <trkpt lat="48.088862" lon="7.640379">
        <ele>220.0</ele>
      </trkpt>
      <trkpt lat="48.088927" lon="7.640175">
        <ele>218.4</ele>
      </trkpt>
      <trkpt lat="48.088995" lon="7.639999">
        <ele>217.4</ele>
      </trkpt>
      <trkpt lat="48.089054" lon="7.639844">
        <ele>216.9</ele>
      </trkpt>
      <trkpt lat="48.089108" lon="7.639743">
        <ele>216.6</ele>
      </trkpt>
      <trkpt lat="48.089133" lon="7.639686">
        <ele>216.5</ele>
      </trkpt>
      <trkpt lat="48.089156" lon="7.639633">
        <ele>216.4</ele>
      </trkpt>
      <trkpt lat="48.089181" lon="7.639544">
        <ele>216.4</ele>
      </trkpt>
      <trkpt lat="48.089209" lon="7.639452">
        <ele>216.6</ele>
      </trkpt>
      <trkpt lat="48.089209" lon="7.639344">
        <ele>216.7</ele>
      </trkpt>
      <trkpt lat="48.089204" lon="7.639249">
        <ele>216.5</ele>
      </trkpt>
      <trkpt lat="48.089189" lon="7.639109">
        <ele>216.1</ele>
      </trkpt>
      <trkpt lat="48.089171" lon="7.63898">
        <ele>215.9</ele>
      </trkpt>
      <trkpt lat="48.089133" lon="7.638812">
        <ele>216.1</ele>
      </trkpt>
      <trkpt lat="48.08923" lon="7.638756">
        <ele>216.2</ele>
      </trkpt>
    </trkseg>
  </trk>
</gpx>