<?xml version='1.0' encoding='UTF-8'?>
<gpx version="1.1" creator="https://www.komoot.de" xmlns="http://www.topografix.com/GPX/1/1" xmlns:xsi="http://www.w3.org/2001/XMLSchema-instance" xsi:schemaLocation="http://www.topografix.com/GPX/1/1 http://www.topografix.com/GPX/1/1/gpx.xsd">
  <metadata>
    <name>Wanderung 04.10.2021 12:47Karl May</name>
    <author>
      <link href="https://www.komoot.de">
        <text>komoot</text>
        <type>text/html</type>
      </link>
    </author>
  </metadata>
  <trk>
    <name>Wanderung 04.10.2021 12:47Karl May</name>
    <trkseg>
      <trkpt lat="49.305373" lon="7.092568">
        <ele>308.539234</ele>
        <time>2021-10-04T09:21:13.395Z</time>
      </trkpt>
      <trkpt lat="49.305473" lon="7.092598">
        <ele>308.539234</ele>
        <time>2021-10-04T09:21:49.157Z</time>
      </trkpt>
      <trkpt lat="49.305571" lon="7.092613">
        <ele>308.539234</ele>
        <time>2021-10-04T09:21:59.182Z</time>
      </trkpt>
      <trkpt lat="49.305619" lon="7.092731">
        <ele>308.539234</ele>
        <time>2021-10-04T09:22:05.183Z</time>
      </trkpt>
      <trkpt lat="49.305687" lon="7.092826">
        <ele>308.539234</ele>
        <time>2021-10-04T09:22:12.212Z</time>
      </trkpt>
      <trkpt lat="49.305789" lon="7.092844">
        <ele>308.539234</ele>
        <time>2021-10-04T09:22:21.169Z</time>
      </trkpt>
      <trkpt lat="49.305957" lon="7.092886">
        <ele>308.539234</ele>
        <time>2021-10-04T09:22:44.173Z</time>
      </trkpt>
      <trkpt lat="49.306048" lon="7.092897">
        <ele>308.539234</ele>
        <time>2021-10-04T09:22:51.223Z</time>
      </trkpt>
      <trkpt lat="49.306139" lon="7.092907">
        <ele>308.539234</ele>
        <time>2021-10-04T09:22:56.207Z</time>
      </trkpt>
      <trkpt lat="49.306228" lon="7.092953">
        <ele>308.666284</ele>
        <time>2021-10-04T09:23:01.201Z</time>
      </trkpt>
      <trkpt lat="49.306304" lon="7.093030">
        <ele>309.016424</ele>
        <time>2021-10-04T09:23:07.270Z</time>
      </trkpt>
      <trkpt lat="49.306348" lon="7.093155">
        <ele>309.372464</ele>
        <time>2021-10-04T09:23:14.270Z</time>
      </trkpt>
      <trkpt lat="49.306370" lon="7.093310">
        <ele>309.770053</ele>
        <time>2021-10-04T09:23:21.192Z</time>
      </trkpt>
      <trkpt lat="49.306376" lon="7.093454">
        <ele>310.131710</ele>
        <time>2021-10-04T09:23:27.226Z</time>
      </trkpt>
      <trkpt lat="49.306388" lon="7.093596">
        <ele>310.490595</ele>
        <time>2021-10-04T09:23:34.266Z</time>
      </trkpt>
      <trkpt lat="49.306390" lon="7.093749">
        <ele>310.874150</ele>
        <time>2021-10-04T09:23:41.240Z</time>
      </trkpt>
      <trkpt lat="49.306381" lon="7.093899">
        <ele>311.251697</ele>
        <time>2021-10-04T09:23:48.219Z</time>
      </trkpt>
      <trkpt lat="49.306376" lon="7.094051">
        <ele>311.633154</ele>
        <time>2021-10-04T09:23:55.261Z</time>
      </trkpt>
      <trkpt lat="49.306404" lon="7.094194">
        <ele>312.007381</ele>
        <time>2021-10-04T09:24:03.250Z</time>
      </trkpt>
      <trkpt lat="49.306424" lon="7.094333">
        <ele>312.364151</ele>
        <time>2021-10-04T09:24:09.211Z</time>
      </trkpt>
      <trkpt lat="49.306460" lon="7.094485">
        <ele>312.769478</ele>
        <time>2021-10-04T09:24:17.244Z</time>
      </trkpt>
      <trkpt lat="49.306518" lon="7.094609">
        <ele>313.151972</ele>
        <time>2021-10-04T09:24:26.281Z</time>
      </trkpt>
      <trkpt lat="49.306559" lon="7.094737">
        <ele>313.509412</ele>
        <time>2021-10-04T09:24:33.242Z</time>
      </trkpt>
      <trkpt lat="49.306583" lon="7.094877">
        <ele>313.872232</ele>
        <time>2021-10-04T09:24:41.208Z</time>
      </trkpt>
      <trkpt lat="49.306558" lon="7.095016">
        <ele>314.233631</ele>
        <time>2021-10-04T09:24:45.244Z</time>
      </trkpt>
      <trkpt lat="49.306530" lon="7.095155">
        <ele>314.598266</ele>
        <time>2021-10-04T09:24:51.183Z</time>
      </trkpt>
      <trkpt lat="49.306489" lon="7.095282">
        <ele>314.953459</ele>
        <time>2021-10-04T09:24:58.214Z</time>
      </trkpt>
      <trkpt lat="49.306434" lon="7.095402">
        <ele>315.321101</ele>
        <time>2021-10-04T09:25:04.177Z</time>
      </trkpt>
      <trkpt lat="49.306418" lon="7.095552">
        <ele>315.539171</ele>
        <time>2021-10-04T09:25:12.274Z</time>
      </trkpt>
      <trkpt lat="49.306393" lon="7.095688">
        <ele>315.661370</ele>
        <time>2021-10-04T09:25:19.252Z</time>
      </trkpt>
      <trkpt lat="49.306352" lon="7.095811">
        <ele>315.780837</ele>
        <time>2021-10-04T09:25:26.260Z</time>
      </trkpt>
      <trkpt lat="49.306329" lon="7.095966">
        <ele>315.918310</ele>
        <time>2021-10-04T09:25:33.209Z</time>
      </trkpt>
      <trkpt lat="49.306302" lon="7.096106">
        <ele>316.044570</ele>
        <time>2021-10-04T09:25:40.248Z</time>
      </trkpt>
      <trkpt lat="49.306276" lon="7.096238">
        <ele>316.163820</ele>
        <time>2021-10-04T09:25:46.250Z</time>
      </trkpt>
      <trkpt lat="49.306237" lon="7.096376">
        <ele>316.293893</ele>
        <time>2021-10-04T09:25:53.257Z</time>
      </trkpt>
      <trkpt lat="49.306210" lon="7.096513">
        <ele>316.417667</ele>
        <time>2021-10-04T09:26:01.252Z</time>
      </trkpt>
      <trkpt lat="49.306166" lon="7.096652">
        <ele>316.551294</ele>
        <time>2021-10-04T09:26:08.252Z</time>
      </trkpt>
      <trkpt lat="49.306153" lon="7.096802">
        <ele>316.682157</ele>
        <time>2021-10-04T09:26:15.258Z</time>
      </trkpt>
      <trkpt lat="49.306133" lon="7.096950">
        <ele>316.812870</ele>
        <time>2021-10-04T09:26:23.215Z</time>
      </trkpt>
      <trkpt lat="49.306116" lon="7.097087">
        <ele>316.933476</ele>
        <time>2021-10-04T09:26:28.277Z</time>
      </trkpt>
      <trkpt lat="49.306093" lon="7.097235">
        <ele>317.065054</ele>
        <time>2021-10-04T09:26:36.248Z</time>
      </trkpt>
      <trkpt lat="49.306066" lon="7.097376">
        <ele>317.192144</ele>
        <time>2021-10-04T09:26:43.260Z</time>
      </trkpt>
      <trkpt lat="49.306093" lon="7.097510">
        <ele>317.313436</ele>
        <time>2021-10-04T09:26:52.253Z</time>
      </trkpt>
      <trkpt lat="49.306148" lon="7.097643">
        <ele>317.449640</ele>
        <time>2021-10-04T09:26:59.256Z</time>
      </trkpt>
      <trkpt lat="49.306205" lon="7.097762">
        <ele>317.577339</ele>
        <time>2021-10-04T09:27:06.161Z</time>
      </trkpt>
      <trkpt lat="49.306276" lon="7.097862">
        <ele>317.705196</ele>
        <time>2021-10-04T09:27:13.269Z</time>
      </trkpt>
      <trkpt lat="49.306341" lon="7.097957">
        <ele>317.824287</ele>
        <time>2021-10-04T09:27:20.257Z</time>
      </trkpt>
      <trkpt lat="49.306416" lon="7.098050">
        <ele>318.392007</ele>
        <time>2021-10-04T09:27:28.267Z</time>
      </trkpt>
      <trkpt lat="49.306486" lon="7.098140">
        <ele>318.983926</ele>
        <time>2021-10-04T09:27:37.250Z</time>
      </trkpt>
      <trkpt lat="49.306561" lon="7.098220">
        <ele>319.575926</ele>
        <time>2021-10-04T09:27:44.207Z</time>
      </trkpt>
      <trkpt lat="49.306647" lon="7.098307">
        <ele>320.243536</ele>
        <time>2021-10-04T09:27:52.236Z</time>
      </trkpt>
      <trkpt lat="49.306729" lon="7.098385">
        <ele>320.868814</ele>
        <time>2021-10-04T09:27:59.204Z</time>
      </trkpt>
      <trkpt lat="49.306804" lon="7.098491">
        <ele>321.529718</ele>
        <time>2021-10-04T09:28:07.251Z</time>
      </trkpt>
      <trkpt lat="49.306867" lon="7.098591">
        <ele>322.117246</ele>
        <time>2021-10-04T09:28:15.255Z</time>
      </trkpt>
      <trkpt lat="49.306931" lon="7.098702">
        <ele>322.743309</ele>
        <time>2021-10-04T09:28:22.244Z</time>
      </trkpt>
      <trkpt lat="49.306992" lon="7.098805">
        <ele>323.331225</ele>
        <time>2021-10-04T09:28:29.240Z</time>
      </trkpt>
      <trkpt lat="49.307051" lon="7.098915">
        <ele>323.933042</ele>
        <time>2021-10-04T09:28:36.237Z</time>
      </trkpt>
      <trkpt lat="49.307102" lon="7.099047">
        <ele>324.581325</ele>
        <time>2021-10-04T09:28:44.218Z</time>
      </trkpt>
      <trkpt lat="49.307139" lon="7.099188">
        <ele>325.223507</ele>
        <time>2021-10-04T09:28:52.243Z</time>
      </trkpt>
      <trkpt lat="49.307170" lon="7.099325">
        <ele>325.836216</ele>
        <time>2021-10-04T09:28:59.239Z</time>
      </trkpt>
      <trkpt lat="49.307205" lon="7.099463">
        <ele>326.461841</ele>
        <time>2021-10-04T09:29:06.242Z</time>
      </trkpt>
      <trkpt lat="49.307239" lon="7.099610">
        <ele>327.120854</ele>
        <time>2021-10-04T09:29:14.201Z</time>
      </trkpt>
      <trkpt lat="49.307240" lon="7.099751">
        <ele>327.716630</ele>
        <time>2021-10-04T09:29:21.238Z</time>
      </trkpt>
      <trkpt lat="49.307248" lon="7.099906">
        <ele>328.373571</ele>
        <time>2021-10-04T09:29:28.244Z</time>
      </trkpt>
      <trkpt lat="49.307283" lon="7.100034">
        <ele>328.960018</ele>
        <time>2021-10-04T09:29:34.236Z</time>
      </trkpt>
      <trkpt lat="49.307297" lon="7.100176">
        <ele>329.586108</ele>
        <time>2021-10-04T09:29:43.272Z</time>
      </trkpt>
      <trkpt lat="49.307295" lon="7.100321">
        <ele>330.362714</ele>
        <time>2021-10-04T09:29:51.226Z</time>
      </trkpt>
      <trkpt lat="49.307336" lon="7.100458">
        <ele>331.169896</ele>
        <time>2021-10-04T09:29:57.221Z</time>
      </trkpt>
      <trkpt lat="49.307379" lon="7.100593">
        <ele>331.974430</ele>
        <time>2021-10-04T09:30:03.220Z</time>
      </trkpt>
      <trkpt lat="49.307460" lon="7.100688">
        <ele>332.811869</ele>
        <time>2021-10-04T09:30:16.162Z</time>
      </trkpt>
      <trkpt lat="49.307540" lon="7.100793">
        <ele>333.676616</ele>
        <time>2021-10-04T09:30:28.166Z</time>
      </trkpt>
      <trkpt lat="49.307614" lon="7.100875">
        <ele>334.426379</ele>
        <time>2021-10-04T09:30:40.176Z</time>
      </trkpt>
      <trkpt lat="49.307702" lon="7.100962">
        <ele>335.286230</ele>
        <time>2021-10-04T09:30:46.156Z</time>
      </trkpt>
      <trkpt lat="49.307782" lon="7.101040">
        <ele>336.064764</ele>
        <time>2021-10-04T09:30:51.185Z</time>
      </trkpt>
      <trkpt lat="49.307857" lon="7.101125">
        <ele>336.830634</ele>
        <time>2021-10-04T09:30:58.200Z</time>
      </trkpt>
      <trkpt lat="49.307928" lon="7.101213">
        <ele>337.580332</ele>
        <time>2021-10-04T09:31:06.201Z</time>
      </trkpt>
      <trkpt lat="49.308018" lon="7.101297">
        <ele>338.445575</ele>
        <time>2021-10-04T09:31:12.191Z</time>
      </trkpt>
      <trkpt lat="49.308096" lon="7.101378">
        <ele>339.219187</ele>
        <time>2021-10-04T09:31:18.264Z</time>
      </trkpt>
      <trkpt lat="49.308165" lon="7.101474">
        <ele>339.984278</ele>
        <time>2021-10-04T09:31:26.201Z</time>
      </trkpt>
      <trkpt lat="49.308229" lon="7.101591">
        <ele>340.802055</ele>
        <time>2021-10-04T09:31:33.279Z</time>
      </trkpt>
      <trkpt lat="49.308292" lon="7.101703">
        <ele>341.594117</ele>
        <time>2021-10-04T09:31:41.257Z</time>
      </trkpt>
      <trkpt lat="49.308359" lon="7.101815">
        <ele>342.408018</ele>
        <time>2021-10-04T09:31:47.185Z</time>
      </trkpt>
      <trkpt lat="49.308428" lon="7.101905">
        <ele>343.151903</ele>
        <time>2021-10-04T09:31:55.220Z</time>
      </trkpt>
      <trkpt lat="49.308502" lon="7.101996">
        <ele>343.930862</ele>
        <time>2021-10-04T09:32:04.229Z</time>
      </trkpt>
      <trkpt lat="49.308588" lon="7.102066">
        <ele>344.577519</ele>
        <time>2021-10-04T09:32:12.268Z</time>
      </trkpt>
      <trkpt lat="49.308671" lon="7.102154">
        <ele>345.133117</ele>
        <time>2021-10-04T09:32:21.236Z</time>
      </trkpt>
      <trkpt lat="49.308738" lon="7.102253">
        <ele>345.645399</ele>
        <time>2021-10-04T09:32:28.284Z</time>
      </trkpt>
      <trkpt lat="49.308806" lon="7.102344">
        <ele>346.142324</ele>
        <time>2021-10-04T09:32:34.234Z</time>
      </trkpt>
      <trkpt lat="49.308875" lon="7.102455">
        <ele>346.692922</ele>
        <time>2021-10-04T09:32:44.257Z</time>
      </trkpt>
      <trkpt lat="49.308771" lon="7.102431">
        <ele>347.272036</ele>
        <time>2021-10-04T09:33:02.241Z</time>
      </trkpt>
      <trkpt lat="49.308679" lon="7.102402">
        <ele>347.789214</ele>
        <time>2021-10-04T09:33:06.259Z</time>
      </trkpt>
      <trkpt lat="49.308572" lon="7.102361">
        <ele>348.396509</ele>
        <time>2021-10-04T09:33:14.267Z</time>
      </trkpt>
      <trkpt lat="49.308466" lon="7.102323">
        <ele>348.995921</ele>
        <time>2021-10-04T09:33:20.256Z</time>
      </trkpt>
      <trkpt lat="49.308361" lon="7.102363">
        <ele>349.591662</ele>
        <time>2021-10-04T09:33:27.236Z</time>
      </trkpt>
      <trkpt lat="49.308275" lon="7.102433">
        <ele>350.127767</ele>
        <time>2021-10-04T09:33:33.248Z</time>
      </trkpt>
      <trkpt lat="49.308184" lon="7.102479">
        <ele>350.655364</ele>
        <time>2021-10-04T09:33:40.232Z</time>
      </trkpt>
      <trkpt lat="49.308083" lon="7.102503">
        <ele>351.218147</ele>
        <time>2021-10-04T09:33:50.246Z</time>
      </trkpt>
      <trkpt lat="49.307988" lon="7.102491">
        <ele>351.743028</ele>
        <time>2021-10-04T09:33:58.267Z</time>
      </trkpt>
      <trkpt lat="49.307894" lon="7.102521">
        <ele>352.271719</ele>
        <time>2021-10-04T09:34:07.237Z</time>
      </trkpt>
      <trkpt lat="49.307794" lon="7.102508">
        <ele>352.824335</ele>
        <time>2021-10-04T09:34:13.259Z</time>
      </trkpt>
      <trkpt lat="49.307705" lon="7.102536">
        <ele>353.324610</ele>
        <time>2021-10-04T09:34:21.207Z</time>
      </trkpt>
      <trkpt lat="49.307599" lon="7.102565">
        <ele>353.917504</ele>
        <time>2021-10-04T09:34:32.245Z</time>
      </trkpt>
      <trkpt lat="49.307502" lon="7.102588">
        <ele>354.315336</ele>
        <time>2021-10-04T09:34:37.260Z</time>
      </trkpt>
      <trkpt lat="49.307403" lon="7.102555">
        <ele>354.596460</ele>
        <time>2021-10-04T09:34:43.256Z</time>
      </trkpt>
      <trkpt lat="49.307303" lon="7.102558">
        <ele>354.873999</ele>
        <time>2021-10-04T09:34:51.263Z</time>
      </trkpt>
      <trkpt lat="49.307212" lon="7.102554">
        <ele>355.126614</ele>
        <time>2021-10-04T09:34:56.257Z</time>
      </trkpt>
      <trkpt lat="49.307113" lon="7.102575">
        <ele>355.403940</ele>
        <time>2021-10-04T09:35:03.259Z</time>
      </trkpt>
      <trkpt lat="49.307023" lon="7.102604">
        <ele>355.659129</ele>
        <time>2021-10-04T09:35:10.243Z</time>
      </trkpt>
      <trkpt lat="49.306932" lon="7.102617">
        <ele>355.912734</ele>
        <time>2021-10-04T09:35:27.208Z</time>
      </trkpt>
      <trkpt lat="49.306818" lon="7.102635">
        <ele>356.230739</ele>
        <time>2021-10-04T09:35:32.193Z</time>
      </trkpt>
      <trkpt lat="49.306726" lon="7.102698">
        <ele>356.510316</ele>
        <time>2021-10-04T09:35:37.235Z</time>
      </trkpt>
      <trkpt lat="49.306644" lon="7.102763">
        <ele>356.766448</ele>
        <time>2021-10-04T09:35:43.257Z</time>
      </trkpt>
      <trkpt lat="49.306557" lon="7.102840">
        <ele>357.045173</ele>
        <time>2021-10-04T09:35:47.279Z</time>
      </trkpt>
      <trkpt lat="49.306472" lon="7.102908">
        <ele>357.311194</ele>
        <time>2021-10-04T09:35:53.279Z</time>
      </trkpt>
      <trkpt lat="49.306446" lon="7.103071">
        <ele>357.614797</ele>
        <time>2021-10-04T09:36:07.265Z</time>
      </trkpt>
      <trkpt lat="49.306487" lon="7.103212">
        <ele>357.894120</ele>
        <time>2021-10-04T09:36:12.239Z</time>
      </trkpt>
      <trkpt lat="49.306548" lon="7.103340">
        <ele>358.180968</ele>
        <time>2021-10-04T09:36:18.253Z</time>
      </trkpt>
      <trkpt lat="49.306606" lon="7.103459">
        <ele>358.449772</ele>
        <time>2021-10-04T09:36:26.243Z</time>
      </trkpt>
      <trkpt lat="49.306905" lon="7.103721">
        <ele>359.626984</ele>
        <time>2021-10-04T09:37:18.261Z</time>
      </trkpt>
      <trkpt lat="49.306997" lon="7.103803">
        <ele>360.190597</ele>
        <time>2021-10-04T09:37:24.239Z</time>
      </trkpt>
      <trkpt lat="49.307088" lon="7.103853">
        <ele>360.702599</ele>
        <time>2021-10-04T09:37:27.205Z</time>
      </trkpt>
      <trkpt lat="49.307177" lon="7.103916">
        <ele>361.221796</ele>
        <time>2021-10-04T09:37:30.237Z</time>
      </trkpt>
      <trkpt lat="49.307269" lon="7.103978">
        <ele>361.754064</ele>
        <time>2021-10-04T09:37:34.258Z</time>
      </trkpt>
      <trkpt lat="49.307355" lon="7.104056">
        <ele>362.283273</ele>
        <time>2021-10-04T09:37:40.233Z</time>
      </trkpt>
      <trkpt lat="49.307434" lon="7.104124">
        <ele>362.763110</ele>
        <time>2021-10-04T09:37:46.228Z</time>
      </trkpt>
      <trkpt lat="49.307531" lon="7.104207">
        <ele>363.351445</ele>
        <time>2021-10-04T09:37:51.235Z</time>
      </trkpt>
      <trkpt lat="49.307617" lon="7.104277">
        <ele>363.867138</ele>
        <time>2021-10-04T09:37:57.219Z</time>
      </trkpt>
      <trkpt lat="49.307708" lon="7.104347">
        <ele>364.406368</ele>
        <time>2021-10-04T09:38:04.275Z</time>
      </trkpt>
      <trkpt lat="49.307771" lon="7.104475">
        <ele>364.960223</ele>
        <time>2021-10-04T09:38:12.218Z</time>
      </trkpt>
      <trkpt lat="49.307827" lon="7.104611">
        <ele>365.515717</ele>
        <time>2021-10-04T09:38:21.249Z</time>
      </trkpt>
      <trkpt lat="49.307879" lon="7.104729">
        <ele>366.007576</ele>
        <time>2021-10-04T09:38:26.235Z</time>
      </trkpt>
      <trkpt lat="49.307977" lon="7.104774">
        <ele>366.549422</ele>
        <time>2021-10-04T09:38:37.248Z</time>
      </trkpt>
      <trkpt lat="49.308074" lon="7.104806">
        <ele>367.074959</ele>
        <time>2021-10-04T09:38:43.206Z</time>
      </trkpt>
      <trkpt lat="49.308167" lon="7.104849">
        <ele>367.589454</ele>
        <time>2021-10-04T09:38:50.238Z</time>
      </trkpt>
      <trkpt lat="49.308258" lon="7.104862">
        <ele>368.073545</ele>
        <time>2021-10-04T09:38:55.251Z</time>
      </trkpt>
      <trkpt lat="49.308355" lon="7.104882">
        <ele>368.591953</ele>
        <time>2021-10-04T09:39:02.269Z</time>
      </trkpt>
      <trkpt lat="49.308456" lon="7.104887">
        <ele>368.909997</ele>
        <time>2021-10-04T09:39:14.228Z</time>
      </trkpt>
      <trkpt lat="49.308566" lon="7.104871">
        <ele>369.205554</ele>
        <time>2021-10-04T09:39:20.228Z</time>
      </trkpt>
      <trkpt lat="49.308667" lon="7.104886">
        <ele>369.476981</ele>
        <time>2021-10-04T09:39:26.235Z</time>
      </trkpt>
      <trkpt lat="49.308771" lon="7.104872">
        <ele>369.756238</ele>
        <time>2021-10-04T09:39:32.165Z</time>
      </trkpt>
      <trkpt lat="49.308853" lon="7.104938">
        <ele>370.003945</ele>
        <time>2021-10-04T09:39:41.207Z</time>
      </trkpt>
      <trkpt lat="49.308947" lon="7.104966">
        <ele>370.260082</ele>
        <time>2021-10-04T09:39:48.250Z</time>
      </trkpt>
      <trkpt lat="49.309054" lon="7.104975">
        <ele>370.546724</ele>
        <time>2021-10-04T09:39:59.282Z</time>
      </trkpt>
      <trkpt lat="49.309148" lon="7.104978">
        <ele>370.798218</ele>
        <time>2021-10-04T09:40:11.251Z</time>
      </trkpt>
      <trkpt lat="49.309237" lon="7.105004">
        <ele>371.040562</ele>
        <time>2021-10-04T09:40:21.251Z</time>
      </trkpt>
      <trkpt lat="49.309330" lon="7.105016">
        <ele>371.290205</ele>
        <time>2021-10-04T09:40:28.265Z</time>
      </trkpt>
      <trkpt lat="49.309436" lon="7.105014">
        <ele>371.573764</ele>
        <time>2021-10-04T09:40:34.229Z</time>
      </trkpt>
      <trkpt lat="49.309536" lon="7.104996">
        <ele>371.843088</ele>
        <time>2021-10-04T09:40:38.214Z</time>
      </trkpt>
      <trkpt lat="49.309630" lon="7.105011">
        <ele>372.095884</ele>
        <time>2021-10-04T09:41:01.226Z</time>
      </trkpt>
      <trkpt lat="49.309724" lon="7.105046">
        <ele>372.354625</ele>
        <time>2021-10-04T09:41:16.151Z</time>
      </trkpt>
      <trkpt lat="49.309826" lon="7.105047">
        <ele>372.627469</ele>
        <time>2021-10-04T09:41:20.192Z</time>
      </trkpt>
      <trkpt lat="49.309916" lon="7.105066">
        <ele>372.870478</ele>
        <time>2021-10-04T09:41:24.251Z</time>
      </trkpt>
      <trkpt lat="49.310009" lon="7.105082">
        <ele>373.120802</ele>
        <time>2021-10-04T09:41:28.237Z</time>
      </trkpt>
      <trkpt lat="49.310103" lon="7.105077">
        <ele>373.372392</ele>
        <time>2021-10-04T09:41:33.233Z</time>
      </trkpt>
      <trkpt lat="49.310199" lon="7.105041">
        <ele>373.770799</ele>
        <time>2021-10-04T09:41:37.247Z</time>
      </trkpt>
      <trkpt lat="49.310308" lon="7.105059">
        <ele>374.350600</ele>
        <time>2021-10-04T09:41:49.213Z</time>
      </trkpt>
      <trkpt lat="49.310412" lon="7.105134">
        <ele>374.958386</ele>
        <time>2021-10-04T09:41:57.263Z</time>
      </trkpt>
      <trkpt lat="49.310504" lon="7.105169">
        <ele>375.459691</ele>
        <time>2021-10-04T09:42:00.233Z</time>
      </trkpt>
      <trkpt lat="49.310598" lon="7.105206">
        <ele>375.972938</ele>
        <time>2021-10-04T09:42:04.216Z</time>
      </trkpt>
      <trkpt lat="49.310688" lon="7.105250">
        <ele>376.472516</ele>
        <time>2021-10-04T09:42:09.250Z</time>
      </trkpt>
      <trkpt lat="49.310775" lon="7.105297">
        <ele>376.960338</ele>
        <time>2021-10-04T09:42:13.203Z</time>
      </trkpt>
      <trkpt lat="49.310879" lon="7.105333">
        <ele>377.524197</ele>
        <time>2021-10-04T09:42:19.248Z</time>
      </trkpt>
      <trkpt lat="49.310982" lon="7.105323">
        <ele>378.070024</ele>
        <time>2021-10-04T09:42:26.242Z</time>
      </trkpt>
      <trkpt lat="49.311082" lon="7.105349">
        <ele>378.606439</ele>
        <time>2021-10-04T09:42:32.242Z</time>
      </trkpt>
      <trkpt lat="49.311186" lon="7.105307">
        <ele>379.175210</ele>
        <time>2021-10-04T09:42:53.196Z</time>
      </trkpt>
      <trkpt lat="49.311272" lon="7.105215">
        <ele>379.729732</ele>
        <time>2021-10-04T09:42:57.235Z</time>
      </trkpt>
      <trkpt lat="49.311334" lon="7.105103">
        <ele>380.236336</ele>
        <time>2021-10-04T09:43:02.200Z</time>
      </trkpt>
      <trkpt lat="49.311380" lon="7.104980">
        <ele>380.725259</ele>
        <time>2021-10-04T09:43:07.218Z</time>
      </trkpt>
      <trkpt lat="49.311424" lon="7.104858">
        <ele>381.205986</ele>
        <time>2021-10-04T09:43:13.216Z</time>
      </trkpt>
      <trkpt lat="49.311493" lon="7.104747">
        <ele>381.734801</ele>
        <time>2021-10-04T09:43:20.226Z</time>
      </trkpt>
      <trkpt lat="49.311531" lon="7.104616">
        <ele>382.229175</ele>
        <time>2021-10-04T09:43:28.217Z</time>
      </trkpt>
      <trkpt lat="49.311578" lon="7.104495">
        <ele>382.714813</ele>
        <time>2021-10-04T09:43:35.175Z</time>
      </trkpt>
      <trkpt lat="49.311622" lon="7.104353">
        <ele>383.307645</ele>
        <time>2021-10-04T09:43:45.234Z</time>
      </trkpt>
      <trkpt lat="49.311649" lon="7.104201">
        <ele>383.963398</ele>
        <time>2021-10-04T09:43:52.233Z</time>
      </trkpt>
      <trkpt lat="49.311662" lon="7.104056">
        <ele>384.572629</ele>
        <time>2021-10-04T09:43:59.212Z</time>
      </trkpt>
      <trkpt lat="49.311680" lon="7.103918">
        <ele>385.158427</ele>
        <time>2021-10-04T09:44:10.207Z</time>
      </trkpt>
      <trkpt lat="49.311686" lon="7.103763">
        <ele>385.804738</ele>
        <time>2021-10-04T09:44:16.212Z</time>
      </trkpt>
      <trkpt lat="49.311718" lon="7.103626">
        <ele>386.410484</ele>
        <time>2021-10-04T09:44:25.239Z</time>
      </trkpt>
      <trkpt lat="49.311744" lon="7.103472">
        <ele>387.072641</ele>
        <time>2021-10-04T09:44:30.260Z</time>
      </trkpt>
      <trkpt lat="49.311785" lon="7.103336">
        <ele>387.696323</ele>
        <time>2021-10-04T09:44:36.239Z</time>
      </trkpt>
      <trkpt lat="49.311839" lon="7.103214">
        <ele>388.310116</ele>
        <time>2021-10-04T09:44:44.247Z</time>
      </trkpt>
      <trkpt lat="49.311891" lon="7.103098">
        <ele>388.896083</ele>
        <time>2021-10-04T09:44:51.230Z</time>
      </trkpt>
      <trkpt lat="49.311981" lon="7.103031">
        <ele>389.534799</ele>
        <time>2021-10-04T09:44:59.262Z</time>
      </trkpt>
      <trkpt lat="49.312038" lon="7.102904">
        <ele>390.176581</ele>
        <time>2021-10-04T09:45:06.244Z</time>
      </trkpt>
      <trkpt lat="49.312073" lon="7.102754">
        <ele>390.839724</ele>
        <time>2021-10-04T09:45:16.221Z</time>
      </trkpt>
      <trkpt lat="49.312128" lon="7.102618">
        <ele>391.505878</ele>
        <time>2021-10-04T09:45:31.200Z</time>
      </trkpt>
      <trkpt lat="49.312168" lon="7.102492">
        <ele>392.089213</ele>
        <time>2021-10-04T09:45:33.248Z</time>
      </trkpt>
      <trkpt lat="49.312195" lon="7.102351">
        <ele>392.700901</ele>
        <time>2021-10-04T09:45:37.230Z</time>
      </trkpt>
      <trkpt lat="49.312210" lon="7.102212">
        <ele>393.287344</ele>
        <time>2021-10-04T09:45:52.236Z</time>
      </trkpt>
      <trkpt lat="49.312251" lon="7.102068">
        <ele>393.941394</ele>
        <time>2021-10-04T09:46:03.216Z</time>
      </trkpt>
      <trkpt lat="49.312296" lon="7.101937">
        <ele>394.519628</ele>
        <time>2021-10-04T09:46:15.208Z</time>
      </trkpt>
      <trkpt lat="49.312344" lon="7.101794">
        <ele>394.777675</ele>
        <time>2021-10-04T09:46:27.236Z</time>
      </trkpt>
      <trkpt lat="49.312363" lon="7.101638">
        <ele>395.032285</ele>
        <time>2021-10-04T09:46:34.252Z</time>
      </trkpt>
      <trkpt lat="49.312379" lon="7.101470">
        <ele>395.304678</ele>
        <time>2021-10-04T09:46:41.263Z</time>
      </trkpt>
      <trkpt lat="49.312404" lon="7.101325">
        <ele>395.545307</ele>
        <time>2021-10-04T09:46:46.252Z</time>
      </trkpt>
      <trkpt lat="49.312451" lon="7.101183">
        <ele>395.800805</ele>
        <time>2021-10-04T09:46:55.237Z</time>
      </trkpt>
      <trkpt lat="49.312498" lon="7.101041">
        <ele>396.056302</ele>
        <time>2021-10-04T09:47:14.229Z</time>
      </trkpt>
      <trkpt lat="49.312532" lon="7.100905">
        <ele>396.289987</ele>
        <time>2021-10-04T09:47:19.223Z</time>
      </trkpt>
      <trkpt lat="49.312542" lon="7.100747">
        <ele>396.544666</ele>
        <time>2021-10-04T09:47:43.236Z</time>
      </trkpt>
      <trkpt lat="49.312432" lon="7.100130">
        <ele>397.570897</ele>
        <time>2021-10-04T09:48:28.217Z</time>
      </trkpt>
      <trkpt lat="49.312432" lon="7.099992">
        <ele>397.792298</ele>
        <time>2021-10-04T09:48:31.238Z</time>
      </trkpt>
      <trkpt lat="49.312412" lon="7.099755">
        <ele>398.175702</ele>
        <time>2021-10-04T09:48:34.224Z</time>
      </trkpt>
      <trkpt lat="49.312378" lon="7.099626">
        <ele>398.398937</ele>
        <time>2021-10-04T09:48:45.225Z</time>
      </trkpt>
      <trkpt lat="49.312327" lon="7.099500">
        <ele>398.636879</ele>
        <time>2021-10-04T09:48:58.260Z</time>
      </trkpt>
      <trkpt lat="49.312247" lon="7.099347">
        <ele>398.959201</ele>
        <time>2021-10-04T09:49:20.207Z</time>
      </trkpt>
      <trkpt lat="49.312168" lon="7.099243">
        <ele>399.281912</ele>
        <time>2021-10-04T09:49:22.255Z</time>
      </trkpt>
      <trkpt lat="49.312069" lon="7.099142">
        <ele>399.650476</ele>
        <time>2021-10-04T09:49:25.225Z</time>
      </trkpt>
      <trkpt lat="49.311985" lon="7.099028">
        <ele>399.998150</ele>
        <time>2021-10-04T09:49:28.225Z</time>
      </trkpt>
      <trkpt lat="49.311895" lon="7.098942">
        <ele>400.326842</ele>
        <time>2021-10-04T09:49:41.231Z</time>
      </trkpt>
      <trkpt lat="49.311819" lon="7.098863">
        <ele>400.611430</ele>
        <time>2021-10-04T09:49:55.226Z</time>
      </trkpt>
      <trkpt lat="49.311997" lon="7.098109">
        <ele>402.232020</ele>
        <time>2021-10-04T09:50:42.205Z</time>
      </trkpt>
      <trkpt lat="49.312088" lon="7.098089">
        <ele>402.516986</ele>
        <time>2021-10-04T09:50:56.254Z</time>
      </trkpt>
      <trkpt lat="49.312181" lon="7.098042">
        <ele>402.820514</ele>
        <time>2021-10-04T09:50:59.213Z</time>
      </trkpt>
      <trkpt lat="49.312287" lon="7.098061">
        <ele>403.151333</ele>
        <time>2021-10-04T09:51:08.210Z</time>
      </trkpt>
      <trkpt lat="49.312393" lon="7.098063">
        <ele>403.479940</ele>
        <time>2021-10-04T09:51:12.205Z</time>
      </trkpt>
      <trkpt lat="49.312493" lon="7.098078">
        <ele>403.791402</ele>
        <time>2021-10-04T09:51:22.217Z</time>
      </trkpt>
      <trkpt lat="49.312611" lon="7.098137">
        <ele>404.176125</ele>
        <time>2021-10-04T09:51:31.216Z</time>
      </trkpt>
      <trkpt lat="49.312693" lon="7.098252">
        <ele>404.517944</ele>
        <time>2021-10-04T09:51:44.262Z</time>
      </trkpt>
      <trkpt lat="49.312827" lon="7.098325">
        <ele>404.909015</ele>
        <time>2021-10-04T09:51:53.238Z</time>
      </trkpt>
      <trkpt lat="49.312900" lon="7.098406">
        <ele>405.156795</ele>
        <time>2021-10-04T09:52:08.246Z</time>
      </trkpt>
      <trkpt lat="49.312969" lon="7.098512">
        <ele>405.425358</ele>
        <time>2021-10-04T09:52:30.203Z</time>
      </trkpt>
      <trkpt lat="49.313052" lon="7.098594">
        <ele>405.696867</ele>
        <time>2021-10-04T09:52:43.212Z</time>
      </trkpt>
      <trkpt lat="49.313150" lon="7.098658">
        <ele>405.989791</ele>
        <time>2021-10-04T09:52:54.211Z</time>
      </trkpt>
      <trkpt lat="49.313235" lon="7.098715">
        <ele>406.244915</ele>
        <time>2021-10-04T09:53:10.248Z</time>
      </trkpt>
      <trkpt lat="49.313372" lon="7.098813">
        <ele>406.660639</ele>
        <time>2021-10-04T09:53:14.227Z</time>
      </trkpt>
      <trkpt lat="49.313464" lon="7.098855">
        <ele>406.924619</ele>
        <time>2021-10-04T09:53:18.247Z</time>
      </trkpt>
      <trkpt lat="49.313575" lon="7.098930">
        <ele>407.258188</ele>
        <time>2021-10-04T09:53:28.198Z</time>
      </trkpt>
      <trkpt lat="49.313680" lon="7.098983">
        <ele>407.562185</ele>
        <time>2021-10-04T09:53:31.267Z</time>
      </trkpt>
      <trkpt lat="49.313800" lon="7.099047">
        <ele>407.911580</ele>
        <time>2021-10-04T09:53:35.203Z</time>
      </trkpt>
      <trkpt lat="49.313902" lon="7.099119">
        <ele>408.220370</ele>
        <time>2021-10-04T09:53:38.214Z</time>
      </trkpt>
      <trkpt lat="49.314005" lon="7.099171">
        <ele>408.518582</ele>
        <time>2021-10-04T09:53:42.181Z</time>
      </trkpt>
      <trkpt lat="49.314104" lon="7.099206">
        <ele>408.797983</ele>
        <time>2021-10-04T09:53:47.167Z</time>
      </trkpt>
      <trkpt lat="49.314188" lon="7.099269">
        <ele>409.055129</ele>
        <time>2021-10-04T09:53:53.152Z</time>
      </trkpt>
      <trkpt lat="49.314261" lon="7.099358">
        <ele>409.311576</ele>
        <time>2021-10-04T09:53:58.227Z</time>
      </trkpt>
      <trkpt lat="49.314314" lon="7.099481">
        <ele>409.495280</ele>
        <time>2021-10-04T09:54:05.221Z</time>
      </trkpt>
      <trkpt lat="49.314379" lon="7.099604">
        <ele>409.605555</ele>
        <time>2021-10-04T09:54:14.258Z</time>
      </trkpt>
      <trkpt lat="49.314429" lon="7.099719">
        <ele>409.701826</ele>
        <time>2021-10-04T09:54:21.260Z</time>
      </trkpt>
      <trkpt lat="49.314487" lon="7.099837">
        <ele>409.804751</ele>
        <time>2021-10-04T09:54:27.210Z</time>
      </trkpt>
      <trkpt lat="49.314549" lon="7.099949">
        <ele>409.907082</ele>
        <time>2021-10-04T09:54:33.259Z</time>
      </trkpt>
      <trkpt lat="49.314591" lon="7.100075">
        <ele>410.005642</ele>
        <time>2021-10-04T09:54:39.200Z</time>
      </trkpt>
      <trkpt lat="49.314638" lon="7.100192">
        <ele>410.101356</ele>
        <time>2021-10-04T09:54:45.266Z</time>
      </trkpt>
      <trkpt lat="49.314683" lon="7.100315">
        <ele>410.199588</ele>
        <time>2021-10-04T09:54:51.248Z</time>
      </trkpt>
      <trkpt lat="49.314745" lon="7.100433">
        <ele>410.305139</ele>
        <time>2021-10-04T09:54:58.244Z</time>
      </trkpt>
      <trkpt lat="49.314799" lon="7.100560">
        <ele>410.410740</ele>
        <time>2021-10-04T09:55:06.241Z</time>
      </trkpt>
      <trkpt lat="49.314863" lon="7.100661">
        <ele>410.508836</ele>
        <time>2021-10-04T09:55:17.259Z</time>
      </trkpt>
      <trkpt lat="49.314926" lon="7.100792">
        <ele>410.622211</ele>
        <time>2021-10-04T09:55:23.239Z</time>
      </trkpt>
      <trkpt lat="49.314991" lon="7.100906">
        <ele>410.727690</ele>
        <time>2021-10-04T09:55:28.210Z</time>
      </trkpt>
      <trkpt lat="49.315030" lon="7.101034">
        <ele>410.826092</ele>
        <time>2021-10-04T09:55:34.217Z</time>
      </trkpt>
      <trkpt lat="49.315093" lon="7.101169">
        <ele>410.941720</ele>
        <time>2021-10-04T09:55:45.250Z</time>
      </trkpt>
      <trkpt lat="49.315145" lon="7.101299">
        <ele>411.047943</ele>
        <time>2021-10-04T09:55:51.270Z</time>
      </trkpt>
      <trkpt lat="49.315193" lon="7.101435">
        <ele>411.155650</ele>
        <time>2021-10-04T09:55:59.242Z</time>
      </trkpt>
      <trkpt lat="49.315270" lon="7.101529">
        <ele>411.260783</ele>
        <time>2021-10-04T09:56:05.243Z</time>
      </trkpt>
      <trkpt lat="49.315333" lon="7.101644">
        <ele>411.365399</ele>
        <time>2021-10-04T09:56:11.225Z</time>
      </trkpt>
      <trkpt lat="49.315353" lon="7.101781">
        <ele>411.295469</ele>
        <time>2021-10-04T09:56:17.264Z</time>
      </trkpt>
      <trkpt lat="49.315372" lon="7.101922">
        <ele>411.223366</ele>
        <time>2021-10-04T09:56:24.262Z</time>
      </trkpt>
      <trkpt lat="49.315399" lon="7.102071">
        <ele>411.145921</ele>
        <time>2021-10-04T09:56:32.245Z</time>
      </trkpt>
      <trkpt lat="49.315399" lon="7.102224">
        <ele>411.069301</ele>
        <time>2021-10-04T09:56:38.277Z</time>
      </trkpt>
      <trkpt lat="49.315403" lon="7.102366">
        <ele>410.998124</ele>
        <time>2021-10-04T09:56:47.235Z</time>
      </trkpt>
      <trkpt lat="49.315436" lon="7.102516">
        <ele>410.918845</ele>
        <time>2021-10-04T09:56:54.251Z</time>
      </trkpt>
      <trkpt lat="49.315456" lon="7.102656">
        <ele>410.847073</ele>
        <time>2021-10-04T09:57:01.216Z</time>
      </trkpt>
      <trkpt lat="49.315471" lon="7.102819">
        <ele>410.764636</ele>
        <time>2021-10-04T09:57:07.231Z</time>
      </trkpt>
      <trkpt lat="49.315451" lon="7.102962">
        <ele>410.691395</ele>
        <time>2021-10-04T09:57:14.231Z</time>
      </trkpt>
      <trkpt lat="49.315430" lon="7.103107">
        <ele>410.617012</ele>
        <time>2021-10-04T09:57:21.216Z</time>
      </trkpt>
      <trkpt lat="49.315405" lon="7.103246">
        <ele>410.544803</ele>
        <time>2021-10-04T09:57:40.224Z</time>
      </trkpt>
      <trkpt lat="49.315353" lon="7.103382">
        <ele>410.465847</ele>
        <time>2021-10-04T09:57:49.211Z</time>
      </trkpt>
      <trkpt lat="49.315322" lon="7.103528">
        <ele>410.388952</ele>
        <time>2021-10-04T09:57:53.251Z</time>
      </trkpt>
      <trkpt lat="49.315284" lon="7.103657">
        <ele>410.318062</ele>
        <time>2021-10-04T09:57:57.274Z</time>
      </trkpt>
      <trkpt lat="49.315233" lon="7.103781">
        <ele>410.244639</ele>
        <time>2021-10-04T09:58:02.245Z</time>
      </trkpt>
      <trkpt lat="49.315220" lon="7.103932">
        <ele>410.168365</ele>
        <time>2021-10-04T09:58:17.221Z</time>
      </trkpt>
      <trkpt lat="49.315199" lon="7.104069">
        <ele>410.097887</ele>
        <time>2021-10-04T09:58:20.217Z</time>
      </trkpt>
      <trkpt lat="49.315175" lon="7.104226">
        <ele>410.017131</ele>
        <time>2021-10-04T09:58:24.230Z</time>
      </trkpt>
      <trkpt lat="49.315138" lon="7.104362">
        <ele>409.804668</ele>
        <time>2021-10-04T09:58:27.210Z</time>
      </trkpt>
      <trkpt lat="49.315097" lon="7.104495">
        <ele>409.479268</ele>
        <time>2021-10-04T09:58:32.232Z</time>
      </trkpt>
      <trkpt lat="49.315048" lon="7.104612">
        <ele>409.171688</ele>
        <time>2021-10-04T09:58:38.271Z</time>
      </trkpt>
      <trkpt lat="49.314992" lon="7.104724">
        <ele>408.859494</ele>
        <time>2021-10-04T09:58:45.232Z</time>
      </trkpt>
      <trkpt lat="49.314947" lon="7.104854">
        <ele>408.533939</ele>
        <time>2021-10-04T09:58:56.227Z</time>
      </trkpt>
      <trkpt lat="49.314878" lon="7.104955">
        <ele>408.210351</ele>
        <time>2021-10-04T09:59:03.189Z</time>
      </trkpt>
      <trkpt lat="49.314800" lon="7.105026">
        <ele>407.902623</ele>
        <time>2021-10-04T09:59:26.242Z</time>
      </trkpt>
      <trkpt lat="49.314732" lon="7.105123">
        <ele>407.587571</ele>
        <time>2021-10-04T09:59:41.222Z</time>
      </trkpt>
      <trkpt lat="49.314667" lon="7.105221">
        <ele>407.278347</ele>
        <time>2021-10-04T09:59:49.259Z</time>
      </trkpt>
      <trkpt lat="49.314752" lon="7.105121">
        <ele>406.914905</ele>
        <time>2021-10-04T10:01:15.255Z</time>
      </trkpt>
      <trkpt lat="49.314805" lon="7.104995">
        <ele>406.583239</ele>
        <time>2021-10-04T10:01:21.247Z</time>
      </trkpt>
      <trkpt lat="49.314630" lon="7.105141">
        <ele>405.907358</ele>
        <time>2021-10-04T10:05:01.238Z</time>
      </trkpt>
      <trkpt lat="49.314538" lon="7.105194">
        <ele>405.573930</ele>
        <time>2021-10-04T10:05:07.255Z</time>
      </trkpt>
      <trkpt lat="49.314447" lon="7.105266">
        <ele>405.226530</ele>
        <time>2021-10-04T10:05:13.231Z</time>
      </trkpt>
      <trkpt lat="49.314384" lon="7.105380">
        <ele>404.895975</ele>
        <time>2021-10-04T10:05:26.235Z</time>
      </trkpt>
      <trkpt lat="49.314326" lon="7.105488">
        <ele>404.586481</ele>
        <time>2021-10-04T10:05:36.241Z</time>
      </trkpt>
      <trkpt lat="49.314255" lon="7.105584">
        <ele>404.265366</ele>
        <time>2021-10-04T10:05:54.149Z</time>
      </trkpt>
      <trkpt lat="49.314168" lon="7.105677">
        <ele>403.905585</ele>
        <time>2021-10-04T10:05:58.231Z</time>
      </trkpt>
      <trkpt lat="49.314089" lon="7.105766">
        <ele>403.489482</ele>
        <time>2021-10-04T10:06:02.243Z</time>
      </trkpt>
      <trkpt lat="49.314015" lon="7.105868">
        <ele>403.060490</ele>
        <time>2021-10-04T10:06:06.228Z</time>
      </trkpt>
      <trkpt lat="49.313944" lon="7.105969">
        <ele>402.642948</ele>
        <time>2021-10-04T10:06:10.230Z</time>
      </trkpt>
      <trkpt lat="49.313876" lon="7.106079">
        <ele>402.216808</ele>
        <time>2021-10-04T10:06:14.238Z</time>
      </trkpt>
      <trkpt lat="49.313807" lon="7.106171">
        <ele>401.822588</ele>
        <time>2021-10-04T10:06:25.222Z</time>
      </trkpt>
      <trkpt lat="49.313733" lon="7.106261">
        <ele>401.415368</ele>
        <time>2021-10-04T10:06:41.258Z</time>
      </trkpt>
      <trkpt lat="49.313657" lon="7.106343">
        <ele>401.014703</ele>
        <time>2021-10-04T10:06:44.246Z</time>
      </trkpt>
      <trkpt lat="49.313578" lon="7.106452">
        <ele>400.556520</ele>
        <time>2021-10-04T10:06:48.258Z</time>
      </trkpt>
      <trkpt lat="49.313510" lon="7.106546">
        <ele>400.161802</ele>
        <time>2021-10-04T10:06:52.211Z</time>
      </trkpt>
      <trkpt lat="49.313455" lon="7.106665">
        <ele>399.751739</ele>
        <time>2021-10-04T10:07:01.246Z</time>
      </trkpt>
      <trkpt lat="49.313429" lon="7.106844">
        <ele>399.236211</ele>
        <time>2021-10-04T10:07:05.236Z</time>
      </trkpt>
      <trkpt lat="49.313420" lon="7.107014">
        <ele>398.756748</ele>
        <time>2021-10-04T10:07:15.219Z</time>
      </trkpt>
      <trkpt lat="49.313425" lon="7.107154">
        <ele>398.362602</ele>
        <time>2021-10-04T10:07:29.217Z</time>
      </trkpt>
      <trkpt lat="49.313430" lon="7.107297">
        <ele>397.960034</ele>
        <time>2021-10-04T10:07:33.231Z</time>
      </trkpt>
      <trkpt lat="49.313441" lon="7.107468">
        <ele>397.476999</ele>
        <time>2021-10-04T10:07:37.236Z</time>
      </trkpt>
      <trkpt lat="49.313460" lon="7.107619">
        <ele>397.044686</ele>
        <time>2021-10-04T10:07:41.219Z</time>
      </trkpt>
      <trkpt lat="49.313477" lon="7.107761">
        <ele>396.638833</ele>
        <time>2021-10-04T10:07:47.178Z</time>
      </trkpt>
      <trkpt lat="49.313486" lon="7.107931">
        <ele>396.159371</ele>
        <time>2021-10-04T10:07:52.235Z</time>
      </trkpt>
      <trkpt lat="49.313516" lon="7.108076">
        <ele>395.901563</ele>
        <time>2021-10-04T10:08:14.231Z</time>
      </trkpt>
      <trkpt lat="49.313526" lon="7.108238">
        <ele>395.641391</ele>
        <time>2021-10-04T10:08:18.254Z</time>
      </trkpt>
      <trkpt lat="49.313538" lon="7.108383">
        <ele>395.407698</ele>
        <time>2021-10-04T10:08:26.241Z</time>
      </trkpt>
      <trkpt lat="49.313544" lon="7.108520">
        <ele>395.188162</ele>
        <time>2021-10-04T10:08:35.285Z</time>
      </trkpt>
      <trkpt lat="49.313549" lon="7.108669">
        <ele>394.949619</ele>
        <time>2021-10-04T10:08:41.247Z</time>
      </trkpt>
      <trkpt lat="49.313578" lon="7.108811">
        <ele>394.711703</ele>
        <time>2021-10-04T10:08:48.230Z</time>
      </trkpt>
      <trkpt lat="49.313553" lon="7.108974">
        <ele>394.443976</ele>
        <time>2021-10-04T10:08:53.211Z</time>
      </trkpt>
      <trkpt lat="49.313499" lon="7.109107">
        <ele>394.193461</ele>
        <time>2021-10-04T10:08:58.239Z</time>
      </trkpt>
      <trkpt lat="49.313458" lon="7.109241">
        <ele>393.956792</ele>
        <time>2021-10-04T10:09:04.225Z</time>
      </trkpt>
      <trkpt lat="49.313410" lon="7.109370">
        <ele>393.719309</ele>
        <time>2021-10-04T10:09:10.242Z</time>
      </trkpt>
      <trkpt lat="49.313359" lon="7.109498">
        <ele>393.479460</ele>
        <time>2021-10-04T10:09:18.229Z</time>
      </trkpt>
      <trkpt lat="49.313297" lon="7.109610">
        <ele>393.244539</ele>
        <time>2021-10-04T10:09:25.228Z</time>
      </trkpt>
      <trkpt lat="49.313242" lon="7.109729">
        <ele>393.011311</ele>
        <time>2021-10-04T10:09:32.240Z</time>
      </trkpt>
      <trkpt lat="49.313174" lon="7.109836">
        <ele>392.772397</ele>
        <time>2021-10-04T10:09:39.225Z</time>
      </trkpt>
      <trkpt lat="49.313093" lon="7.109941">
        <ele>392.512306</ele>
        <time>2021-10-04T10:09:50.258Z</time>
      </trkpt>
      <trkpt lat="49.313026" lon="7.110034">
        <ele>392.290696</ele>
        <time>2021-10-04T10:09:55.262Z</time>
      </trkpt>
      <trkpt lat="49.312955" lon="7.110150">
        <ele>392.036296</ele>
        <time>2021-10-04T10:10:04.230Z</time>
      </trkpt>
      <trkpt lat="49.312909" lon="7.110298">
        <ele>391.774147</ele>
        <time>2021-10-04T10:10:14.251Z</time>
      </trkpt>
      <trkpt lat="49.312863" lon="7.110432">
        <ele>391.437940</ele>
        <time>2021-10-04T10:10:19.235Z</time>
      </trkpt>
      <trkpt lat="49.312805" lon="7.110540">
        <ele>391.098797</ele>
        <time>2021-10-04T10:10:24.237Z</time>
      </trkpt>
      <trkpt lat="49.312744" lon="7.110660">
        <ele>390.729980</ele>
        <time>2021-10-04T10:10:29.225Z</time>
      </trkpt>
      <trkpt lat="49.312680" lon="7.110774">
        <ele>390.365341</ele>
        <time>2021-10-04T10:10:35.241Z</time>
      </trkpt>
      <trkpt lat="49.312601" lon="7.110867">
        <ele>389.995107</ele>
        <time>2021-10-04T10:10:43.233Z</time>
      </trkpt>
      <trkpt lat="49.312539" lon="7.110976">
        <ele>389.644496</ele>
        <time>2021-10-04T10:10:51.242Z</time>
      </trkpt>
      <trkpt lat="49.312530" lon="7.111117">
        <ele>389.301111</ele>
        <time>2021-10-04T10:11:03.211Z</time>
      </trkpt>
      <trkpt lat="49.312584" lon="7.111248">
        <ele>388.925452</ele>
        <time>2021-10-04T10:11:09.250Z</time>
      </trkpt>
      <trkpt lat="49.312644" lon="7.111352">
        <ele>388.588853</ele>
        <time>2021-10-04T10:11:26.209Z</time>
      </trkpt>
      <trkpt lat="49.312704" lon="7.111456">
        <ele>388.252253</ele>
        <time>2021-10-04T10:11:46.192Z</time>
      </trkpt>
      <trkpt lat="49.312794" lon="7.111561">
        <ele>387.831865</ele>
        <time>2021-10-04T10:11:53.191Z</time>
      </trkpt>
      <trkpt lat="49.312877" lon="7.111629">
        <ele>387.482030</ele>
        <time>2021-10-04T10:12:05.227Z</time>
      </trkpt>
      <trkpt lat="49.312963" lon="7.111712">
        <ele>387.104276</ele>
        <time>2021-10-04T10:12:12.213Z</time>
      </trkpt>
      <trkpt lat="49.313037" lon="7.111817">
        <ele>386.729501</ele>
        <time>2021-10-04T10:12:16.223Z</time>
      </trkpt>
      <trkpt lat="49.313140" lon="7.111859">
        <ele>386.333267</ele>
        <time>2021-10-04T10:12:17.187Z</time>
      </trkpt>
      <trkpt lat="49.313179" lon="7.111991">
        <ele>385.982012</ele>
        <time>2021-10-04T10:12:30.237Z</time>
      </trkpt>
      <trkpt lat="49.313186" lon="7.112131">
        <ele>385.641693</ele>
        <time>2021-10-04T10:12:37.232Z</time>
      </trkpt>
      <trkpt lat="49.313158" lon="7.112578">
        <ele>383.837959</ele>
        <time>2021-10-04T10:13:00.213Z</time>
      </trkpt>
      <trkpt lat="49.313148" lon="7.112720">
        <ele>382.969404</ele>
        <time>2021-10-04T10:13:07.235Z</time>
      </trkpt>
      <trkpt lat="49.313126" lon="7.112866">
        <ele>382.058140</ele>
        <time>2021-10-04T10:13:18.247Z</time>
      </trkpt>
      <trkpt lat="49.313095" lon="7.113000">
        <ele>381.193470</ele>
        <time>2021-10-04T10:13:30.179Z</time>
      </trkpt>
      <trkpt lat="49.313064" lon="7.113253">
        <ele>379.627984</ele>
        <time>2021-10-04T10:13:34.191Z</time>
      </trkpt>
      <trkpt lat="49.313049" lon="7.113430">
        <ele>378.542552</ele>
        <time>2021-10-04T10:13:42.220Z</time>
      </trkpt>
      <trkpt lat="49.313005" lon="7.113613">
        <ele>377.356414</ele>
        <time>2021-10-04T10:13:44.246Z</time>
      </trkpt>
      <trkpt lat="49.312977" lon="7.113776">
        <ele>376.331341</ele>
        <time>2021-10-04T10:13:47.245Z</time>
      </trkpt>
      <trkpt lat="49.312954" lon="7.113973">
        <ele>375.114279</ele>
        <time>2021-10-04T10:13:56.262Z</time>
      </trkpt>
      <trkpt lat="49.312930" lon="7.114108">
        <ele>374.263335</ele>
        <time>2021-10-04T10:14:00.199Z</time>
      </trkpt>
      <trkpt lat="49.312905" lon="7.114261">
        <ele>373.304126</ele>
        <time>2021-10-04T10:14:06.210Z</time>
      </trkpt>
      <trkpt lat="49.312898" lon="7.114468">
        <ele>372.043618</ele>
        <time>2021-10-04T10:14:19.256Z</time>
      </trkpt>
      <trkpt lat="49.312841" lon="7.115108">
        <ele>368.171937</ele>
        <time>2021-10-04T10:14:50.194Z</time>
      </trkpt>
      <trkpt lat="49.312825" lon="7.115243">
        <ele>367.689220</ele>
        <time>2021-10-04T10:14:54.235Z</time>
      </trkpt>
      <trkpt lat="49.312810" lon="7.115380">
        <ele>367.200501</ele>
        <time>2021-10-04T10:15:00.190Z</time>
      </trkpt>
      <trkpt lat="49.312781" lon="7.115511">
        <ele>366.713794</ele>
        <time>2021-10-04T10:15:09.239Z</time>
      </trkpt>
      <trkpt lat="49.312721" lon="7.115647">
        <ele>366.136084</ele>
        <time>2021-10-04T10:15:14.173Z</time>
      </trkpt>
      <trkpt lat="49.312628" lon="7.115715">
        <ele>365.580124</ele>
        <time>2021-10-04T10:15:20.226Z</time>
      </trkpt>
      <trkpt lat="49.312540" lon="7.115691">
        <ele>365.097799</ele>
        <time>2021-10-04T10:15:26.168Z</time>
      </trkpt>
      <trkpt lat="49.312452" lon="7.115641">
        <ele>364.591390</ele>
        <time>2021-10-04T10:15:45.158Z</time>
      </trkpt>
      <trkpt lat="49.312342" lon="7.115655">
        <ele>363.995754</ele>
        <time>2021-10-04T10:15:52.206Z</time>
      </trkpt>
      <trkpt lat="49.312230" lon="7.115671">
        <ele>363.388750</ele>
        <time>2021-10-04T10:15:57.236Z</time>
      </trkpt>
      <trkpt lat="49.312135" lon="7.115749">
        <ele>362.807276</ele>
        <time>2021-10-04T10:16:05.222Z</time>
      </trkpt>
      <trkpt lat="49.312079" lon="7.115867">
        <ele>362.293801</ele>
        <time>2021-10-04T10:16:09.194Z</time>
      </trkpt>
      <trkpt lat="49.311991" lon="7.116022">
        <ele>361.570708</ele>
        <time>2021-10-04T10:16:19.237Z</time>
      </trkpt>
      <trkpt lat="49.311926" lon="7.116118">
        <ele>361.083780</ele>
        <time>2021-10-04T10:16:26.241Z</time>
      </trkpt>
      <trkpt lat="49.311865" lon="7.116239">
        <ele>360.545665</ele>
        <time>2021-10-04T10:16:35.268Z</time>
      </trkpt>
      <trkpt lat="49.311813" lon="7.116357">
        <ele>360.044587</ele>
        <time>2021-10-04T10:16:40.229Z</time>
      </trkpt>
      <trkpt lat="49.311736" lon="7.116512">
        <ele>359.359013</ele>
        <time>2021-10-04T10:16:45.253Z</time>
      </trkpt>
      <trkpt lat="49.311654" lon="7.116586">
        <ele>358.845610</ele>
        <time>2021-10-04T10:16:53.242Z</time>
      </trkpt>
      <trkpt lat="49.311573" lon="7.116663">
        <ele>358.446348</ele>
        <time>2021-10-04T10:16:58.233Z</time>
      </trkpt>
      <trkpt lat="49.311477" lon="7.116708">
        <ele>358.198450</ele>
        <time>2021-10-04T10:17:04.244Z</time>
      </trkpt>
      <trkpt lat="49.311385" lon="7.116762">
        <ele>357.955186</ele>
        <time>2021-10-04T10:17:12.260Z</time>
      </trkpt>
      <trkpt lat="49.311300" lon="7.116809">
        <ele>357.732053</ele>
        <time>2021-10-04T10:17:20.238Z</time>
      </trkpt>
      <trkpt lat="49.311207" lon="7.116855">
        <ele>357.490741</ele>
        <time>2021-10-04T10:17:27.251Z</time>
      </trkpt>
      <trkpt lat="49.311112" lon="7.116917">
        <ele>357.235782</ele>
        <time>2021-10-04T10:17:34.265Z</time>
      </trkpt>
      <trkpt lat="49.311020" lon="7.116955">
        <ele>357.000491</ele>
        <time>2021-10-04T10:17:50.253Z</time>
      </trkpt>
      <trkpt lat="49.310885" lon="7.116966">
        <ele>356.666634</ele>
        <time>2021-10-04T10:17:56.202Z</time>
      </trkpt>
      <trkpt lat="49.310754" lon="7.116954">
        <ele>356.342549</ele>
        <time>2021-10-04T10:17:59.199Z</time>
      </trkpt>
      <trkpt lat="49.310651" lon="7.116926">
        <ele>356.084223</ele>
        <time>2021-10-04T10:18:06.243Z</time>
      </trkpt>
      <trkpt lat="49.310549" lon="7.116860">
        <ele>355.810835</ele>
        <time>2021-10-04T10:18:19.249Z</time>
      </trkpt>
      <trkpt lat="49.310432" lon="7.116814">
        <ele>355.512558</ele>
        <time>2021-10-04T10:18:26.244Z</time>
      </trkpt>
      <trkpt lat="49.310341" lon="7.116767">
        <ele>355.275432</ele>
        <time>2021-10-04T10:18:32.228Z</time>
      </trkpt>
      <trkpt lat="49.310242" lon="7.116764">
        <ele>355.030901</ele>
        <time>2021-10-04T10:18:37.225Z</time>
      </trkpt>
      <trkpt lat="49.310152" lon="7.116747">
        <ele>354.806964</ele>
        <time>2021-10-04T10:18:45.247Z</time>
      </trkpt>
      <trkpt lat="49.310050" lon="7.116703">
        <ele>354.545299</ele>
        <time>2021-10-04T10:18:51.217Z</time>
      </trkpt>
      <trkpt lat="49.309953" lon="7.116681">
        <ele>354.303150</ele>
        <time>2021-10-04T10:18:58.230Z</time>
      </trkpt>
      <trkpt lat="49.309852" lon="7.116650">
        <ele>354.032816</ele>
        <time>2021-10-04T10:19:03.247Z</time>
      </trkpt>
      <trkpt lat="49.309786" lon="7.116545">
        <ele>353.726937</ele>
        <time>2021-10-04T10:19:11.236Z</time>
      </trkpt>
      <trkpt lat="49.309716" lon="7.116408">
        <ele>353.361902</ele>
        <time>2021-10-04T10:19:19.257Z</time>
      </trkpt>
      <trkpt lat="49.309651" lon="7.116312">
        <ele>353.071643</ele>
        <time>2021-10-04T10:19:25.244Z</time>
      </trkpt>
      <trkpt lat="49.309571" lon="7.116212">
        <ele>352.739673</ele>
        <time>2021-10-04T10:19:35.158Z</time>
      </trkpt>
      <trkpt lat="49.309482" lon="7.116165">
        <ele>352.436894</ele>
        <time>2021-10-04T10:19:41.269Z</time>
      </trkpt>
      <trkpt lat="49.309371" lon="7.116104">
        <ele>352.057615</ele>
        <time>2021-10-04T10:19:48.207Z</time>
      </trkpt>
      <trkpt lat="49.309262" lon="7.116050">
        <ele>351.689159</ele>
        <time>2021-10-04T10:19:55.245Z</time>
      </trkpt>
      <trkpt lat="49.309169" lon="7.116046">
        <ele>351.389889</ele>
        <time>2021-10-04T10:20:01.272Z</time>
      </trkpt>
      <trkpt lat="49.309066" lon="7.115994">
        <ele>351.041083</ele>
        <time>2021-10-04T10:20:06.236Z</time>
      </trkpt>
      <trkpt lat="49.308973" lon="7.115977">
        <ele>350.739813</ele>
        <time>2021-10-04T10:20:17.261Z</time>
      </trkpt>
      <trkpt lat="49.308884" lon="7.115885">
        <ele>350.394578</ele>
        <time>2021-10-04T10:20:23.228Z</time>
      </trkpt>
      <trkpt lat="49.308798" lon="7.115770">
        <ele>350.027569</ele>
        <time>2021-10-04T10:20:27.253Z</time>
      </trkpt>
      <trkpt lat="49.308721" lon="7.115688">
        <ele>349.726035</ele>
        <time>2021-10-04T10:20:33.262Z</time>
      </trkpt>
      <trkpt lat="49.308634" lon="7.115611">
        <ele>349.402933</ele>
        <time>2021-10-04T10:20:41.224Z</time>
      </trkpt>
      <trkpt lat="49.308551" lon="7.115524">
        <ele>349.079555</ele>
        <time>2021-10-04T10:20:48.233Z</time>
      </trkpt>
      <trkpt lat="49.308487" lon="7.115415">
        <ele>348.771920</ele>
        <time>2021-10-04T10:20:53.247Z</time>
      </trkpt>
      <trkpt lat="49.308430" lon="7.115288">
        <ele>348.448563</ele>
        <time>2021-10-04T10:20:59.262Z</time>
      </trkpt>
      <trkpt lat="49.308397" lon="7.115143">
        <ele>348.229941</ele>
        <time>2021-10-04T10:21:07.237Z</time>
      </trkpt>
      <trkpt lat="49.308328" lon="7.115051">
        <ele>348.096517</ele>
        <time>2021-10-04T10:21:17.197Z</time>
      </trkpt>
      <trkpt lat="49.308261" lon="7.114953">
        <ele>347.961407</ele>
        <time>2021-10-04T10:21:35.232Z</time>
      </trkpt>
      <trkpt lat="49.308197" lon="7.114810">
        <ele>347.796374</ele>
        <time>2021-10-04T10:21:41.247Z</time>
      </trkpt>
      <trkpt lat="49.308135" lon="7.114703">
        <ele>347.660170</ele>
        <time>2021-10-04T10:21:45.232Z</time>
      </trkpt>
      <trkpt lat="49.308088" lon="7.114585">
        <ele>347.528602</ele>
        <time>2021-10-04T10:21:49.264Z</time>
      </trkpt>
      <trkpt lat="49.308029" lon="7.114458">
        <ele>347.380226</ele>
        <time>2021-10-04T10:21:55.225Z</time>
      </trkpt>
      <trkpt lat="49.307943" lon="7.114348">
        <ele>347.216808</ele>
        <time>2021-10-04T10:22:05.206Z</time>
      </trkpt>
      <trkpt lat="49.307871" lon="7.114244">
        <ele>347.072474</ele>
        <time>2021-10-04T10:22:11.249Z</time>
      </trkpt>
      <trkpt lat="49.307792" lon="7.114130">
        <ele>346.914180</ele>
        <time>2021-10-04T10:22:15.249Z</time>
      </trkpt>
      <trkpt lat="49.307717" lon="7.114018">
        <ele>346.761418</ele>
        <time>2021-10-04T10:22:21.239Z</time>
      </trkpt>
      <trkpt lat="49.307655" lon="7.113881">
        <ele>346.602740</ele>
        <time>2021-10-04T10:22:25.240Z</time>
      </trkpt>
      <trkpt lat="49.307583" lon="7.113786">
        <ele>346.464137</ele>
        <time>2021-10-04T10:22:37.237Z</time>
      </trkpt>
      <trkpt lat="49.307487" lon="7.113727">
        <ele>346.313211</ele>
        <time>2021-10-04T10:22:47.245Z</time>
      </trkpt>
      <trkpt lat="49.307387" lon="7.113649">
        <ele>346.149488</ele>
        <time>2021-10-04T10:22:59.210Z</time>
      </trkpt>
      <trkpt lat="49.307314" lon="7.113553">
        <ele>346.009157</ele>
        <time>2021-10-04T10:23:04.237Z</time>
      </trkpt>
      <trkpt lat="49.307223" lon="7.113464">
        <ele>345.851654</ele>
        <time>2021-10-04T10:23:20.241Z</time>
      </trkpt>
      <trkpt lat="49.307149" lon="7.113351">
        <ele>345.699264</ele>
        <time>2021-10-04T10:23:25.221Z</time>
      </trkpt>
      <trkpt lat="49.307084" lon="7.113225">
        <ele>345.833779</ele>
        <time>2021-10-04T10:23:28.256Z</time>
      </trkpt>
      <trkpt lat="49.307019" lon="7.113118">
        <ele>345.971123</ele>
        <time>2021-10-04T10:23:33.225Z</time>
      </trkpt>
      <trkpt lat="49.306964" lon="7.113003">
        <ele>346.105064</ele>
        <time>2021-10-04T10:23:37.252Z</time>
      </trkpt>
      <trkpt lat="49.306889" lon="7.112886">
        <ele>346.259153</ele>
        <time>2021-10-04T10:23:42.271Z</time>
      </trkpt>
      <trkpt lat="49.306842" lon="7.112751">
        <ele>346.402879</ele>
        <time>2021-10-04T10:23:48.246Z</time>
      </trkpt>
      <trkpt lat="49.306806" lon="7.112596">
        <ele>346.557405</ele>
        <time>2021-10-04T10:23:54.243Z</time>
      </trkpt>
      <trkpt lat="49.306783" lon="7.112434">
        <ele>346.713111</ele>
        <time>2021-10-04T10:24:00.237Z</time>
      </trkpt>
      <trkpt lat="49.306813" lon="7.112278">
        <ele>346.865856</ele>
        <time>2021-10-04T10:24:06.238Z</time>
      </trkpt>
      <trkpt lat="49.306829" lon="7.112133">
        <ele>347.003968</ele>
        <time>2021-10-04T10:24:12.267Z</time>
      </trkpt>
      <trkpt lat="49.306870" lon="7.111980">
        <ele>347.159319</ele>
        <time>2021-10-04T10:24:19.294Z</time>
      </trkpt>
      <trkpt lat="49.306959" lon="7.111901">
        <ele>347.307434</ele>
        <time>2021-10-04T10:24:25.253Z</time>
      </trkpt>
      <trkpt lat="49.307037" lon="7.111765">
        <ele>347.477538</ele>
        <time>2021-10-04T10:24:33.225Z</time>
      </trkpt>
      <trkpt lat="49.307080" lon="7.111632">
        <ele>347.616956</ele>
        <time>2021-10-04T10:24:39.249Z</time>
      </trkpt>
      <trkpt lat="49.307129" lon="7.111506">
        <ele>347.754736</ele>
        <time>2021-10-04T10:24:49.253Z</time>
      </trkpt>
      <trkpt lat="49.307123" lon="7.111359">
        <ele>347.893059</ele>
        <time>2021-10-04T10:24:54.265Z</time>
      </trkpt>
      <trkpt lat="49.307107" lon="7.111218">
        <ele>348.027468</ele>
        <time>2021-10-04T10:25:02.253Z</time>
      </trkpt>
      <trkpt lat="49.307103" lon="7.111076">
        <ele>348.160949</ele>
        <time>2021-10-04T10:25:10.240Z</time>
      </trkpt>
      <trkpt lat="49.307083" lon="7.110924">
        <ele>348.202113</ele>
        <time>2021-10-04T10:25:14.248Z</time>
      </trkpt>
      <trkpt lat="49.307058" lon="7.110764">
        <ele>347.706398</ele>
        <time>2021-10-04T10:25:20.235Z</time>
      </trkpt>
      <trkpt lat="49.307055" lon="7.110627">
        <ele>347.293395</ele>
        <time>2021-10-04T10:25:27.237Z</time>
      </trkpt>
      <trkpt lat="49.307079" lon="7.110488">
        <ele>346.860164</ele>
        <time>2021-10-04T10:25:37.263Z</time>
      </trkpt>
      <trkpt lat="49.307100" lon="7.110352">
        <ele>346.439074</ele>
        <time>2021-10-04T10:25:47.266Z</time>
      </trkpt>
      <trkpt lat="49.307082" lon="7.110183">
        <ele>345.923142</ele>
        <time>2021-10-04T10:25:56.245Z</time>
      </trkpt>
      <trkpt lat="49.307064" lon="7.110030">
        <ele>345.454722</ele>
        <time>2021-10-04T10:26:03.214Z</time>
      </trkpt>
      <trkpt lat="49.307020" lon="7.109896">
        <ele>345.002683</ele>
        <time>2021-10-04T10:26:09.249Z</time>
      </trkpt>
      <trkpt lat="49.306944" lon="7.109795">
        <ele>344.537989</ele>
        <time>2021-10-04T10:26:17.242Z</time>
      </trkpt>
      <trkpt lat="49.306866" lon="7.109676">
        <ele>344.029594</ele>
        <time>2021-10-04T10:26:24.227Z</time>
      </trkpt>
      <trkpt lat="49.306814" lon="7.109562">
        <ele>343.610411</ele>
        <time>2021-10-04T10:26:30.251Z</time>
      </trkpt>
      <trkpt lat="49.306779" lon="7.109433">
        <ele>343.189434</ele>
        <time>2021-10-04T10:26:37.232Z</time>
      </trkpt>
      <trkpt lat="49.306761" lon="7.109271">
        <ele>342.694302</ele>
        <time>2021-10-04T10:26:45.260Z</time>
      </trkpt>
      <trkpt lat="49.306772" lon="7.109093">
        <ele>342.155596</ele>
        <time>2021-10-04T10:26:51.247Z</time>
      </trkpt>
      <trkpt lat="49.306763" lon="7.108940">
        <ele>341.692745</ele>
        <time>2021-10-04T10:26:59.249Z</time>
      </trkpt>
      <trkpt lat="49.306802" lon="7.108808">
        <ele>341.256110</ele>
        <time>2021-10-04T10:27:10.230Z</time>
      </trkpt>
      <trkpt lat="49.306868" lon="7.108693">
        <ele>340.794515</ele>
        <time>2021-10-04T10:27:17.211Z</time>
      </trkpt>
      <trkpt lat="49.306920" lon="7.108580">
        <ele>340.377798</ele>
        <time>2021-10-04T10:27:27.235Z</time>
      </trkpt>
      <trkpt lat="49.306928" lon="7.108409">
        <ele>339.860454</ele>
        <time>2021-10-04T10:27:33.244Z</time>
      </trkpt>
      <trkpt lat="49.306913" lon="7.108256">
        <ele>339.390834</ele>
        <time>2021-10-04T10:27:38.274Z</time>
      </trkpt>
      <trkpt lat="49.306836" lon="7.108182">
        <ele>338.967817</ele>
        <time>2021-10-04T10:27:45.238Z</time>
      </trkpt>
      <trkpt lat="49.306747" lon="7.108140">
        <ele>338.534326</ele>
        <time>2021-10-04T10:27:51.252Z</time>
      </trkpt>
      <trkpt lat="49.306657" lon="7.108122">
        <ele>338.111801</ele>
        <time>2021-10-04T10:27:56.245Z</time>
      </trkpt>
      <trkpt lat="49.306566" lon="7.108143">
        <ele>337.683399</ele>
        <time>2021-10-04T10:28:01.257Z</time>
      </trkpt>
      <trkpt lat="49.306463" lon="7.108191">
        <ele>337.182257</ele>
        <time>2021-10-04T10:28:07.214Z</time>
      </trkpt>
      <trkpt lat="49.306367" lon="7.108194">
        <ele>336.735254</ele>
        <time>2021-10-04T10:28:13.250Z</time>
      </trkpt>
      <trkpt lat="49.306285" lon="7.108261">
        <ele>336.302727</ele>
        <time>2021-10-04T10:28:19.248Z</time>
      </trkpt>
      <trkpt lat="49.306204" lon="7.108333">
        <ele>335.866894</ele>
        <time>2021-10-04T10:28:27.255Z</time>
      </trkpt>
      <trkpt lat="49.306123" lon="7.108394">
        <ele>335.446808</ele>
        <time>2021-10-04T10:28:33.245Z</time>
      </trkpt>
      <trkpt lat="49.306020" lon="7.108374">
        <ele>334.963484</ele>
        <time>2021-10-04T10:28:42.239Z</time>
      </trkpt>
      <trkpt lat="49.305927" lon="7.108337">
        <ele>334.516211</ele>
        <time>2021-10-04T10:28:49.233Z</time>
      </trkpt>
      <trkpt lat="49.305857" lon="7.108232">
        <ele>334.060393</ele>
        <time>2021-10-04T10:28:58.253Z</time>
      </trkpt>
      <trkpt lat="49.305789" lon="7.108125">
        <ele>333.606857</ele>
        <time>2021-10-04T10:29:08.197Z</time>
      </trkpt>
      <trkpt lat="49.305708" lon="7.108020">
        <ele>333.113129</ele>
        <time>2021-10-04T10:29:16.260Z</time>
      </trkpt>
      <trkpt lat="49.305647" lon="7.107917">
        <ele>332.690771</ele>
        <time>2021-10-04T10:29:22.234Z</time>
      </trkpt>
      <trkpt lat="49.305570" lon="7.107828">
        <ele>332.241914</ele>
        <time>2021-10-04T10:29:29.249Z</time>
      </trkpt>
      <trkpt lat="49.305495" lon="7.107733">
        <ele>331.789082</ele>
        <time>2021-10-04T10:29:38.240Z</time>
      </trkpt>
      <trkpt lat="49.305421" lon="7.107648">
        <ele>331.579927</ele>
        <time>2021-10-04T10:29:45.249Z</time>
      </trkpt>
      <trkpt lat="49.305358" lon="7.107550">
        <ele>331.550031</ele>
        <time>2021-10-04T10:29:58.216Z</time>
      </trkpt>
      <trkpt lat="49.305251" lon="7.107472">
        <ele>331.510560</ele>
        <time>2021-10-04T10:30:06.234Z</time>
      </trkpt>
      <trkpt lat="49.305155" lon="7.107419">
        <ele>331.476567</ele>
        <time>2021-10-04T10:30:11.236Z</time>
      </trkpt>
      <trkpt lat="49.305049" lon="7.107382">
        <ele>331.440348</ele>
        <time>2021-10-04T10:30:17.227Z</time>
      </trkpt>
      <trkpt lat="49.304959" lon="7.107318">
        <ele>331.407297</ele>
        <time>2021-10-04T10:30:23.245Z</time>
      </trkpt>
      <trkpt lat="49.304866" lon="7.107288">
        <ele>331.375634</ele>
        <time>2021-10-04T10:30:29.290Z</time>
      </trkpt>
      <trkpt lat="49.304772" lon="7.107270">
        <ele>331.344073</ele>
        <time>2021-10-04T10:30:36.191Z</time>
      </trkpt>
      <trkpt lat="49.304681" lon="7.107260">
        <ele>331.313677</ele>
        <time>2021-10-04T10:30:45.235Z</time>
      </trkpt>
      <trkpt lat="49.304510" lon="7.107392">
        <ele>331.249896</ele>
        <time>2021-10-04T10:31:04.244Z</time>
      </trkpt>
      <trkpt lat="49.304412" lon="7.107397">
        <ele>331.217227</ele>
        <time>2021-10-04T10:31:15.202Z</time>
      </trkpt>
      <trkpt lat="49.304322" lon="7.107339">
        <ele>331.184703</ele>
        <time>2021-10-04T10:31:26.226Z</time>
      </trkpt>
      <trkpt lat="49.304264" lon="7.107230">
        <ele>331.154140</ele>
        <time>2021-10-04T10:31:39.181Z</time>
      </trkpt>
      <trkpt lat="49.304263" lon="7.107077">
        <ele>331.120900</ele>
        <time>2021-10-04T10:31:49.204Z</time>
      </trkpt>
      <trkpt lat="49.304294" lon="7.106908">
        <ele>331.082762</ele>
        <time>2021-10-04T10:31:57.260Z</time>
      </trkpt>
      <trkpt lat="49.304324" lon="7.106752">
        <ele>331.047429</ele>
        <time>2021-10-04T10:32:03.166Z</time>
      </trkpt>
      <trkpt lat="49.304323" lon="7.106613">
        <ele>331.017231</ele>
        <time>2021-10-04T10:32:11.187Z</time>
      </trkpt>
      <trkpt lat="49.304336" lon="7.106440">
        <ele>330.949812</ele>
        <time>2021-10-04T10:32:19.162Z</time>
      </trkpt>
      <trkpt lat="49.304325" lon="7.106271">
        <ele>330.853367</ele>
        <time>2021-10-04T10:32:26.173Z</time>
      </trkpt>
      <trkpt lat="49.304267" lon="7.106123">
        <ele>330.755311</ele>
        <time>2021-10-04T10:32:32.198Z</time>
      </trkpt>
      <trkpt lat="49.304219" lon="7.105964">
        <ele>330.655814</ele>
        <time>2021-10-04T10:32:38.239Z</time>
      </trkpt>
      <trkpt lat="49.304193" lon="7.105825">
        <ele>330.573697</ele>
        <time>2021-10-04T10:32:42.225Z</time>
      </trkpt>
      <trkpt lat="49.304188" lon="7.105672">
        <ele>330.486704</ele>
        <time>2021-10-04T10:32:49.225Z</time>
      </trkpt>
      <trkpt lat="49.304126" lon="7.105533">
        <ele>330.391070</ele>
        <time>2021-10-04T10:32:55.234Z</time>
      </trkpt>
      <trkpt lat="49.304099" lon="7.105399">
        <ele>330.311426</ele>
        <time>2021-10-04T10:33:03.179Z</time>
      </trkpt>
      <trkpt lat="49.304073" lon="7.105244">
        <ele>330.220541</ele>
        <time>2021-10-04T10:33:15.250Z</time>
      </trkpt>
      <trkpt lat="49.304019" lon="7.105118">
        <ele>330.134918</ele>
        <time>2021-10-04T10:33:23.228Z</time>
      </trkpt>
      <trkpt lat="49.303978" lon="7.104989">
        <ele>330.053424</ele>
        <time>2021-10-04T10:33:29.248Z</time>
      </trkpt>
      <trkpt lat="49.303924" lon="7.104871">
        <ele>329.971559</ele>
        <time>2021-10-04T10:33:38.207Z</time>
      </trkpt>
      <trkpt lat="49.303880" lon="7.104741">
        <ele>329.888384</ele>
        <time>2021-10-04T10:33:46.223Z</time>
      </trkpt>
      <trkpt lat="49.303845" lon="7.104601">
        <ele>329.803239</ele>
        <time>2021-10-04T10:33:51.200Z</time>
      </trkpt>
      <trkpt lat="49.303613" lon="7.103767">
        <ele>329.571761</ele>
        <time>2021-10-04T10:36:43.174Z</time>
      </trkpt>
      <trkpt lat="49.303585" lon="7.103624">
        <ele>329.655072</ele>
        <time>2021-10-04T10:36:48.158Z</time>
      </trkpt>
      <trkpt lat="49.303518" lon="7.103528">
        <ele>329.733536</ele>
        <time>2021-10-04T10:36:53.229Z</time>
      </trkpt>
      <trkpt lat="49.303485" lon="7.103384">
        <ele>329.818703</ele>
        <time>2021-10-04T10:36:59.195Z</time>
      </trkpt>
      <trkpt lat="49.303454" lon="7.103252">
        <ele>329.896989</ele>
        <time>2021-10-04T10:37:05.214Z</time>
      </trkpt>
      <trkpt lat="49.303456" lon="7.103114">
        <ele>329.974009</ele>
        <time>2021-10-04T10:37:12.205Z</time>
      </trkpt>
      <trkpt lat="49.303463" lon="7.102970">
        <ele>330.054582</ele>
        <time>2021-10-04T10:37:17.216Z</time>
      </trkpt>
      <trkpt lat="49.303431" lon="7.102743">
        <ele>330.184170</ele>
        <time>2021-10-04T10:37:53.233Z</time>
      </trkpt>
      <trkpt lat="49.303449" lon="7.102607">
        <ele>330.261604</ele>
        <time>2021-10-04T10:37:59.221Z</time>
      </trkpt>
      <trkpt lat="49.303477" lon="7.102473">
        <ele>330.340119</ele>
        <time>2021-10-04T10:38:13.209Z</time>
      </trkpt>
      <trkpt lat="49.303486" lon="7.102335">
        <ele>330.417505</ele>
        <time>2021-10-04T10:38:24.210Z</time>
      </trkpt>
      <trkpt lat="49.303512" lon="7.102178">
        <ele>330.507889</ele>
        <time>2021-10-04T10:38:34.215Z</time>
      </trkpt>
      <trkpt lat="49.303523" lon="7.102040">
        <ele>330.585464</ele>
        <time>2021-10-04T10:38:37.221Z</time>
      </trkpt>
      <trkpt lat="49.303524" lon="7.101893">
        <ele>330.667492</ele>
        <time>2021-10-04T10:38:40.217Z</time>
      </trkpt>
      <trkpt lat="49.303507" lon="7.101749">
        <ele>330.749148</ele>
        <time>2021-10-04T10:38:43.237Z</time>
      </trkpt>
      <trkpt lat="49.303491" lon="7.101597">
        <ele>330.835059</ele>
        <time>2021-10-04T10:38:46.201Z</time>
      </trkpt>
      <trkpt lat="49.303482" lon="7.101457">
        <ele>330.913555</ele>
        <time>2021-10-04T10:38:50.201Z</time>
      </trkpt>
      <trkpt lat="49.303465" lon="7.101305">
        <ele>331.069928</ele>
        <time>2021-10-04T10:38:57.144Z</time>
      </trkpt>
      <trkpt lat="49.303447" lon="7.101168">
        <ele>331.335997</ele>
        <time>2021-10-04T10:39:04.205Z</time>
      </trkpt>
      <trkpt lat="49.303455" lon="7.101016">
        <ele>331.626323</ele>
        <time>2021-10-04T10:39:10.173Z</time>
      </trkpt>
      <trkpt lat="49.303453" lon="7.100875">
        <ele>331.894828</ele>
        <time>2021-10-04T10:39:18.162Z</time>
      </trkpt>
      <trkpt lat="49.303431" lon="7.100729">
        <ele>332.180115</ele>
        <time>2021-10-04T10:39:24.224Z</time>
      </trkpt>
      <trkpt lat="49.303404" lon="7.100588">
        <ele>332.459894</ele>
        <time>2021-10-04T10:39:32.211Z</time>
      </trkpt>
      <trkpt lat="49.303366" lon="7.100440">
        <ele>332.762721</ele>
        <time>2021-10-04T10:39:38.202Z</time>
      </trkpt>
      <trkpt lat="49.303309" lon="7.100319">
        <ele>333.046915</ele>
        <time>2021-10-04T10:39:44.221Z</time>
      </trkpt>
      <trkpt lat="49.303260" lon="7.100201">
        <ele>333.313258</ele>
        <time>2021-10-04T10:39:51.209Z</time>
      </trkpt>
      <trkpt lat="49.303216" lon="7.100072">
        <ele>333.590426</ele>
        <time>2021-10-04T10:39:59.211Z</time>
      </trkpt>
      <trkpt lat="49.303152" lon="7.099943">
        <ele>333.899031</ele>
        <time>2021-10-04T10:40:07.214Z</time>
      </trkpt>
      <trkpt lat="49.303087" lon="7.099836">
        <ele>334.177450</ele>
        <time>2021-10-04T10:40:12.227Z</time>
      </trkpt>
      <trkpt lat="49.303030" lon="7.099716">
        <ele>334.460105</ele>
        <time>2021-10-04T10:40:21.217Z</time>
      </trkpt>
      <trkpt lat="49.302986" lon="7.099577">
        <ele>334.754277</ele>
        <time>2021-10-04T10:40:28.203Z</time>
      </trkpt>
      <trkpt lat="49.302947" lon="7.099442">
        <ele>335.035394</ele>
        <time>2021-10-04T10:40:33.247Z</time>
      </trkpt>
      <trkpt lat="49.302918" lon="7.099309">
        <ele>335.302390</ele>
        <time>2021-10-04T10:40:38.257Z</time>
      </trkpt>
      <trkpt lat="49.302885" lon="7.099164">
        <ele>335.594782</ele>
        <time>2021-10-04T10:40:45.237Z</time>
      </trkpt>
      <trkpt lat="49.302868" lon="7.099012">
        <ele>335.888396</ele>
        <time>2021-10-04T10:40:51.216Z</time>
      </trkpt>
      <trkpt lat="49.302838" lon="7.098868">
        <ele>336.176206</ele>
        <time>2021-10-04T10:40:58.191Z</time>
      </trkpt>
      <trkpt lat="49.302809" lon="7.098733">
        <ele>336.373486</ele>
        <time>2021-10-04T10:41:04.242Z</time>
      </trkpt>
      <trkpt lat="49.302788" lon="7.098588">
        <ele>336.564001</ele>
        <time>2021-10-04T10:41:11.199Z</time>
      </trkpt>
      <trkpt lat="49.302772" lon="7.098442">
        <ele>336.753893</ele>
        <time>2021-10-04T10:41:17.222Z</time>
      </trkpt>
      <trkpt lat="49.302738" lon="7.098296">
        <ele>336.952743</ele>
        <time>2021-10-04T10:41:24.227Z</time>
      </trkpt>
      <trkpt lat="49.302720" lon="7.098155">
        <ele>337.137028</ele>
        <time>2021-10-04T10:41:32.198Z</time>
      </trkpt>
      <trkpt lat="49.302743" lon="7.098020">
        <ele>337.315998</ele>
        <time>2021-10-04T10:41:39.193Z</time>
      </trkpt>
      <trkpt lat="49.302766" lon="7.097881">
        <ele>337.499936</ele>
        <time>2021-10-04T10:41:47.224Z</time>
      </trkpt>
      <trkpt lat="49.302777" lon="7.097735">
        <ele>337.688447</ele>
        <time>2021-10-04T10:41:54.218Z</time>
      </trkpt>
      <trkpt lat="49.302800" lon="7.097587">
        <ele>337.883595</ele>
        <time>2021-10-04T10:42:02.205Z</time>
      </trkpt>
      <trkpt lat="49.302831" lon="7.097443">
        <ele>338.078101</ele>
        <time>2021-10-04T10:42:13.229Z</time>
      </trkpt>
      <trkpt lat="49.302871" lon="7.097313">
        <ele>338.262476</ele>
        <time>2021-10-04T10:42:25.247Z</time>
      </trkpt>
      <trkpt lat="49.302913" lon="7.097182">
        <ele>338.449714</ele>
        <time>2021-10-04T10:42:30.238Z</time>
      </trkpt>
      <trkpt lat="49.302948" lon="7.097034">
        <ele>338.651643</ele>
        <time>2021-10-04T10:42:34.259Z</time>
      </trkpt>
      <trkpt lat="49.302957" lon="7.096895">
        <ele>338.830806</ele>
        <time>2021-10-04T10:42:38.219Z</time>
      </trkpt>
      <trkpt lat="49.302991" lon="7.096759">
        <ele>339.017626</ele>
        <time>2021-10-04T10:42:43.284Z</time>
      </trkpt>
      <trkpt lat="49.303048" lon="7.096643">
        <ele>339.203928</ele>
        <time>2021-10-04T10:42:49.215Z</time>
      </trkpt>
      <trkpt lat="49.303120" lon="7.096539">
        <ele>339.398485</ele>
        <time>2021-10-04T10:42:56.223Z</time>
      </trkpt>
      <trkpt lat="49.303194" lon="7.096438">
        <ele>339.593345</ele>
        <time>2021-10-04T10:43:04.220Z</time>
      </trkpt>
      <trkpt lat="49.303276" lon="7.096360">
        <ele>339.668849</ele>
        <time>2021-10-04T10:43:12.221Z</time>
      </trkpt>
      <trkpt lat="49.303351" lon="7.096264">
        <ele>338.907729</ele>
        <time>2021-10-04T10:43:19.252Z</time>
      </trkpt>
      <trkpt lat="49.303439" lon="7.096198">
        <ele>338.144512</ele>
        <time>2021-10-04T10:43:25.235Z</time>
      </trkpt>
      <trkpt lat="49.303517" lon="7.096123">
        <ele>337.427236</ele>
        <time>2021-10-04T10:43:31.205Z</time>
      </trkpt>
      <trkpt lat="49.303590" lon="7.096014">
        <ele>336.633439</ele>
        <time>2021-10-04T10:43:39.228Z</time>
      </trkpt>
      <trkpt lat="49.303645" lon="7.095892">
        <ele>335.879941</ele>
        <time>2021-10-04T10:43:46.226Z</time>
      </trkpt>
      <trkpt lat="49.303722" lon="7.095790">
        <ele>335.087215</ele>
        <time>2021-10-04T10:43:53.234Z</time>
      </trkpt>
      <trkpt lat="49.303786" lon="7.095693">
        <ele>334.386168</ele>
        <time>2021-10-04T10:43:59.227Z</time>
      </trkpt>
      <trkpt lat="49.303857" lon="7.095571">
        <ele>333.555427</ele>
        <time>2021-10-04T10:44:05.218Z</time>
      </trkpt>
      <trkpt lat="49.303918" lon="7.095463">
        <ele>332.829548</ele>
        <time>2021-10-04T10:44:14.236Z</time>
      </trkpt>
      <trkpt lat="49.303976" lon="7.095334">
        <ele>332.033509</ele>
        <time>2021-10-04T10:44:22.229Z</time>
      </trkpt>
      <trkpt lat="49.304039" lon="7.095217">
        <ele>331.262656</ele>
        <time>2021-10-04T10:44:27.249Z</time>
      </trkpt>
      <trkpt lat="49.304103" lon="7.095102">
        <ele>330.494575</ele>
        <time>2021-10-04T10:44:33.271Z</time>
      </trkpt>
      <trkpt lat="49.304160" lon="7.094996">
        <ele>329.796578</ele>
        <time>2021-10-04T10:44:39.263Z</time>
      </trkpt>
      <trkpt lat="49.304211" lon="7.094882">
        <ele>329.094234</ele>
        <time>2021-10-04T10:44:45.229Z</time>
      </trkpt>
      <trkpt lat="49.304278" lon="7.094774">
        <ele>328.336926</ele>
        <time>2021-10-04T10:44:51.245Z</time>
      </trkpt>
      <trkpt lat="49.304350" lon="7.094649">
        <ele>327.489620</ele>
        <time>2021-10-04T10:44:58.244Z</time>
      </trkpt>
      <trkpt lat="49.304415" lon="7.094554">
        <ele>326.790062</ele>
        <time>2021-10-04T10:45:04.234Z</time>
      </trkpt>
      <trkpt lat="49.304480" lon="7.094457">
        <ele>326.083456</ele>
        <time>2021-10-04T10:45:11.212Z</time>
      </trkpt>
      <trkpt lat="49.304554" lon="7.094361">
        <ele>325.746620</ele>
        <time>2021-10-04T10:45:17.260Z</time>
      </trkpt>
      <trkpt lat="49.304611" lon="7.094249">
        <ele>325.746620</ele>
        <time>2021-10-04T10:45:23.268Z</time>
      </trkpt>
      <trkpt lat="49.304656" lon="7.094122">
        <ele>325.746620</ele>
        <time>2021-10-04T10:45:30.230Z</time>
      </trkpt>
      <trkpt lat="49.304681" lon="7.093971">
        <ele>325.746620</ele>
        <time>2021-10-04T10:45:38.233Z</time>
      </trkpt>
      <trkpt lat="49.304669" lon="7.093826">
        <ele>325.746620</ele>
        <time>2021-10-04T10:45:45.133Z</time>
      </trkpt>
      <trkpt lat="49.304667" lon="7.093660">
        <ele>325.746620</ele>
        <time>2021-10-04T10:45:52.154Z</time>
      </trkpt>
      <trkpt lat="49.304673" lon="7.093506">
        <ele>325.746620</ele>
        <time>2021-10-04T10:45:59.174Z</time>
      </trkpt>
      <trkpt lat="49.304677" lon="7.093358">
        <ele>325.746620</ele>
        <time>2021-10-04T10:46:06.214Z</time>
      </trkpt>
      <trkpt lat="49.304686" lon="7.093218">
        <ele>325.746620</ele>
        <time>2021-10-04T10:46:13.172Z</time>
      </trkpt>
      <trkpt lat="49.304708" lon="7.093066">
        <ele>325.746620</ele>
        <time>2021-10-04T10:46:21.200Z</time>
      </trkpt>
      <trkpt lat="49.304795" lon="7.092966">
        <ele>325.746620</ele>
        <time>2021-10-04T10:46:28.190Z</time>
      </trkpt>
      <trkpt lat="49.304880" lon="7.093052">
        <ele>325.746620</ele>
        <time>2021-10-04T10:46:34.185Z</time>
      </trkpt>
      <trkpt lat="49.304956" lon="7.093129">
        <ele>325.746620</ele>
        <time>2021-10-04T10:46:40.212Z</time>
      </trkpt>
      <trkpt lat="49.305049" lon="7.093170">
        <ele>325.746620</ele>
        <time>2021-10-04T10:46:48.237Z</time>
      </trkpt>
      <trkpt lat="49.305149" lon="7.093139">
        <ele>325.746620</ele>
        <time>2021-10-04T10:46:58.178Z</time>
      </trkpt>
      <trkpt lat="49.305228" lon="7.093074">
        <ele>325.746620</ele>
        <time>2021-10-04T10:47:03.251Z</time>
      </trkpt>
      <trkpt lat="49.305301" lon="7.092977">
        <ele>325.746620</ele>
        <time>2021-10-04T10:47:09.204Z</time>
      </trkpt>
      <trkpt lat="49.305202" lon="7.093068">
        <ele>325.746620</ele>
        <time>2021-10-04T10:47:38.205Z</time>
      </trkpt>
      <trkpt lat="49.305101" lon="7.093154">
        <ele>325.746620</ele>
        <time>2021-10-04T10:47:42.137Z</time>
      </trkpt>
      <trkpt lat="49.304998" lon="7.093155">
        <ele>325.746620</ele>
        <time>2021-10-04T10:47:46.144Z</time>
      </trkpt>
      <trkpt lat="49.304948" lon="7.093126">
        <ele>325.746620</ele>
        <time>2021-10-04T10:47:48.755Z</time>
      </trkpt>
    </trkseg>
  </trk>
</gpx>