<?xml version='1.0' encoding='UTF-8'?>
<gpx version="1.1" creator="https://www.komoot.de" xmlns="http://www.topografix.com/GPX/1/1" xmlns:xsi="http://www.w3.org/2001/XMLSchema-instance" xsi:schemaLocation="http://www.topografix.com/GPX/1/1 http://www.topografix.com/GPX/1/1/gpx.xsd">
  <metadata>
    <name>PWW CFK Spiesen 11km</name>
    <author>
      <link href="https://www.komoot.de">
        <text>komoot</text>
        <type>text/html</type>
      </link>
    </author>
  </metadata>
  <trk>
    <name>PWW CFK Spiesen 11km</name>
    <trkseg>
      <trkpt lat="49.310049" lon="7.168023">
        <ele>337.546977</ele>
        <time>2021-10-20T19:15:10.078Z</time>
      </trkpt>
      <trkpt lat="49.310049" lon="7.168023">
        <ele>337.546977</ele>
        <time>2021-10-20T19:15:10.095Z</time>
      </trkpt>
      <trkpt lat="49.309989" lon="7.167949">
        <ele>337.546977</ele>
        <time>2021-10-20T19:15:17.801Z</time>
      </trkpt>
      <trkpt lat="49.309972" lon="7.167806">
        <ele>337.546977</ele>
        <time>2021-10-20T19:15:27.349Z</time>
      </trkpt>
      <trkpt lat="49.309986" lon="7.167676">
        <ele>337.546977</ele>
        <time>2021-10-20T19:15:35.960Z</time>
      </trkpt>
      <trkpt lat="49.309986" lon="7.167676">
        <ele>337.546977</ele>
        <time>2021-10-20T19:15:36.088Z</time>
      </trkpt>
      <trkpt lat="49.309986" lon="7.167676">
        <ele>337.546977</ele>
        <time>2021-10-20T19:15:36.277Z</time>
      </trkpt>
      <trkpt lat="49.309748" lon="7.167847">
        <ele>337.546977</ele>
        <time>2021-10-20T19:16:03.111Z</time>
      </trkpt>
      <trkpt lat="49.309509" lon="7.168000">
        <ele>337.546977</ele>
        <time>2021-10-20T19:16:30.238Z</time>
      </trkpt>
      <trkpt lat="49.309410" lon="7.168061">
        <ele>337.546977</ele>
        <time>2021-10-20T19:16:41.396Z</time>
      </trkpt>
      <trkpt lat="49.309324" lon="7.168149">
        <ele>337.656686</ele>
        <time>2021-10-20T19:16:52.684Z</time>
      </trkpt>
      <trkpt lat="49.308597" lon="7.168684">
        <ele>338.637297</ele>
        <time>2021-10-20T19:18:17.024Z</time>
      </trkpt>
      <trkpt lat="49.308476" lon="7.168831">
        <ele>338.825015</ele>
        <time>2021-10-20T19:18:33.126Z</time>
      </trkpt>
      <trkpt lat="49.308389" lon="7.168958">
        <ele>338.971076</ele>
        <time>2021-10-20T19:18:46.351Z</time>
      </trkpt>
      <trkpt lat="49.308054" lon="7.169191">
        <ele>339.418406</ele>
        <time>2021-10-20T19:19:25.044Z</time>
      </trkpt>
      <trkpt lat="49.307730" lon="7.169278">
        <ele>339.672822</ele>
        <time>2021-10-20T19:19:59.163Z</time>
      </trkpt>
      <trkpt lat="49.306685" lon="7.170025">
        <ele>338.647188</ele>
        <time>2021-10-20T19:21:54.685Z</time>
      </trkpt>
      <trkpt lat="49.305589" lon="7.170650">
        <ele>335.659187</ele>
        <time>2021-10-20T19:23:59.047Z</time>
      </trkpt>
      <trkpt lat="49.305142" lon="7.170709">
        <ele>333.785748</ele>
        <time>2021-10-20T19:24:48.504Z</time>
      </trkpt>
      <trkpt lat="49.304582" lon="7.171207">
        <ele>331.082682</ele>
        <time>2021-10-20T19:25:59.611Z</time>
      </trkpt>
      <trkpt lat="49.304228" lon="7.171527">
        <ele>329.436883</ele>
        <time>2021-10-20T19:26:44.716Z</time>
      </trkpt>
      <trkpt lat="49.304102" lon="7.171605">
        <ele>328.901129</ele>
        <time>2021-10-20T19:26:59.599Z</time>
      </trkpt>
      <trkpt lat="49.304000" lon="7.171643">
        <ele>328.487254</ele>
        <time>2021-10-20T19:27:10.956Z</time>
      </trkpt>
      <trkpt lat="49.304000" lon="7.171643">
        <ele>328.487254</ele>
        <time>2021-10-20T19:27:11.163Z</time>
      </trkpt>
      <trkpt lat="49.303879" lon="7.171643">
        <ele>328.010160</ele>
        <time>2021-10-20T19:27:24.423Z</time>
      </trkpt>
      <trkpt lat="49.302918" lon="7.171060">
        <ele>323.935318</ele>
        <time>2021-10-20T19:29:15.751Z</time>
      </trkpt>
      <trkpt lat="49.302873" lon="7.171033">
        <ele>323.744791</ele>
        <time>2021-10-20T19:29:20.904Z</time>
      </trkpt>
      <trkpt lat="49.302888" lon="7.171026">
        <ele>323.682969</ele>
        <time>2021-10-20T19:29:22.880Z</time>
      </trkpt>
      <trkpt lat="49.302873" lon="7.171033">
        <ele>323.621148</ele>
        <time>2021-10-20T19:29:24.778Z</time>
      </trkpt>
      <trkpt lat="49.302775" lon="7.170852">
        <ele>323.145217</ele>
        <time>2021-10-20T19:29:40.915Z</time>
      </trkpt>
      <trkpt lat="49.302174" lon="7.169682">
        <ele>320.273680</ele>
        <time>2021-10-20T19:31:23.562Z</time>
      </trkpt>
      <trkpt lat="49.301901" lon="7.168974">
        <ele>318.687888</ele>
        <time>2021-10-20T19:32:21.349Z</time>
      </trkpt>
      <trkpt lat="49.301622" lon="7.168177">
        <ele>317.768438</ele>
        <time>2021-10-20T19:33:23.367Z</time>
      </trkpt>
      <trkpt lat="49.301208" lon="7.167504">
        <ele>317.142896</ele>
        <time>2021-10-20T19:34:25.138Z</time>
      </trkpt>
      <trkpt lat="49.301037" lon="7.167232">
        <ele>316.887444</ele>
        <time>2021-10-20T19:34:49.959Z</time>
      </trkpt>
      <trkpt lat="49.300981" lon="7.167172">
        <ele>316.816614</ele>
        <time>2021-10-20T19:34:57.139Z</time>
      </trkpt>
      <trkpt lat="49.301037" lon="7.167232">
        <ele>316.745783</ele>
        <time>2021-10-20T19:35:04.007Z</time>
      </trkpt>
      <trkpt lat="49.301028" lon="7.167002">
        <ele>316.589997</ele>
        <time>2021-10-20T19:35:19.587Z</time>
      </trkpt>
      <trkpt lat="49.301063" lon="7.166659">
        <ele>316.355268</ele>
        <time>2021-10-20T19:35:42.549Z</time>
      </trkpt>
      <trkpt lat="49.301203" lon="7.166369">
        <ele>316.233137</ele>
        <time>2021-10-20T19:36:06.680Z</time>
      </trkpt>
      <trkpt lat="49.301469" lon="7.166401">
        <ele>316.098373</ele>
        <time>2021-10-20T19:36:34.553Z</time>
      </trkpt>
      <trkpt lat="49.301951" lon="7.166873">
        <ele>315.809527</ele>
        <time>2021-10-20T19:37:32.781Z</time>
      </trkpt>
      <trkpt lat="49.302812" lon="7.167517">
        <ele>314.201330</ele>
        <time>2021-10-20T19:39:10.768Z</time>
      </trkpt>
      <trkpt lat="49.303323" lon="7.167463">
        <ele>311.406711</ele>
        <time>2021-10-20T19:40:08.040Z</time>
      </trkpt>
      <trkpt lat="49.303574" lon="7.167356">
        <ele>309.985337</ele>
        <time>2021-10-20T19:40:38.511Z</time>
      </trkpt>
      <trkpt lat="49.303721" lon="7.167120">
        <ele>308.824235</ele>
        <time>2021-10-20T19:41:03.140Z</time>
      </trkpt>
      <trkpt lat="49.303672" lon="7.166133">
        <ele>305.411006</ele>
        <time>2021-10-20T19:42:15.940Z</time>
      </trkpt>
      <trkpt lat="49.303733" lon="7.165554">
        <ele>304.021036</ele>
        <time>2021-10-20T19:42:58.392Z</time>
      </trkpt>
      <trkpt lat="49.303743" lon="7.165379">
        <ele>303.604714</ele>
        <time>2021-10-20T19:43:10.533Z</time>
      </trkpt>
      <trkpt lat="49.303840" lon="7.165009">
        <ele>302.659632</ele>
        <time>2021-10-20T19:43:38.558Z</time>
      </trkpt>
      <trkpt lat="49.303929" lon="7.164860">
        <ele>302.180753</ele>
        <time>2021-10-20T19:43:51.961Z</time>
      </trkpt>
      <trkpt lat="49.304086" lon="7.164689">
        <ele>301.480868</ele>
        <time>2021-10-20T19:44:12.931Z</time>
      </trkpt>
      <trkpt lat="49.304321" lon="7.164586">
        <ele>300.592554</ele>
        <time>2021-10-20T19:44:37.645Z</time>
      </trkpt>
      <trkpt lat="49.305093" lon="7.164740">
        <ele>297.117977</ele>
        <time>2021-10-20T19:46:01.430Z</time>
      </trkpt>
      <trkpt lat="49.305263" lon="7.164726">
        <ele>296.198362</ele>
        <time>2021-10-20T19:46:18.702Z</time>
      </trkpt>
      <trkpt lat="49.305412" lon="7.164714">
        <ele>295.392397</ele>
        <time>2021-10-20T19:46:34.081Z</time>
      </trkpt>
      <trkpt lat="49.305449" lon="7.164704">
        <ele>295.189454</ele>
        <time>2021-10-20T19:46:38.465Z</time>
      </trkpt>
      <trkpt lat="49.305354" lon="7.164676">
        <ele>294.666901</ele>
        <time>2021-10-20T19:46:49.878Z</time>
      </trkpt>
      <trkpt lat="49.305449" lon="7.164704">
        <ele>294.144348</ele>
        <time>2021-10-20T19:47:00.581Z</time>
      </trkpt>
      <trkpt lat="49.305508" lon="7.164643">
        <ele>293.759993</ele>
        <time>2021-10-20T19:47:08.473Z</time>
      </trkpt>
      <trkpt lat="49.305521" lon="7.164546">
        <ele>293.411211</ele>
        <time>2021-10-20T19:47:15.563Z</time>
      </trkpt>
      <trkpt lat="49.305516" lon="7.164414">
        <ele>292.945516</ele>
        <time>2021-10-20T19:47:26.508Z</time>
      </trkpt>
      <trkpt lat="49.305449" lon="7.164251">
        <ele>292.266864</ele>
        <time>2021-10-20T19:47:39.318Z</time>
      </trkpt>
      <trkpt lat="49.305263" lon="7.164062">
        <ele>291.061635</ele>
        <time>2021-10-20T19:48:05.745Z</time>
      </trkpt>
      <trkpt lat="49.303822" lon="7.163010">
        <ele>278.461566</ele>
        <time>2021-10-20T19:51:15.001Z</time>
      </trkpt>
      <trkpt lat="49.303354" lon="7.162796">
        <ele>274.309514</ele>
        <time>2021-10-20T19:52:11.258Z</time>
      </trkpt>
      <trkpt lat="49.302633" lon="7.162688">
        <ele>271.076809</ele>
        <time>2021-10-20T19:53:32.402Z</time>
      </trkpt>
      <trkpt lat="49.302500" lon="7.162350">
        <ele>269.968012</ele>
        <time>2021-10-20T19:54:00.450Z</time>
      </trkpt>
      <trkpt lat="49.302238" lon="7.160947">
        <ele>266.269137</ele>
        <time>2021-10-20T19:55:41.099Z</time>
      </trkpt>
      <trkpt lat="49.302203" lon="7.160201">
        <ele>265.974371</ele>
        <time>2021-10-20T19:56:31.411Z</time>
      </trkpt>
      <trkpt lat="49.302226" lon="7.159723">
        <ele>265.785474</ele>
        <time>2021-10-20T19:57:03.146Z</time>
      </trkpt>
      <trkpt lat="49.302531" lon="7.159057">
        <ele>265.464732</ele>
        <time>2021-10-20T19:57:56.509Z</time>
      </trkpt>
      <trkpt lat="49.302546" lon="7.158703">
        <ele>265.324924</ele>
        <time>2021-10-20T19:58:20.077Z</time>
      </trkpt>
      <trkpt lat="49.302618" lon="7.158368">
        <ele>265.473323</ele>
        <time>2021-10-20T19:58:43.934Z</time>
      </trkpt>
      <trkpt lat="49.302788" lon="7.158113">
        <ele>266.001941</ele>
        <time>2021-10-20T19:59:09.001Z</time>
      </trkpt>
      <trkpt lat="49.303367" lon="7.157682">
        <ele>267.432651</ele>
        <time>2021-10-20T20:00:18.653Z</time>
      </trkpt>
      <trkpt lat="49.303912" lon="7.157001">
        <ele>268.995391</ele>
        <time>2021-10-20T20:01:36.224Z</time>
      </trkpt>
      <trkpt lat="49.304119" lon="7.156958">
        <ele>269.293873</ele>
        <time>2021-10-20T20:01:59.573Z</time>
      </trkpt>
      <trkpt lat="49.304374" lon="7.157027">
        <ele>269.423440</ele>
        <time>2021-10-20T20:02:28.374Z</time>
      </trkpt>
      <trkpt lat="49.305045" lon="7.157634">
        <ele>269.813249</ele>
        <time>2021-10-20T20:03:50.021Z</time>
      </trkpt>
      <trkpt lat="49.305632" lon="7.157749">
        <ele>270.109357</ele>
        <time>2021-10-20T20:04:50.426Z</time>
      </trkpt>
      <trkpt lat="49.305893" lon="7.157700">
        <ele>269.214812</ele>
        <time>2021-10-20T20:05:18.321Z</time>
      </trkpt>
      <trkpt lat="49.305893" lon="7.157700">
        <ele>269.214812</ele>
        <time>2021-10-20T20:05:19.177Z</time>
      </trkpt>
      <trkpt lat="49.305893" lon="7.157700">
        <ele>269.214812</ele>
        <time>2021-10-20T20:05:20.426Z</time>
      </trkpt>
      <trkpt lat="49.305363" lon="7.157413">
        <ele>266.465932</ele>
        <time>2021-10-20T20:06:21.377Z</time>
      </trkpt>
      <trkpt lat="49.304643" lon="7.156545">
        <ele>261.986985</ele>
        <time>2021-10-20T20:08:04.445Z</time>
      </trkpt>
      <trkpt lat="49.303850" lon="7.156500">
        <ele>257.931198</ele>
        <time>2021-10-20T20:09:34.071Z</time>
      </trkpt>
      <trkpt lat="49.303005" lon="7.156990">
        <ele>253.274850</ele>
        <time>2021-10-20T20:11:13.874Z</time>
      </trkpt>
      <trkpt lat="49.302165" lon="7.158118">
        <ele>250.817695</ele>
        <time>2021-10-20T20:13:12.392Z</time>
      </trkpt>
      <trkpt lat="49.302038" lon="7.158451">
        <ele>250.459119</ele>
        <time>2021-10-20T20:13:38.231Z</time>
      </trkpt>
      <trkpt lat="49.301688" lon="7.158971">
        <ele>249.764476</ele>
        <time>2021-10-20T20:14:27.623Z</time>
      </trkpt>
      <trkpt lat="49.301031" lon="7.160037">
        <ele>252.081945</ele>
        <time>2021-10-20T20:16:11.769Z</time>
      </trkpt>
      <trkpt lat="49.300953" lon="7.160245">
        <ele>252.596263</ele>
        <time>2021-10-20T20:16:30.354Z</time>
      </trkpt>
      <trkpt lat="49.300919" lon="7.160874">
        <ele>253.949157</ele>
        <time>2021-10-20T20:17:20.513Z</time>
      </trkpt>
      <trkpt lat="49.301027" lon="7.161456">
        <ele>255.246212</ele>
        <time>2021-10-20T20:18:04.322Z</time>
      </trkpt>
      <trkpt lat="49.301218" lon="7.161910">
        <ele>255.794959</ele>
        <time>2021-10-20T20:18:42.912Z</time>
      </trkpt>
      <trkpt lat="49.301281" lon="7.162314">
        <ele>256.130256</ele>
        <time>2021-10-20T20:19:10.313Z</time>
      </trkpt>
      <trkpt lat="49.301214" lon="7.162384">
        <ele>256.230611</ele>
        <time>2021-10-20T20:19:21.041Z</time>
      </trkpt>
      <trkpt lat="49.301217" lon="7.162385">
        <ele>256.234411</ele>
        <time>2021-10-20T20:19:21.811Z</time>
      </trkpt>
      <trkpt lat="49.301214" lon="7.162384">
        <ele>256.238211</ele>
        <time>2021-10-20T20:19:22.354Z</time>
      </trkpt>
      <trkpt lat="49.300883" lon="7.161904">
        <ele>256.802123</ele>
        <time>2021-10-20T20:20:10.595Z</time>
      </trkpt>
      <trkpt lat="49.300634" lon="7.161681">
        <ele>257.159061</ele>
        <time>2021-10-20T20:20:41.369Z</time>
      </trkpt>
      <trkpt lat="49.300561" lon="7.161616">
        <ele>257.263552</ele>
        <time>2021-10-20T20:20:49.941Z</time>
      </trkpt>
      <trkpt lat="49.300177" lon="7.161561">
        <ele>257.363439</ele>
        <time>2021-10-20T20:21:28.986Z</time>
      </trkpt>
      <trkpt lat="49.299741" lon="7.161649">
        <ele>255.562219</ele>
        <time>2021-10-20T20:22:16.586Z</time>
      </trkpt>
      <trkpt lat="49.298362" lon="7.161707">
        <ele>250.045715</ele>
        <time>2021-10-20T20:24:49.012Z</time>
      </trkpt>
      <trkpt lat="49.298328" lon="7.161674">
        <ele>249.939835</ele>
        <time>2021-10-20T20:24:53.940Z</time>
      </trkpt>
      <trkpt lat="49.298166" lon="7.161698">
        <ele>249.511576</ele>
        <time>2021-10-20T20:25:11.213Z</time>
      </trkpt>
      <trkpt lat="49.298057" lon="7.161608">
        <ele>249.185826</ele>
        <time>2021-10-20T20:25:24.219Z</time>
      </trkpt>
      <trkpt lat="49.298023" lon="7.161610">
        <ele>249.096295</ele>
        <time>2021-10-20T20:25:28.085Z</time>
      </trkpt>
      <trkpt lat="49.297874" lon="7.161686">
        <ele>248.683107</ele>
        <time>2021-10-20T20:25:45.317Z</time>
      </trkpt>
      <trkpt lat="49.297797" lon="7.161624">
        <ele>248.454261</ele>
        <time>2021-10-20T20:25:54.190Z</time>
      </trkpt>
      <trkpt lat="49.297478" lon="7.161864">
        <ele>247.519282</ele>
        <time>2021-10-20T20:26:31.991Z</time>
      </trkpt>
      <trkpt lat="49.296601" lon="7.162826">
        <ele>245.903431</ele>
        <time>2021-10-20T20:28:23.037Z</time>
      </trkpt>
      <trkpt lat="49.296601" lon="7.162826">
        <ele>245.903431</ele>
        <time>2021-10-20T20:28:23.439Z</time>
      </trkpt>
      <trkpt lat="49.296701" lon="7.163349">
        <ele>246.279030</ele>
        <time>2021-10-20T20:29:00.833Z</time>
      </trkpt>
      <trkpt lat="49.296687" lon="7.163549">
        <ele>246.417652</ele>
        <time>2021-10-20T20:29:14.999Z</time>
      </trkpt>
      <trkpt lat="49.296666" lon="7.163688">
        <ele>246.515981</ele>
        <time>2021-10-20T20:29:25.247Z</time>
      </trkpt>
      <trkpt lat="49.296608" lon="7.164119">
        <ele>246.819264</ele>
        <time>2021-10-20T20:29:55.929Z</time>
      </trkpt>
      <trkpt lat="49.296491" lon="7.164986">
        <ele>247.429418</ele>
        <time>2021-10-20T20:30:57.488Z</time>
      </trkpt>
      <trkpt lat="49.296520" lon="7.166623">
        <ele>249.208729</ele>
        <time>2021-10-20T20:32:49.448Z</time>
      </trkpt>
      <trkpt lat="49.296552" lon="7.166914">
        <ele>249.532001</ele>
        <time>2021-10-20T20:33:09.504Z</time>
      </trkpt>
      <trkpt lat="49.296797" lon="7.167822">
        <ele>250.728771</ele>
        <time>2021-10-20T20:34:17.649Z</time>
      </trkpt>
      <trkpt lat="49.296910" lon="7.168076">
        <ele>251.370326</ele>
        <time>2021-10-20T20:34:40.079Z</time>
      </trkpt>
      <trkpt lat="49.297081" lon="7.168303">
        <ele>252.093978</ele>
        <time>2021-10-20T20:35:05.284Z</time>
      </trkpt>
      <trkpt lat="49.297252" lon="7.168498">
        <ele>252.775800</ele>
        <time>2021-10-20T20:35:28.785Z</time>
      </trkpt>
      <trkpt lat="49.297412" lon="7.168743">
        <ele>253.499253</ele>
        <time>2021-10-20T20:35:54.753Z</time>
      </trkpt>
      <trkpt lat="49.297622" lon="7.169402">
        <ele>255.029640</ele>
        <time>2021-10-20T20:36:49.557Z</time>
      </trkpt>
      <trkpt lat="49.297677" lon="7.169542">
        <ele>255.370660</ele>
        <time>2021-10-20T20:37:00.653Z</time>
      </trkpt>
      <trkpt lat="49.297677" lon="7.169542">
        <ele>255.370660</ele>
        <time>2021-10-20T20:37:01.406Z</time>
      </trkpt>
      <trkpt lat="49.297770" lon="7.169549">
        <ele>255.668573</ele>
        <time>2021-10-20T20:37:11.969Z</time>
      </trkpt>
      <trkpt lat="49.298399" lon="7.169372">
        <ele>256.909737</ele>
        <time>2021-10-20T20:38:22.321Z</time>
      </trkpt>
      <trkpt lat="49.298570" lon="7.169287">
        <ele>257.173015</ele>
        <time>2021-10-20T20:38:41.492Z</time>
      </trkpt>
      <trkpt lat="49.298570" lon="7.169287">
        <ele>257.173015</ele>
        <time>2021-10-20T20:38:42.535Z</time>
      </trkpt>
      <trkpt lat="49.298606" lon="7.169439">
        <ele>257.327469</ele>
        <time>2021-10-20T20:38:53.301Z</time>
      </trkpt>
      <trkpt lat="49.298577" lon="7.169625">
        <ele>257.510124</ele>
        <time>2021-10-20T20:39:06.852Z</time>
      </trkpt>
      <trkpt lat="49.298500" lon="7.169804">
        <ele>257.714932</ele>
        <time>2021-10-20T20:39:22.121Z</time>
      </trkpt>
      <trkpt lat="49.298377" lon="7.170010">
        <ele>257.981698</ele>
        <time>2021-10-20T20:39:40.503Z</time>
      </trkpt>
      <trkpt lat="49.298222" lon="7.170599">
        <ele>258.588332</ele>
        <time>2021-10-20T20:40:22.654Z</time>
      </trkpt>
      <trkpt lat="49.298223" lon="7.171591">
        <ele>258.489862</ele>
        <time>2021-10-20T20:41:27.712Z</time>
      </trkpt>
      <trkpt lat="49.298323" lon="7.172365">
        <ele>258.069244</ele>
        <time>2021-10-20T20:42:20.860Z</time>
      </trkpt>
      <trkpt lat="49.298353" lon="7.172832">
        <ele>257.819094</ele>
        <time>2021-10-20T20:42:52.314Z</time>
      </trkpt>
      <trkpt lat="49.298371" lon="7.172901">
        <ele>257.779478</ele>
        <time>2021-10-20T20:42:57.205Z</time>
      </trkpt>
      <trkpt lat="49.298413" lon="7.173059">
        <ele>257.688524</ele>
        <time>2021-10-20T20:43:08.460Z</time>
      </trkpt>
      <trkpt lat="49.298189" lon="7.173478">
        <ele>257.399704</ele>
        <time>2021-10-20T20:43:44.569Z</time>
      </trkpt>
      <trkpt lat="49.298004" lon="7.173882">
        <ele>257.455835</ele>
        <time>2021-10-20T20:44:17.287Z</time>
      </trkpt>
      <trkpt lat="49.297888" lon="7.174453">
        <ele>257.532055</ele>
        <time>2021-10-20T20:44:56.915Z</time>
      </trkpt>
      <trkpt lat="49.297926" lon="7.174980">
        <ele>257.599627</ele>
        <time>2021-10-20T20:45:31.800Z</time>
      </trkpt>
      <trkpt lat="49.297787" lon="7.175381">
        <ele>257.657503</ele>
        <time>2021-10-20T20:46:01.571Z</time>
      </trkpt>
      <trkpt lat="49.297786" lon="7.175540">
        <ele>257.677768</ele>
        <time>2021-10-20T20:46:12.040Z</time>
      </trkpt>
      <trkpt lat="49.297868" lon="7.175690">
        <ele>257.702713</ele>
        <time>2021-10-20T20:46:25.905Z</time>
      </trkpt>
      <trkpt lat="49.297740" lon="7.176165">
        <ele>258.149884</ele>
        <time>2021-10-20T20:47:01.836Z</time>
      </trkpt>
      <trkpt lat="49.297451" lon="7.176331">
        <ele>259.234309</ele>
        <time>2021-10-20T20:47:35.409Z</time>
      </trkpt>
      <trkpt lat="49.297145" lon="7.176508">
        <ele>260.383520</ele>
        <time>2021-10-20T20:48:11.944Z</time>
      </trkpt>
      <trkpt lat="49.297023" lon="7.176565">
        <ele>260.831674</ele>
        <time>2021-10-20T20:48:26.582Z</time>
      </trkpt>
      <trkpt lat="49.297002" lon="7.176551">
        <ele>260.912138</ele>
        <time>2021-10-20T20:48:29.306Z</time>
      </trkpt>
      <trkpt lat="49.296990" lon="7.176510">
        <ele>261.015120</ele>
        <time>2021-10-20T20:48:32.690Z</time>
      </trkpt>
      <trkpt lat="49.296963" lon="7.176583">
        <ele>261.207435</ele>
        <time>2021-10-20T20:48:38.941Z</time>
      </trkpt>
      <trkpt lat="49.296968" lon="7.176766">
        <ele>261.627158</ele>
        <time>2021-10-20T20:48:51.864Z</time>
      </trkpt>
      <trkpt lat="49.296959" lon="7.176789">
        <ele>261.688623</ele>
        <time>2021-10-20T20:48:54.093Z</time>
      </trkpt>
      <trkpt lat="49.296968" lon="7.176766">
        <ele>261.750089</ele>
        <time>2021-10-20T20:48:55.927Z</time>
      </trkpt>
      <trkpt lat="49.297038" lon="7.177021">
        <ele>262.384095</ele>
        <time>2021-10-20T20:49:17.424Z</time>
      </trkpt>
      <trkpt lat="49.297191" lon="7.177327">
        <ele>263.267691</ele>
        <time>2021-10-20T20:49:45.803Z</time>
      </trkpt>
      <trkpt lat="49.297477" lon="7.177664">
        <ele>264.554334</ele>
        <time>2021-10-20T20:50:28.128Z</time>
      </trkpt>
      <trkpt lat="49.297815" lon="7.178391">
        <ele>266.684153</ele>
        <time>2021-10-20T20:51:36.162Z</time>
      </trkpt>
      <trkpt lat="49.298095" lon="7.179538">
        <ele>269.605652</ele>
        <time>2021-10-20T20:53:05.841Z</time>
      </trkpt>
      <trkpt lat="49.298310" lon="7.180189">
        <ele>270.911276</ele>
        <time>2021-10-20T20:53:57.307Z</time>
      </trkpt>
      <trkpt lat="49.298310" lon="7.180189">
        <ele>270.911276</ele>
        <time>2021-10-20T20:53:58.451Z</time>
      </trkpt>
      <trkpt lat="49.298310" lon="7.180189">
        <ele>270.911276</ele>
        <time>2021-10-20T20:53:59.228Z</time>
      </trkpt>
      <trkpt lat="49.298828" lon="7.181022">
        <ele>271.952984</ele>
        <time>2021-10-20T20:55:18.463Z</time>
      </trkpt>
      <trkpt lat="49.299127" lon="7.181513">
        <ele>272.560974</ele>
        <time>2021-10-20T20:56:03.611Z</time>
      </trkpt>
      <trkpt lat="49.299649" lon="7.182815">
        <ele>273.637932</ele>
        <time>2021-10-20T20:57:45.730Z</time>
      </trkpt>
      <trkpt lat="49.300115" lon="7.183464">
        <ele>274.178242</ele>
        <time>2021-10-20T20:58:50.663Z</time>
      </trkpt>
      <trkpt lat="49.300260" lon="7.183683">
        <ele>274.352925</ele>
        <time>2021-10-20T20:59:11.612Z</time>
      </trkpt>
      <trkpt lat="49.300634" lon="7.184244">
        <ele>274.923452</ele>
        <time>2021-10-20T21:00:06.081Z</time>
      </trkpt>
      <trkpt lat="49.301036" lon="7.184813">
        <ele>275.881983</ele>
        <time>2021-10-20T21:01:02.953Z</time>
      </trkpt>
      <trkpt lat="49.301307" lon="7.184912">
        <ele>276.370103</ele>
        <time>2021-10-20T21:01:32.771Z</time>
      </trkpt>
      <trkpt lat="49.302478" lon="7.184888">
        <ele>278.527487</ele>
        <time>2021-10-20T21:03:39.315Z</time>
      </trkpt>
      <trkpt lat="49.302642" lon="7.184918">
        <ele>278.869009</ele>
        <time>2021-10-20T21:03:56.689Z</time>
      </trkpt>
      <trkpt lat="49.302814" lon="7.185079">
        <ele>279.285685</ele>
        <time>2021-10-20T21:04:18.711Z</time>
      </trkpt>
      <trkpt lat="49.303373" lon="7.185583">
        <ele>280.626539</ele>
        <time>2021-10-20T21:05:28.385Z</time>
      </trkpt>
      <trkpt lat="49.303821" lon="7.186276">
        <ele>281.781978</ele>
        <time>2021-10-20T21:06:37.026Z</time>
      </trkpt>
      <trkpt lat="49.305168" lon="7.187373">
        <ele>283.626685</ele>
        <time>2021-10-20T21:09:16.040Z</time>
      </trkpt>
      <trkpt lat="49.305566" lon="7.187796">
        <ele>283.865998</ele>
        <time>2021-10-20T21:10:04.882Z</time>
      </trkpt>
      <trkpt lat="49.305873" lon="7.188155">
        <ele>283.996559</ele>
        <time>2021-10-20T21:10:43.649Z</time>
      </trkpt>
      <trkpt lat="49.305873" lon="7.188155">
        <ele>283.996559</ele>
        <time>2021-10-20T21:10:44.050Z</time>
      </trkpt>
      <trkpt lat="49.305908" lon="7.187939">
        <ele>284.045637</ele>
        <time>2021-10-20T21:10:58.704Z</time>
      </trkpt>
      <trkpt lat="49.305902" lon="7.187771">
        <ele>284.082738</ele>
        <time>2021-10-20T21:11:09.859Z</time>
      </trkpt>
      <trkpt lat="49.305762" lon="7.187363">
        <ele>284.184403</ele>
        <time>2021-10-20T21:11:40.108Z</time>
      </trkpt>
      <trkpt lat="49.305603" lon="7.186940">
        <ele>284.292067</ele>
        <time>2021-10-20T21:12:12.955Z</time>
      </trkpt>
      <trkpt lat="49.305252" lon="7.186439">
        <ele>284.716516</ele>
        <time>2021-10-20T21:13:02.370Z</time>
      </trkpt>
      <trkpt lat="49.304862" lon="7.185714">
        <ele>285.399031</ele>
        <time>2021-10-20T21:14:05.057Z</time>
      </trkpt>
      <trkpt lat="49.304773" lon="7.185177">
        <ele>285.801385</ele>
        <time>2021-10-20T21:14:43.304Z</time>
      </trkpt>
      <trkpt lat="49.304759" lon="7.184886">
        <ele>286.013275</ele>
        <time>2021-10-20T21:15:03.587Z</time>
      </trkpt>
      <trkpt lat="49.304719" lon="7.184065">
        <ele>286.780163</ele>
        <time>2021-10-20T21:15:59.651Z</time>
      </trkpt>
      <trkpt lat="49.304504" lon="7.182982">
        <ele>288.120529</ele>
        <time>2021-10-20T21:17:18.660Z</time>
      </trkpt>
      <trkpt lat="49.304512" lon="7.182290">
        <ele>288.939973</ele>
        <time>2021-10-20T21:18:06.698Z</time>
      </trkpt>
      <trkpt lat="49.304571" lon="7.181834">
        <ele>289.490396</ele>
        <time>2021-10-20T21:18:38.779Z</time>
      </trkpt>
      <trkpt lat="49.304683" lon="7.181693">
        <ele>289.890984</ele>
        <time>2021-10-20T21:18:54.169Z</time>
      </trkpt>
      <trkpt lat="49.304683" lon="7.181693">
        <ele>289.890984</ele>
        <time>2021-10-20T21:18:54.727Z</time>
      </trkpt>
      <trkpt lat="49.304767" lon="7.181717">
        <ele>290.193735</ele>
        <time>2021-10-20T21:19:03.784Z</time>
      </trkpt>
      <trkpt lat="49.304840" lon="7.181729">
        <ele>290.453871</ele>
        <time>2021-10-20T21:19:11.241Z</time>
      </trkpt>
      <trkpt lat="49.305014" lon="7.181764">
        <ele>291.075671</ele>
        <time>2021-10-20T21:19:30.457Z</time>
      </trkpt>
      <trkpt lat="49.305104" lon="7.181532">
        <ele>291.699348</ele>
        <time>2021-10-20T21:19:49.541Z</time>
      </trkpt>
      <trkpt lat="49.305104" lon="7.181532">
        <ele>291.699348</ele>
        <time>2021-10-20T21:19:49.605Z</time>
      </trkpt>
      <trkpt lat="49.305357" lon="7.181595">
        <ele>292.607521</ele>
        <time>2021-10-20T21:20:18.485Z</time>
      </trkpt>
      <trkpt lat="49.305546" lon="7.181488">
        <ele>293.321358</ele>
        <time>2021-10-20T21:20:40.466Z</time>
      </trkpt>
      <trkpt lat="49.305658" lon="7.180919">
        <ele>294.694492</ele>
        <time>2021-10-20T21:21:25.009Z</time>
      </trkpt>
      <trkpt lat="49.305805" lon="7.180501">
        <ele>295.791689</ele>
        <time>2021-10-20T21:22:02.043Z</time>
      </trkpt>
      <trkpt lat="49.305931" lon="7.180468">
        <ele>296.353766</ele>
        <time>2021-10-20T21:22:17.834Z</time>
      </trkpt>
      <trkpt lat="49.306680" lon="7.180769">
        <ele>300.237690</ele>
        <time>2021-10-20T21:23:48.392Z</time>
      </trkpt>
      <trkpt lat="49.306957" lon="7.180757">
        <ele>301.627716</ele>
        <time>2021-10-20T21:24:20.382Z</time>
      </trkpt>
      <trkpt lat="49.306974" lon="7.180681">
        <ele>301.890499</ele>
        <time>2021-10-20T21:24:27.267Z</time>
      </trkpt>
      <trkpt lat="49.307243" lon="7.179469">
        <ele>305.556986</ele>
        <time>2021-10-20T21:26:05.892Z</time>
      </trkpt>
      <trkpt lat="49.307533" lon="7.178483">
        <ele>307.378488</ele>
        <time>2021-10-20T21:27:25.730Z</time>
      </trkpt>
      <trkpt lat="49.307640" lon="7.177763">
        <ele>308.622030</ele>
        <time>2021-10-20T21:28:15.863Z</time>
      </trkpt>
      <trkpt lat="49.307673" lon="7.177539">
        <ele>309.008744</ele>
        <time>2021-10-20T21:28:31.347Z</time>
      </trkpt>
      <trkpt lat="49.307685" lon="7.177485">
        <ele>309.104813</ele>
        <time>2021-10-20T21:28:35.507Z</time>
      </trkpt>
      <trkpt lat="49.307685" lon="7.177485">
        <ele>309.104813</ele>
        <time>2021-10-20T21:28:35.821Z</time>
      </trkpt>
      <trkpt lat="49.307685" lon="7.177485">
        <ele>309.104813</ele>
        <time>2021-10-20T21:28:36.036Z</time>
      </trkpt>
      <trkpt lat="49.308242" lon="7.177863">
        <ele>309.873865</ele>
        <time>2021-10-20T21:29:37.076Z</time>
      </trkpt>
      <trkpt lat="49.309096" lon="7.178163">
        <ele>310.367191</ele>
        <time>2021-10-20T21:31:05.534Z</time>
      </trkpt>
      <trkpt lat="49.309516" lon="7.178153">
        <ele>310.603714</ele>
        <time>2021-10-20T21:31:47.955Z</time>
      </trkpt>
      <trkpt lat="49.309782" lon="7.177638">
        <ele>311.371196</ele>
        <time>2021-10-20T21:32:33.196Z</time>
      </trkpt>
      <trkpt lat="49.309782" lon="7.177638">
        <ele>311.371196</ele>
        <time>2021-10-20T21:32:33.500Z</time>
      </trkpt>
      <trkpt lat="49.309872" lon="7.177407">
        <ele>311.754967</ele>
        <time>2021-10-20T21:32:52.348Z</time>
      </trkpt>
      <trkpt lat="49.309962" lon="7.177337">
        <ele>311.975696</ele>
        <time>2021-10-20T21:33:03.368Z</time>
      </trkpt>
      <trkpt lat="49.311208" lon="7.176364">
        <ele>315.062967</ele>
        <time>2021-10-20T21:35:36.329Z</time>
      </trkpt>
      <trkpt lat="49.311208" lon="7.176364">
        <ele>315.062967</ele>
        <time>2021-10-20T21:35:37.302Z</time>
      </trkpt>
      <trkpt lat="49.311208" lon="7.176364">
        <ele>315.062967</ele>
        <time>2021-10-20T21:35:37.967Z</time>
      </trkpt>
      <trkpt lat="49.311937" lon="7.178332">
        <ele>318.504183</ele>
        <time>2021-10-20T21:38:16.496Z</time>
      </trkpt>
      <trkpt lat="49.314759" lon="7.186449">
        <ele>335.633764</ele>
        <time>2021-10-20T21:49:18.081Z</time>
      </trkpt>
      <trkpt lat="49.314931" lon="7.186783">
        <ele>336.401666</ele>
        <time>2021-10-20T21:49:48.466Z</time>
      </trkpt>
      <trkpt lat="49.314955" lon="7.186829">
        <ele>336.507961</ele>
        <time>2021-10-20T21:49:52.858Z</time>
      </trkpt>
      <trkpt lat="49.315255" lon="7.186254">
        <ele>337.836648</ele>
        <time>2021-10-20T21:50:45.372Z</time>
      </trkpt>
      <trkpt lat="49.315361" lon="7.186073">
        <ele>338.275605</ele>
        <time>2021-10-20T21:51:02.799Z</time>
      </trkpt>
      <trkpt lat="49.315394" lon="7.186018">
        <ele>338.410461</ele>
        <time>2021-10-20T21:51:07.937Z</time>
      </trkpt>
      <trkpt lat="49.315996" lon="7.185032">
        <ele>339.891961</ele>
        <time>2021-10-20T21:52:44.677Z</time>
      </trkpt>
      <trkpt lat="49.316526" lon="7.184606">
        <ele>340.533000</ele>
        <time>2021-10-20T21:53:47.751Z</time>
      </trkpt>
      <trkpt lat="49.317085" lon="7.184082">
        <ele>341.161311</ele>
        <time>2021-10-20T21:54:53.911Z</time>
      </trkpt>
      <trkpt lat="49.317085" lon="7.184082">
        <ele>341.161311</ele>
        <time>2021-10-20T21:54:55.049Z</time>
      </trkpt>
      <trkpt lat="49.316963" lon="7.183662">
        <ele>340.275108</ele>
        <time>2021-10-20T21:55:26.301Z</time>
      </trkpt>
      <trkpt lat="49.316821" lon="7.183201">
        <ele>339.292414</ele>
        <time>2021-10-20T21:56:00.895Z</time>
      </trkpt>
      <trkpt lat="49.315899" lon="7.181144">
        <ele>334.432654</ele>
        <time>2021-10-20T21:58:57.194Z</time>
      </trkpt>
      <trkpt lat="49.315064" lon="7.178996">
        <ele>330.438851</ele>
        <time>2021-10-20T22:01:50.211Z</time>
      </trkpt>
      <trkpt lat="49.315064" lon="7.178996">
        <ele>330.438851</ele>
        <time>2021-10-20T22:01:50.312Z</time>
      </trkpt>
      <trkpt lat="49.315064" lon="7.178996">
        <ele>330.438851</ele>
        <time>2021-10-20T22:01:50.458Z</time>
      </trkpt>
      <trkpt lat="49.313996" lon="7.176161">
        <ele>331.316285</ele>
        <time>2021-10-20T22:05:31.849Z</time>
      </trkpt>
      <trkpt lat="49.313309" lon="7.174373">
        <ele>332.521452</ele>
        <time>2021-10-20T22:07:53.185Z</time>
      </trkpt>
      <trkpt lat="49.313288" lon="7.174318">
        <ele>332.520129</ele>
        <time>2021-10-20T22:07:57.366Z</time>
      </trkpt>
      <trkpt lat="49.313209" lon="7.174125">
        <ele>332.515400</ele>
        <time>2021-10-20T22:08:12.249Z</time>
      </trkpt>
      <trkpt lat="49.313033" lon="7.173599">
        <ele>332.503131</ele>
        <time>2021-10-20T22:08:51.099Z</time>
      </trkpt>
      <trkpt lat="49.312936" lon="7.173449">
        <ele>332.498747</ele>
        <time>2021-10-20T22:09:05.101Z</time>
      </trkpt>
      <trkpt lat="49.312880" lon="7.173362">
        <ele>332.496210</ele>
        <time>2021-10-20T22:09:13.063Z</time>
      </trkpt>
      <trkpt lat="49.312880" lon="7.173362">
        <ele>332.496210</ele>
        <time>2021-10-20T22:09:13.323Z</time>
      </trkpt>
      <trkpt lat="49.312635" lon="7.172982">
        <ele>332.485119</ele>
        <time>2021-10-20T22:09:48.519Z</time>
      </trkpt>
      <trkpt lat="49.312286" lon="7.172773">
        <ele>332.473193</ele>
        <time>2021-10-20T22:10:26.711Z</time>
      </trkpt>
      <trkpt lat="49.311569" lon="7.172200">
        <ele>332.152810</ele>
        <time>2021-10-20T22:11:49.896Z</time>
      </trkpt>
      <trkpt lat="49.311283" lon="7.171944">
        <ele>332.008048</ele>
        <time>2021-10-20T22:12:23.536Z</time>
      </trkpt>
      <trkpt lat="49.311129" lon="7.171805">
        <ele>331.929933</ele>
        <time>2021-10-20T22:12:41.567Z</time>
      </trkpt>
      <trkpt lat="49.310701" lon="7.171603">
        <ele>331.734168</ele>
        <time>2021-10-20T22:13:26.973Z</time>
      </trkpt>
      <trkpt lat="49.310670" lon="7.171589">
        <ele>331.720041</ele>
        <time>2021-10-20T22:13:30.217Z</time>
      </trkpt>
      <trkpt lat="49.310237" lon="7.171162">
        <ele>332.234928</ele>
        <time>2021-10-20T22:14:23.327Z</time>
      </trkpt>
      <trkpt lat="49.310021" lon="7.170894">
        <ele>332.588241</ele>
        <time>2021-10-20T22:14:52.410Z</time>
      </trkpt>
      <trkpt lat="49.309649" lon="7.170435">
        <ele>333.195396</ele>
        <time>2021-10-20T22:15:41.792Z</time>
      </trkpt>
      <trkpt lat="49.309338" lon="7.170029">
        <ele>333.714762</ele>
        <time>2021-10-20T22:16:25.330Z</time>
      </trkpt>
      <trkpt lat="49.309254" lon="7.169917">
        <ele>333.856307</ele>
        <time>2021-10-20T22:16:37.871Z</time>
      </trkpt>
      <trkpt lat="49.309254" lon="7.169917">
        <ele>333.856307</ele>
        <time>2021-10-20T22:16:38.232Z</time>
      </trkpt>
      <trkpt lat="49.309254" lon="7.169917">
        <ele>333.856307</ele>
        <time>2021-10-20T22:16:38.476Z</time>
      </trkpt>
      <trkpt lat="49.309308" lon="7.169802">
        <ele>333.971662</ele>
        <time>2021-10-20T22:16:48.122Z</time>
      </trkpt>
      <trkpt lat="49.309341" lon="7.169726">
        <ele>333.971662</ele>
        <time>2021-10-20T22:16:54.454Z</time>
      </trkpt>
      <trkpt lat="49.309419" lon="7.169716">
        <ele>333.971662</ele>
        <time>2021-10-20T22:17:02.680Z</time>
      </trkpt>
      <trkpt lat="49.309420" lon="7.169418">
        <ele>333.971662</ele>
        <time>2021-10-20T22:17:23.929Z</time>
      </trkpt>
      <trkpt lat="49.309726" lon="7.168739">
        <ele>333.971662</ele>
        <time>2021-10-20T22:18:20.867Z</time>
      </trkpt>
      <trkpt lat="49.309912" lon="7.168326">
        <ele>333.971662</ele>
        <time>2021-10-20T22:18:54.919Z</time>
      </trkpt>
    </trkseg>
  </trk>
</gpx>