<?xml version='1.0' encoding='UTF-8'?>
<gpx version="1.1" creator="https://www.komoot.de" xmlns="http://www.topografix.com/GPX/1/1" xmlns:xsi="http://www.w3.org/2001/XMLSchema-instance" xsi:schemaLocation="http://www.topografix.com/GPX/1/1 http://www.topografix.com/GPX/1/1/gpx.xsd">
  <metadata>
    <name>Wanderung</name>
    <author>
      <link href="https://www.komoot.de">
        <text>komoot</text>
        <type>text/html</type>
      </link>
    </author>
  </metadata>
  <trk>
    <name>Wanderung</name>
    <trkseg>
      <trkpt lat="48.193353" lon="11.872252">
        <ele>505.854493</ele>
        <time>2022-10-31T06:38:27.142Z</time>
      </trkpt>
      <trkpt lat="48.193180" lon="11.872003">
        <ele>505.854493</ele>
        <time>2022-10-31T06:38:51.350Z</time>
      </trkpt>
      <trkpt lat="48.192936" lon="11.871727">
        <ele>505.854493</ele>
        <time>2022-10-31T06:39:22.306Z</time>
      </trkpt>
      <trkpt lat="48.192982" lon="11.871579">
        <ele>505.854493</ele>
        <time>2022-10-31T06:39:33.336Z</time>
      </trkpt>
      <trkpt lat="48.193024" lon="11.871445">
        <ele>505.854493</ele>
        <time>2022-10-31T06:39:43.324Z</time>
      </trkpt>
      <trkpt lat="48.193073" lon="11.870929">
        <ele>505.756445</ele>
        <time>2022-10-31T06:40:18.166Z</time>
      </trkpt>
      <trkpt lat="48.193013" lon="11.869672">
        <ele>505.346727</ele>
        <time>2022-10-31T06:41:43.333Z</time>
      </trkpt>
      <trkpt lat="48.192438" lon="11.869630">
        <ele>505.065963</ele>
        <time>2022-10-31T06:42:41.586Z</time>
      </trkpt>
      <trkpt lat="48.192329" lon="11.869623">
        <ele>505.012754</ele>
        <time>2022-10-31T06:42:52.517Z</time>
      </trkpt>
      <trkpt lat="48.192348" lon="11.869601">
        <ele>505.001048</ele>
        <time>2022-10-31T06:42:54.942Z</time>
      </trkpt>
      <trkpt lat="48.192505" lon="11.869241">
        <ele>504.763392</ele>
        <time>2022-10-31T06:43:23.690Z</time>
      </trkpt>
      <trkpt lat="48.192561" lon="11.868816">
        <ele>504.503904</ele>
        <time>2022-10-31T06:43:52.847Z</time>
      </trkpt>
      <trkpt lat="48.192540" lon="11.868526">
        <ele>504.329181</ele>
        <time>2022-10-31T06:44:12.645Z</time>
      </trkpt>
      <trkpt lat="48.192306" lon="11.867550">
        <ele>503.707924</ele>
        <time>2022-10-31T06:45:23.236Z</time>
      </trkpt>
      <trkpt lat="48.192240" lon="11.867307">
        <ele>503.550756</ele>
        <time>2022-10-31T06:45:41.294Z</time>
      </trkpt>
      <trkpt lat="48.192574" lon="11.867072">
        <ele>503.140718</ele>
        <time>2022-10-31T06:46:19.474Z</time>
      </trkpt>
      <trkpt lat="48.192672" lon="11.867642">
        <ele>502.592922</ele>
        <time>2022-10-31T06:46:59.813Z</time>
      </trkpt>
      <trkpt lat="48.192831" lon="11.867949">
        <ele>502.231141</ele>
        <time>2022-10-31T06:47:26.613Z</time>
      </trkpt>
      <trkpt lat="48.193003" lon="11.868163">
        <ele>501.919195</ele>
        <time>2022-10-31T06:47:49.709Z</time>
      </trkpt>
      <trkpt lat="48.193836" lon="11.868451">
        <ele>500.784438</ele>
        <time>2022-10-31T06:49:17.762Z</time>
      </trkpt>
      <trkpt lat="48.194174" lon="11.868481">
        <ele>500.534194</ele>
        <time>2022-10-31T06:49:52.332Z</time>
      </trkpt>
      <trkpt lat="48.194527" lon="11.868960">
        <ele>500.182403</ele>
        <time>2022-10-31T06:50:40.450Z</time>
      </trkpt>
      <trkpt lat="48.194807" lon="11.869536">
        <ele>499.831185</ele>
        <time>2022-10-31T06:51:28.572Z</time>
      </trkpt>
      <trkpt lat="48.194971" lon="11.869466">
        <ele>499.705166</ele>
        <time>2022-10-31T06:51:45.935Z</time>
      </trkpt>
      <trkpt lat="48.195069" lon="11.869920">
        <ele>499.455709</ele>
        <time>2022-10-31T06:52:18.183Z</time>
      </trkpt>
      <trkpt lat="48.195246" lon="11.870295">
        <ele>499.165555</ele>
        <time>2022-10-31T06:52:49.261Z</time>
      </trkpt>
      <trkpt lat="48.195361" lon="11.870411">
        <ele>499.034278</ele>
        <time>2022-10-31T06:53:03.344Z</time>
      </trkpt>
      <trkpt lat="48.195665" lon="11.870497">
        <ele>498.741221</ele>
        <time>2022-10-31T06:53:34.859Z</time>
      </trkpt>
      <trkpt lat="48.195870" lon="11.870814">
        <ele>498.462326</ele>
        <time>2022-10-31T06:54:05.090Z</time>
      </trkpt>
      <trkpt lat="48.196115" lon="11.871046">
        <ele>498.187867</ele>
        <time>2022-10-31T06:54:34.850Z</time>
      </trkpt>
      <trkpt lat="48.196698" lon="11.871325">
        <ele>497.699856</ele>
        <time>2022-10-31T06:55:37.546Z</time>
      </trkpt>
      <trkpt lat="48.197130" lon="11.872117">
        <ele>497.337181</ele>
        <time>2022-10-31T06:56:46.843Z</time>
      </trkpt>
      <trkpt lat="48.197336" lon="11.871495">
        <ele>497.091040</ele>
        <time>2022-10-31T06:57:33.519Z</time>
      </trkpt>
      <trkpt lat="48.197942" lon="11.872163">
        <ele>497.137135</ele>
        <time>2022-10-31T06:58:48.969Z</time>
      </trkpt>
      <trkpt lat="48.198288" lon="11.872392">
        <ele>497.464597</ele>
        <time>2022-10-31T06:59:27.457Z</time>
      </trkpt>
      <trkpt lat="48.198637" lon="11.872373">
        <ele>497.766996</ele>
        <time>2022-10-31T07:00:03.673Z</time>
      </trkpt>
      <trkpt lat="48.199104" lon="11.871856">
        <ele>498.269550</ele>
        <time>2022-10-31T07:01:04.433Z</time>
      </trkpt>
      <trkpt lat="48.199248" lon="11.871803">
        <ele>498.397937</ele>
        <time>2022-10-31T07:01:20.097Z</time>
      </trkpt>
      <trkpt lat="48.199429" lon="11.871877">
        <ele>498.712247</ele>
        <time>2022-10-31T07:01:39.918Z</time>
      </trkpt>
      <trkpt lat="48.199531" lon="11.872056">
        <ele>498.993460</ele>
        <time>2022-10-31T07:01:56.551Z</time>
      </trkpt>
      <trkpt lat="48.199578" lon="11.872138">
        <ele>499.122603</ele>
        <time>2022-10-31T07:02:04.351Z</time>
      </trkpt>
      <trkpt lat="48.199588" lon="11.871800">
        <ele>499.526615</ele>
        <time>2022-10-31T07:02:28.203Z</time>
      </trkpt>
      <trkpt lat="48.199999" lon="11.869772">
        <ele>501.966247</ele>
        <time>2022-10-31T07:04:59.530Z</time>
      </trkpt>
      <trkpt lat="48.200209" lon="11.868420">
        <ele>503.260276</ele>
        <time>2022-10-31T07:06:36.246Z</time>
      </trkpt>
      <trkpt lat="48.200183" lon="11.867376">
        <ele>504.258928</ele>
        <time>2022-10-31T07:07:48.926Z</time>
      </trkpt>
      <trkpt lat="48.200427" lon="11.866385">
        <ele>505.556707</ele>
        <time>2022-10-31T07:09:02.907Z</time>
      </trkpt>
      <trkpt lat="48.200397" lon="11.866015">
        <ele>506.014576</ele>
        <time>2022-10-31T07:09:29.395Z</time>
      </trkpt>
      <trkpt lat="48.200231" lon="11.865360">
        <ele>506.875401</ele>
        <time>2022-10-31T07:10:19.764Z</time>
      </trkpt>
      <trkpt lat="48.200234" lon="11.864628">
        <ele>507.820094</ele>
        <time>2022-10-31T07:11:12.644Z</time>
      </trkpt>
      <trkpt lat="48.200336" lon="11.864078">
        <ele>508.626404</ele>
        <time>2022-10-31T07:11:54.122Z</time>
      </trkpt>
      <trkpt lat="48.200547" lon="11.863549">
        <ele>509.497106</ele>
        <time>2022-10-31T07:12:38.981Z</time>
      </trkpt>
      <trkpt lat="48.200815" lon="11.862727">
        <ele>510.789514</ele>
        <time>2022-10-31T07:13:44.484Z</time>
      </trkpt>
      <trkpt lat="48.200885" lon="11.862234">
        <ele>511.333209</ele>
        <time>2022-10-31T07:14:20.349Z</time>
      </trkpt>
      <trkpt lat="48.200814" lon="11.862230">
        <ele>511.368183</ele>
        <time>2022-10-31T07:14:27.767Z</time>
      </trkpt>
      <trkpt lat="48.200885" lon="11.862234">
        <ele>511.403157</ele>
        <time>2022-10-31T07:14:35.423Z</time>
      </trkpt>
      <trkpt lat="48.202239" lon="11.862297">
        <ele>512.069985</ele>
        <time>2022-10-31T07:16:52.663Z</time>
      </trkpt>
      <trkpt lat="48.203335" lon="11.862085">
        <ele>512.128261</ele>
        <time>2022-10-31T07:18:44.470Z</time>
      </trkpt>
      <trkpt lat="48.205720" lon="11.861148">
        <ele>513.456688</ele>
        <time>2022-10-31T07:22:53.987Z</time>
      </trkpt>
      <trkpt lat="48.207177" lon="11.860546">
        <ele>517.478320</ele>
        <time>2022-10-31T07:25:41.640Z</time>
      </trkpt>
      <trkpt lat="48.207456" lon="11.860548">
        <ele>518.308399</ele>
        <time>2022-10-31T07:26:13.528Z</time>
      </trkpt>
      <trkpt lat="48.207757" lon="11.860669">
        <ele>519.096756</ele>
        <time>2022-10-31T07:26:49.039Z</time>
      </trkpt>
      <trkpt lat="48.208703" lon="11.861423">
        <ele>520.375965</ele>
        <time>2022-10-31T07:28:44.282Z</time>
      </trkpt>
      <trkpt lat="48.209326" lon="11.862007">
        <ele>520.921275</ele>
        <time>2022-10-31T07:29:59.001Z</time>
      </trkpt>
      <trkpt lat="48.209822" lon="11.862333">
        <ele>519.453510</ele>
        <time>2022-10-31T07:30:55.161Z</time>
      </trkpt>
      <trkpt lat="48.209858" lon="11.862587">
        <ele>518.984434</ele>
        <time>2022-10-31T07:31:13.867Z</time>
      </trkpt>
      <trkpt lat="48.209805" lon="11.863001">
        <ele>518.222929</ele>
        <time>2022-10-31T07:31:43.746Z</time>
      </trkpt>
      <trkpt lat="48.209729" lon="11.863596">
        <ele>517.128583</ele>
        <time>2022-10-31T07:32:27.439Z</time>
      </trkpt>
      <trkpt lat="48.209625" lon="11.865889">
        <ele>512.694511</ele>
        <time>2022-10-31T07:35:11.242Z</time>
      </trkpt>
      <trkpt lat="48.209502" lon="11.867012">
        <ele>510.644466</ele>
        <time>2022-10-31T07:36:30.357Z</time>
      </trkpt>
      <trkpt lat="48.209525" lon="11.867285">
        <ele>510.293189</ele>
        <time>2022-10-31T07:36:49.522Z</time>
      </trkpt>
      <trkpt lat="48.209596" lon="11.867734">
        <ele>509.704095</ele>
        <time>2022-10-31T07:37:21.380Z</time>
      </trkpt>
      <trkpt lat="48.209848" lon="11.867990">
        <ele>509.121150</ele>
        <time>2022-10-31T07:37:53.027Z</time>
      </trkpt>
      <trkpt lat="48.210276" lon="11.868673">
        <ele>507.924329</ele>
        <time>2022-10-31T07:38:57.985Z</time>
      </trkpt>
      <trkpt lat="48.210642" lon="11.869491">
        <ele>506.724443</ele>
        <time>2022-10-31T07:40:06.332Z</time>
      </trkpt>
      <trkpt lat="48.210718" lon="11.869678">
        <ele>506.463406</ele>
        <time>2022-10-31T07:40:21.519Z</time>
      </trkpt>
      <trkpt lat="48.211234" lon="11.871914">
        <ele>503.790810</ele>
        <time>2022-10-31T07:43:05.135Z</time>
      </trkpt>
      <trkpt lat="48.211297" lon="11.872287">
        <ele>503.431972</ele>
        <time>2022-10-31T07:43:31.348Z</time>
      </trkpt>
      <trkpt lat="48.211301" lon="11.872722">
        <ele>503.026276</ele>
        <time>2022-10-31T07:44:01.030Z</time>
      </trkpt>
      <trkpt lat="48.211274" lon="11.873053">
        <ele>502.715300</ele>
        <time>2022-10-31T07:44:23.822Z</time>
      </trkpt>
      <trkpt lat="48.211209" lon="11.873934">
        <ele>501.888706</ele>
        <time>2022-10-31T07:45:24.479Z</time>
      </trkpt>
      <trkpt lat="48.211170" lon="11.874307">
        <ele>501.421834</ele>
        <time>2022-10-31T07:45:50.483Z</time>
      </trkpt>
      <trkpt lat="48.211045" lon="11.875055">
        <ele>500.394282</ele>
        <time>2022-10-31T07:46:43.684Z</time>
      </trkpt>
      <trkpt lat="48.210938" lon="11.875690">
        <ele>499.521528</ele>
        <time>2022-10-31T07:47:29.086Z</time>
      </trkpt>
      <trkpt lat="48.210868" lon="11.876161">
        <ele>498.878512</ele>
        <time>2022-10-31T07:48:02.818Z</time>
      </trkpt>
      <trkpt lat="48.210852" lon="11.876835">
        <ele>497.974241</ele>
        <time>2022-10-31T07:48:50.274Z</time>
      </trkpt>
      <trkpt lat="48.210851" lon="11.876922">
        <ele>497.855444</ele>
        <time>2022-10-31T07:48:56.448Z</time>
      </trkpt>
      <trkpt lat="48.211101" lon="11.877017">
        <ele>497.327087</ele>
        <time>2022-10-31T07:49:23.533Z</time>
      </trkpt>
      <trkpt lat="48.211047" lon="11.877349">
        <ele>496.860512</ele>
        <time>2022-10-31T07:49:47.578Z</time>
      </trkpt>
      <trkpt lat="48.210950" lon="11.877978">
        <ele>495.979061</ele>
        <time>2022-10-31T07:50:32.534Z</time>
      </trkpt>
      <trkpt lat="48.210717" lon="11.879225">
        <ele>494.356076</ele>
        <time>2022-10-31T07:52:01.587Z</time>
      </trkpt>
      <trkpt lat="48.210681" lon="11.879205">
        <ele>494.314036</ele>
        <time>2022-10-31T07:52:05.628Z</time>
      </trkpt>
      <trkpt lat="48.210717" lon="11.879225">
        <ele>494.271996</ele>
        <time>2022-10-31T07:52:09.534Z</time>
      </trkpt>
      <trkpt lat="48.211351" lon="11.879543">
        <ele>493.539922</ele>
        <time>2022-10-31T07:53:18.764Z</time>
      </trkpt>
      <trkpt lat="48.211611" lon="11.879555">
        <ele>493.255052</ele>
        <time>2022-10-31T07:53:45.332Z</time>
      </trkpt>
      <trkpt lat="48.211703" lon="11.879510">
        <ele>493.149083</ele>
        <time>2022-10-31T07:53:55.208Z</time>
      </trkpt>
      <trkpt lat="48.211750" lon="11.879488">
        <ele>493.095166</ele>
        <time>2022-10-31T07:54:00.205Z</time>
      </trkpt>
      <trkpt lat="48.211845" lon="11.879956">
        <ele>492.738136</ele>
        <time>2022-10-31T07:54:33.497Z</time>
      </trkpt>
      <trkpt lat="48.211943" lon="11.880069">
        <ele>492.602790</ele>
        <time>2022-10-31T07:54:45.897Z</time>
      </trkpt>
      <trkpt lat="48.212081" lon="11.880676">
        <ele>492.534282</ele>
        <time>2022-10-31T07:55:28.959Z</time>
      </trkpt>
      <trkpt lat="48.212072" lon="11.880676">
        <ele>492.533840</ele>
        <time>2022-10-31T07:55:29.860Z</time>
      </trkpt>
      <trkpt lat="48.212029" lon="11.880674">
        <ele>492.531729</ele>
        <time>2022-10-31T07:55:34.143Z</time>
      </trkpt>
      <trkpt lat="48.212072" lon="11.880676">
        <ele>492.529617</ele>
        <time>2022-10-31T07:55:38.424Z</time>
      </trkpt>
      <trkpt lat="48.212081" lon="11.880676">
        <ele>492.529175</ele>
        <time>2022-10-31T07:55:39.326Z</time>
      </trkpt>
      <trkpt lat="48.213660" lon="11.880639">
        <ele>492.413895</ele>
        <time>2022-10-31T07:58:17.970Z</time>
      </trkpt>
      <trkpt lat="48.213704" lon="11.880640">
        <ele>492.405502</ele>
        <time>2022-10-31T07:58:22.488Z</time>
      </trkpt>
      <trkpt lat="48.214008" lon="11.880605">
        <ele>492.347345</ele>
        <time>2022-10-31T07:58:53.007Z</time>
      </trkpt>
      <trkpt lat="48.214077" lon="11.880468">
        <ele>492.325517</ele>
        <time>2022-10-31T07:59:04.763Z</time>
      </trkpt>
      <trkpt lat="48.214293" lon="11.880588">
        <ele>492.281583</ele>
        <time>2022-10-31T07:59:27.871Z</time>
      </trkpt>
      <trkpt lat="48.214726" lon="11.880631">
        <ele>492.198810</ele>
        <time>2022-10-31T08:00:11.289Z</time>
      </trkpt>
      <trkpt lat="48.214820" lon="11.880627">
        <ele>492.180872</ele>
        <time>2022-10-31T08:00:20.970Z</time>
      </trkpt>
      <trkpt lat="48.215391" lon="11.880595">
        <ele>491.839497</ele>
        <time>2022-10-31T08:01:19.169Z</time>
      </trkpt>
      <trkpt lat="48.215682" lon="11.880536">
        <ele>491.521972</ele>
        <time>2022-10-31T08:01:49.373Z</time>
      </trkpt>
      <trkpt lat="48.215782" lon="11.880483">
        <ele>491.407295</ele>
        <time>2022-10-31T08:02:00.094Z</time>
      </trkpt>
      <trkpt lat="48.215682" lon="11.880536">
        <ele>491.292617</ele>
        <time>2022-10-31T08:02:11.120Z</time>
      </trkpt>
      <trkpt lat="48.215418" lon="11.881838">
        <ele>490.312026</ele>
        <time>2022-10-31T08:03:44.033Z</time>
      </trkpt>
      <trkpt lat="48.215454" lon="11.881963">
        <ele>490.213909</ele>
        <time>2022-10-31T08:03:53.146Z</time>
      </trkpt>
      <trkpt lat="48.215645" lon="11.882097">
        <ele>490.035723</ele>
        <time>2022-10-31T08:04:14.720Z</time>
      </trkpt>
      <trkpt lat="48.215895" lon="11.882172">
        <ele>489.831995</ele>
        <time>2022-10-31T08:04:40.848Z</time>
      </trkpt>
      <trkpt lat="48.216193" lon="11.882262">
        <ele>489.589088</ele>
        <time>2022-10-31T08:05:12.090Z</time>
      </trkpt>
      <trkpt lat="48.216509" lon="11.882499">
        <ele>489.306796</ele>
        <time>2022-10-31T08:05:48.193Z</time>
      </trkpt>
      <trkpt lat="48.216766" lon="11.882948">
        <ele>488.991626</ele>
        <time>2022-10-31T08:06:28.186Z</time>
      </trkpt>
      <trkpt lat="48.217074" lon="11.883853">
        <ele>488.920206</ele>
        <time>2022-10-31T08:07:36.336Z</time>
      </trkpt>
      <trkpt lat="48.217157" lon="11.884222">
        <ele>489.049966</ele>
        <time>2022-10-31T08:08:02.547Z</time>
      </trkpt>
      <trkpt lat="48.217191" lon="11.884740">
        <ele>489.223389</ele>
        <time>2022-10-31T08:08:37.802Z</time>
      </trkpt>
      <trkpt lat="48.217061" lon="11.886075">
        <ele>489.676791</ele>
        <time>2022-10-31T08:10:11.141Z</time>
      </trkpt>
      <trkpt lat="48.217029" lon="11.886288">
        <ele>489.757821</ele>
        <time>2022-10-31T08:10:26.414Z</time>
      </trkpt>
      <trkpt lat="48.216960" lon="11.887311">
        <ele>490.139401</ele>
        <time>2022-10-31T08:11:37.128Z</time>
      </trkpt>
      <trkpt lat="48.216923" lon="11.887851">
        <ele>490.340855</ele>
        <time>2022-10-31T08:12:13.875Z</time>
      </trkpt>
      <trkpt lat="48.216779" lon="11.890031">
        <ele>490.346000</ele>
        <time>2022-10-31T08:14:40.086Z</time>
      </trkpt>
      <trkpt lat="48.216202" lon="11.892599">
        <ele>489.376875</ele>
        <time>2022-10-31T08:17:43.195Z</time>
      </trkpt>
      <trkpt lat="48.216204" lon="11.892970">
        <ele>489.193529</ele>
        <time>2022-10-31T08:18:08.311Z</time>
      </trkpt>
      <trkpt lat="48.216156" lon="11.892983">
        <ele>489.157355</ele>
        <time>2022-10-31T08:18:13.249Z</time>
      </trkpt>
      <trkpt lat="48.216204" lon="11.892970">
        <ele>489.121181</ele>
        <time>2022-10-31T08:18:18.162Z</time>
      </trkpt>
      <trkpt lat="48.216750" lon="11.893379">
        <ele>488.641032</ele>
        <time>2022-10-31T08:19:20.409Z</time>
      </trkpt>
      <trkpt lat="48.217257" lon="11.893887">
        <ele>487.991209</ele>
        <time>2022-10-31T08:20:22.835Z</time>
      </trkpt>
      <trkpt lat="48.217795" lon="11.894695">
        <ele>487.179887</ele>
        <time>2022-10-31T08:21:40.904Z</time>
      </trkpt>
      <trkpt lat="48.218411" lon="11.895297">
        <ele>486.559236</ele>
        <time>2022-10-31T08:22:55.845Z</time>
      </trkpt>
      <trkpt lat="48.218660" lon="11.895871">
        <ele>486.262362</ele>
        <time>2022-10-31T08:23:42.247Z</time>
      </trkpt>
      <trkpt lat="48.218792" lon="11.895997">
        <ele>486.160598</ele>
        <time>2022-10-31T08:23:58.133Z</time>
      </trkpt>
      <trkpt lat="48.219038" lon="11.896378">
        <ele>485.930644</ele>
        <time>2022-10-31T08:24:33.873Z</time>
      </trkpt>
      <trkpt lat="48.219964" lon="11.896959">
        <ele>485.547625</ele>
        <time>2022-10-31T08:26:15.241Z</time>
      </trkpt>
      <trkpt lat="48.221044" lon="11.897438">
        <ele>485.354418</ele>
        <time>2022-10-31T08:28:08.010Z</time>
      </trkpt>
      <trkpt lat="48.223746" lon="11.898439">
        <ele>485.226555</ele>
        <time>2022-10-31T08:32:47.457Z</time>
      </trkpt>
      <trkpt lat="48.224150" lon="11.898598">
        <ele>485.126161</ele>
        <time>2022-10-31T08:33:29.704Z</time>
      </trkpt>
      <trkpt lat="48.226842" lon="11.899628">
        <ele>483.891732</ele>
        <time>2022-10-31T08:38:11.161Z</time>
      </trkpt>
      <trkpt lat="48.227040" lon="11.899824">
        <ele>483.845724</ele>
        <time>2022-10-31T08:38:34.995Z</time>
      </trkpt>
      <trkpt lat="48.227810" lon="11.900315">
        <ele>483.683441</ele>
        <time>2022-10-31T08:39:58.877Z</time>
      </trkpt>
      <trkpt lat="48.229008" lon="11.900645">
        <ele>484.182537</ele>
        <time>2022-10-31T08:42:02.214Z</time>
      </trkpt>
      <trkpt lat="48.230161" lon="11.900741">
        <ele>485.104076</ele>
        <time>2022-10-31T08:44:01.188Z</time>
      </trkpt>
      <trkpt lat="48.230814" lon="11.900663">
        <ele>486.017206</ele>
        <time>2022-10-31T08:45:09.712Z</time>
      </trkpt>
      <trkpt lat="48.230855" lon="11.900658">
        <ele>486.074546</ele>
        <time>2022-10-31T08:45:14.049Z</time>
      </trkpt>
      <trkpt lat="48.230926" lon="11.900737">
        <ele>486.197739</ele>
        <time>2022-10-31T08:45:23.371Z</time>
      </trkpt>
      <trkpt lat="48.231107" lon="11.901311">
        <ele>486.787431</ele>
        <time>2022-10-31T08:46:08.369Z</time>
      </trkpt>
      <trkpt lat="48.231174" lon="11.901526">
        <ele>487.007835</ele>
        <time>2022-10-31T08:46:24.985Z</time>
      </trkpt>
      <trkpt lat="48.231224" lon="11.902625">
        <ele>488.250331</ele>
        <time>2022-10-31T08:47:43.392Z</time>
      </trkpt>
      <trkpt lat="48.230748" lon="11.902494">
        <ele>489.095250</ele>
        <time>2022-10-31T08:48:35.425Z</time>
      </trkpt>
      <trkpt lat="48.230046" lon="11.902308">
        <ele>490.329288</ele>
        <time>2022-10-31T08:49:50.572Z</time>
      </trkpt>
      <trkpt lat="48.229108" lon="11.902142">
        <ele>491.528070</ele>
        <time>2022-10-31T08:51:29.258Z</time>
      </trkpt>
      <trkpt lat="48.228757" lon="11.902140">
        <ele>491.973573</ele>
        <time>2022-10-31T08:52:05.846Z</time>
      </trkpt>
      <trkpt lat="48.228418" lon="11.902221">
        <ele>492.409258</ele>
        <time>2022-10-31T08:52:41.613Z</time>
      </trkpt>
      <trkpt lat="48.227965" lon="11.902447">
        <ele>492.917036</ele>
        <time>2022-10-31T08:53:31.535Z</time>
      </trkpt>
      <trkpt lat="48.226864" lon="11.903333">
        <ele>494.141741</ele>
        <time>2022-10-31T08:55:42.026Z</time>
      </trkpt>
      <trkpt lat="48.226209" lon="11.903986">
        <ele>493.801692</ele>
        <time>2022-10-31T08:57:01.012Z</time>
      </trkpt>
      <trkpt lat="48.225570" lon="11.904850">
        <ele>492.987625</ele>
        <time>2022-10-31T08:58:29.240Z</time>
      </trkpt>
      <trkpt lat="48.224466" lon="11.906766">
        <ele>490.130337</ele>
        <time>2022-10-31T09:01:26.276Z</time>
      </trkpt>
      <trkpt lat="48.224190" lon="11.907176">
        <ele>489.393714</ele>
        <time>2022-10-31T09:02:06.288Z</time>
      </trkpt>
      <trkpt lat="48.223750" lon="11.907635">
        <ele>489.255485</ele>
        <time>2022-10-31T09:03:00.810Z</time>
      </trkpt>
      <trkpt lat="48.223208" lon="11.907991">
        <ele>489.285169</ele>
        <time>2022-10-31T09:04:00.108Z</time>
      </trkpt>
      <trkpt lat="48.223128" lon="11.907874">
        <ele>489.290773</ele>
        <time>2022-10-31T09:04:11.427Z</time>
      </trkpt>
      <trkpt lat="48.223032" lon="11.907781">
        <ele>489.296505</ele>
        <time>2022-10-31T09:04:23.135Z</time>
      </trkpt>
      <trkpt lat="48.222573" lon="11.907553">
        <ele>489.320763</ele>
        <time>2022-10-31T09:05:12.775Z</time>
      </trkpt>
      <trkpt lat="48.222256" lon="11.907707">
        <ele>489.592419</ele>
        <time>2022-10-31T09:05:47.534Z</time>
      </trkpt>
      <trkpt lat="48.222238" lon="11.907620">
        <ele>489.649446</ele>
        <time>2022-10-31T09:05:53.880Z</time>
      </trkpt>
      <trkpt lat="48.222202" lon="11.907484">
        <ele>489.741055</ele>
        <time>2022-10-31T09:06:04.048Z</time>
      </trkpt>
      <trkpt lat="48.222154" lon="11.907321">
        <ele>489.852614</ele>
        <time>2022-10-31T09:06:16.506Z</time>
      </trkpt>
      <trkpt lat="48.221859" lon="11.907662">
        <ele>490.202464</ele>
        <time>2022-10-31T09:06:55.474Z</time>
      </trkpt>
      <trkpt lat="48.221748" lon="11.907988">
        <ele>490.431645</ele>
        <time>2022-10-31T09:07:20.825Z</time>
      </trkpt>
      <trkpt lat="48.221524" lon="11.908349">
        <ele>490.740459</ele>
        <time>2022-10-31T09:07:54.910Z</time>
      </trkpt>
      <trkpt lat="48.221422" lon="11.908406">
        <ele>490.842724</ele>
        <time>2022-10-31T09:08:06.037Z</time>
      </trkpt>
      <trkpt lat="48.221311" lon="11.908368">
        <ele>490.949697</ele>
        <time>2022-10-31T09:08:17.684Z</time>
      </trkpt>
      <trkpt lat="48.220481" lon="11.907032">
        <ele>491.391560</ele>
        <time>2022-10-31T09:10:20.754Z</time>
      </trkpt>
      <trkpt lat="48.220306" lon="11.906681">
        <ele>491.487724</ele>
        <time>2022-10-31T09:10:50.337Z</time>
      </trkpt>
      <trkpt lat="48.220199" lon="11.906334">
        <ele>491.571597</ele>
        <time>2022-10-31T09:11:16.044Z</time>
      </trkpt>
      <trkpt lat="48.220085" lon="11.905969">
        <ele>491.621479</ele>
        <time>2022-10-31T09:11:43.103Z</time>
      </trkpt>
      <trkpt lat="48.220015" lon="11.906106">
        <ele>491.632702</ele>
        <time>2022-10-31T09:11:54.780Z</time>
      </trkpt>
      <trkpt lat="48.219884" lon="11.906282">
        <ele>491.649857</ele>
        <time>2022-10-31T09:12:12.406Z</time>
      </trkpt>
      <trkpt lat="48.219783" lon="11.906407">
        <ele>491.662630</ele>
        <time>2022-10-31T09:12:25.493Z</time>
      </trkpt>
      <trkpt lat="48.219675" lon="11.906580">
        <ele>491.678042</ele>
        <time>2022-10-31T09:12:41.335Z</time>
      </trkpt>
      <trkpt lat="48.219608" lon="11.906827">
        <ele>491.695378</ele>
        <time>2022-10-31T09:12:59.185Z</time>
      </trkpt>
      <trkpt lat="48.219378" lon="11.907704">
        <ele>491.756649</ele>
        <time>2022-10-31T09:14:02.071Z</time>
      </trkpt>
      <trkpt lat="48.219306" lon="11.908042">
        <ele>491.779718</ele>
        <time>2022-10-31T09:14:25.969Z</time>
      </trkpt>
      <trkpt lat="48.219164" lon="11.908839">
        <ele>492.119744</ele>
        <time>2022-10-31T09:15:21.554Z</time>
      </trkpt>
      <trkpt lat="48.219053" lon="11.909346">
        <ele>492.343293</ele>
        <time>2022-10-31T09:15:57.642Z</time>
      </trkpt>
      <trkpt lat="48.219024" lon="11.909403">
        <ele>492.373335</ele>
        <time>2022-10-31T09:16:02.612Z</time>
      </trkpt>
      <trkpt lat="48.219053" lon="11.909346">
        <ele>492.403377</ele>
        <time>2022-10-31T09:16:07.425Z</time>
      </trkpt>
      <trkpt lat="48.217988" lon="11.908677">
        <ele>493.715265</ele>
        <time>2022-10-31T09:18:06.752Z</time>
      </trkpt>
      <trkpt lat="48.217266" lon="11.908443">
        <ele>495.429878</ele>
        <time>2022-10-31T09:19:26.375Z</time>
      </trkpt>
      <trkpt lat="48.217045" lon="11.908379">
        <ele>495.952349</ele>
        <time>2022-10-31T09:19:50.919Z</time>
      </trkpt>
      <trkpt lat="48.215089" lon="11.907457">
        <ele>502.375285</ele>
        <time>2022-10-31T09:23:41.512Z</time>
      </trkpt>
      <trkpt lat="48.214679" lon="11.907267">
        <ele>503.588970</ele>
        <time>2022-10-31T09:24:29.197Z</time>
      </trkpt>
      <trkpt lat="48.214205" lon="11.907234">
        <ele>504.603849</ele>
        <time>2022-10-31T09:25:20.925Z</time>
      </trkpt>
      <trkpt lat="48.214019" lon="11.907215">
        <ele>505.002586</ele>
        <time>2022-10-31T09:25:41.089Z</time>
      </trkpt>
      <trkpt lat="48.213894" lon="11.907191">
        <ele>505.272115</ele>
        <time>2022-10-31T09:25:54.693Z</time>
      </trkpt>
      <trkpt lat="48.213556" lon="11.907124">
        <ele>506.001307</ele>
        <time>2022-10-31T09:26:31.346Z</time>
      </trkpt>
      <trkpt lat="48.213071" lon="11.907027">
        <ele>507.034847</ele>
        <time>2022-10-31T09:27:22.713Z</time>
      </trkpt>
      <trkpt lat="48.212881" lon="11.906891">
        <ele>507.226055</ele>
        <time>2022-10-31T09:27:44.379Z</time>
      </trkpt>
      <trkpt lat="48.212691" lon="11.906586">
        <ele>507.478771</ele>
        <time>2022-10-31T09:28:12.968Z</time>
      </trkpt>
      <trkpt lat="48.212628" lon="11.906077">
        <ele>507.792127</ele>
        <time>2022-10-31T09:28:48.414Z</time>
      </trkpt>
      <trkpt lat="48.212910" lon="11.902327">
        <ele>509.843825</ele>
        <time>2022-10-31T09:33:07.352Z</time>
      </trkpt>
      <trkpt lat="48.212999" lon="11.901147">
        <ele>510.223483</ele>
        <time>2022-10-31T09:34:28.395Z</time>
      </trkpt>
      <trkpt lat="48.213141" lon="11.899842">
        <ele>510.540073</ele>
        <time>2022-10-31T09:35:57.921Z</time>
      </trkpt>
      <trkpt lat="48.212767" lon="11.900145">
        <ele>510.640298</ele>
        <time>2022-10-31T09:36:40.491Z</time>
      </trkpt>
      <trkpt lat="48.212026" lon="11.900747">
        <ele>510.212171</ele>
        <time>2022-10-31T09:38:05.638Z</time>
      </trkpt>
      <trkpt lat="48.210901" lon="11.901951">
        <ele>509.474224</ele>
        <time>2022-10-31T09:40:26.052Z</time>
      </trkpt>
      <trkpt lat="48.209950" lon="11.902901">
        <ele>508.809484</ele>
        <time>2022-10-31T09:42:21.987Z</time>
      </trkpt>
      <trkpt lat="48.209657" lon="11.902992">
        <ele>508.700603</ele>
        <time>2022-10-31T09:42:52.095Z</time>
      </trkpt>
      <trkpt lat="48.209160" lon="11.902888">
        <ele>508.661740</ele>
        <time>2022-10-31T09:43:42.446Z</time>
      </trkpt>
      <trkpt lat="48.208809" lon="11.902671">
        <ele>508.632340</ele>
        <time>2022-10-31T09:44:20.401Z</time>
      </trkpt>
      <trkpt lat="48.208109" lon="11.902064">
        <ele>508.570534</ele>
        <time>2022-10-31T09:45:41.616Z</time>
      </trkpt>
      <trkpt lat="48.207387" lon="11.901688">
        <ele>508.541355</ele>
        <time>2022-10-31T09:46:58.299Z</time>
      </trkpt>
      <trkpt lat="48.207263" lon="11.901456">
        <ele>508.533788</ele>
        <time>2022-10-31T09:47:18.118Z</time>
      </trkpt>
      <trkpt lat="48.207265" lon="11.900757">
        <ele>508.516002</ele>
        <time>2022-10-31T09:48:04.751Z</time>
      </trkpt>
      <trkpt lat="48.207127" lon="11.900546">
        <ele>508.508480</ele>
        <time>2022-10-31T09:48:24.522Z</time>
      </trkpt>
      <trkpt lat="48.206416" lon="11.900517">
        <ele>508.318482</ele>
        <time>2022-10-31T09:49:36.210Z</time>
      </trkpt>
      <trkpt lat="48.206257" lon="11.900453">
        <ele>508.264197</ele>
        <time>2022-10-31T09:49:52.838Z</time>
      </trkpt>
      <trkpt lat="48.205850" lon="11.900104">
        <ele>508.109615</ele>
        <time>2022-10-31T09:50:40.257Z</time>
      </trkpt>
      <trkpt lat="48.205439" lon="11.899950">
        <ele>507.969923</ele>
        <time>2022-10-31T09:51:23.017Z</time>
      </trkpt>
      <trkpt lat="48.204765" lon="11.899611">
        <ele>507.930451</ele>
        <time>2022-10-31T09:52:34.372Z</time>
      </trkpt>
      <trkpt lat="48.204226" lon="11.899318">
        <ele>507.953177</ele>
        <time>2022-10-31T09:53:32.278Z</time>
      </trkpt>
      <trkpt lat="48.203700" lon="11.899033">
        <ele>507.975346</ele>
        <time>2022-10-31T09:54:28.569Z</time>
      </trkpt>
      <trkpt lat="48.203679" lon="11.899021">
        <ele>507.976237</ele>
        <time>2022-10-31T09:54:30.970Z</time>
      </trkpt>
      <trkpt lat="48.203357" lon="11.899027">
        <ele>507.861400</ele>
        <time>2022-10-31T09:55:03.196Z</time>
      </trkpt>
      <trkpt lat="48.203285" lon="11.898663">
        <ele>507.714755</ele>
        <time>2022-10-31T09:55:28.530Z</time>
      </trkpt>
      <trkpt lat="48.203221" lon="11.898565">
        <ele>507.661764</ele>
        <time>2022-10-31T09:55:37.683Z</time>
      </trkpt>
      <trkpt lat="48.202812" lon="11.898112">
        <ele>507.367173</ele>
        <time>2022-10-31T09:56:28.661Z</time>
      </trkpt>
      <trkpt lat="48.202676" lon="11.897597">
        <ele>507.153223</ele>
        <time>2022-10-31T09:57:06.011Z</time>
      </trkpt>
      <trkpt lat="48.202766" lon="11.897524">
        <ele>507.093936</ele>
        <time>2022-10-31T09:57:16.447Z</time>
      </trkpt>
      <trkpt lat="48.202938" lon="11.897379">
        <ele>506.979609</ele>
        <time>2022-10-31T09:57:36.809Z</time>
      </trkpt>
      <trkpt lat="48.203454" lon="11.897078">
        <ele>505.546856</ele>
        <time>2022-10-31T09:58:34.892Z</time>
      </trkpt>
      <trkpt lat="48.203891" lon="11.896972">
        <ele>504.270739</ele>
        <time>2022-10-31T09:59:21.965Z</time>
      </trkpt>
      <trkpt lat="48.204194" lon="11.896187">
        <ele>502.527848</ele>
        <time>2022-10-31T10:00:26.563Z</time>
      </trkpt>
      <trkpt lat="48.204257" lon="11.895157">
        <ele>500.423060</ele>
        <time>2022-10-31T10:01:40.416Z</time>
      </trkpt>
      <trkpt lat="48.204359" lon="11.894737">
        <ele>499.480984</ele>
        <time>2022-10-31T10:02:12.445Z</time>
      </trkpt>
      <trkpt lat="48.204917" lon="11.893750">
        <ele>496.753341</ele>
        <time>2022-10-31T10:03:44.575Z</time>
      </trkpt>
      <trkpt lat="48.205153" lon="11.893420">
        <ele>495.883824</ele>
        <time>2022-10-31T10:04:18.667Z</time>
      </trkpt>
      <trkpt lat="48.205800" lon="11.892808">
        <ele>494.559778</ele>
        <time>2022-10-31T10:05:38.363Z</time>
      </trkpt>
      <trkpt lat="48.206349" lon="11.892288">
        <ele>493.435857</ele>
        <time>2022-10-31T10:06:45.323Z</time>
      </trkpt>
      <trkpt lat="48.206966" lon="11.892080">
        <ele>492.780807</ele>
        <time>2022-10-31T10:07:49.780Z</time>
      </trkpt>
      <trkpt lat="48.208574" lon="11.891319">
        <ele>492.014408</ele>
        <time>2022-10-31T10:10:39.548Z</time>
      </trkpt>
      <trkpt lat="48.209794" lon="11.890744">
        <ele>491.672133</ele>
        <time>2022-10-31T10:12:48.221Z</time>
      </trkpt>
      <trkpt lat="48.210171" lon="11.890261">
        <ele>491.592780</ele>
        <time>2022-10-31T10:13:38.211Z</time>
      </trkpt>
      <trkpt lat="48.210227" lon="11.890185">
        <ele>491.591187</ele>
        <time>2022-10-31T10:13:45.749Z</time>
      </trkpt>
      <trkpt lat="48.210875" lon="11.889364">
        <ele>491.573296</ele>
        <time>2022-10-31T10:15:11.136Z</time>
      </trkpt>
      <trkpt lat="48.210805" lon="11.889296">
        <ele>491.571537</ele>
        <time>2022-10-31T10:15:19.566Z</time>
      </trkpt>
      <trkpt lat="48.209736" lon="11.887399">
        <ele>492.381526</ele>
        <time>2022-10-31T10:18:07.945Z</time>
      </trkpt>
      <trkpt lat="48.208753" lon="11.885577">
        <ele>494.324470</ele>
        <time>2022-10-31T10:20:51.495Z</time>
      </trkpt>
      <trkpt lat="48.208234" lon="11.884618">
        <ele>495.686705</ele>
        <time>2022-10-31T10:22:20.247Z</time>
      </trkpt>
      <trkpt lat="48.208056" lon="11.884856">
        <ele>496.083559</ele>
        <time>2022-10-31T10:22:45.665Z</time>
      </trkpt>
      <trkpt lat="48.207979" lon="11.884714">
        <ele>496.288132</ele>
        <time>2022-10-31T10:22:58.612Z</time>
      </trkpt>
      <trkpt lat="48.207501" lon="11.885231">
        <ele>497.276162</ele>
        <time>2022-10-31T10:23:59.942Z</time>
      </trkpt>
      <trkpt lat="48.207069" lon="11.885345">
        <ele>498.011659</ele>
        <time>2022-10-31T10:24:45.836Z</time>
      </trkpt>
      <trkpt lat="48.206973" lon="11.885371">
        <ele>498.175233</ele>
        <time>2022-10-31T10:24:56.448Z</time>
      </trkpt>
      <trkpt lat="48.206439" lon="11.885457">
        <ele>499.070982</ele>
        <time>2022-10-31T10:25:54.189Z</time>
      </trkpt>
      <trkpt lat="48.205531" lon="11.885580">
        <ele>500.552410</ele>
        <time>2022-10-31T10:27:32.562Z</time>
      </trkpt>
      <trkpt lat="48.204806" lon="11.885716">
        <ele>501.739648</ele>
        <time>2022-10-31T10:28:49.285Z</time>
      </trkpt>
      <trkpt lat="48.202541" lon="11.886098">
        <ele>501.405759</ele>
        <time>2022-10-31T10:32:37.624Z</time>
      </trkpt>
      <trkpt lat="48.202126" lon="11.886095">
        <ele>500.760895</ele>
        <time>2022-10-31T10:33:20.873Z</time>
      </trkpt>
      <trkpt lat="48.201091" lon="11.886086">
        <ele>499.151361</ele>
        <time>2022-10-31T10:35:09.213Z</time>
      </trkpt>
      <trkpt lat="48.199922" lon="11.886119">
        <ele>497.313176</ele>
        <time>2022-10-31T10:37:10.706Z</time>
      </trkpt>
      <trkpt lat="48.198006" lon="11.886125">
        <ele>495.525662</ele>
        <time>2022-10-31T10:40:25.917Z</time>
      </trkpt>
      <trkpt lat="48.197783" lon="11.886126">
        <ele>495.376646</ele>
        <time>2022-10-31T10:40:48.366Z</time>
      </trkpt>
      <trkpt lat="48.197758" lon="11.885657">
        <ele>495.236724</ele>
        <time>2022-10-31T10:41:19.787Z</time>
      </trkpt>
      <trkpt lat="48.197745" lon="11.885362">
        <ele>495.252779</ele>
        <time>2022-10-31T10:41:39.505Z</time>
      </trkpt>
      <trkpt lat="48.197779" lon="11.885194">
        <ele>495.262314</ele>
        <time>2022-10-31T10:41:51.277Z</time>
      </trkpt>
      <trkpt lat="48.197760" lon="11.884675">
        <ele>495.290542</ele>
        <time>2022-10-31T10:42:26.076Z</time>
      </trkpt>
      <trkpt lat="48.197750" lon="11.882697">
        <ele>495.384545</ele>
        <time>2022-10-31T10:44:38.909Z</time>
      </trkpt>
      <trkpt lat="48.197751" lon="11.882637">
        <ele>495.385840</ele>
        <time>2022-10-31T10:44:43.021Z</time>
      </trkpt>
      <trkpt lat="48.197750" lon="11.881909">
        <ele>495.401550</ele>
        <time>2022-10-31T10:45:31.746Z</time>
      </trkpt>
      <trkpt lat="48.197728" lon="11.881744">
        <ele>495.405181</ele>
        <time>2022-10-31T10:45:42.971Z</time>
      </trkpt>
      <trkpt lat="48.197632" lon="11.881571">
        <ele>495.410039</ele>
        <time>2022-10-31T10:45:57.998Z</time>
      </trkpt>
      <trkpt lat="48.197608" lon="11.881392">
        <ele>495.413979</ele>
        <time>2022-10-31T10:46:10.193Z</time>
      </trkpt>
      <trkpt lat="48.197575" lon="11.881230">
        <ele>495.417634</ele>
        <time>2022-10-31T10:46:21.566Z</time>
      </trkpt>
      <trkpt lat="48.197435" lon="11.880719">
        <ele>495.429556</ele>
        <time>2022-10-31T10:46:58.531Z</time>
      </trkpt>
      <trkpt lat="48.197454" lon="11.880611">
        <ele>495.431967</ele>
        <time>2022-10-31T10:47:05.990Z</time>
      </trkpt>
      <trkpt lat="48.197044" lon="11.879426">
        <ele>496.099812</ele>
        <time>2022-10-31T10:48:35.128Z</time>
      </trkpt>
      <trkpt lat="48.196772" lon="11.878156">
        <ele>496.813659</ele>
        <time>2022-10-31T10:50:08.005Z</time>
      </trkpt>
      <trkpt lat="48.196562" lon="11.877144">
        <ele>498.500734</ele>
        <time>2022-10-31T10:51:24.472Z</time>
      </trkpt>
      <trkpt lat="48.196353" lon="11.876564">
        <ele>499.639207</ele>
        <time>2022-10-31T10:52:12.471Z</time>
      </trkpt>
      <trkpt lat="48.196203" lon="11.876221">
        <ele>500.347562</ele>
        <time>2022-10-31T10:52:42.863Z</time>
      </trkpt>
      <trkpt lat="48.195528" lon="11.875090">
        <ele>502.687664</ele>
        <time>2022-10-31T10:54:35.553Z</time>
      </trkpt>
      <trkpt lat="48.195480" lon="11.875021">
        <ele>502.826046</ele>
        <time>2022-10-31T10:54:42.873Z</time>
      </trkpt>
      <trkpt lat="48.195444" lon="11.874971">
        <ele>502.928168</ele>
        <time>2022-10-31T10:54:48.182Z</time>
      </trkpt>
      <trkpt lat="48.195369" lon="11.874879">
        <ele>503.129835</ele>
        <time>2022-10-31T10:54:58.685Z</time>
      </trkpt>
      <trkpt lat="48.195293" lon="11.874851">
        <ele>503.292736</ele>
        <time>2022-10-31T10:55:07.297Z</time>
      </trkpt>
      <trkpt lat="48.194978" lon="11.874515">
        <ele>504.097290</ele>
        <time>2022-10-31T10:55:48.279Z</time>
      </trkpt>
      <trkpt lat="48.194707" lon="11.874206">
        <ele>504.805850</ele>
        <time>2022-10-31T10:56:23.739Z</time>
      </trkpt>
      <trkpt lat="48.194453" lon="11.873911">
        <ele>505.281213</ele>
        <time>2022-10-31T10:56:57.063Z</time>
      </trkpt>
      <trkpt lat="48.193935" lon="11.873164">
        <ele>505.281213</ele>
        <time>2022-10-31T10:58:11.093Z</time>
      </trkpt>
      <trkpt lat="48.193504" lon="11.872545">
        <ele>505.281213</ele>
        <time>2022-10-31T10:59:11.116Z</time>
      </trkpt>
      <trkpt lat="48.193530" lon="11.872509">
        <ele>505.281213</ele>
        <time>2022-10-31T10:59:14.686Z</time>
      </trkpt>
      <trkpt lat="48.193392" lon="11.872310">
        <ele>505.281213</ele>
        <time>2022-10-31T10:59:33.846Z</time>
      </trkpt>
    </trkseg>
  </trk>
</gpx>