<?xml version="1.0" encoding="UTF-8" standalone="yes"?>
<gpx version="1.1" creator="outdooractive - http://www.outdooractive.com" xmlns="http://www.topografix.com/GPX/1/1" xmlns:xsi="http://www.w3.org/2001/XMLSchema-instance" xsi:schemaLocation="http://www.topografix.com/GPX/1/1 http://www.topografix.com/GPX/1/1/gpx.xsd" xmlns:oa="http://www.outdooractive.com/GPX/Extensions/1">
  <metadata>
    <name>Permanenter Wanderweg: Klosterrunde</name>
    <author>
      <name>Viktoria Friedl - Gemeinde Oberaudorf</name>
    </author>
    <link href="https://www.outdooractive.com/r/62272313"/>
    <time>2024-01-23T09:03:50.358Z</time>
    <extensions>
      <oa:oaCategory>themeTrail</oa:oaCategory>
    </extensions>
  </metadata>
  <trk>
    <name>Permanenter Wanderweg: Klosterrunde</name>
    <type>themeTrail</type>
    <trkseg>
      <trkpt lat="47.664959" lon="12.176244">
        <ele>473.5</ele>
        <name>47.664939,12.176253</name>
        <extensions>
          <oa:mapZoom>16</oa:mapZoom>
        </extensions>
      </trkpt>
      <trkpt lat="47.665007" lon="12.176487">
        <ele>473.2</ele>
      </trkpt>
      <trkpt lat="47.66508" lon="12.176836">
        <ele>472.4</ele>
      </trkpt>
      <trkpt lat="47.665146" lon="12.177152">
        <ele>472.1</ele>
        <name>47.665146,12.177152</name>
        <extensions>
          <oa:mapZoom>16</oa:mapZoom>
        </extensions>
      </trkpt>
      <trkpt lat="47.665153" lon="12.177185">
        <ele>472.1</ele>
      </trkpt>
      <trkpt lat="47.665384" lon="12.177228">
        <ele>472.1</ele>
      </trkpt>
      <trkpt lat="47.665615" lon="12.177271">
        <ele>472.1</ele>
      </trkpt>
      <trkpt lat="47.665706" lon="12.177311">
        <ele>472.0</ele>
      </trkpt>
      <trkpt lat="47.666093" lon="12.177034">
        <ele>471.7</ele>
      </trkpt>
      <trkpt lat="47.66648" lon="12.176757">
        <ele>470.8</ele>
      </trkpt>
      <trkpt lat="47.666867" lon="12.17648">
        <ele>470.5</ele>
      </trkpt>
      <trkpt lat="47.667107" lon="12.17632">
        <ele>470.5</ele>
      </trkpt>
      <trkpt lat="47.667348" lon="12.17616">
        <ele>470.7</ele>
      </trkpt>
      <trkpt lat="47.66766" lon="12.175973">
        <ele>470.0</ele>
      </trkpt>
      <trkpt lat="47.667972" lon="12.175786">
        <ele>469.5</ele>
      </trkpt>
      <trkpt lat="47.668295" lon="12.175575">
        <ele>469.3</ele>
      </trkpt>
      <trkpt lat="47.668618" lon="12.175363">
        <ele>470.7</ele>
      </trkpt>
      <trkpt lat="47.668941" lon="12.175151">
        <ele>471.1</ele>
      </trkpt>
      <trkpt lat="47.668966" lon="12.175123">
        <ele>471.1</ele>
      </trkpt>
      <trkpt lat="47.668988" lon="12.175093">
        <ele>471.1</ele>
      </trkpt>
      <trkpt lat="47.668998" lon="12.175071">
        <ele>471.1</ele>
        <name>47.668998,12.175071</name>
        <extensions>
          <oa:mapZoom>16</oa:mapZoom>
        </extensions>
      </trkpt>
      <trkpt lat="47.669005" lon="12.175055">
        <ele>471.1</ele>
      </trkpt>
      <trkpt lat="47.66901" lon="12.175">
        <ele>471.1</ele>
      </trkpt>
      <trkpt lat="47.669006" lon="12.174951">
        <ele>471.1</ele>
      </trkpt>
      <trkpt lat="47.668918" lon="12.174413">
        <ele>471.3</ele>
      </trkpt>
      <trkpt lat="47.66883" lon="12.173876">
        <ele>471.4</ele>
      </trkpt>
      <trkpt lat="47.668742" lon="12.173338">
        <ele>471.6</ele>
      </trkpt>
      <trkpt lat="47.668654" lon="12.172801">
        <ele>472.3</ele>
      </trkpt>
      <trkpt lat="47.668574" lon="12.172339">
        <ele>472.7</ele>
      </trkpt>
      <trkpt lat="47.668493" lon="12.171876">
        <ele>473.0</ele>
      </trkpt>
      <trkpt lat="47.668413" lon="12.171414">
        <ele>473.0</ele>
      </trkpt>
      <trkpt lat="47.668547" lon="12.171238">
        <ele>473.1</ele>
      </trkpt>
      <trkpt lat="47.668726" lon="12.171016">
        <ele>472.8</ele>
      </trkpt>
      <trkpt lat="47.668905" lon="12.170795">
        <ele>472.4</ele>
      </trkpt>
      <trkpt lat="47.668924" lon="12.170781">
        <ele>472.4</ele>
      </trkpt>
      <trkpt lat="47.668951" lon="12.170771">
        <ele>472.3</ele>
      </trkpt>
      <trkpt lat="47.668996" lon="12.170763">
        <ele>472.2</ele>
      </trkpt>
      <trkpt lat="47.669108" lon="12.170753">
        <ele>472.0</ele>
      </trkpt>
      <trkpt lat="47.669551" lon="12.170701">
        <ele>471.7</ele>
      </trkpt>
      <trkpt lat="47.669994" lon="12.170649">
        <ele>471.2</ele>
      </trkpt>
      <trkpt lat="47.670085" lon="12.170637">
        <ele>471.2</ele>
      </trkpt>
      <trkpt lat="47.670461" lon="12.170555">
        <ele>471.1</ele>
      </trkpt>
      <trkpt lat="47.670836" lon="12.170473">
        <ele>470.8</ele>
      </trkpt>
      <trkpt lat="47.671212" lon="12.170392">
        <ele>470.7</ele>
      </trkpt>
      <trkpt lat="47.671285" lon="12.170358">
        <ele>470.7</ele>
      </trkpt>
      <trkpt lat="47.671297" lon="12.170318">
        <ele>470.7</ele>
        <name>47.671297,12.170318</name>
        <extensions>
          <oa:mapZoom>16</oa:mapZoom>
        </extensions>
      </trkpt>
      <trkpt lat="47.671335" lon="12.170193">
        <ele>470.8</ele>
      </trkpt>
      <trkpt lat="47.671286" lon="12.169608">
        <ele>470.8</ele>
      </trkpt>
      <trkpt lat="47.671235" lon="12.169125">
        <ele>470.9</ele>
      </trkpt>
      <trkpt lat="47.671184" lon="12.168642">
        <ele>470.6</ele>
      </trkpt>
      <trkpt lat="47.671111" lon="12.168375">
        <ele>470.1</ele>
      </trkpt>
      <trkpt lat="47.671087" lon="12.168353">
        <ele>470.1</ele>
      </trkpt>
      <trkpt lat="47.670966" lon="12.168244">
        <ele>470.0</ele>
      </trkpt>
      <trkpt lat="47.671062" lon="12.168053">
        <ele>469.8</ele>
      </trkpt>
      <trkpt lat="47.671106" lon="12.168003">
        <ele>469.7</ele>
      </trkpt>
      <trkpt lat="47.671197" lon="12.167934">
        <ele>469.7</ele>
      </trkpt>
      <trkpt lat="47.671254" lon="12.167901">
        <ele>469.7</ele>
      </trkpt>
      <trkpt lat="47.671482" lon="12.167815">
        <ele>469.7</ele>
      </trkpt>
      <trkpt lat="47.67171" lon="12.167728">
        <ele>469.5</ele>
      </trkpt>
      <trkpt lat="47.671904" lon="12.167647">
        <ele>469.3</ele>
      </trkpt>
      <trkpt lat="47.672128" lon="12.167545">
        <ele>468.7</ele>
      </trkpt>
      <trkpt lat="47.672178" lon="12.167522">
        <ele>468.6</ele>
      </trkpt>
      <trkpt lat="47.67231" lon="12.16745">
        <ele>468.2</ele>
      </trkpt>
      <trkpt lat="47.672432" lon="12.167407">
        <ele>467.9</ele>
      </trkpt>
      <trkpt lat="47.672512" lon="12.167355">
        <ele>467.6</ele>
      </trkpt>
      <trkpt lat="47.67255" lon="12.167335">
        <ele>467.6</ele>
      </trkpt>
      <trkpt lat="47.67256" lon="12.167324">
        <ele>467.6</ele>
      </trkpt>
      <trkpt lat="47.672724" lon="12.167115">
        <ele>466.6</ele>
      </trkpt>
      <trkpt lat="47.672812" lon="12.166918">
        <ele>466.4</ele>
      </trkpt>
      <trkpt lat="47.672901" lon="12.166742">
        <ele>466.3</ele>
      </trkpt>
      <trkpt lat="47.672961" lon="12.166597">
        <ele>466.1</ele>
      </trkpt>
      <trkpt lat="47.673138" lon="12.166217">
        <ele>466.6</ele>
      </trkpt>
      <trkpt lat="47.673143" lon="12.166208">
        <ele>466.6</ele>
        <name>47.673143,12.166208</name>
        <extensions>
          <oa:mapZoom>16</oa:mapZoom>
        </extensions>
      </trkpt>
      <trkpt lat="47.673138" lon="12.166217">
        <ele>466.6</ele>
      </trkpt>
      <trkpt lat="47.672961" lon="12.166597">
        <ele>466.1</ele>
      </trkpt>
      <trkpt lat="47.672901" lon="12.166742">
        <ele>466.3</ele>
      </trkpt>
      <trkpt lat="47.672812" lon="12.166918">
        <ele>466.4</ele>
      </trkpt>
      <trkpt lat="47.672724" lon="12.167115">
        <ele>466.6</ele>
      </trkpt>
      <trkpt lat="47.67256" lon="12.167324">
        <ele>467.6</ele>
      </trkpt>
      <trkpt lat="47.67255" lon="12.167335">
        <ele>467.6</ele>
      </trkpt>
      <trkpt lat="47.672512" lon="12.167355">
        <ele>467.6</ele>
      </trkpt>
      <trkpt lat="47.672432" lon="12.167407">
        <ele>467.9</ele>
      </trkpt>
      <trkpt lat="47.67231" lon="12.16745">
        <ele>468.2</ele>
      </trkpt>
      <trkpt lat="47.672178" lon="12.167522">
        <ele>468.6</ele>
      </trkpt>
      <trkpt lat="47.672128" lon="12.167545">
        <ele>468.7</ele>
      </trkpt>
      <trkpt lat="47.671904" lon="12.167647">
        <ele>469.3</ele>
      </trkpt>
      <trkpt lat="47.67171" lon="12.167728">
        <ele>469.5</ele>
      </trkpt>
      <trkpt lat="47.671482" lon="12.167815">
        <ele>469.7</ele>
      </trkpt>
      <trkpt lat="47.671254" lon="12.167901">
        <ele>469.7</ele>
      </trkpt>
      <trkpt lat="47.671197" lon="12.167934">
        <ele>469.7</ele>
      </trkpt>
      <trkpt lat="47.671106" lon="12.168003">
        <ele>469.7</ele>
      </trkpt>
      <trkpt lat="47.671062" lon="12.168053">
        <ele>469.8</ele>
      </trkpt>
      <trkpt lat="47.670966" lon="12.168244">
        <ele>470.0</ele>
      </trkpt>
      <trkpt lat="47.670905" lon="12.168364">
        <ele>470.2</ele>
      </trkpt>
      <trkpt lat="47.670877" lon="12.16842">
        <ele>470.3</ele>
      </trkpt>
      <trkpt lat="47.670817" lon="12.168512">
        <ele>470.3</ele>
      </trkpt>
      <trkpt lat="47.670769" lon="12.168535">
        <ele>470.4</ele>
      </trkpt>
      <trkpt lat="47.6707" lon="12.16853">
        <ele>470.4</ele>
      </trkpt>
      <trkpt lat="47.670644" lon="12.168492">
        <ele>470.5</ele>
      </trkpt>
      <trkpt lat="47.67061" lon="12.168441">
        <ele>470.5</ele>
      </trkpt>
      <trkpt lat="47.670563" lon="12.168356">
        <ele>470.5</ele>
      </trkpt>
      <trkpt lat="47.67053" lon="12.168275">
        <ele>470.5</ele>
      </trkpt>
      <trkpt lat="47.670495" lon="12.168243">
        <ele>470.5</ele>
      </trkpt>
      <trkpt lat="47.670439" lon="12.16821">
        <ele>470.5</ele>
      </trkpt>
      <trkpt lat="47.670347" lon="12.168212">
        <ele>470.7</ele>
      </trkpt>
      <trkpt lat="47.67025" lon="12.168224">
        <ele>470.8</ele>
      </trkpt>
      <trkpt lat="47.67015" lon="12.168253">
        <ele>471.0</ele>
      </trkpt>
      <trkpt lat="47.67001" lon="12.168272">
        <ele>471.3</ele>
      </trkpt>
      <trkpt lat="47.669844" lon="12.168268">
        <ele>471.6</ele>
      </trkpt>
      <trkpt lat="47.669625" lon="12.168243">
        <ele>472.1</ele>
        <name>47.669625,12.168243</name>
        <extensions>
          <oa:mapZoom>16</oa:mapZoom>
        </extensions>
      </trkpt>
      <trkpt lat="47.669409" lon="12.168218">
        <ele>472.6</ele>
      </trkpt>
      <trkpt lat="47.669249" lon="12.168187">
        <ele>472.8</ele>
      </trkpt>
      <trkpt lat="47.669065" lon="12.168152">
        <ele>472.6</ele>
      </trkpt>
      <trkpt lat="47.668901" lon="12.16813">
        <ele>472.7</ele>
      </trkpt>
      <trkpt lat="47.668714" lon="12.16813">
        <ele>473.0</ele>
      </trkpt>
      <trkpt lat="47.66848" lon="12.168141">
        <ele>473.4</ele>
      </trkpt>
      <trkpt lat="47.668218" lon="12.168205">
        <ele>474.0</ele>
        <name>47.668220,12.168217</name>
        <extensions>
          <oa:mapZoom>16</oa:mapZoom>
        </extensions>
      </trkpt>
      <trkpt lat="47.668156" lon="12.16822">
        <ele>474.1</ele>
      </trkpt>
      <trkpt lat="47.667934" lon="12.168274">
        <ele>474.7</ele>
        <name>47.667934,12.168274</name>
        <extensions>
          <oa:mapZoom>18</oa:mapZoom>
        </extensions>
      </trkpt>
      <trkpt lat="47.667832" lon="12.168299">
        <ele>475.0</ele>
      </trkpt>
      <trkpt lat="47.667508" lon="12.168377">
        <ele>476.0</ele>
      </trkpt>
      <trkpt lat="47.667442" lon="12.168282">
        <ele>476.2</ele>
      </trkpt>
      <trkpt lat="47.667376" lon="12.168167">
        <ele>476.4</ele>
      </trkpt>
      <trkpt lat="47.667286" lon="12.168052">
        <ele>476.8</ele>
      </trkpt>
      <trkpt lat="47.667025" lon="12.167886">
        <ele>477.7</ele>
      </trkpt>
      <trkpt lat="47.667025" lon="12.167897">
        <ele>477.7</ele>
        <name>47.667025,12.167897</name>
        <extensions>
          <oa:mapZoom>16</oa:mapZoom>
        </extensions>
      </trkpt>
      <trkpt lat="47.667025" lon="12.167886">
        <ele>477.7</ele>
      </trkpt>
      <trkpt lat="47.66669" lon="12.167759">
        <ele>478.7</ele>
      </trkpt>
      <trkpt lat="47.666609" lon="12.167719">
        <ele>478.8</ele>
      </trkpt>
      <trkpt lat="47.666464" lon="12.167637">
        <ele>479.1</ele>
      </trkpt>
      <trkpt lat="47.666199" lon="12.16758">
        <ele>479.6</ele>
      </trkpt>
      <trkpt lat="47.666108" lon="12.167576">
        <ele>479.7</ele>
      </trkpt>
      <trkpt lat="47.665995" lon="12.167584">
        <ele>479.9</ele>
        <name>47.665994,12.167552</name>
        <extensions>
          <oa:mapZoom>16</oa:mapZoom>
        </extensions>
      </trkpt>
      <trkpt lat="47.665879" lon="12.167594">
        <ele>480.0</ele>
      </trkpt>
      <trkpt lat="47.66565" lon="12.167612">
        <ele>480.4</ele>
      </trkpt>
      <trkpt lat="47.665522" lon="12.167629">
        <ele>480.5</ele>
      </trkpt>
      <trkpt lat="47.665356" lon="12.167664">
        <ele>480.7</ele>
      </trkpt>
      <trkpt lat="47.665264" lon="12.167691">
        <ele>480.8</ele>
      </trkpt>
      <trkpt lat="47.665167" lon="12.167738">
        <ele>480.9</ele>
      </trkpt>
      <trkpt lat="47.664936" lon="12.167944">
        <ele>481.3</ele>
      </trkpt>
      <trkpt lat="47.664633" lon="12.168097">
        <ele>482.2</ele>
        <name>47.664622,12.168045</name>
        <extensions>
          <oa:mapZoom>16</oa:mapZoom>
        </extensions>
      </trkpt>
      <trkpt lat="47.664523" lon="12.168153">
        <ele>482.5</ele>
      </trkpt>
      <trkpt lat="47.664364" lon="12.168223">
        <ele>482.6</ele>
      </trkpt>
      <trkpt lat="47.664297" lon="12.168259">
        <ele>482.6</ele>
        <name>47.664297,12.168259</name>
        <extensions>
          <oa:mapZoom>16</oa:mapZoom>
        </extensions>
      </trkpt>
      <trkpt lat="47.664246" lon="12.168287">
        <ele>482.7</ele>
      </trkpt>
      <trkpt lat="47.664158" lon="12.167901">
        <ele>482.7</ele>
      </trkpt>
      <trkpt lat="47.66407" lon="12.167516">
        <ele>483.2</ele>
      </trkpt>
      <trkpt lat="47.664015" lon="12.167282">
        <ele>483.3</ele>
      </trkpt>
      <trkpt lat="47.663998" lon="12.167221">
        <ele>483.4</ele>
      </trkpt>
      <trkpt lat="47.663972" lon="12.167175">
        <ele>483.6</ele>
      </trkpt>
      <trkpt lat="47.663751" lon="12.167087">
        <ele>484.6</ele>
      </trkpt>
      <trkpt lat="47.663624" lon="12.167029">
        <ele>484.9</ele>
      </trkpt>
      <trkpt lat="47.663438" lon="12.16696">
        <ele>485.1</ele>
        <name>47.663437,12.166972</name>
        <extensions>
          <oa:mapZoom>16</oa:mapZoom>
        </extensions>
      </trkpt>
      <trkpt lat="47.663254" lon="12.166892">
        <ele>485.4</ele>
      </trkpt>
      <trkpt lat="47.662885" lon="12.166754">
        <ele>486.3</ele>
      </trkpt>
      <trkpt lat="47.662779" lon="12.166696">
        <ele>486.5</ele>
      </trkpt>
      <trkpt lat="47.662735" lon="12.166662">
        <ele>486.6</ele>
        <name>47.662735,12.166662</name>
        <extensions>
          <oa:mapZoom>16</oa:mapZoom>
        </extensions>
      </trkpt>
      <trkpt lat="47.662691" lon="12.166629">
        <ele>486.7</ele>
      </trkpt>
      <trkpt lat="47.662718" lon="12.166544">
        <ele>486.7</ele>
      </trkpt>
      <trkpt lat="47.66273" lon="12.166501">
        <ele>486.8</ele>
      </trkpt>
      <trkpt lat="47.662741" lon="12.166443">
        <ele>487.0</ele>
      </trkpt>
      <trkpt lat="47.662747" lon="12.166377">
        <ele>487.3</ele>
      </trkpt>
      <trkpt lat="47.662759" lon="12.166161">
        <ele>488.3</ele>
      </trkpt>
      <trkpt lat="47.662773" lon="12.166032">
        <ele>488.8</ele>
      </trkpt>
      <trkpt lat="47.662803" lon="12.16582">
        <ele>489.2</ele>
      </trkpt>
      <trkpt lat="47.66282" lon="12.165707">
        <ele>489.4</ele>
      </trkpt>
      <trkpt lat="47.66283" lon="12.165601">
        <ele>489.6</ele>
      </trkpt>
      <trkpt lat="47.662829" lon="12.165574">
        <ele>489.7</ele>
      </trkpt>
      <trkpt lat="47.662823" lon="12.165525">
        <ele>489.8</ele>
      </trkpt>
      <trkpt lat="47.662812" lon="12.165477">
        <ele>490.0</ele>
      </trkpt>
      <trkpt lat="47.662796" lon="12.165422">
        <ele>490.2</ele>
      </trkpt>
      <trkpt lat="47.662765" lon="12.165339">
        <ele>490.6</ele>
      </trkpt>
      <trkpt lat="47.662702" lon="12.165212">
        <ele>491.1</ele>
      </trkpt>
      <trkpt lat="47.662639" lon="12.165055">
        <ele>491.7</ele>
      </trkpt>
      <trkpt lat="47.662617" lon="12.16499">
        <ele>491.8</ele>
      </trkpt>
      <trkpt lat="47.662596" lon="12.164904">
        <ele>492.1</ele>
      </trkpt>
      <trkpt lat="47.662577" lon="12.164707">
        <ele>492.4</ele>
      </trkpt>
      <trkpt lat="47.662569" lon="12.164538">
        <ele>492.8</ele>
      </trkpt>
      <trkpt lat="47.662582" lon="12.164176">
        <ele>494.1</ele>
      </trkpt>
      <trkpt lat="47.662469" lon="12.163687">
        <ele>495.5</ele>
      </trkpt>
      <trkpt lat="47.662418" lon="12.163541">
        <ele>495.8</ele>
      </trkpt>
      <trkpt lat="47.662358" lon="12.163355">
        <ele>496.3</ele>
      </trkpt>
      <trkpt lat="47.662321" lon="12.163234">
        <ele>496.6</ele>
      </trkpt>
      <trkpt lat="47.662288" lon="12.163074">
        <ele>497.2</ele>
      </trkpt>
      <trkpt lat="47.66224" lon="12.16272">
        <ele>498.4</ele>
      </trkpt>
      <trkpt lat="47.662211" lon="12.162478">
        <ele>499.5</ele>
      </trkpt>
      <trkpt lat="47.662162" lon="12.162095">
        <ele>501.4</ele>
      </trkpt>
      <trkpt lat="47.662109" lon="12.161808">
        <ele>501.6</ele>
      </trkpt>
      <trkpt lat="47.662059" lon="12.161616">
        <ele>501.5</ele>
      </trkpt>
      <trkpt lat="47.661992" lon="12.161436">
        <ele>501.3</ele>
      </trkpt>
      <trkpt lat="47.661946" lon="12.161319">
        <ele>501.3</ele>
      </trkpt>
      <trkpt lat="47.661834" lon="12.161059">
        <ele>502.7</ele>
        <name>47.661834,12.161059</name>
        <extensions>
          <oa:mapZoom>16</oa:mapZoom>
        </extensions>
      </trkpt>
      <trkpt lat="47.661818" lon="12.161021">
        <ele>502.9</ele>
      </trkpt>
      <trkpt lat="47.66169" lon="12.160724">
        <ele>503.8</ele>
      </trkpt>
      <trkpt lat="47.661632" lon="12.160568">
        <ele>504.5</ele>
      </trkpt>
      <trkpt lat="47.66158" lon="12.160412">
        <ele>505.0</ele>
      </trkpt>
      <trkpt lat="47.6615" lon="12.160135">
        <ele>505.9</ele>
      </trkpt>
      <trkpt lat="47.661365" lon="12.15964">
        <ele>508.1</ele>
      </trkpt>
      <trkpt lat="47.661211" lon="12.159138">
        <ele>509.8</ele>
      </trkpt>
      <trkpt lat="47.661057" lon="12.158635">
        <ele>512.6</ele>
      </trkpt>
      <trkpt lat="47.661068" lon="12.158505">
        <ele>513.2</ele>
      </trkpt>
      <trkpt lat="47.661075" lon="12.158298">
        <ele>513.6</ele>
      </trkpt>
      <trkpt lat="47.661075" lon="12.158239">
        <ele>513.8</ele>
        <name>47.661075,12.158239</name>
        <extensions>
          <oa:mapZoom>16</oa:mapZoom>
        </extensions>
      </trkpt>
      <trkpt lat="47.661074" lon="12.158178">
        <ele>513.9</ele>
      </trkpt>
      <trkpt lat="47.661071" lon="12.158029">
        <ele>514.2</ele>
      </trkpt>
      <trkpt lat="47.661056" lon="12.157799">
        <ele>514.8</ele>
      </trkpt>
      <trkpt lat="47.661022" lon="12.157529">
        <ele>515.5</ele>
      </trkpt>
      <trkpt lat="47.661009" lon="12.157378">
        <ele>515.7</ele>
      </trkpt>
      <trkpt lat="47.661008" lon="12.157232">
        <ele>516.0</ele>
      </trkpt>
      <trkpt lat="47.661015" lon="12.157095">
        <ele>516.5</ele>
      </trkpt>
      <trkpt lat="47.661017" lon="12.157054">
        <ele>516.7</ele>
      </trkpt>
      <trkpt lat="47.661017" lon="12.157012">
        <ele>516.9</ele>
      </trkpt>
      <trkpt lat="47.661011" lon="12.15696">
        <ele>517.4</ele>
      </trkpt>
      <trkpt lat="47.661002" lon="12.156895">
        <ele>517.9</ele>
        <name>47.661002,12.156895</name>
        <extensions>
          <oa:mapZoom>16</oa:mapZoom>
        </extensions>
      </trkpt>
      <trkpt lat="47.660999" lon="12.156876">
        <ele>518.1</ele>
      </trkpt>
      <trkpt lat="47.66099" lon="12.1568">
        <ele>518.8</ele>
      </trkpt>
      <trkpt lat="47.660899" lon="12.156853">
        <ele>517.9</ele>
      </trkpt>
      <trkpt lat="47.660878" lon="12.156865">
        <ele>517.7</ele>
      </trkpt>
      <trkpt lat="47.66076" lon="12.156917">
        <ele>517.1</ele>
      </trkpt>
      <trkpt lat="47.660634" lon="12.156956">
        <ele>516.8</ele>
      </trkpt>
      <trkpt lat="47.660533" lon="12.156976">
        <ele>516.6</ele>
      </trkpt>
      <trkpt lat="47.660402" lon="12.156981">
        <ele>516.4</ele>
      </trkpt>
      <trkpt lat="47.660256" lon="12.156951">
        <ele>516.1</ele>
      </trkpt>
      <trkpt lat="47.660163" lon="12.156923">
        <ele>515.8</ele>
      </trkpt>
      <trkpt lat="47.659911" lon="12.156789">
        <ele>515.0</ele>
      </trkpt>
      <trkpt lat="47.659656" lon="12.156656">
        <ele>514.0</ele>
      </trkpt>
      <trkpt lat="47.6594" lon="12.156523">
        <ele>513.0</ele>
      </trkpt>
      <trkpt lat="47.659284" lon="12.156471">
        <ele>512.9</ele>
      </trkpt>
      <trkpt lat="47.659188" lon="12.15644">
        <ele>512.9</ele>
      </trkpt>
      <trkpt lat="47.659065" lon="12.156408">
        <ele>512.8</ele>
      </trkpt>
      <trkpt lat="47.658979" lon="12.15639">
        <ele>512.1</ele>
      </trkpt>
      <trkpt lat="47.65886" lon="12.15637">
        <ele>510.7</ele>
      </trkpt>
      <trkpt lat="47.658764" lon="12.156351">
        <ele>509.3</ele>
      </trkpt>
      <trkpt lat="47.658696" lon="12.15634">
        <ele>508.3</ele>
      </trkpt>
      <trkpt lat="47.658615" lon="12.15632">
        <ele>507.1</ele>
      </trkpt>
      <trkpt lat="47.658582" lon="12.156292">
        <ele>506.6</ele>
        <name>47.658582,12.156292</name>
        <extensions>
          <oa:mapZoom>16</oa:mapZoom>
        </extensions>
      </trkpt>
      <trkpt lat="47.658567" lon="12.156279">
        <ele>506.3</ele>
      </trkpt>
      <trkpt lat="47.658401" lon="12.156431">
        <ele>505.4</ele>
      </trkpt>
      <trkpt lat="47.658322" lon="12.156495">
        <ele>505.0</ele>
      </trkpt>
      <trkpt lat="47.658172" lon="12.156669">
        <ele>505.1</ele>
      </trkpt>
      <trkpt lat="47.65802" lon="12.156929">
        <ele>506.7</ele>
      </trkpt>
      <trkpt lat="47.657967" lon="12.156801">
        <ele>505.0</ele>
      </trkpt>
      <trkpt lat="47.657957" lon="12.156787">
        <ele>504.8</ele>
      </trkpt>
      <trkpt lat="47.657941" lon="12.156762">
        <ele>504.5</ele>
      </trkpt>
      <trkpt lat="47.657888" lon="12.156746">
        <ele>503.9</ele>
      </trkpt>
      <trkpt lat="47.657854" lon="12.156747">
        <ele>503.6</ele>
      </trkpt>
      <trkpt lat="47.657643" lon="12.156931">
        <ele>503.9</ele>
      </trkpt>
      <trkpt lat="47.657432" lon="12.157116">
        <ele>503.9</ele>
      </trkpt>
      <trkpt lat="47.657193" lon="12.157325">
        <ele>503.9</ele>
      </trkpt>
      <trkpt lat="47.656967" lon="12.157534">
        <ele>504.1</ele>
      </trkpt>
      <trkpt lat="47.656908" lon="12.157608">
        <ele>504.0</ele>
      </trkpt>
      <trkpt lat="47.656853" lon="12.157693">
        <ele>504.0</ele>
      </trkpt>
      <trkpt lat="47.656775" lon="12.15787">
        <ele>504.0</ele>
      </trkpt>
      <trkpt lat="47.656762" lon="12.157915">
        <ele>504.0</ele>
      </trkpt>
      <trkpt lat="47.656749" lon="12.158123">
        <ele>504.3</ele>
      </trkpt>
      <trkpt lat="47.656767" lon="12.158267">
        <ele>504.5</ele>
      </trkpt>
      <trkpt lat="47.656781" lon="12.158302">
        <ele>504.6</ele>
        <name>47.656781,12.158302</name>
        <extensions>
          <oa:mapZoom>16</oa:mapZoom>
        </extensions>
      </trkpt>
      <trkpt lat="47.656905" lon="12.158606">
        <ele>505.5</ele>
      </trkpt>
      <trkpt lat="47.65698" lon="12.158753">
        <ele>505.3</ele>
      </trkpt>
      <trkpt lat="47.657145" lon="12.159014">
        <ele>503.8</ele>
      </trkpt>
      <trkpt lat="47.657311" lon="12.159276">
        <ele>501.1</ele>
      </trkpt>
      <trkpt lat="47.657334" lon="12.159312">
        <ele>500.6</ele>
      </trkpt>
      <trkpt lat="47.657459" lon="12.159526">
        <ele>498.4</ele>
      </trkpt>
      <trkpt lat="47.657665" lon="12.159924">
        <ele>496.5</ele>
      </trkpt>
      <trkpt lat="47.657669" lon="12.159935">
        <ele>496.5</ele>
      </trkpt>
      <trkpt lat="47.657739" lon="12.16017">
        <ele>495.8</ele>
      </trkpt>
      <trkpt lat="47.657742" lon="12.160184">
        <ele>495.7</ele>
      </trkpt>
      <trkpt lat="47.657767" lon="12.160392">
        <ele>495.2</ele>
      </trkpt>
      <trkpt lat="47.65778" lon="12.160663">
        <ele>494.7</ele>
      </trkpt>
      <trkpt lat="47.657753" lon="12.161065">
        <ele>494.3</ele>
      </trkpt>
      <trkpt lat="47.657726" lon="12.161467">
        <ele>493.8</ele>
      </trkpt>
      <trkpt lat="47.657691" lon="12.162084">
        <ele>492.8</ele>
      </trkpt>
      <trkpt lat="47.657715" lon="12.162432">
        <ele>492.2</ele>
      </trkpt>
      <trkpt lat="47.6578" lon="12.162769">
        <ele>491.9</ele>
      </trkpt>
      <trkpt lat="47.657921" lon="12.163116">
        <ele>492.1</ele>
      </trkpt>
      <trkpt lat="47.657953" lon="12.1632">
        <ele>492.2</ele>
      </trkpt>
      <trkpt lat="47.658025" lon="12.163384">
        <ele>492.6</ele>
      </trkpt>
      <trkpt lat="47.658069" lon="12.163566">
        <ele>492.6</ele>
      </trkpt>
      <trkpt lat="47.658115" lon="12.163769">
        <ele>492.6</ele>
      </trkpt>
      <trkpt lat="47.658132" lon="12.163926">
        <ele>492.4</ele>
      </trkpt>
      <trkpt lat="47.658132" lon="12.164054">
        <ele>491.9</ele>
      </trkpt>
      <trkpt lat="47.658126" lon="12.164169">
        <ele>491.2</ele>
      </trkpt>
      <trkpt lat="47.658123" lon="12.164282">
        <ele>490.6</ele>
      </trkpt>
      <trkpt lat="47.658122" lon="12.164304">
        <ele>490.5</ele>
      </trkpt>
      <trkpt lat="47.658138" lon="12.164576">
        <ele>489.4</ele>
      </trkpt>
      <trkpt lat="47.658182" lon="12.164928">
        <ele>488.4</ele>
      </trkpt>
      <trkpt lat="47.658267" lon="12.165212">
        <ele>488.1</ele>
      </trkpt>
      <trkpt lat="47.658309" lon="12.165299">
        <ele>488.2</ele>
      </trkpt>
      <trkpt lat="47.658582" lon="12.165736">
        <ele>486.9</ele>
      </trkpt>
      <trkpt lat="47.658639" lon="12.165827">
        <ele>486.6</ele>
      </trkpt>
      <trkpt lat="47.658672" lon="12.165884">
        <ele>486.4</ele>
      </trkpt>
      <trkpt lat="47.658721" lon="12.165976">
        <ele>486.1</ele>
      </trkpt>
      <trkpt lat="47.658726" lon="12.165991">
        <ele>486.1</ele>
      </trkpt>
      <trkpt lat="47.658783" lon="12.166145">
        <ele>485.6</ele>
      </trkpt>
      <trkpt lat="47.658874" lon="12.166423">
        <ele>485.4</ele>
        <name>47.658874,12.166423</name>
        <extensions>
          <oa:mapZoom>16</oa:mapZoom>
        </extensions>
      </trkpt>
      <trkpt lat="47.658892" lon="12.166479">
        <ele>485.4</ele>
      </trkpt>
      <trkpt lat="47.659002" lon="12.166813">
        <ele>485.5</ele>
      </trkpt>
      <trkpt lat="47.659123" lon="12.167164">
        <ele>485.6</ele>
      </trkpt>
      <trkpt lat="47.659244" lon="12.167515">
        <ele>484.6</ele>
      </trkpt>
      <trkpt lat="47.659417" lon="12.167817">
        <ele>483.0</ele>
      </trkpt>
      <trkpt lat="47.659635" lon="12.168022">
        <ele>482.2</ele>
      </trkpt>
      <trkpt lat="47.65995" lon="12.168317">
        <ele>481.8</ele>
      </trkpt>
      <trkpt lat="47.660303" lon="12.168729">
        <ele>481.5</ele>
      </trkpt>
      <trkpt lat="47.660311" lon="12.168741">
        <ele>481.5</ele>
      </trkpt>
      <trkpt lat="47.660334" lon="12.168791">
        <ele>481.3</ele>
      </trkpt>
      <trkpt lat="47.660406" lon="12.168951">
        <ele>480.6</ele>
      </trkpt>
      <trkpt lat="47.660537" lon="12.169243">
        <ele>479.7</ele>
      </trkpt>
      <trkpt lat="47.660563" lon="12.169302">
        <ele>479.5</ele>
        <name>47.660532,12.169332</name>
        <extensions>
          <oa:mapZoom>16</oa:mapZoom>
        </extensions>
      </trkpt>
      <trkpt lat="47.660668" lon="12.169536">
        <ele>478.8</ele>
      </trkpt>
      <trkpt lat="47.660802" lon="12.169927">
        <ele>478.6</ele>
      </trkpt>
      <trkpt lat="47.660937" lon="12.170318">
        <ele>480.1</ele>
      </trkpt>
      <trkpt lat="47.66094" lon="12.170328">
        <ele>480.1</ele>
        <name>47.660940,12.170328</name>
        <extensions>
          <oa:mapZoom>16</oa:mapZoom>
        </extensions>
      </trkpt>
      <trkpt lat="47.66103" lon="12.170647">
        <ele>480.8</ele>
      </trkpt>
      <trkpt lat="47.661067" lon="12.17078">
        <ele>480.9</ele>
      </trkpt>
      <trkpt lat="47.661083" lon="12.170901">
        <ele>480.7</ele>
      </trkpt>
      <trkpt lat="47.661116" lon="12.171254">
        <ele>480.1</ele>
      </trkpt>
      <trkpt lat="47.661121" lon="12.171509">
        <ele>479.9</ele>
      </trkpt>
      <trkpt lat="47.661075" lon="12.17194">
        <ele>479.3</ele>
      </trkpt>
      <trkpt lat="47.661029" lon="12.172372">
        <ele>479.0</ele>
      </trkpt>
      <trkpt lat="47.660989" lon="12.17253">
        <ele>478.7</ele>
        <name>47.660989,12.172530</name>
        <extensions>
          <oa:mapZoom>16</oa:mapZoom>
        </extensions>
      </trkpt>
      <trkpt lat="47.660945" lon="12.172702">
        <ele>478.5</ele>
      </trkpt>
      <trkpt lat="47.660925" lon="12.172791">
        <ele>478.3</ele>
      </trkpt>
      <trkpt lat="47.66084" lon="12.173146">
        <ele>478.0</ele>
      </trkpt>
      <trkpt lat="47.660712" lon="12.173534">
        <ele>477.3</ele>
      </trkpt>
      <trkpt lat="47.66058" lon="12.173886">
        <ele>476.9</ele>
      </trkpt>
      <trkpt lat="47.660448" lon="12.174237">
        <ele>476.6</ele>
      </trkpt>
      <trkpt lat="47.660423" lon="12.174334">
        <ele>476.6</ele>
      </trkpt>
      <trkpt lat="47.660332" lon="12.174753">
        <ele>476.5</ele>
      </trkpt>
      <trkpt lat="47.660322" lon="12.174903">
        <ele>476.3</ele>
      </trkpt>
      <trkpt lat="47.660324" lon="12.175016">
        <ele>476.2</ele>
      </trkpt>
      <trkpt lat="47.660327" lon="12.175112">
        <ele>476.0</ele>
      </trkpt>
      <trkpt lat="47.660374" lon="12.175569">
        <ele>475.3</ele>
      </trkpt>
      <trkpt lat="47.660384" lon="12.175639">
        <ele>475.2</ele>
        <name>47.660384,12.175639</name>
        <extensions>
          <oa:mapZoom>16</oa:mapZoom>
        </extensions>
      </trkpt>
      <trkpt lat="47.660453" lon="12.17613">
        <ele>474.6</ele>
      </trkpt>
      <trkpt lat="47.660524" lon="12.176556">
        <ele>474.6</ele>
      </trkpt>
      <trkpt lat="47.660528" lon="12.176577">
        <ele>474.6</ele>
      </trkpt>
      <trkpt lat="47.660542" lon="12.176737">
        <ele>474.4</ele>
      </trkpt>
      <trkpt lat="47.660556" lon="12.176914">
        <ele>474.2</ele>
      </trkpt>
      <trkpt lat="47.660594" lon="12.176925">
        <ele>474.4</ele>
        <name>47.660594,12.176925</name>
        <extensions>
          <oa:mapZoom>16</oa:mapZoom>
        </extensions>
      </trkpt>
      <trkpt lat="47.660907" lon="12.177019">
        <ele>476.3</ele>
      </trkpt>
      <trkpt lat="47.661061" lon="12.177057">
        <ele>476.0</ele>
      </trkpt>
      <trkpt lat="47.661179" lon="12.177193">
        <ele>475.3</ele>
      </trkpt>
      <trkpt lat="47.661288" lon="12.177351">
        <ele>474.6</ele>
      </trkpt>
      <trkpt lat="47.66135" lon="12.177427">
        <ele>474.2</ele>
      </trkpt>
      <trkpt lat="47.661416" lon="12.177479">
        <ele>473.9</ele>
      </trkpt>
      <trkpt lat="47.661485" lon="12.177507">
        <ele>473.7</ele>
      </trkpt>
      <trkpt lat="47.661547" lon="12.177508">
        <ele>473.5</ele>
      </trkpt>
      <trkpt lat="47.661558" lon="12.177554">
        <ele>473.5</ele>
        <name>47.661558,12.177554</name>
        <extensions>
          <oa:mapZoom>16</oa:mapZoom>
        </extensions>
      </trkpt>
      <trkpt lat="47.661578" lon="12.177636">
        <ele>473.3</ele>
      </trkpt>
      <trkpt lat="47.661621" lon="12.177781">
        <ele>473.1</ele>
      </trkpt>
      <trkpt lat="47.661673" lon="12.177974">
        <ele>472.9</ele>
      </trkpt>
      <trkpt lat="47.661733" lon="12.17813">
        <ele>472.6</ele>
      </trkpt>
      <trkpt lat="47.662031" lon="12.178167">
        <ele>472.7</ele>
      </trkpt>
      <trkpt lat="47.662168" lon="12.17814">
        <ele>473.2</ele>
      </trkpt>
      <trkpt lat="47.662264" lon="12.178104">
        <ele>473.7</ele>
      </trkpt>
      <trkpt lat="47.662342" lon="12.178048">
        <ele>474.1</ele>
      </trkpt>
      <trkpt lat="47.662414" lon="12.177972">
        <ele>474.1</ele>
      </trkpt>
      <trkpt lat="47.662499" lon="12.177903">
        <ele>473.9</ele>
      </trkpt>
      <trkpt lat="47.662624" lon="12.177789">
        <ele>473.4</ele>
      </trkpt>
      <trkpt lat="47.66274" lon="12.177643">
        <ele>473.1</ele>
        <name>47.662740,12.177643</name>
        <extensions>
          <oa:mapZoom>16</oa:mapZoom>
        </extensions>
      </trkpt>
      <trkpt lat="47.662756" lon="12.177622">
        <ele>473.1</ele>
      </trkpt>
      <trkpt lat="47.662956" lon="12.177392">
        <ele>473.1</ele>
      </trkpt>
      <trkpt lat="47.663161" lon="12.17721">
        <ele>473.2</ele>
      </trkpt>
      <trkpt lat="47.663203" lon="12.17719">
        <ele>473.3</ele>
      </trkpt>
      <trkpt lat="47.663345" lon="12.177125">
        <ele>473.7</ele>
      </trkpt>
      <trkpt lat="47.663692" lon="12.176995">
        <ele>474.4</ele>
      </trkpt>
      <trkpt lat="47.664061" lon="12.176839">
        <ele>474.4</ele>
      </trkpt>
      <trkpt lat="47.664431" lon="12.176683">
        <ele>473.8</ele>
      </trkpt>
      <trkpt lat="47.664719" lon="12.176585">
        <ele>473.4</ele>
      </trkpt>
      <trkpt lat="47.664878" lon="12.176531">
        <ele>473.3</ele>
        <name>47.664878,12.176531</name>
        <extensions>
          <oa:mapZoom>16</oa:mapZoom>
        </extensions>
      </trkpt>
    </trkseg>
  </trk>
</gpx>