<?xml version='1.0' encoding='UTF-8'?>
<gpx version="1.1" creator="https://www.komoot.de" xmlns="http://www.topografix.com/GPX/1/1" xmlns:xsi="http://www.w3.org/2001/XMLSchema-instance" xsi:schemaLocation="http://www.topografix.com/GPX/1/1 http://www.topografix.com/GPX/1/1/gpx.xsd">
  <metadata>
    <name>IVV-PW 394 MOB München "Stadt und Natur Oberes Isartal" 6 km</name>
    <author>
      <link href="https://www.komoot.de">
        <text>komoot</text>
        <type>text/html</type>
      </link>
    </author>
  </metadata>
  <trk>
    <name>IVV-PW 394 MOB München "Stadt und Natur Oberes Isartal" 6 km</name>
    <trkseg>
      <trkpt lat="48.103742" lon="11.546004">
        <ele>527.157748</ele>
        <time>2024-12-16T15:48:38.823Z</time>
      </trkpt>
      <trkpt lat="48.103746" lon="11.546034">
        <ele>527.157748</ele>
        <time>2024-12-16T15:48:40.908Z</time>
      </trkpt>
      <trkpt lat="48.103577" lon="11.546081">
        <ele>527.157748</ele>
        <time>2024-12-16T15:48:58.404Z</time>
      </trkpt>
      <trkpt lat="48.103463" lon="11.546092">
        <ele>527.157748</ele>
        <time>2024-12-16T15:49:09.940Z</time>
      </trkpt>
      <trkpt lat="48.103000" lon="11.546142">
        <ele>527.157748</ele>
        <time>2024-12-16T15:49:57.193Z</time>
      </trkpt>
      <trkpt lat="48.102161" lon="11.546188">
        <ele>526.414650</ele>
        <time>2024-12-16T15:51:23.509Z</time>
      </trkpt>
      <trkpt lat="48.101870" lon="11.546284">
        <ele>526.103219</ele>
        <time>2024-12-16T15:51:53.946Z</time>
      </trkpt>
      <trkpt lat="48.101696" lon="11.546356">
        <ele>525.914547</ele>
        <time>2024-12-16T15:52:12.278Z</time>
      </trkpt>
      <trkpt lat="48.101593" lon="11.546491">
        <ele>525.771485</ele>
        <time>2024-12-16T15:52:26.091Z</time>
      </trkpt>
      <trkpt lat="48.101581" lon="11.546526">
        <ele>525.744025</ele>
        <time>2024-12-16T15:52:28.774Z</time>
      </trkpt>
      <trkpt lat="48.101510" lon="11.546668">
        <ele>525.620213</ele>
        <time>2024-12-16T15:52:40.799Z</time>
      </trkpt>
      <trkpt lat="48.101451" lon="11.546791">
        <ele>525.514512</ele>
        <time>2024-12-16T15:52:51.194Z</time>
      </trkpt>
      <trkpt lat="48.101199" lon="11.547600">
        <ele>525.088144</ele>
        <time>2024-12-16T15:53:52.441Z</time>
      </trkpt>
      <trkpt lat="48.101175" lon="11.547666">
        <ele>525.062388</ele>
        <time>2024-12-16T15:53:57.591Z</time>
      </trkpt>
      <trkpt lat="48.101143" lon="11.547754">
        <ele>525.028048</ele>
        <time>2024-12-16T15:54:04.363Z</time>
      </trkpt>
      <trkpt lat="48.101045" lon="11.547974">
        <ele>524.937414</ele>
        <time>2024-12-16T15:54:22.356Z</time>
      </trkpt>
      <trkpt lat="48.100969" lon="11.548218">
        <ele>524.845141</ele>
        <time>2024-12-16T15:54:40.613Z</time>
      </trkpt>
      <trkpt lat="48.100938" lon="11.548443">
        <ele>524.766405</ele>
        <time>2024-12-16T15:54:56.097Z</time>
      </trkpt>
      <trkpt lat="48.100718" lon="11.550992">
        <ele>524.257272</ele>
        <time>2024-12-16T15:57:48.195Z</time>
      </trkpt>
      <trkpt lat="48.100703" lon="11.551269">
        <ele>524.237470</ele>
        <time>2024-12-16T15:58:06.881Z</time>
      </trkpt>
      <trkpt lat="48.100664" lon="11.551268">
        <ele>524.233309</ele>
        <time>2024-12-16T15:58:10.777Z</time>
      </trkpt>
      <trkpt lat="48.100628" lon="11.551266">
        <ele>524.229465</ele>
        <time>2024-12-16T15:58:14.399Z</time>
      </trkpt>
      <trkpt lat="48.100632" lon="11.551134">
        <ele>524.220050</ele>
        <time>2024-12-16T15:58:23.290Z</time>
      </trkpt>
      <trkpt lat="48.100633" lon="11.551108">
        <ele>524.218194</ele>
        <time>2024-12-16T15:58:25.062Z</time>
      </trkpt>
      <trkpt lat="48.100419" lon="11.550965">
        <ele>524.193191</ele>
        <time>2024-12-16T15:58:48.544Z</time>
      </trkpt>
      <trkpt lat="48.096730" lon="11.550923">
        <ele>523.323927</ele>
        <time>2024-12-16T16:05:00.343Z</time>
      </trkpt>
      <trkpt lat="48.094981" lon="11.550935">
        <ele>524.123326</ele>
        <time>2024-12-16T16:08:00.017Z</time>
      </trkpt>
      <trkpt lat="48.094183" lon="11.550834">
        <ele>524.400568</ele>
        <time>2024-12-16T16:09:20.412Z</time>
      </trkpt>
      <trkpt lat="48.093459" lon="11.550583">
        <ele>524.598296</ele>
        <time>2024-12-16T16:10:34.828Z</time>
      </trkpt>
      <trkpt lat="48.093421" lon="11.550584">
        <ele>524.608408</ele>
        <time>2024-12-16T16:10:38.695Z</time>
      </trkpt>
      <trkpt lat="48.092773" lon="11.550579">
        <ele>524.868184</ele>
        <time>2024-12-16T16:11:44.989Z</time>
      </trkpt>
      <trkpt lat="48.092661" lon="11.550576">
        <ele>524.949493</ele>
        <time>2024-12-16T16:11:56.479Z</time>
      </trkpt>
      <trkpt lat="48.092464" lon="11.550531">
        <ele>525.094143</ele>
        <time>2024-12-16T16:12:16.894Z</time>
      </trkpt>
      <trkpt lat="48.092323" lon="11.550627">
        <ele>525.206575</ele>
        <time>2024-12-16T16:12:32.753Z</time>
      </trkpt>
      <trkpt lat="48.092257" lon="11.550701">
        <ele>525.266427</ele>
        <time>2024-12-16T16:12:41.233Z</time>
      </trkpt>
      <trkpt lat="48.092223" lon="11.550587">
        <ele>525.326957</ele>
        <time>2024-12-16T16:12:49.720Z</time>
      </trkpt>
      <trkpt lat="48.092211" lon="11.550282">
        <ele>525.475085</ele>
        <time>2024-12-16T16:13:10.627Z</time>
      </trkpt>
      <trkpt lat="48.092172" lon="11.550286">
        <ele>525.503460</ele>
        <time>2024-12-16T16:13:14.660Z</time>
      </trkpt>
      <trkpt lat="48.092001" lon="11.549044">
        <ele>526.101516</ele>
        <time>2024-12-16T16:14:42.289Z</time>
      </trkpt>
      <trkpt lat="48.091990" lon="11.548863">
        <ele>526.171719</ele>
        <time>2024-12-16T16:14:54.588Z</time>
      </trkpt>
      <trkpt lat="48.092012" lon="11.548730">
        <ele>526.224645</ele>
        <time>2024-12-16T16:15:03.831Z</time>
      </trkpt>
      <trkpt lat="48.092017" lon="11.548309">
        <ele>526.387288</ele>
        <time>2024-12-16T16:15:32.599Z</time>
      </trkpt>
      <trkpt lat="48.092027" lon="11.548243">
        <ele>526.413430</ele>
        <time>2024-12-16T16:15:37.214Z</time>
      </trkpt>
      <trkpt lat="48.091746" lon="11.548164">
        <ele>526.578772</ele>
        <time>2024-12-16T16:16:06.620Z</time>
      </trkpt>
      <trkpt lat="48.091537" lon="11.548073">
        <ele>526.704644</ele>
        <time>2024-12-16T16:16:29.130Z</time>
      </trkpt>
      <trkpt lat="48.091391" lon="11.547969">
        <ele>526.798145</ele>
        <time>2024-12-16T16:16:45.824Z</time>
      </trkpt>
      <trkpt lat="48.091272" lon="11.547901">
        <ele>526.871805</ele>
        <time>2024-12-16T16:16:58.946Z</time>
      </trkpt>
      <trkpt lat="48.090773" lon="11.547461">
        <ele>526.940719</ele>
        <time>2024-12-16T16:17:57.214Z</time>
      </trkpt>
      <trkpt lat="48.090010" lon="11.546703">
        <ele>526.392763</ele>
        <time>2024-12-16T16:19:30.193Z</time>
      </trkpt>
      <trkpt lat="48.089955" lon="11.546501">
        <ele>526.305573</ele>
        <time>2024-12-16T16:19:45.026Z</time>
      </trkpt>
      <trkpt lat="48.090054" lon="11.546121">
        <ele>526.142540</ele>
        <time>2024-12-16T16:20:12.778Z</time>
      </trkpt>
      <trkpt lat="48.089650" lon="11.545691">
        <ele>525.905808</ele>
        <time>2024-12-16T16:21:03.404Z</time>
      </trkpt>
      <trkpt lat="48.089458" lon="11.545487">
        <ele>525.819795</ele>
        <time>2024-12-16T16:21:27.362Z</time>
      </trkpt>
      <trkpt lat="48.088406" lon="11.544786">
        <ele>525.399118</ele>
        <time>2024-12-16T16:23:23.357Z</time>
      </trkpt>
      <trkpt lat="48.088237" lon="11.544868">
        <ele>525.355146</ele>
        <time>2024-12-16T16:23:41.229Z</time>
      </trkpt>
      <trkpt lat="48.088003" lon="11.544891">
        <ele>525.483619</ele>
        <time>2024-12-16T16:24:04.968Z</time>
      </trkpt>
      <trkpt lat="48.087456" lon="11.544633">
        <ele>525.797815</ele>
        <time>2024-12-16T16:25:03.534Z</time>
      </trkpt>
      <trkpt lat="48.086995" lon="11.544264">
        <ele>526.084210</ele>
        <time>2024-12-16T16:25:57.267Z</time>
      </trkpt>
      <trkpt lat="48.085112" lon="11.542676">
        <ele>527.948990</ele>
        <time>2024-12-16T16:29:39.169Z</time>
      </trkpt>
      <trkpt lat="48.084676" lon="11.542289">
        <ele>528.636057</ele>
        <time>2024-12-16T16:30:33.811Z</time>
      </trkpt>
      <trkpt lat="48.083747" lon="11.541385">
        <ele>530.226293</ele>
        <time>2024-12-16T16:32:32.151Z</time>
      </trkpt>
      <trkpt lat="48.083815" lon="11.541250">
        <ele>530.388396</ele>
        <time>2024-12-16T16:32:43.836Z</time>
      </trkpt>
      <trkpt lat="48.083799" lon="11.540953">
        <ele>530.581570</ele>
        <time>2024-12-16T16:33:04.226Z</time>
      </trkpt>
      <trkpt lat="48.083865" lon="11.540767">
        <ele>530.500162</ele>
        <time>2024-12-16T16:33:18.504Z</time>
      </trkpt>
      <trkpt lat="48.084575" lon="11.540680">
        <ele>530.087977</ele>
        <time>2024-12-16T16:34:31.022Z</time>
      </trkpt>
      <trkpt lat="48.084715" lon="11.540686">
        <ele>530.006939</ele>
        <time>2024-12-16T16:34:45.526Z</time>
      </trkpt>
      <trkpt lat="48.085214" lon="11.540705">
        <ele>529.718122</ele>
        <time>2024-12-16T16:35:37.662Z</time>
      </trkpt>
      <trkpt lat="48.085301" lon="11.540733">
        <ele>529.666633</ele>
        <time>2024-12-16T16:35:46.818Z</time>
      </trkpt>
      <trkpt lat="48.085352" lon="11.540791">
        <ele>529.629574</ele>
        <time>2024-12-16T16:35:53.486Z</time>
      </trkpt>
      <trkpt lat="48.085806" lon="11.540917">
        <ele>531.345600</ele>
        <time>2024-12-16T16:36:39.944Z</time>
      </trkpt>
      <trkpt lat="48.085918" lon="11.540975">
        <ele>531.940296</ele>
        <time>2024-12-16T16:36:52.741Z</time>
      </trkpt>
      <trkpt lat="48.085998" lon="11.541111">
        <ele>532.547739</ele>
        <time>2024-12-16T16:37:06.398Z</time>
      </trkpt>
      <trkpt lat="48.086034" lon="11.541158">
        <ele>532.787438</ele>
        <time>2024-12-16T16:37:11.798Z</time>
      </trkpt>
      <trkpt lat="48.086069" lon="11.541188">
        <ele>532.989821</ele>
        <time>2024-12-16T16:37:16.476Z</time>
      </trkpt>
      <trkpt lat="48.086146" lon="11.541196">
        <ele>533.377137</ele>
        <time>2024-12-16T16:37:25.431Z</time>
      </trkpt>
      <trkpt lat="48.086216" lon="11.541127">
        <ele>533.797710</ele>
        <time>2024-12-16T16:37:35.286Z</time>
      </trkpt>
      <trkpt lat="48.086310" lon="11.541110">
        <ele>534.272832</ele>
        <time>2024-12-16T16:37:46.504Z</time>
      </trkpt>
      <trkpt lat="48.086319" lon="11.541081">
        <ele>534.380021</ele>
        <time>2024-12-16T16:37:49.161Z</time>
      </trkpt>
      <trkpt lat="48.086326" lon="11.541056">
        <ele>534.470887</ele>
        <time>2024-12-16T16:37:51.342Z</time>
      </trkpt>
      <trkpt lat="48.086379" lon="11.540891">
        <ele>535.084600</ele>
        <time>2024-12-16T16:38:06.260Z</time>
      </trkpt>
      <trkpt lat="48.086407" lon="11.540805">
        <ele>535.405296</ele>
        <time>2024-12-16T16:38:14.303Z</time>
      </trkpt>
      <trkpt lat="48.086488" lon="11.540785">
        <ele>535.817247</ele>
        <time>2024-12-16T16:38:24.525Z</time>
      </trkpt>
      <trkpt lat="48.086463" lon="11.540679">
        <ele>536.194062</ele>
        <time>2024-12-16T16:38:34.082Z</time>
      </trkpt>
      <trkpt lat="48.086515" lon="11.540128">
        <ele>538.059394</ele>
        <time>2024-12-16T16:39:22.326Z</time>
      </trkpt>
      <trkpt lat="48.086649" lon="11.539252">
        <ele>541.011690</ele>
        <time>2024-12-16T16:40:42.975Z</time>
      </trkpt>
      <trkpt lat="48.086626" lon="11.539136">
        <ele>541.407458</ele>
        <time>2024-12-16T16:40:53.445Z</time>
      </trkpt>
      <trkpt lat="48.085963" lon="11.538923">
        <ele>544.727624</ele>
        <time>2024-12-16T16:42:14.278Z</time>
      </trkpt>
      <trkpt lat="48.085997" lon="11.538729">
        <ele>545.383635</ele>
        <time>2024-12-16T16:42:28.772Z</time>
      </trkpt>
      <trkpt lat="48.086588" lon="11.538877">
        <ele>546.879625</ele>
        <time>2024-12-16T16:43:29.248Z</time>
      </trkpt>
      <trkpt lat="48.086748" lon="11.538925">
        <ele>546.426827</ele>
        <time>2024-12-16T16:43:46.314Z</time>
      </trkpt>
      <trkpt lat="48.088598" lon="11.539479">
        <ele>541.396558</ele>
        <time>2024-12-16T16:47:09.362Z</time>
      </trkpt>
      <trkpt lat="48.089975" lon="11.539623">
        <ele>538.235745</ele>
        <time>2024-12-16T16:49:32.925Z</time>
      </trkpt>
      <trkpt lat="48.090233" lon="11.539693">
        <ele>537.950429</ele>
        <time>2024-12-16T16:49:59.827Z</time>
      </trkpt>
      <trkpt lat="48.090639" lon="11.539923">
        <ele>537.478067</ele>
        <time>2024-12-16T16:50:44.275Z</time>
      </trkpt>
      <trkpt lat="48.092165" lon="11.540639">
        <ele>535.711607</ele>
        <time>2024-12-16T16:53:27.091Z</time>
      </trkpt>
      <trkpt lat="48.093399" lon="11.541582">
        <ele>534.137620</ele>
        <time>2024-12-16T16:55:49.614Z</time>
      </trkpt>
      <trkpt lat="48.095196" lon="11.542879">
        <ele>532.452297</ele>
        <time>2024-12-16T16:59:14.222Z</time>
      </trkpt>
      <trkpt lat="48.095281" lon="11.542937">
        <ele>532.507944</ele>
        <time>2024-12-16T16:59:23.742Z</time>
      </trkpt>
      <trkpt lat="48.095349" lon="11.542683">
        <ele>532.616822</ele>
        <time>2024-12-16T16:59:42.691Z</time>
      </trkpt>
      <trkpt lat="48.095385" lon="11.542540">
        <ele>532.677626</ele>
        <time>2024-12-16T16:59:53.352Z</time>
      </trkpt>
      <trkpt lat="48.095554" lon="11.542486">
        <ele>532.780570</ele>
        <time>2024-12-16T17:00:11.429Z</time>
      </trkpt>
      <trkpt lat="48.095613" lon="11.542434">
        <ele>532.821355</ele>
        <time>2024-12-16T17:00:18.693Z</time>
      </trkpt>
      <trkpt lat="48.095911" lon="11.542477">
        <ele>532.999703</ele>
        <time>2024-12-16T17:00:50.249Z</time>
      </trkpt>
      <trkpt lat="48.096576" lon="11.542659">
        <ele>533.496313</ele>
        <time>2024-12-16T17:02:00.763Z</time>
      </trkpt>
      <trkpt lat="48.096901" lon="11.542824">
        <ele>534.034556</ele>
        <time>2024-12-16T17:02:35.133Z</time>
      </trkpt>
      <trkpt lat="48.097504" lon="11.543053">
        <ele>535.010262</ele>
        <time>2024-12-16T17:03:40.158Z</time>
      </trkpt>
      <trkpt lat="48.097504" lon="11.543053">
        <ele>535.010262</ele>
        <time>2024-12-16T17:03:40.190Z</time>
      </trkpt>
      <trkpt lat="48.097732" lon="11.543200">
        <ele>535.399605</ele>
        <time>2024-12-16T17:04:06.812Z</time>
      </trkpt>
      <trkpt lat="48.097862" lon="11.542984">
        <ele>535.704179</ele>
        <time>2024-12-16T17:04:28.008Z</time>
      </trkpt>
      <trkpt lat="48.097965" lon="11.542378">
        <ele>536.195211</ele>
        <time>2024-12-16T17:05:13.549Z</time>
      </trkpt>
      <trkpt lat="48.098073" lon="11.542386">
        <ele>536.220891</ele>
        <time>2024-12-16T17:05:25.357Z</time>
      </trkpt>
      <trkpt lat="48.098316" lon="11.542439">
        <ele>536.279209</ele>
        <time>2024-12-16T17:05:52.096Z</time>
      </trkpt>
      <trkpt lat="48.098431" lon="11.542389">
        <ele>536.307648</ele>
        <time>2024-12-16T17:06:05.249Z</time>
      </trkpt>
      <trkpt lat="48.098523" lon="11.542330">
        <ele>536.331416</ele>
        <time>2024-12-16T17:06:16.385Z</time>
      </trkpt>
      <trkpt lat="48.098645" lon="11.542311">
        <ele>536.360546</ele>
        <time>2024-12-16T17:06:29.828Z</time>
      </trkpt>
      <trkpt lat="48.099201" lon="11.542418">
        <ele>536.493675</ele>
        <time>2024-12-16T17:07:26.119Z</time>
      </trkpt>
      <trkpt lat="48.099341" lon="11.542352">
        <ele>536.528532</ele>
        <time>2024-12-16T17:07:41.512Z</time>
      </trkpt>
      <trkpt lat="48.099687" lon="11.542283">
        <ele>536.313702</ele>
        <time>2024-12-16T17:08:18.810Z</time>
      </trkpt>
      <trkpt lat="48.099846" lon="11.542444">
        <ele>535.618606</ele>
        <time>2024-12-16T17:08:39.677Z</time>
      </trkpt>
      <trkpt lat="48.099983" lon="11.542667">
        <ele>534.885796</ele>
        <time>2024-12-16T17:09:01.612Z</time>
      </trkpt>
      <trkpt lat="48.100060" lon="11.542900">
        <ele>534.257073</ele>
        <time>2024-12-16T17:09:20.464Z</time>
      </trkpt>
      <trkpt lat="48.100125" lon="11.543399">
        <ele>533.027515</ele>
        <time>2024-12-16T17:09:57.177Z</time>
      </trkpt>
      <trkpt lat="48.100144" lon="11.543542">
        <ele>532.674895</ele>
        <time>2024-12-16T17:10:07.802Z</time>
      </trkpt>
      <trkpt lat="48.100211" lon="11.544035">
        <ele>531.458154</ele>
        <time>2024-12-16T17:10:44.634Z</time>
      </trkpt>
      <trkpt lat="48.100261" lon="11.544318">
        <ele>530.750183</ele>
        <time>2024-12-16T17:11:05.793Z</time>
      </trkpt>
      <trkpt lat="48.100383" lon="11.544900">
        <ele>529.646281</ele>
        <time>2024-12-16T17:11:48.822Z</time>
      </trkpt>
      <trkpt lat="48.100435" lon="11.545376">
        <ele>529.018166</ele>
        <time>2024-12-16T17:12:22.409Z</time>
      </trkpt>
      <trkpt lat="48.100455" lon="11.545544">
        <ele>528.795937</ele>
        <time>2024-12-16T17:12:34.315Z</time>
      </trkpt>
      <trkpt lat="48.100460" lon="11.545578">
        <ele>528.750600</ele>
        <time>2024-12-16T17:12:36.768Z</time>
      </trkpt>
      <trkpt lat="48.100512" lon="11.545966">
        <ele>528.235249</ele>
        <time>2024-12-16T17:13:04.337Z</time>
      </trkpt>
      <trkpt lat="48.100545" lon="11.546392">
        <ele>527.676767</ele>
        <time>2024-12-16T17:13:34.111Z</time>
      </trkpt>
      <trkpt lat="48.100606" lon="11.546333">
        <ele>527.535160</ele>
        <time>2024-12-16T17:13:41.717Z</time>
      </trkpt>
      <trkpt lat="48.100723" lon="11.546366">
        <ele>527.302999</ele>
        <time>2024-12-16T17:13:54.021Z</time>
      </trkpt>
      <trkpt lat="48.100903" lon="11.546424">
        <ele>526.943964</ele>
        <time>2024-12-16T17:14:13.029Z</time>
      </trkpt>
      <trkpt lat="48.101208" lon="11.546492">
        <ele>526.611622</ele>
        <time>2024-12-16T17:14:44.376Z</time>
      </trkpt>
      <trkpt lat="48.101236" lon="11.546488">
        <ele>526.621045</ele>
        <time>2024-12-16T17:14:47.170Z</time>
      </trkpt>
      <trkpt lat="48.101354" lon="11.546469">
        <ele>526.660806</ele>
        <time>2024-12-16T17:14:59.197Z</time>
      </trkpt>
      <trkpt lat="48.101480" lon="11.546501">
        <ele>526.703622</ele>
        <time>2024-12-16T17:15:12.107Z</time>
      </trkpt>
      <trkpt lat="48.101581" lon="11.546526">
        <ele>526.737919</ele>
        <time>2024-12-16T17:15:22.352Z</time>
      </trkpt>
      <trkpt lat="48.101593" lon="11.546491">
        <ele>526.746722</ele>
        <time>2024-12-16T17:15:25.018Z</time>
      </trkpt>
      <trkpt lat="48.101696" lon="11.546356">
        <ele>526.792581</ele>
        <time>2024-12-16T17:15:38.711Z</time>
      </trkpt>
      <trkpt lat="48.101870" lon="11.546284">
        <ele>526.853061</ele>
        <time>2024-12-16T17:15:56.832Z</time>
      </trkpt>
      <trkpt lat="48.102161" lon="11.546188">
        <ele>526.952891</ele>
        <time>2024-12-16T17:16:27.381Z</time>
      </trkpt>
      <trkpt lat="48.103000" lon="11.546142">
        <ele>527.174781</ele>
        <time>2024-12-16T17:17:55.442Z</time>
      </trkpt>
      <trkpt lat="48.103463" lon="11.546092">
        <ele>527.174781</ele>
        <time>2024-12-16T17:18:43.544Z</time>
      </trkpt>
      <trkpt lat="48.103577" lon="11.546081">
        <ele>527.174781</ele>
        <time>2024-12-16T17:18:55.254Z</time>
      </trkpt>
      <trkpt lat="48.103746" lon="11.546034">
        <ele>527.174781</ele>
        <time>2024-12-16T17:19:12.994Z</time>
      </trkpt>
      <trkpt lat="48.103742" lon="11.546004">
        <ele>527.174781</ele>
        <time>2024-12-16T17:19:15.118Z</time>
      </trkpt>
      <trkpt lat="48.103737" lon="11.545970">
        <ele>527.174781</ele>
        <time>2024-12-16T17:19:17.505Z</time>
      </trkpt>
      <trkpt lat="48.103909" lon="11.545911">
        <ele>527.174781</ele>
        <time>2024-12-16T17:19:35.582Z</time>
      </trkpt>
    </trkseg>
  </trk>
</gpx>