<?xml version="1.0" encoding="UTF-8"?>
<gpx version="1.1" creator="https://www.komoot.de" xmlns="http://www.topografix.com/GPX/1/1" xmlns:xsi="http://www.w3.org/2001/XMLSchema-instance" xsi:schemaLocation="http://www.topografix.com/GPX/1/1 http://www.topografix.com/GPX/1/1/gpx.xsd">
  <metadata>
    <name>PW 05 km Trudering 20.04.2021 14:42</name>
    <author>
      <link href="https://www.komoot.de">
        <text>komoot</text>
        <type>text/html</type>
      </link>
    </author>
  </metadata>
  <trk>
    <name>PW 05 km Trudering 20.04.2021 14:42</name>
    <trkseg>
      <trkpt lat="48.112166" lon="11.675907">
        <ele>548.213696</ele>
        <time>2021-04-20T11:52:49.470Z</time>
      </trkpt>
      <trkpt lat="48.112217" lon="11.676031">
        <ele>548.213696</ele>
        <time>2021-04-20T11:53:12.810Z</time>
      </trkpt>
      <trkpt lat="48.112237" lon="11.676233">
        <ele>548.213696</ele>
        <time>2021-04-20T11:53:22.794Z</time>
      </trkpt>
      <trkpt lat="48.112111" lon="11.676260">
        <ele>548.213696</ele>
        <time>2021-04-20T11:53:29.800Z</time>
      </trkpt>
      <trkpt lat="48.112008" lon="11.676240">
        <ele>548.213696</ele>
        <time>2021-04-20T11:53:33.805Z</time>
      </trkpt>
      <trkpt lat="48.111936" lon="11.676125">
        <ele>548.213696</ele>
        <time>2021-04-20T11:53:39.809Z</time>
      </trkpt>
      <trkpt lat="48.111869" lon="11.676023">
        <ele>548.213696</ele>
        <time>2021-04-20T11:53:44.854Z</time>
      </trkpt>
      <trkpt lat="48.111797" lon="11.675898">
        <ele>548.213696</ele>
        <time>2021-04-20T11:53:50.823Z</time>
      </trkpt>
      <trkpt lat="48.111737" lon="11.675785">
        <ele>548.213696</ele>
        <time>2021-04-20T11:53:55.823Z</time>
      </trkpt>
      <trkpt lat="48.111677" lon="11.675677">
        <ele>549.610628</ele>
        <time>2021-04-20T11:54:04.810Z</time>
      </trkpt>
      <trkpt lat="48.111579" lon="11.675616">
        <ele>551.835562</ele>
        <time>2021-04-20T11:54:10.797Z</time>
      </trkpt>
      <trkpt lat="48.111537" lon="11.675487">
        <ele>553.844540</ele>
        <time>2021-04-20T11:54:14.804Z</time>
      </trkpt>
      <trkpt lat="48.111453" lon="11.675405">
        <ele>555.946641</ele>
        <time>2021-04-20T11:54:19.800Z</time>
      </trkpt>
      <trkpt lat="48.111355" lon="11.675331">
        <ele>558.247557</ele>
        <time>2021-04-20T11:54:27.835Z</time>
      </trkpt>
      <trkpt lat="48.111282" lon="11.675221">
        <ele>560.418539</ele>
        <time>2021-04-20T11:54:34.798Z</time>
      </trkpt>
      <trkpt lat="48.111212" lon="11.675110">
        <ele>562.555808</ele>
        <time>2021-04-20T11:54:41.803Z</time>
      </trkpt>
      <trkpt lat="48.111137" lon="11.674997">
        <ele>564.786136</ele>
        <time>2021-04-20T11:54:47.836Z</time>
      </trkpt>
      <trkpt lat="48.111062" lon="11.674891">
        <ele>566.948077</ele>
        <time>2021-04-20T11:54:55.801Z</time>
      </trkpt>
      <trkpt lat="48.110965" lon="11.674874">
        <ele>568.995552</ele>
        <time>2021-04-20T11:55:01.814Z</time>
      </trkpt>
      <trkpt lat="48.110892" lon="11.674759">
        <ele>571.216732</ele>
        <time>2021-04-20T11:55:07.792Z</time>
      </trkpt>
      <trkpt lat="48.110818" lon="11.674659">
        <ele>573.306308</ele>
        <time>2021-04-20T11:55:12.802Z</time>
      </trkpt>
      <trkpt lat="48.110744" lon="11.674582">
        <ele>575.195390</ele>
        <time>2021-04-20T11:55:21.807Z</time>
      </trkpt>
      <trkpt lat="48.110661" lon="11.674695">
        <ele>577.546980</ele>
        <time>2021-04-20T11:55:29.799Z</time>
      </trkpt>
      <trkpt lat="48.110609" lon="11.674828">
        <ele>579.704437</ele>
        <time>2021-04-20T11:55:37.821Z</time>
      </trkpt>
      <trkpt lat="48.110571" lon="11.674962">
        <ele>581.742363</ele>
        <time>2021-04-20T11:55:44.816Z</time>
      </trkpt>
      <trkpt lat="48.110521" lon="11.675086">
        <ele>583.770105</ele>
        <time>2021-04-20T11:55:52.821Z</time>
      </trkpt>
      <trkpt lat="48.110477" lon="11.675214">
        <ele>585.785389</ele>
        <time>2021-04-20T11:55:58.811Z</time>
      </trkpt>
      <trkpt lat="48.110435" lon="11.675345">
        <ele>585.847189</ele>
        <time>2021-04-20T11:56:08.809Z</time>
      </trkpt>
      <trkpt lat="48.110368" lon="11.675454">
        <ele>585.765275</ele>
        <time>2021-04-20T11:56:15.798Z</time>
      </trkpt>
      <trkpt lat="48.110316" lon="11.675587">
        <ele>585.680061</ele>
        <time>2021-04-20T11:56:22.822Z</time>
      </trkpt>
      <trkpt lat="48.110264" lon="11.675720">
        <ele>585.594847</ele>
        <time>2021-04-20T11:56:28.804Z</time>
      </trkpt>
      <trkpt lat="48.110215" lon="11.675854">
        <ele>585.510377</ele>
        <time>2021-04-20T11:56:35.807Z</time>
      </trkpt>
      <trkpt lat="48.110169" lon="11.675971">
        <ele>585.435307</ele>
        <time>2021-04-20T11:56:39.791Z</time>
      </trkpt>
      <trkpt lat="48.110109" lon="11.676088">
        <ele>585.353740</ele>
        <time>2021-04-20T11:56:45.808Z</time>
      </trkpt>
      <trkpt lat="48.110045" lon="11.676185">
        <ele>585.278343</ele>
        <time>2021-04-20T11:56:52.855Z</time>
      </trkpt>
      <trkpt lat="48.109975" lon="11.676289">
        <ele>585.196696</ele>
        <time>2021-04-20T11:57:02.809Z</time>
      </trkpt>
      <trkpt lat="48.109906" lon="11.676391">
        <ele>585.116415</ele>
        <time>2021-04-20T11:57:10.813Z</time>
      </trkpt>
      <trkpt lat="48.109837" lon="11.676492">
        <ele>585.036522</ele>
        <time>2021-04-20T11:57:17.797Z</time>
      </trkpt>
      <trkpt lat="48.109763" lon="11.676581">
        <ele>584.957934</ele>
        <time>2021-04-20T11:57:22.804Z</time>
      </trkpt>
      <trkpt lat="48.109688" lon="11.676658">
        <ele>584.882638</ele>
        <time>2021-04-20T11:57:27.810Z</time>
      </trkpt>
      <trkpt lat="48.109605" lon="11.676752">
        <ele>584.796471</ele>
        <time>2021-04-20T11:57:34.801Z</time>
      </trkpt>
      <trkpt lat="48.109536" lon="11.676854">
        <ele>584.716190</ele>
        <time>2021-04-20T11:57:42.838Z</time>
      </trkpt>
      <trkpt lat="48.109471" lon="11.676973">
        <ele>584.631184</ele>
        <time>2021-04-20T11:57:50.850Z</time>
      </trkpt>
      <trkpt lat="48.109391" lon="11.677067">
        <ele>584.546985</ele>
        <time>2021-04-20T11:57:57.803Z</time>
      </trkpt>
      <trkpt lat="48.109312" lon="11.677146">
        <ele>584.468326</ele>
        <time>2021-04-20T11:58:03.803Z</time>
      </trkpt>
      <trkpt lat="48.109255" lon="11.677254">
        <ele>584.368153</ele>
        <time>2021-04-20T11:58:09.817Z</time>
      </trkpt>
      <trkpt lat="48.109197" lon="11.677360">
        <ele>584.247417</ele>
        <time>2021-04-20T11:58:16.812Z</time>
      </trkpt>
      <trkpt lat="48.109140" lon="11.677511">
        <ele>584.094599</ele>
        <time>2021-04-20T11:58:22.808Z</time>
      </trkpt>
      <trkpt lat="48.109102" lon="11.677638">
        <ele>583.971993</ele>
        <time>2021-04-20T11:58:27.809Z</time>
      </trkpt>
      <trkpt lat="48.109079" lon="11.677774">
        <ele>583.848394</ele>
        <time>2021-04-20T11:58:33.802Z</time>
      </trkpt>
      <trkpt lat="48.109080" lon="11.677915">
        <ele>583.724166</ele>
        <time>2021-04-20T11:58:42.828Z</time>
      </trkpt>
      <trkpt lat="48.109127" lon="11.678052">
        <ele>583.588471</ele>
        <time>2021-04-20T11:58:49.803Z</time>
      </trkpt>
      <trkpt lat="48.109169" lon="11.678182">
        <ele>583.461239</ele>
        <time>2021-04-20T11:58:56.804Z</time>
      </trkpt>
      <trkpt lat="48.109198" lon="11.678310">
        <ele>583.342157</ele>
        <time>2021-04-20T11:59:02.803Z</time>
      </trkpt>
      <trkpt lat="48.109251" lon="11.678432">
        <ele>583.213929</ele>
        <time>2021-04-20T11:59:08.815Z</time>
      </trkpt>
      <trkpt lat="48.109297" lon="11.678559">
        <ele>583.086641</ele>
        <time>2021-04-20T11:59:14.820Z</time>
      </trkpt>
      <trkpt lat="48.109337" lon="11.678681">
        <ele>582.966901</ele>
        <time>2021-04-20T11:59:21.811Z</time>
      </trkpt>
      <trkpt lat="48.109399" lon="11.678810">
        <ele>582.826874</ele>
        <time>2021-04-20T11:59:29.804Z</time>
      </trkpt>
      <trkpt lat="48.109434" lon="11.678940">
        <ele>582.703385</ele>
        <time>2021-04-20T11:59:37.808Z</time>
      </trkpt>
      <trkpt lat="48.109490" lon="11.679046">
        <ele>582.584305</ele>
        <time>2021-04-20T11:59:42.845Z</time>
      </trkpt>
      <trkpt lat="48.109538" lon="11.679179">
        <ele>582.451112</ele>
        <time>2021-04-20T11:59:48.814Z</time>
      </trkpt>
      <trkpt lat="48.109590" lon="11.679301">
        <ele>582.323600</ele>
        <time>2021-04-20T11:59:54.801Z</time>
      </trkpt>
      <trkpt lat="48.109646" lon="11.679412">
        <ele>582.201035</ele>
        <time>2021-04-20T12:00:00.795Z</time>
      </trkpt>
      <trkpt lat="48.109683" lon="11.679549">
        <ele>582.070841</ele>
        <time>2021-04-20T12:00:05.812Z</time>
      </trkpt>
      <trkpt lat="48.109680" lon="11.679684">
        <ele>581.988718</ele>
        <time>2021-04-20T12:00:12.833Z</time>
      </trkpt>
      <trkpt lat="48.109696" lon="11.679824">
        <ele>581.906413</ele>
        <time>2021-04-20T12:00:18.805Z</time>
      </trkpt>
      <trkpt lat="48.109702" lon="11.679971">
        <ele>581.821073</ele>
        <time>2021-04-20T12:00:24.820Z</time>
      </trkpt>
      <trkpt lat="48.109713" lon="11.680116">
        <ele>581.736510</ele>
        <time>2021-04-20T12:00:32.806Z</time>
      </trkpt>
      <trkpt lat="48.109744" lon="11.680259">
        <ele>581.649389</ele>
        <time>2021-04-20T12:00:38.810Z</time>
      </trkpt>
      <trkpt lat="48.109782" lon="11.680390">
        <ele>581.566626</ele>
        <time>2021-04-20T12:00:43.810Z</time>
      </trkpt>
      <trkpt lat="48.109828" lon="11.680505">
        <ele>581.488945</ele>
        <time>2021-04-20T12:00:50.857Z</time>
      </trkpt>
      <trkpt lat="48.109884" lon="11.680619">
        <ele>581.406935</ele>
        <time>2021-04-20T12:00:57.831Z</time>
      </trkpt>
      <trkpt lat="48.109945" lon="11.680734">
        <ele>581.321829</ele>
        <time>2021-04-20T12:01:04.809Z</time>
      </trkpt>
      <trkpt lat="48.110038" lon="11.680815">
        <ele>581.228464</ele>
        <time>2021-04-20T12:01:12.801Z</time>
      </trkpt>
      <trkpt lat="48.110109" lon="11.680905">
        <ele>581.147740</ele>
        <time>2021-04-20T12:01:19.803Z</time>
      </trkpt>
      <trkpt lat="48.110131" lon="11.681053">
        <ele>581.059880</ele>
        <time>2021-04-20T12:01:27.797Z</time>
      </trkpt>
      <trkpt lat="48.110080" lon="11.681168">
        <ele>580.979883</ele>
        <time>2021-04-20T12:01:35.813Z</time>
      </trkpt>
      <trkpt lat="48.110024" lon="11.681295">
        <ele>580.891693</ele>
        <time>2021-04-20T12:01:42.833Z</time>
      </trkpt>
      <trkpt lat="48.109943" lon="11.681371">
        <ele>580.808742</ele>
        <time>2021-04-20T12:01:51.806Z</time>
      </trkpt>
      <trkpt lat="48.109847" lon="11.681426">
        <ele>580.719541</ele>
        <time>2021-04-20T12:01:58.827Z</time>
      </trkpt>
      <trkpt lat="48.109749" lon="11.681503">
        <ele>580.623499</ele>
        <time>2021-04-20T12:02:03.798Z</time>
      </trkpt>
      <trkpt lat="48.109669" lon="11.681597">
        <ele>580.535255</ele>
        <time>2021-04-20T12:02:09.804Z</time>
      </trkpt>
      <trkpt lat="48.109583" lon="11.681669">
        <ele>580.439480</ele>
        <time>2021-04-20T12:02:17.808Z</time>
      </trkpt>
      <trkpt lat="48.109499" lon="11.681759">
        <ele>580.331021</ele>
        <time>2021-04-20T12:02:24.824Z</time>
      </trkpt>
      <trkpt lat="48.109425" lon="11.681841">
        <ele>580.234355</ele>
        <time>2021-04-20T12:02:30.801Z</time>
      </trkpt>
      <trkpt lat="48.109360" lon="11.681947">
        <ele>580.133443</ele>
        <time>2021-04-20T12:02:35.797Z</time>
      </trkpt>
      <trkpt lat="48.109280" lon="11.682013">
        <ele>580.037530</ele>
        <time>2021-04-20T12:02:41.822Z</time>
      </trkpt>
      <trkpt lat="48.109187" lon="11.682073">
        <ele>579.931193</ele>
        <time>2021-04-20T12:02:48.802Z</time>
      </trkpt>
      <trkpt lat="48.109099" lon="11.682138">
        <ele>579.828154</ele>
        <time>2021-04-20T12:02:56.812Z</time>
      </trkpt>
      <trkpt lat="48.109015" lon="11.682222">
        <ele>579.722088</ele>
        <time>2021-04-20T12:03:03.809Z</time>
      </trkpt>
      <trkpt lat="48.108935" lon="11.682314">
        <ele>579.616168</ele>
        <time>2021-04-20T12:03:10.819Z</time>
      </trkpt>
      <trkpt lat="48.108843" lon="11.682399">
        <ele>579.502652</ele>
        <time>2021-04-20T12:03:17.841Z</time>
      </trkpt>
      <trkpt lat="48.108761" lon="11.682497">
        <ele>579.392485</ele>
        <time>2021-04-20T12:03:24.826Z</time>
      </trkpt>
      <trkpt lat="48.108694" lon="11.682593">
        <ele>579.295113</ele>
        <time>2021-04-20T12:03:31.799Z</time>
      </trkpt>
      <trkpt lat="48.108610" lon="11.682687">
        <ele>579.184998</ele>
        <time>2021-04-20T12:03:38.850Z</time>
      </trkpt>
      <trkpt lat="48.108528" lon="11.682745">
        <ele>579.089768</ele>
        <time>2021-04-20T12:03:44.793Z</time>
      </trkpt>
      <trkpt lat="48.108450" lon="11.682824">
        <ele>578.990886</ele>
        <time>2021-04-20T12:03:49.818Z</time>
      </trkpt>
      <trkpt lat="48.108377" lon="11.682917">
        <ele>578.890243</ele>
        <time>2021-04-20T12:03:55.809Z</time>
      </trkpt>
      <trkpt lat="48.108310" lon="11.683032">
        <ele>578.783227</ele>
        <time>2021-04-20T12:04:01.810Z</time>
      </trkpt>
      <trkpt lat="48.108237" lon="11.683115">
        <ele>578.686979</ele>
        <time>2021-04-20T12:04:08.808Z</time>
      </trkpt>
      <trkpt lat="48.108151" lon="11.683165">
        <ele>578.598339</ele>
        <time>2021-04-20T12:04:13.800Z</time>
      </trkpt>
      <trkpt lat="48.108073" lon="11.683237">
        <ele>578.542228</ele>
        <time>2021-04-20T12:04:19.827Z</time>
      </trkpt>
      <trkpt lat="48.108007" lon="11.683334">
        <ele>578.485600</ele>
        <time>2021-04-20T12:04:27.810Z</time>
      </trkpt>
      <trkpt lat="48.107984" lon="11.683483">
        <ele>578.423066</ele>
        <time>2021-04-20T12:04:34.821Z</time>
      </trkpt>
      <trkpt lat="48.108027" lon="11.683604">
        <ele>578.367017</ele>
        <time>2021-04-20T12:04:39.801Z</time>
      </trkpt>
      <trkpt lat="48.108064" lon="11.683731">
        <ele>578.310358</ele>
        <time>2021-04-20T12:04:44.812Z</time>
      </trkpt>
      <trkpt lat="48.108121" lon="11.683846">
        <ele>578.251794</ele>
        <time>2021-04-20T12:04:49.800Z</time>
      </trkpt>
      <trkpt lat="48.108141" lon="11.683997">
        <ele>578.188846</ele>
        <time>2021-04-20T12:04:55.800Z</time>
      </trkpt>
      <trkpt lat="48.108202" lon="11.684101">
        <ele>578.132243</ele>
        <time>2021-04-20T12:05:00.807Z</time>
      </trkpt>
      <trkpt lat="48.108249" lon="11.684240">
        <ele>578.068533</ele>
        <time>2021-04-20T12:05:06.803Z</time>
      </trkpt>
      <trkpt lat="48.108301" lon="11.684369">
        <ele>578.006918</ele>
        <time>2021-04-20T12:05:12.801Z</time>
      </trkpt>
      <trkpt lat="48.108313" lon="11.684502">
        <ele>577.952039</ele>
        <time>2021-04-20T12:05:17.814Z</time>
      </trkpt>
      <trkpt lat="48.108332" lon="11.684640">
        <ele>577.894423</ele>
        <time>2021-04-20T12:05:24.798Z</time>
      </trkpt>
      <trkpt lat="48.108364" lon="11.684794">
        <ele>577.828473</ele>
        <time>2021-04-20T12:05:31.803Z</time>
      </trkpt>
      <trkpt lat="48.108416" lon="11.684925">
        <ele>577.766156</ele>
        <time>2021-04-20T12:05:39.810Z</time>
      </trkpt>
      <trkpt lat="48.108474" lon="11.685048">
        <ele>577.704584</ele>
        <time>2021-04-20T12:05:45.800Z</time>
      </trkpt>
      <trkpt lat="48.108521" lon="11.685164">
        <ele>577.649102</ele>
        <time>2021-04-20T12:05:49.808Z</time>
      </trkpt>
      <trkpt lat="48.108576" lon="11.685271">
        <ele>577.593887</ele>
        <time>2021-04-20T12:05:53.809Z</time>
      </trkpt>
      <trkpt lat="48.108645" lon="11.685368">
        <ele>577.535933</ele>
        <time>2021-04-20T12:05:59.843Z</time>
      </trkpt>
      <trkpt lat="48.108709" lon="11.685486">
        <ele>577.474218</ele>
        <time>2021-04-20T12:06:04.812Z</time>
      </trkpt>
      <trkpt lat="48.108728" lon="11.685619">
        <ele>577.419322</ele>
        <time>2021-04-20T12:06:14.787Z</time>
      </trkpt>
      <trkpt lat="48.108670" lon="11.685743">
        <ele>577.358215</ele>
        <time>2021-04-20T12:06:21.802Z</time>
      </trkpt>
      <trkpt lat="48.108559" lon="11.685766">
        <ele>577.290480</ele>
        <time>2021-04-20T12:06:29.798Z</time>
      </trkpt>
      <trkpt lat="48.108447" lon="11.685763">
        <ele>577.222768</ele>
        <time>2021-04-20T12:06:33.801Z</time>
      </trkpt>
      <trkpt lat="48.108355" lon="11.685707">
        <ele>577.162739</ele>
        <time>2021-04-20T12:06:40.793Z</time>
      </trkpt>
      <trkpt lat="48.108261" lon="11.685632">
        <ele>577.098358</ele>
        <time>2021-04-20T12:06:44.822Z</time>
      </trkpt>
      <trkpt lat="48.108169" lon="11.685577">
        <ele>577.038480</ele>
        <time>2021-04-20T12:06:49.793Z</time>
      </trkpt>
      <trkpt lat="48.108065" lon="11.685569">
        <ele>576.975532</ele>
        <time>2021-04-20T12:06:55.810Z</time>
      </trkpt>
      <trkpt lat="48.107966" lon="11.685566">
        <ele>576.915677</ele>
        <time>2021-04-20T12:07:02.837Z</time>
      </trkpt>
      <trkpt lat="48.107872" lon="11.685537">
        <ele>576.857663</ele>
        <time>2021-04-20T12:07:09.798Z</time>
      </trkpt>
      <trkpt lat="48.107797" lon="11.685615">
        <ele>576.802469</ele>
        <time>2021-04-20T12:07:14.824Z</time>
      </trkpt>
      <trkpt lat="48.107692" lon="11.685606">
        <ele>576.738895</ele>
        <time>2021-04-20T12:07:20.830Z</time>
      </trkpt>
      <trkpt lat="48.107604" lon="11.685515">
        <ele>576.674253</ele>
        <time>2021-04-20T12:07:25.816Z</time>
      </trkpt>
      <trkpt lat="48.107514" lon="11.685519">
        <ele>576.619827</ele>
        <time>2021-04-20T12:07:30.798Z</time>
      </trkpt>
      <trkpt lat="48.107428" lon="11.685560">
        <ele>576.565272</ele>
        <time>2021-04-20T12:07:36.804Z</time>
      </trkpt>
      <trkpt lat="48.107329" lon="11.685540">
        <ele>576.504887</ele>
        <time>2021-04-20T12:07:43.812Z</time>
      </trkpt>
      <trkpt lat="48.107225" lon="11.685526">
        <ele>576.441768</ele>
        <time>2021-04-20T12:07:49.822Z</time>
      </trkpt>
      <trkpt lat="48.107134" lon="11.685516">
        <ele>576.385621</ele>
        <time>2021-04-20T12:07:54.808Z</time>
      </trkpt>
      <trkpt lat="48.107034" lon="11.685559">
        <ele>576.320926</ele>
        <time>2021-04-20T12:08:02.828Z</time>
      </trkpt>
      <trkpt lat="48.106939" lon="11.685600">
        <ele>576.259448</ele>
        <time>2021-04-20T12:08:08.811Z</time>
      </trkpt>
      <trkpt lat="48.106848" lon="11.685601">
        <ele>576.202860</ele>
        <time>2021-04-20T12:08:13.789Z</time>
      </trkpt>
      <trkpt lat="48.106745" lon="11.685577">
        <ele>576.138041</ele>
        <time>2021-04-20T12:08:19.827Z</time>
      </trkpt>
      <trkpt lat="48.106648" lon="11.685571">
        <ele>576.077672</ele>
        <time>2021-04-20T12:08:26.805Z</time>
      </trkpt>
      <trkpt lat="48.106553" lon="11.685584">
        <ele>576.018352</ele>
        <time>2021-04-20T12:08:36.806Z</time>
      </trkpt>
      <trkpt lat="48.106449" lon="11.685618">
        <ele>575.952159</ele>
        <time>2021-04-20T12:08:42.845Z</time>
      </trkpt>
      <trkpt lat="48.106341" lon="11.685637">
        <ele>575.884539</ele>
        <time>2021-04-20T12:08:48.806Z</time>
      </trkpt>
      <trkpt lat="48.106249" lon="11.685659">
        <ele>575.826606</ele>
        <time>2021-04-20T12:08:53.802Z</time>
      </trkpt>
      <trkpt lat="48.106140" lon="11.685644">
        <ele>575.758541</ele>
        <time>2021-04-20T12:09:01.793Z</time>
      </trkpt>
      <trkpt lat="48.106049" lon="11.685673">
        <ele>575.700688</ele>
        <time>2021-04-20T12:09:08.807Z</time>
      </trkpt>
      <trkpt lat="48.105969" lon="11.685740">
        <ele>575.643691</ele>
        <time>2021-04-20T12:09:15.805Z</time>
      </trkpt>
      <trkpt lat="48.105883" lon="11.685802">
        <ele>575.584339</ele>
        <time>2021-04-20T12:09:19.809Z</time>
      </trkpt>
      <trkpt lat="48.105795" lon="11.685844">
        <ele>575.526906</ele>
        <time>2021-04-20T12:09:24.820Z</time>
      </trkpt>
      <trkpt lat="48.105688" lon="11.685881">
        <ele>575.458620</ele>
        <time>2021-04-20T12:09:32.856Z</time>
      </trkpt>
      <trkpt lat="48.105586" lon="11.685826">
        <ele>575.391207</ele>
        <time>2021-04-20T12:09:38.807Z</time>
      </trkpt>
      <trkpt lat="48.105479" lon="11.685810">
        <ele>575.324340</ele>
        <time>2021-04-20T12:09:45.819Z</time>
      </trkpt>
      <trkpt lat="48.105375" lon="11.685818">
        <ele>575.281598</ele>
        <time>2021-04-20T12:09:51.796Z</time>
      </trkpt>
      <trkpt lat="48.105277" lon="11.685823">
        <ele>575.251739</ele>
        <time>2021-04-20T12:09:57.800Z</time>
      </trkpt>
      <trkpt lat="48.105185" lon="11.685825">
        <ele>575.223722</ele>
        <time>2021-04-20T12:10:02.804Z</time>
      </trkpt>
      <trkpt lat="48.105081" lon="11.685805">
        <ele>575.191794</ele>
        <time>2021-04-20T12:10:10.828Z</time>
      </trkpt>
      <trkpt lat="48.104995" lon="11.685749">
        <ele>575.163238</ele>
        <time>2021-04-20T12:10:17.798Z</time>
      </trkpt>
      <trkpt lat="48.104895" lon="11.685772">
        <ele>575.132431</ele>
        <time>2021-04-20T12:10:23.806Z</time>
      </trkpt>
      <trkpt lat="48.104798" lon="11.685795">
        <ele>575.102526</ele>
        <time>2021-04-20T12:10:29.806Z</time>
      </trkpt>
      <trkpt lat="48.104695" lon="11.685763">
        <ele>575.070495</ele>
        <time>2021-04-20T12:10:38.809Z</time>
      </trkpt>
      <trkpt lat="48.104605" lon="11.685801">
        <ele>575.042021</ele>
        <time>2021-04-20T12:10:43.797Z</time>
      </trkpt>
      <trkpt lat="48.104511" lon="11.685785">
        <ele>575.013214</ele>
        <time>2021-04-20T12:10:48.800Z</time>
      </trkpt>
      <trkpt lat="48.104424" lon="11.685712">
        <ele>574.982847</ele>
        <time>2021-04-20T12:10:56.802Z</time>
      </trkpt>
      <trkpt lat="48.104342" lon="11.685656">
        <ele>574.955404</ele>
        <time>2021-04-20T12:11:02.791Z</time>
      </trkpt>
      <trkpt lat="48.104249" lon="11.685615">
        <ele>574.925884</ele>
        <time>2021-04-20T12:11:09.809Z</time>
      </trkpt>
      <trkpt lat="48.104145" lon="11.685645">
        <ele>574.893633</ele>
        <time>2021-04-20T12:11:14.802Z</time>
      </trkpt>
      <trkpt lat="48.104054" lon="11.685663">
        <ele>574.865683</ele>
        <time>2021-04-20T12:11:21.796Z</time>
      </trkpt>
      <trkpt lat="48.103958" lon="11.685661">
        <ele>574.836448</ele>
        <time>2021-04-20T12:11:28.795Z</time>
      </trkpt>
      <trkpt lat="48.103862" lon="11.685629">
        <ele>574.806500</ele>
        <time>2021-04-20T12:11:33.794Z</time>
      </trkpt>
      <trkpt lat="48.103763" lon="11.685633">
        <ele>574.776344</ele>
        <time>2021-04-20T12:11:38.832Z</time>
      </trkpt>
      <trkpt lat="48.103662" lon="11.685654">
        <ele>574.748628</ele>
        <time>2021-04-20T12:11:45.810Z</time>
      </trkpt>
      <trkpt lat="48.103570" lon="11.685606">
        <ele>574.729121</ele>
        <time>2021-04-20T12:11:51.798Z</time>
      </trkpt>
      <trkpt lat="48.103475" lon="11.685613">
        <ele>574.710075</ele>
        <time>2021-04-20T12:11:57.817Z</time>
      </trkpt>
      <trkpt lat="48.103360" lon="11.685625">
        <ele>574.686993</ele>
        <time>2021-04-20T12:12:02.807Z</time>
      </trkpt>
      <trkpt lat="48.103267" lon="11.685653">
        <ele>574.667998</ele>
        <time>2021-04-20T12:12:06.807Z</time>
      </trkpt>
      <trkpt lat="48.103169" lon="11.685628">
        <ele>574.648093</ele>
        <time>2021-04-20T12:12:14.811Z</time>
      </trkpt>
      <trkpt lat="48.103079" lon="11.685631">
        <ele>574.630067</ele>
        <time>2021-04-20T12:12:20.809Z</time>
      </trkpt>
      <trkpt lat="48.102976" lon="11.685648">
        <ele>574.609318</ele>
        <time>2021-04-20T12:12:27.803Z</time>
      </trkpt>
      <trkpt lat="48.102883" lon="11.685596">
        <ele>574.589441</ele>
        <time>2021-04-20T12:12:33.803Z</time>
      </trkpt>
      <trkpt lat="48.102783" lon="11.685559">
        <ele>574.568815</ele>
        <time>2021-04-20T12:12:39.804Z</time>
      </trkpt>
      <trkpt lat="48.102693" lon="11.685515">
        <ele>574.549858</ele>
        <time>2021-04-20T12:12:45.804Z</time>
      </trkpt>
      <trkpt lat="48.102590" lon="11.685476">
        <ele>574.528585</ele>
        <time>2021-04-20T12:12:51.798Z</time>
      </trkpt>
      <trkpt lat="48.102493" lon="11.685444">
        <ele>574.508697</ele>
        <time>2021-04-20T12:12:57.809Z</time>
      </trkpt>
      <trkpt lat="48.102393" lon="11.685418">
        <ele>574.488374</ele>
        <time>2021-04-20T12:13:03.792Z</time>
      </trkpt>
      <trkpt lat="48.102294" lon="11.685384">
        <ele>574.468036</ele>
        <time>2021-04-20T12:13:10.793Z</time>
      </trkpt>
      <trkpt lat="48.102202" lon="11.685376">
        <ele>574.449583</ele>
        <time>2021-04-20T12:13:17.837Z</time>
      </trkpt>
      <trkpt lat="48.102104" lon="11.685351">
        <ele>574.429678</ele>
        <time>2021-04-20T12:13:23.816Z</time>
      </trkpt>
      <trkpt lat="48.102000" lon="11.685316">
        <ele>574.408334</ele>
        <time>2021-04-20T12:13:28.810Z</time>
      </trkpt>
      <trkpt lat="48.101906" lon="11.685274">
        <ele>574.390122</ele>
        <time>2021-04-20T12:13:36.835Z</time>
      </trkpt>
      <trkpt lat="48.101807" lon="11.685216">
        <ele>574.373753</ele>
        <time>2021-04-20T12:13:44.825Z</time>
      </trkpt>
      <trkpt lat="48.101719" lon="11.685276">
        <ele>574.358864</ele>
        <time>2021-04-20T12:13:51.793Z</time>
      </trkpt>
      <trkpt lat="48.101628" lon="11.685285">
        <ele>574.344822</ele>
        <time>2021-04-20T12:13:57.795Z</time>
      </trkpt>
      <trkpt lat="48.101525" lon="11.685296">
        <ele>574.328921</ele>
        <time>2021-04-20T12:14:02.807Z</time>
      </trkpt>
      <trkpt lat="48.101429" lon="11.685291">
        <ele>574.314131</ele>
        <time>2021-04-20T12:14:10.809Z</time>
      </trkpt>
      <trkpt lat="48.101336" lon="11.685334">
        <ele>574.299143</ele>
        <time>2021-04-20T12:14:17.812Z</time>
      </trkpt>
      <trkpt lat="48.101246" lon="11.685356">
        <ele>574.285102</ele>
        <time>2021-04-20T12:14:22.799Z</time>
      </trkpt>
      <trkpt lat="48.101158" lon="11.685407">
        <ele>574.270572</ele>
        <time>2021-04-20T12:14:28.821Z</time>
      </trkpt>
      <trkpt lat="48.101069" lon="11.685475">
        <ele>574.255187</ele>
        <time>2021-04-20T12:14:37.795Z</time>
      </trkpt>
      <trkpt lat="48.100987" lon="11.685542">
        <ele>574.240803</ele>
        <time>2021-04-20T12:14:43.805Z</time>
      </trkpt>
      <trkpt lat="48.100900" lon="11.685613">
        <ele>574.225547</ele>
        <time>2021-04-20T12:14:47.792Z</time>
      </trkpt>
      <trkpt lat="48.100822" lon="11.685697">
        <ele>574.210753</ele>
        <time>2021-04-20T12:14:54.792Z</time>
      </trkpt>
      <trkpt lat="48.100741" lon="11.685793">
        <ele>574.194847</ele>
        <time>2021-04-20T12:15:01.812Z</time>
      </trkpt>
      <trkpt lat="48.100654" lon="11.685902">
        <ele>574.177380</ele>
        <time>2021-04-20T12:15:06.812Z</time>
      </trkpt>
      <trkpt lat="48.100593" lon="11.686003">
        <ele>574.163376</ele>
        <time>2021-04-20T12:15:12.797Z</time>
      </trkpt>
      <trkpt lat="48.100504" lon="11.686055">
        <ele>574.148666</ele>
        <time>2021-04-20T12:15:20.795Z</time>
      </trkpt>
      <trkpt lat="48.100402" lon="11.686056">
        <ele>574.132960</ele>
        <time>2021-04-20T12:15:30.803Z</time>
      </trkpt>
      <trkpt lat="48.100333" lon="11.685950">
        <ele>574.117921</ele>
        <time>2021-04-20T12:15:37.804Z</time>
      </trkpt>
      <trkpt lat="48.100278" lon="11.685827">
        <ele>574.117307</ele>
        <time>2021-04-20T12:15:45.796Z</time>
      </trkpt>
      <trkpt lat="48.100257" lon="11.685686">
        <ele>574.116708</ele>
        <time>2021-04-20T12:15:54.844Z</time>
      </trkpt>
      <trkpt lat="48.100226" lon="11.685548">
        <ele>574.116105</ele>
        <time>2021-04-20T12:16:00.803Z</time>
      </trkpt>
      <trkpt lat="48.100173" lon="11.685437">
        <ele>574.115539</ele>
        <time>2021-04-20T12:16:05.821Z</time>
      </trkpt>
      <trkpt lat="48.100104" lon="11.685331">
        <ele>574.114926</ele>
        <time>2021-04-20T12:16:10.846Z</time>
      </trkpt>
      <trkpt lat="48.100030" lon="11.685247">
        <ele>574.114349</ele>
        <time>2021-04-20T12:16:17.804Z</time>
      </trkpt>
      <trkpt lat="48.099966" lon="11.685146">
        <ele>574.113772</ele>
        <time>2021-04-20T12:16:23.825Z</time>
      </trkpt>
      <trkpt lat="48.099910" lon="11.685039">
        <ele>574.113209</ele>
        <time>2021-04-20T12:16:31.802Z</time>
      </trkpt>
      <trkpt lat="48.099826" lon="11.684943">
        <ele>574.112553</ele>
        <time>2021-04-20T12:16:37.827Z</time>
      </trkpt>
      <trkpt lat="48.099754" lon="11.684858">
        <ele>574.111984</ele>
        <time>2021-04-20T12:16:45.802Z</time>
      </trkpt>
      <trkpt lat="48.099705" lon="11.684734">
        <ele>574.111387</ele>
        <time>2021-04-20T12:16:52.846Z</time>
      </trkpt>
      <trkpt lat="48.099645" lon="11.684607">
        <ele>574.110742</ele>
        <time>2021-04-20T12:16:59.795Z</time>
      </trkpt>
      <trkpt lat="48.099600" lon="11.684485">
        <ele>574.110164</ele>
        <time>2021-04-20T12:17:05.799Z</time>
      </trkpt>
      <trkpt lat="48.099573" lon="11.684346">
        <ele>574.109564</ele>
        <time>2021-04-20T12:17:12.803Z</time>
      </trkpt>
      <trkpt lat="48.099544" lon="11.684197">
        <ele>574.108921</ele>
        <time>2021-04-20T12:17:20.802Z</time>
      </trkpt>
      <trkpt lat="48.099467" lon="11.684112">
        <ele>574.108327</ele>
        <time>2021-04-20T12:17:27.803Z</time>
      </trkpt>
      <trkpt lat="48.099440" lon="11.683974">
        <ele>574.107731</ele>
        <time>2021-04-20T12:17:35.837Z</time>
      </trkpt>
      <trkpt lat="48.099413" lon="11.683832">
        <ele>574.107119</ele>
        <time>2021-04-20T12:17:40.834Z</time>
      </trkpt>
      <trkpt lat="48.099372" lon="11.683686">
        <ele>574.112192</ele>
        <time>2021-04-20T12:17:46.820Z</time>
      </trkpt>
      <trkpt lat="48.099378" lon="11.683545">
        <ele>574.122703</ele>
        <time>2021-04-20T12:17:53.798Z</time>
      </trkpt>
      <trkpt lat="48.099377" lon="11.683393">
        <ele>574.134011</ele>
        <time>2021-04-20T12:17:59.797Z</time>
      </trkpt>
      <trkpt lat="48.099376" lon="11.683256">
        <ele>574.144203</ele>
        <time>2021-04-20T12:18:07.802Z</time>
      </trkpt>
      <trkpt lat="48.099379" lon="11.683111">
        <ele>574.154995</ele>
        <time>2021-04-20T12:18:14.812Z</time>
      </trkpt>
      <trkpt lat="48.099371" lon="11.682945">
        <ele>574.167377</ele>
        <time>2021-04-20T12:18:18.805Z</time>
      </trkpt>
      <trkpt lat="48.099325" lon="11.682812">
        <ele>574.178519</ele>
        <time>2021-04-20T12:18:22.787Z</time>
      </trkpt>
      <trkpt lat="48.099291" lon="11.682678">
        <ele>574.189183</ele>
        <time>2021-04-20T12:18:28.793Z</time>
      </trkpt>
      <trkpt lat="48.099254" lon="11.682539">
        <ele>574.200315</ele>
        <time>2021-04-20T12:18:33.797Z</time>
      </trkpt>
      <trkpt lat="48.099237" lon="11.682387">
        <ele>574.211780</ele>
        <time>2021-04-20T12:18:41.792Z</time>
      </trkpt>
      <trkpt lat="48.099185" lon="11.682257">
        <ele>574.223053</ele>
        <time>2021-04-20T12:18:48.799Z</time>
      </trkpt>
      <trkpt lat="48.099162" lon="11.682112">
        <ele>574.234140</ele>
        <time>2021-04-20T12:18:55.814Z</time>
      </trkpt>
      <trkpt lat="48.099140" lon="11.681979">
        <ele>574.244334</ele>
        <time>2021-04-20T12:19:00.797Z</time>
      </trkpt>
      <trkpt lat="48.099112" lon="11.681833">
        <ele>574.255634</ele>
        <time>2021-04-20T12:19:08.817Z</time>
      </trkpt>
      <trkpt lat="48.099105" lon="11.681687">
        <ele>574.266523</ele>
        <time>2021-04-20T12:19:13.842Z</time>
      </trkpt>
      <trkpt lat="48.099081" lon="11.681538">
        <ele>574.277926</ele>
        <time>2021-04-20T12:19:19.815Z</time>
      </trkpt>
      <trkpt lat="48.099051" lon="11.681381">
        <ele>574.290074</ele>
        <time>2021-04-20T12:19:25.792Z</time>
      </trkpt>
      <trkpt lat="48.098996" lon="11.681264">
        <ele>574.300718</ele>
        <time>2021-04-20T12:19:32.802Z</time>
      </trkpt>
      <trkpt lat="48.098993" lon="11.681123">
        <ele>574.311597</ele>
        <time>2021-04-20T12:19:42.814Z</time>
      </trkpt>
      <trkpt lat="48.099027" lon="11.680994">
        <ele>574.322883</ele>
        <time>2021-04-20T12:19:53.799Z</time>
      </trkpt>
      <trkpt lat="48.099071" lon="11.680856">
        <ele>574.335328</ele>
        <time>2021-04-20T12:20:00.798Z</time>
      </trkpt>
      <trkpt lat="48.099132" lon="11.680719">
        <ele>574.348728</ele>
        <time>2021-04-20T12:20:06.811Z</time>
      </trkpt>
      <trkpt lat="48.099205" lon="11.680620">
        <ele>574.360729</ele>
        <time>2021-04-20T12:20:12.798Z</time>
      </trkpt>
      <trkpt lat="48.099270" lon="11.680500">
        <ele>574.373303</ele>
        <time>2021-04-20T12:20:21.817Z</time>
      </trkpt>
      <trkpt lat="48.099330" lon="11.680381">
        <ele>574.385437</ele>
        <time>2021-04-20T12:20:28.807Z</time>
      </trkpt>
      <trkpt lat="48.099394" lon="11.680283">
        <ele>574.396592</ele>
        <time>2021-04-20T12:20:33.802Z</time>
      </trkpt>
      <trkpt lat="48.099416" lon="11.680140">
        <ele>574.408534</ele>
        <time>2021-04-20T12:20:40.807Z</time>
      </trkpt>
      <trkpt lat="48.099461" lon="11.680019">
        <ele>574.419804</ele>
        <time>2021-04-20T12:20:48.798Z</time>
      </trkpt>
      <trkpt lat="48.099473" lon="11.679874">
        <ele>574.431695</ele>
        <time>2021-04-20T12:20:56.810Z</time>
      </trkpt>
      <trkpt lat="48.099518" lon="11.679756">
        <ele>574.442753</ele>
        <time>2021-04-20T12:21:00.799Z</time>
      </trkpt>
      <trkpt lat="48.099592" lon="11.679660">
        <ele>574.454683</ele>
        <time>2021-04-20T12:21:05.798Z</time>
      </trkpt>
      <trkpt lat="48.099659" lon="11.679541">
        <ele>574.467350</ele>
        <time>2021-04-20T12:21:11.799Z</time>
      </trkpt>
      <trkpt lat="48.099706" lon="11.679413">
        <ele>574.479237</ele>
        <time>2021-04-20T12:21:18.798Z</time>
      </trkpt>
      <trkpt lat="48.099765" lon="11.679285">
        <ele>574.491893</ele>
        <time>2021-04-20T12:21:24.826Z</time>
      </trkpt>
      <trkpt lat="48.099801" lon="11.679154">
        <ele>574.503421</ele>
        <time>2021-04-20T12:21:30.799Z</time>
      </trkpt>
      <trkpt lat="48.099869" lon="11.679038">
        <ele>574.515982</ele>
        <time>2021-04-20T12:21:37.816Z</time>
      </trkpt>
      <trkpt lat="48.099922" lon="11.678907">
        <ele>574.528569</ele>
        <time>2021-04-20T12:21:45.815Z</time>
      </trkpt>
      <trkpt lat="48.099968" lon="11.678786">
        <ele>574.540548</ele>
        <time>2021-04-20T12:21:51.796Z</time>
      </trkpt>
      <trkpt lat="48.099993" lon="11.678655">
        <ele>574.552269</ele>
        <time>2021-04-20T12:21:57.827Z</time>
      </trkpt>
      <trkpt lat="48.100047" lon="11.678537">
        <ele>574.564576</ele>
        <time>2021-04-20T12:22:03.804Z</time>
      </trkpt>
      <trkpt lat="48.100102" lon="11.678402">
        <ele>574.578180</ele>
        <time>2021-04-20T12:22:11.794Z</time>
      </trkpt>
      <trkpt lat="48.100110" lon="11.678238">
        <ele>574.592327</ele>
        <time>2021-04-20T12:22:17.846Z</time>
      </trkpt>
      <trkpt lat="48.100130" lon="11.678106">
        <ele>574.603972</ele>
        <time>2021-04-20T12:22:22.826Z</time>
      </trkpt>
      <trkpt lat="48.100156" lon="11.677967">
        <ele>574.616391</ele>
        <time>2021-04-20T12:22:28.797Z</time>
      </trkpt>
      <trkpt lat="48.100231" lon="11.677872">
        <ele>574.629046</ele>
        <time>2021-04-20T12:22:37.827Z</time>
      </trkpt>
      <trkpt lat="48.100262" lon="11.677745">
        <ele>574.640678</ele>
        <time>2021-04-20T12:22:44.808Z</time>
      </trkpt>
      <trkpt lat="48.100312" lon="11.677622">
        <ele>574.653067</ele>
        <time>2021-04-20T12:22:50.791Z</time>
      </trkpt>
      <trkpt lat="48.100363" lon="11.677472">
        <ele>574.667547</ele>
        <time>2021-04-20T12:22:55.794Z</time>
      </trkpt>
      <trkpt lat="48.100415" lon="11.677342">
        <ele>574.680584</ele>
        <time>2021-04-20T12:23:02.826Z</time>
      </trkpt>
      <trkpt lat="48.100476" lon="11.677224">
        <ele>574.693422</ele>
        <time>2021-04-20T12:23:10.795Z</time>
      </trkpt>
      <trkpt lat="48.100528" lon="11.677079">
        <ele>574.707581</ele>
        <time>2021-04-20T12:23:15.871Z</time>
      </trkpt>
      <trkpt lat="48.100576" lon="11.676942">
        <ele>574.720891</ele>
        <time>2021-04-20T12:23:20.798Z</time>
      </trkpt>
      <trkpt lat="48.100650" lon="11.676859">
        <ele>574.732802</ele>
        <time>2021-04-20T12:23:27.792Z</time>
      </trkpt>
      <trkpt lat="48.100691" lon="11.676734">
        <ele>574.744783</ele>
        <time>2021-04-20T12:23:32.803Z</time>
      </trkpt>
      <trkpt lat="48.100730" lon="11.676610">
        <ele>574.756574</ele>
        <time>2021-04-20T12:23:39.833Z</time>
      </trkpt>
      <trkpt lat="48.100803" lon="11.676518">
        <ele>574.762738</ele>
        <time>2021-04-20T12:23:45.805Z</time>
      </trkpt>
      <trkpt lat="48.100848" lon="11.676389">
        <ele>574.768197</ele>
        <time>2021-04-20T12:23:51.793Z</time>
      </trkpt>
      <trkpt lat="48.100890" lon="11.676261">
        <ele>574.773547</ele>
        <time>2021-04-20T12:23:58.832Z</time>
      </trkpt>
      <trkpt lat="48.100940" lon="11.676130">
        <ele>574.779207</ele>
        <time>2021-04-20T12:24:05.795Z</time>
      </trkpt>
      <trkpt lat="48.100968" lon="11.675970">
        <ele>574.785412</ele>
        <time>2021-04-20T12:24:11.802Z</time>
      </trkpt>
      <trkpt lat="48.100986" lon="11.675824">
        <ele>574.790981</ele>
        <time>2021-04-20T12:24:19.795Z</time>
      </trkpt>
      <trkpt lat="48.101022" lon="11.675698">
        <ele>574.796122</ele>
        <time>2021-04-20T12:24:25.809Z</time>
      </trkpt>
      <trkpt lat="48.101065" lon="11.675568">
        <ele>574.801563</ele>
        <time>2021-04-20T12:24:31.797Z</time>
      </trkpt>
      <trkpt lat="48.101128" lon="11.675458">
        <ele>574.806999</ele>
        <time>2021-04-20T12:24:36.797Z</time>
      </trkpt>
      <trkpt lat="48.101169" lon="11.675319">
        <ele>574.812699</ele>
        <time>2021-04-20T12:24:44.789Z</time>
      </trkpt>
      <trkpt lat="48.101228" lon="11.675204">
        <ele>574.818139</ele>
        <time>2021-04-20T12:24:51.808Z</time>
      </trkpt>
      <trkpt lat="48.101288" lon="11.675087">
        <ele>574.823673</ele>
        <time>2021-04-20T12:24:57.798Z</time>
      </trkpt>
      <trkpt lat="48.101323" lon="11.674958">
        <ele>574.828896</ele>
        <time>2021-04-20T12:25:02.798Z</time>
      </trkpt>
      <trkpt lat="48.101370" lon="11.674827">
        <ele>574.834474</ele>
        <time>2021-04-20T12:25:08.806Z</time>
      </trkpt>
      <trkpt lat="48.101429" lon="11.674702">
        <ele>574.840216</ele>
        <time>2021-04-20T12:25:16.796Z</time>
      </trkpt>
      <trkpt lat="48.101479" lon="11.674557">
        <ele>574.846337</ele>
        <time>2021-04-20T12:25:22.801Z</time>
      </trkpt>
      <trkpt lat="48.101537" lon="11.674443">
        <ele>574.851713</ele>
        <time>2021-04-20T12:25:29.799Z</time>
      </trkpt>
      <trkpt lat="48.101584" lon="11.674315">
        <ele>574.857192</ele>
        <time>2021-04-20T12:25:36.794Z</time>
      </trkpt>
      <trkpt lat="48.101624" lon="11.674187">
        <ele>574.870880</ele>
        <time>2021-04-20T12:25:42.790Z</time>
      </trkpt>
      <trkpt lat="48.101636" lon="11.674028">
        <ele>574.891418</ele>
        <time>2021-04-20T12:25:48.789Z</time>
      </trkpt>
      <trkpt lat="48.101680" lon="11.673903">
        <ele>574.909553</ele>
        <time>2021-04-20T12:25:53.806Z</time>
      </trkpt>
      <trkpt lat="48.101731" lon="11.673770">
        <ele>574.929238</ele>
        <time>2021-04-20T12:26:00.793Z</time>
      </trkpt>
      <trkpt lat="48.101737" lon="11.673615">
        <ele>574.949165</ele>
        <time>2021-04-20T12:26:06.793Z</time>
      </trkpt>
      <trkpt lat="48.101745" lon="11.673475">
        <ele>574.967199</ele>
        <time>2021-04-20T12:26:15.798Z</time>
      </trkpt>
      <trkpt lat="48.101801" lon="11.673344">
        <ele>574.987163</ele>
        <time>2021-04-20T12:26:22.802Z</time>
      </trkpt>
      <trkpt lat="48.101816" lon="11.673197">
        <ele>575.006249</ele>
        <time>2021-04-20T12:26:28.810Z</time>
      </trkpt>
      <trkpt lat="48.101845" lon="11.673065">
        <ele>575.024084</ele>
        <time>2021-04-20T12:26:32.803Z</time>
      </trkpt>
      <trkpt lat="48.101924" lon="11.672984">
        <ele>575.042485</ele>
        <time>2021-04-20T12:26:41.815Z</time>
      </trkpt>
      <trkpt lat="48.102015" lon="11.672929">
        <ele>575.061346</ele>
        <time>2021-04-20T12:26:47.803Z</time>
      </trkpt>
      <trkpt lat="48.102077" lon="11.672827">
        <ele>575.079048</ele>
        <time>2021-04-20T12:26:53.794Z</time>
      </trkpt>
      <trkpt lat="48.102157" lon="11.672738">
        <ele>575.098202</ele>
        <time>2021-04-20T12:27:00.792Z</time>
      </trkpt>
      <trkpt lat="48.102228" lon="11.672637">
        <ele>575.117024</ele>
        <time>2021-04-20T12:27:09.798Z</time>
      </trkpt>
      <trkpt lat="48.102309" lon="11.672538">
        <ele>575.137118</ele>
        <time>2021-04-20T12:27:16.811Z</time>
      </trkpt>
      <trkpt lat="48.102385" lon="11.672438">
        <ele>575.156563</ele>
        <time>2021-04-20T12:27:23.830Z</time>
      </trkpt>
      <trkpt lat="48.102449" lon="11.672322">
        <ele>575.175875</ele>
        <time>2021-04-20T12:27:28.792Z</time>
      </trkpt>
      <trkpt lat="48.102491" lon="11.672192">
        <ele>575.194410</ele>
        <time>2021-04-20T12:27:34.812Z</time>
      </trkpt>
      <trkpt lat="48.102507" lon="11.672047">
        <ele>575.211661</ele>
        <time>2021-04-20T12:27:40.801Z</time>
      </trkpt>
      <trkpt lat="48.102565" lon="11.671943">
        <ele>575.225776</ele>
        <time>2021-04-20T12:27:45.814Z</time>
      </trkpt>
      <trkpt lat="48.102591" lon="11.671813">
        <ele>575.239913</ele>
        <time>2021-04-20T12:27:51.802Z</time>
      </trkpt>
      <trkpt lat="48.102653" lon="11.671700">
        <ele>575.255148</ele>
        <time>2021-04-20T12:28:00.820Z</time>
      </trkpt>
      <trkpt lat="48.102720" lon="11.671581">
        <ele>575.271362</ele>
        <time>2021-04-20T12:28:07.795Z</time>
      </trkpt>
      <trkpt lat="48.102748" lon="11.671438">
        <ele>575.286886</ele>
        <time>2021-04-20T12:28:15.788Z</time>
      </trkpt>
      <trkpt lat="48.102796" lon="11.671286">
        <ele>575.304402</ele>
        <time>2021-04-20T12:28:21.838Z</time>
      </trkpt>
      <trkpt lat="48.102867" lon="11.671203">
        <ele>575.318453</ele>
        <time>2021-04-20T12:28:28.803Z</time>
      </trkpt>
      <trkpt lat="48.102884" lon="11.671066">
        <ele>575.332968</ele>
        <time>2021-04-20T12:28:34.799Z</time>
      </trkpt>
      <trkpt lat="48.102902" lon="11.670911">
        <ele>575.349358</ele>
        <time>2021-04-20T12:28:40.793Z</time>
      </trkpt>
      <trkpt lat="48.102929" lon="11.670768">
        <ele>575.364838</ele>
        <time>2021-04-20T12:28:45.791Z</time>
      </trkpt>
      <trkpt lat="48.102943" lon="11.670633">
        <ele>575.379070</ele>
        <time>2021-04-20T12:28:52.814Z</time>
      </trkpt>
      <trkpt lat="48.103030" lon="11.670534">
        <ele>575.396115</ele>
        <time>2021-04-20T12:28:59.806Z</time>
      </trkpt>
      <trkpt lat="48.103074" lon="11.670404">
        <ele>575.411298</ele>
        <time>2021-04-20T12:29:07.795Z</time>
      </trkpt>
      <trkpt lat="48.103130" lon="11.670284">
        <ele>575.426549</ele>
        <time>2021-04-20T12:29:13.791Z</time>
      </trkpt>
      <trkpt lat="48.103184" lon="11.670171">
        <ele>575.441024</ele>
        <time>2021-04-20T12:29:18.801Z</time>
      </trkpt>
      <trkpt lat="48.103202" lon="11.670029">
        <ele>575.456080</ele>
        <time>2021-04-20T12:29:26.794Z</time>
      </trkpt>
      <trkpt lat="48.103236" lon="11.669902">
        <ele>575.470333</ele>
        <time>2021-04-20T12:29:36.793Z</time>
      </trkpt>
      <trkpt lat="48.103283" lon="11.669777">
        <ele>575.485277</ele>
        <time>2021-04-20T12:29:43.817Z</time>
      </trkpt>
      <trkpt lat="48.103348" lon="11.669654">
        <ele>575.489221</ele>
        <time>2021-04-20T12:29:51.788Z</time>
      </trkpt>
      <trkpt lat="48.103387" lon="11.669516">
        <ele>575.492977</ele>
        <time>2021-04-20T12:29:58.777Z</time>
      </trkpt>
      <trkpt lat="48.103461" lon="11.669408">
        <ele>575.496855</ele>
        <time>2021-04-20T12:30:04.809Z</time>
      </trkpt>
      <trkpt lat="48.103553" lon="11.669335">
        <ele>575.500763</ele>
        <time>2021-04-20T12:30:12.794Z</time>
      </trkpt>
      <trkpt lat="48.103627" lon="11.669245">
        <ele>575.504340</ele>
        <time>2021-04-20T12:30:20.813Z</time>
      </trkpt>
      <trkpt lat="48.103726" lon="11.669177">
        <ele>575.508428</ele>
        <time>2021-04-20T12:30:27.791Z</time>
      </trkpt>
      <trkpt lat="48.103804" lon="11.669108">
        <ele>575.511828</ele>
        <time>2021-04-20T12:30:33.792Z</time>
      </trkpt>
      <trkpt lat="48.103838" lon="11.668972">
        <ele>575.515468</ele>
        <time>2021-04-20T12:30:39.790Z</time>
      </trkpt>
      <trkpt lat="48.103908" lon="11.668870">
        <ele>575.519133</ele>
        <time>2021-04-20T12:30:46.802Z</time>
      </trkpt>
      <trkpt lat="48.103980" lon="11.668780">
        <ele>575.522653</ele>
        <time>2021-04-20T12:30:53.796Z</time>
      </trkpt>
      <trkpt lat="48.104045" lon="11.668669">
        <ele>575.526353</ele>
        <time>2021-04-20T12:30:59.796Z</time>
      </trkpt>
      <trkpt lat="48.104108" lon="11.668567">
        <ele>575.529835</ele>
        <time>2021-04-20T12:31:07.780Z</time>
      </trkpt>
      <trkpt lat="48.104195" lon="11.668526">
        <ele>575.533258</ele>
        <time>2021-04-20T12:31:14.801Z</time>
      </trkpt>
      <trkpt lat="48.104293" lon="11.668504">
        <ele>575.536977</ele>
        <time>2021-04-20T12:31:20.797Z</time>
      </trkpt>
      <trkpt lat="48.104370" lon="11.668429">
        <ele>575.540425</ele>
        <time>2021-04-20T12:31:29.854Z</time>
      </trkpt>
      <trkpt lat="48.104454" lon="11.668369">
        <ele>575.543917</ele>
        <time>2021-04-20T12:31:33.820Z</time>
      </trkpt>
      <trkpt lat="48.104534" lon="11.668259">
        <ele>575.547993</ele>
        <time>2021-04-20T12:31:39.797Z</time>
      </trkpt>
      <trkpt lat="48.104625" lon="11.668180">
        <ele>575.551941</ele>
        <time>2021-04-20T12:31:44.806Z</time>
      </trkpt>
      <trkpt lat="48.104727" lon="11.668130">
        <ele>575.546062</ele>
        <time>2021-04-20T12:31:52.795Z</time>
      </trkpt>
      <trkpt lat="48.104818" lon="11.668103">
        <ele>575.538665</ele>
        <time>2021-04-20T12:32:01.823Z</time>
      </trkpt>
      <trkpt lat="48.104917" lon="11.668084">
        <ele>575.530707</ele>
        <time>2021-04-20T12:32:09.794Z</time>
      </trkpt>
      <trkpt lat="48.105022" lon="11.668095">
        <ele>575.522315</ele>
        <time>2021-04-20T12:32:15.795Z</time>
      </trkpt>
      <trkpt lat="48.105121" lon="11.668090">
        <ele>575.514418</ele>
        <time>2021-04-20T12:32:24.807Z</time>
      </trkpt>
      <trkpt lat="48.105212" lon="11.668146">
        <ele>575.506574</ele>
        <time>2021-04-20T12:32:31.796Z</time>
      </trkpt>
      <trkpt lat="48.105264" lon="11.668270">
        <ele>575.498778</ele>
        <time>2021-04-20T12:32:41.827Z</time>
      </trkpt>
      <trkpt lat="48.105308" lon="11.668388">
        <ele>575.491582</ele>
        <time>2021-04-20T12:32:49.826Z</time>
      </trkpt>
      <trkpt lat="48.105396" lon="11.668441">
        <ele>575.484020</ele>
        <time>2021-04-20T12:32:56.809Z</time>
      </trkpt>
      <trkpt lat="48.105498" lon="11.668427">
        <ele>575.475854</ele>
        <time>2021-04-20T12:33:02.799Z</time>
      </trkpt>
      <trkpt lat="48.105599" lon="11.668424">
        <ele>575.467799</ele>
        <time>2021-04-20T12:33:09.793Z</time>
      </trkpt>
      <trkpt lat="48.105697" lon="11.668444">
        <ele>575.459914</ele>
        <time>2021-04-20T12:33:18.797Z</time>
      </trkpt>
      <trkpt lat="48.105774" lon="11.668525">
        <ele>575.452411</ele>
        <time>2021-04-20T12:33:23.812Z</time>
      </trkpt>
      <trkpt lat="48.105842" lon="11.668619">
        <ele>575.445033</ele>
        <time>2021-04-20T12:33:30.793Z</time>
      </trkpt>
      <trkpt lat="48.105934" lon="11.668679">
        <ele>575.437033</ele>
        <time>2021-04-20T12:33:38.796Z</time>
      </trkpt>
      <trkpt lat="48.106013" lon="11.668766">
        <ele>575.429214</ele>
        <time>2021-04-20T12:33:43.806Z</time>
      </trkpt>
      <trkpt lat="48.106096" lon="11.668849">
        <ele>575.421257</ele>
        <time>2021-04-20T12:33:51.790Z</time>
      </trkpt>
      <trkpt lat="48.106181" lon="11.668913">
        <ele>575.413672</ele>
        <time>2021-04-20T12:34:01.784Z</time>
      </trkpt>
      <trkpt lat="48.106271" lon="11.668945">
        <ele>575.405066</ele>
        <time>2021-04-20T12:34:11.810Z</time>
      </trkpt>
      <trkpt lat="48.106336" lon="11.669062">
        <ele>575.393744</ele>
        <time>2021-04-20T12:34:20.818Z</time>
      </trkpt>
      <trkpt lat="48.106414" lon="11.669162">
        <ele>575.382305</ele>
        <time>2021-04-20T12:34:26.800Z</time>
      </trkpt>
      <trkpt lat="48.106483" lon="11.669290">
        <ele>575.370068</ele>
        <time>2021-04-20T12:34:32.798Z</time>
      </trkpt>
      <trkpt lat="48.106571" lon="11.669368">
        <ele>575.358676</ele>
        <time>2021-04-20T12:34:37.843Z</time>
      </trkpt>
      <trkpt lat="48.106648" lon="11.669437">
        <ele>575.348679</ele>
        <time>2021-04-20T12:34:42.811Z</time>
      </trkpt>
      <trkpt lat="48.106735" lon="11.669483">
        <ele>575.338401</ele>
        <time>2021-04-20T12:34:47.802Z</time>
      </trkpt>
      <trkpt lat="48.106802" lon="11.669579">
        <ele>575.328070</ele>
        <time>2021-04-20T12:34:53.805Z</time>
      </trkpt>
      <trkpt lat="48.106895" lon="11.669626">
        <ele>575.317136</ele>
        <time>2021-04-20T12:34:59.800Z</time>
      </trkpt>
      <trkpt lat="48.106986" lon="11.669714">
        <ele>575.305068</ele>
        <time>2021-04-20T12:35:05.803Z</time>
      </trkpt>
      <trkpt lat="48.107065" lon="11.669792">
        <ele>575.294526</ele>
        <time>2021-04-20T12:35:10.798Z</time>
      </trkpt>
      <trkpt lat="48.107152" lon="11.669828">
        <ele>575.284471</ele>
        <time>2021-04-20T12:35:17.780Z</time>
      </trkpt>
      <trkpt lat="48.107243" lon="11.669840">
        <ele>575.274294</ele>
        <time>2021-04-20T12:35:23.785Z</time>
      </trkpt>
      <trkpt lat="48.107339" lon="11.669903">
        <ele>575.262617</ele>
        <time>2021-04-20T12:35:29.793Z</time>
      </trkpt>
      <trkpt lat="48.107422" lon="11.669962">
        <ele>575.252382</ele>
        <time>2021-04-20T12:35:35.809Z</time>
      </trkpt>
      <trkpt lat="48.107514" lon="11.670004">
        <ele>575.241667</ele>
        <time>2021-04-20T12:35:40.791Z</time>
      </trkpt>
      <trkpt lat="48.107591" lon="11.670083">
        <ele>575.231269</ele>
        <time>2021-04-20T12:35:48.799Z</time>
      </trkpt>
      <trkpt lat="48.107676" lon="11.670154">
        <ele>575.220427</ele>
        <time>2021-04-20T12:35:56.793Z</time>
      </trkpt>
      <trkpt lat="48.107752" lon="11.670227">
        <ele>575.210368</ele>
        <time>2021-04-20T12:36:03.806Z</time>
      </trkpt>
      <trkpt lat="48.107843" lon="11.670242">
        <ele>575.204800</ele>
        <time>2021-04-20T12:36:08.801Z</time>
      </trkpt>
      <trkpt lat="48.107915" lon="11.670330">
        <ele>575.199865</ele>
        <time>2021-04-20T12:36:15.806Z</time>
      </trkpt>
      <trkpt lat="48.108011" lon="11.670377">
        <ele>575.194503</ele>
        <time>2021-04-20T12:36:22.791Z</time>
      </trkpt>
      <trkpt lat="48.108107" lon="11.670436">
        <ele>575.188993</ele>
        <time>2021-04-20T12:36:28.809Z</time>
      </trkpt>
      <trkpt lat="48.108194" lon="11.670485">
        <ele>575.184058</ele>
        <time>2021-04-20T12:36:35.795Z</time>
      </trkpt>
      <trkpt lat="48.108272" lon="11.670556">
        <ele>575.179212</ele>
        <time>2021-04-20T12:36:41.812Z</time>
      </trkpt>
      <trkpt lat="48.108358" lon="11.670637">
        <ele>575.173818</ele>
        <time>2021-04-20T12:36:47.798Z</time>
      </trkpt>
      <trkpt lat="48.108446" lon="11.670719">
        <ele>575.168315</ele>
        <time>2021-04-20T12:36:54.800Z</time>
      </trkpt>
      <trkpt lat="48.108545" lon="11.670768">
        <ele>575.162779</ele>
        <time>2021-04-20T12:37:00.802Z</time>
      </trkpt>
      <trkpt lat="48.108627" lon="11.670835">
        <ele>575.157819</ele>
        <time>2021-04-20T12:37:06.857Z</time>
      </trkpt>
      <trkpt lat="48.108709" lon="11.670903">
        <ele>575.152843</ele>
        <time>2021-04-20T12:37:11.797Z</time>
      </trkpt>
      <trkpt lat="48.108793" lon="11.670978">
        <ele>575.147650</ele>
        <time>2021-04-20T12:37:18.797Z</time>
      </trkpt>
      <trkpt lat="48.108892" lon="11.671049">
        <ele>575.141822</ele>
        <time>2021-04-20T12:37:24.813Z</time>
      </trkpt>
      <trkpt lat="48.108968" lon="11.671142">
        <ele>575.136611</ele>
        <time>2021-04-20T12:37:35.801Z</time>
      </trkpt>
      <trkpt lat="48.109044" lon="11.671247">
        <ele>575.131121</ele>
        <time>2021-04-20T12:37:42.788Z</time>
      </trkpt>
      <trkpt lat="48.109125" lon="11.671351">
        <ele>575.125457</ele>
        <time>2021-04-20T12:37:49.815Z</time>
      </trkpt>
      <trkpt lat="48.109205" lon="11.671413">
        <ele>575.120674</ele>
        <time>2021-04-20T12:37:56.793Z</time>
      </trkpt>
      <trkpt lat="48.109291" lon="11.671499">
        <ele>575.115184</ele>
        <time>2021-04-20T12:38:02.801Z</time>
      </trkpt>
      <trkpt lat="48.109381" lon="11.671539">
        <ele>575.101897</ele>
        <time>2021-04-20T12:38:08.800Z</time>
      </trkpt>
      <trkpt lat="48.109453" lon="11.671622">
        <ele>575.085006</ele>
        <time>2021-04-20T12:38:16.793Z</time>
      </trkpt>
      <trkpt lat="48.109524" lon="11.671732">
        <ele>575.066014</ele>
        <time>2021-04-20T12:38:24.803Z</time>
      </trkpt>
      <trkpt lat="48.109594" lon="11.671820">
        <ele>575.049024</ele>
        <time>2021-04-20T12:38:31.803Z</time>
      </trkpt>
      <trkpt lat="48.109682" lon="11.671951">
        <ele>575.025957</ele>
        <time>2021-04-20T12:38:39.797Z</time>
      </trkpt>
      <trkpt lat="48.109756" lon="11.672052">
        <ele>575.007344</ele>
        <time>2021-04-20T12:38:44.796Z</time>
      </trkpt>
      <trkpt lat="48.109858" lon="11.672116">
        <ele>574.986785</ele>
        <time>2021-04-20T12:38:50.815Z</time>
      </trkpt>
      <trkpt lat="48.109953" lon="11.672183">
        <ele>574.967264</ele>
        <time>2021-04-20T12:38:55.800Z</time>
      </trkpt>
      <trkpt lat="48.110010" lon="11.672291">
        <ele>574.950175</ele>
        <time>2021-04-20T12:39:02.802Z</time>
      </trkpt>
      <trkpt lat="48.110074" lon="11.672394">
        <ele>574.932710</ele>
        <time>2021-04-20T12:39:08.802Z</time>
      </trkpt>
      <trkpt lat="48.110139" lon="11.672509">
        <ele>574.914008</ele>
        <time>2021-04-20T12:39:16.794Z</time>
      </trkpt>
      <trkpt lat="48.110223" lon="11.672617">
        <ele>574.893426</ele>
        <time>2021-04-20T12:39:22.785Z</time>
      </trkpt>
      <trkpt lat="48.110291" lon="11.672707">
        <ele>574.876556</ele>
        <time>2021-04-20T12:39:29.798Z</time>
      </trkpt>
      <trkpt lat="48.110380" lon="11.672786">
        <ele>574.857322</ele>
        <time>2021-04-20T12:39:36.808Z</time>
      </trkpt>
      <trkpt lat="48.110462" lon="11.672848">
        <ele>574.840246</ele>
        <time>2021-04-20T12:39:41.805Z</time>
      </trkpt>
      <trkpt lat="48.110521" lon="11.672962">
        <ele>574.822342</ele>
        <time>2021-04-20T12:39:47.797Z</time>
      </trkpt>
      <trkpt lat="48.110577" lon="11.673088">
        <ele>574.803553</ele>
        <time>2021-04-20T12:39:55.805Z</time>
      </trkpt>
      <trkpt lat="48.110624" lon="11.673230">
        <ele>574.783880</ele>
        <time>2021-04-20T12:40:03.809Z</time>
      </trkpt>
      <trkpt lat="48.110676" lon="11.673367">
        <ele>574.779139</ele>
        <time>2021-04-20T12:40:13.800Z</time>
      </trkpt>
      <trkpt lat="48.110743" lon="11.673482">
        <ele>574.779139</ele>
        <time>2021-04-20T12:40:18.815Z</time>
      </trkpt>
      <trkpt lat="48.110813" lon="11.673588">
        <ele>574.779139</ele>
        <time>2021-04-20T12:40:23.810Z</time>
      </trkpt>
      <trkpt lat="48.110848" lon="11.673723">
        <ele>574.779139</ele>
        <time>2021-04-20T12:40:31.814Z</time>
      </trkpt>
      <trkpt lat="48.110902" lon="11.673841">
        <ele>574.779139</ele>
        <time>2021-04-20T12:40:38.804Z</time>
      </trkpt>
      <trkpt lat="48.110965" lon="11.673970">
        <ele>574.779139</ele>
        <time>2021-04-20T12:40:46.796Z</time>
      </trkpt>
      <trkpt lat="48.111025" lon="11.674081">
        <ele>574.779139</ele>
        <time>2021-04-20T12:40:53.808Z</time>
      </trkpt>
      <trkpt lat="48.111080" lon="11.674190">
        <ele>574.779139</ele>
        <time>2021-04-20T12:40:58.801Z</time>
      </trkpt>
      <trkpt lat="48.111170" lon="11.674245">
        <ele>574.779139</ele>
        <time>2021-04-20T12:41:06.802Z</time>
      </trkpt>
      <trkpt lat="48.111200" lon="11.674395">
        <ele>574.779139</ele>
        <time>2021-04-20T12:41:13.793Z</time>
      </trkpt>
      <trkpt lat="48.111256" lon="11.674540">
        <ele>574.779139</ele>
        <time>2021-04-20T12:41:21.828Z</time>
      </trkpt>
      <trkpt lat="48.111316" lon="11.674657">
        <ele>574.779139</ele>
        <time>2021-04-20T12:41:27.805Z</time>
      </trkpt>
      <trkpt lat="48.111369" lon="11.674768">
        <ele>574.779139</ele>
        <time>2021-04-20T12:41:36.811Z</time>
      </trkpt>
      <trkpt lat="48.111434" lon="11.674875">
        <ele>574.779139</ele>
        <time>2021-04-20T12:41:43.802Z</time>
      </trkpt>
      <trkpt lat="48.111485" lon="11.674988">
        <ele>574.779139</ele>
        <time>2021-04-20T12:41:48.809Z</time>
      </trkpt>
      <trkpt lat="48.111542" lon="11.675123">
        <ele>574.779139</ele>
        <time>2021-04-20T12:41:55.816Z</time>
      </trkpt>
      <trkpt lat="48.111621" lon="11.675195">
        <ele>574.779139</ele>
        <time>2021-04-20T12:42:01.815Z</time>
      </trkpt>
      <trkpt lat="48.111710" lon="11.675244">
        <ele>574.779139</ele>
        <time>2021-04-20T12:42:07.824Z</time>
      </trkpt>
      <trkpt lat="48.111775" lon="11.675354">
        <ele>574.779139</ele>
        <time>2021-04-20T12:42:13.803Z</time>
      </trkpt>
      <trkpt lat="48.111850" lon="11.675453">
        <ele>574.779139</ele>
        <time>2021-04-20T12:42:20.811Z</time>
      </trkpt>
      <trkpt lat="48.111929" lon="11.675527">
        <ele>574.779139</ele>
        <time>2021-04-20T12:42:26.808Z</time>
      </trkpt>
      <trkpt lat="48.112000" lon="11.675635">
        <ele>574.779139</ele>
        <time>2021-04-20T12:42:34.805Z</time>
      </trkpt>
      <trkpt lat="48.112056" lon="11.675743">
        <ele>574.779139</ele>
        <time>2021-04-20T12:42:41.792Z</time>
      </trkpt>
      <trkpt lat="48.112088" lon="11.675723">
        <ele>574.779139</ele>
        <time>2021-04-20T12:42:47.704Z</time>
      </trkpt>
    </trkseg>
  </trk>
</gpx>