<?xml version='1.0' encoding='UTF-8'?>
<gpx version="1.1" creator="https://www.komoot.de" xmlns="http://www.topografix.com/GPX/1/1" xmlns:xsi="http://www.w3.org/2001/XMLSchema-instance" xsi:schemaLocation="http://www.topografix.com/GPX/1/1 http://www.topografix.com/GPX/1/1/gpx.xsd">
  <metadata>
    <name>IVV-PW 419 MOB "Zur Burg Grünwald" im Isartal 7 km</name>
    <author>
      <link href="https://www.komoot.de">
        <text>komoot</text>
        <type>text/html</type>
      </link>
    </author>
  </metadata>
  <trk>
    <name>IVV-PW 419 MOB "Zur Burg Grünwald" im Isartal 7 km</name>
    <trkseg>
      <trkpt lat="48.076807" lon="11.550262">
        <ele>565.779448</ele>
        <time>2021-07-02T17:07:23.508Z</time>
      </trkpt>
      <trkpt lat="48.076814" lon="11.550227">
        <ele>565.779448</ele>
        <time>2021-07-02T17:07:26.021Z</time>
      </trkpt>
      <trkpt lat="48.076828" lon="11.550160">
        <ele>565.779448</ele>
        <time>2021-07-02T17:07:30.736Z</time>
      </trkpt>
      <trkpt lat="48.076832" lon="11.550137">
        <ele>565.779448</ele>
        <time>2021-07-02T17:07:32.401Z</time>
      </trkpt>
      <trkpt lat="48.076837" lon="11.550113">
        <ele>565.779448</ele>
        <time>2021-07-02T17:07:34.099Z</time>
      </trkpt>
      <trkpt lat="48.076848" lon="11.550063">
        <ele>565.779448</ele>
        <time>2021-07-02T17:07:37.676Z</time>
      </trkpt>
      <trkpt lat="48.076868" lon="11.549976">
        <ele>565.779448</ele>
        <time>2021-07-02T17:07:43.863Z</time>
      </trkpt>
      <trkpt lat="48.076687" lon="11.549890">
        <ele>565.779448</ele>
        <time>2021-07-02T17:08:02.912Z</time>
      </trkpt>
      <trkpt lat="48.076666" lon="11.549880">
        <ele>565.779448</ele>
        <time>2021-07-02T17:08:05.127Z</time>
      </trkpt>
      <trkpt lat="48.076501" lon="11.549800">
        <ele>565.779448</ele>
        <time>2021-07-02T17:08:22.587Z</time>
      </trkpt>
      <trkpt lat="48.076436" lon="11.549771">
        <ele>565.779448</ele>
        <time>2021-07-02T17:08:29.489Z</time>
      </trkpt>
      <trkpt lat="48.076061" lon="11.549597">
        <ele>565.763210</ele>
        <time>2021-07-02T17:09:09.076Z</time>
      </trkpt>
      <trkpt lat="48.076017" lon="11.549576">
        <ele>565.758112</ele>
        <time>2021-07-02T17:09:13.771Z</time>
      </trkpt>
      <trkpt lat="48.075600" lon="11.549377">
        <ele>565.709804</ele>
        <time>2021-07-02T17:09:58.052Z</time>
      </trkpt>
      <trkpt lat="48.075341" lon="11.549248">
        <ele>565.679676</ele>
        <time>2021-07-02T17:10:25.570Z</time>
      </trkpt>
      <trkpt lat="48.075309" lon="11.549232">
        <ele>565.675952</ele>
        <time>2021-07-02T17:10:28.992Z</time>
      </trkpt>
      <trkpt lat="48.074923" lon="11.549014">
        <ele>565.630415</ele>
        <time>2021-07-02T17:11:10.475Z</time>
      </trkpt>
      <trkpt lat="48.074866" lon="11.548984">
        <ele>565.623746</ele>
        <time>2021-07-02T17:11:16.555Z</time>
      </trkpt>
      <trkpt lat="48.074874" lon="11.548937">
        <ele>565.620170</ele>
        <time>2021-07-02T17:11:19.839Z</time>
      </trkpt>
      <trkpt lat="48.074926" lon="11.548654">
        <ele>565.598525</ele>
        <time>2021-07-02T17:11:39.818Z</time>
      </trkpt>
      <trkpt lat="48.074946" lon="11.548548">
        <ele>565.590402</ele>
        <time>2021-07-02T17:11:47.414Z</time>
      </trkpt>
      <trkpt lat="48.074966" lon="11.548435">
        <ele>565.581781</ele>
        <time>2021-07-02T17:11:55.311Z</time>
      </trkpt>
      <trkpt lat="48.075068" lon="11.547880">
        <ele>565.653086</ele>
        <time>2021-07-02T17:12:34.398Z</time>
      </trkpt>
      <trkpt lat="48.075114" lon="11.547632">
        <ele>565.686014</ele>
        <time>2021-07-02T17:12:51.887Z</time>
      </trkpt>
      <trkpt lat="48.075132" lon="11.547536">
        <ele>565.698770</ele>
        <time>2021-07-02T17:12:58.674Z</time>
      </trkpt>
      <trkpt lat="48.075212" lon="11.547093">
        <ele>565.757480</ele>
        <time>2021-07-02T17:13:29.554Z</time>
      </trkpt>
      <trkpt lat="48.075286" lon="11.546600">
        <ele>565.822125</ele>
        <time>2021-07-02T17:14:03.532Z</time>
      </trkpt>
      <trkpt lat="48.075341" lon="11.546240">
        <ele>565.869370</ele>
        <time>2021-07-02T17:14:28.584Z</time>
      </trkpt>
      <trkpt lat="48.075382" lon="11.545964">
        <ele>565.905543</ele>
        <time>2021-07-02T17:14:47.768Z</time>
      </trkpt>
      <trkpt lat="48.075420" lon="11.545714">
        <ele>565.815614</ele>
        <time>2021-07-02T17:15:05.252Z</time>
      </trkpt>
      <trkpt lat="48.075464" lon="11.545420">
        <ele>565.490772</ele>
        <time>2021-07-02T17:15:25.543Z</time>
      </trkpt>
      <trkpt lat="48.075542" lon="11.544572">
        <ele>564.567848</ele>
        <time>2021-07-02T17:16:23.715Z</time>
      </trkpt>
      <trkpt lat="48.075634" lon="11.543575">
        <ele>563.482696</ele>
        <time>2021-07-02T17:17:34.547Z</time>
      </trkpt>
      <trkpt lat="48.075530" lon="11.543486">
        <ele>563.289376</ele>
        <time>2021-07-02T17:17:47.230Z</time>
      </trkpt>
      <trkpt lat="48.075453" lon="11.543128">
        <ele>562.718101</ele>
        <time>2021-07-02T17:18:14.239Z</time>
      </trkpt>
      <trkpt lat="48.075337" lon="11.542914">
        <ele>562.066641</ele>
        <time>2021-07-02T17:18:33.853Z</time>
      </trkpt>
      <trkpt lat="48.075282" lon="11.542673">
        <ele>561.464582</ele>
        <time>2021-07-02T17:18:52.514Z</time>
      </trkpt>
      <trkpt lat="48.075279" lon="11.542558">
        <ele>561.192506</ele>
        <time>2021-07-02T17:19:00.802Z</time>
      </trkpt>
      <trkpt lat="48.075235" lon="11.542502">
        <ele>560.988145</ele>
        <time>2021-07-02T17:19:07.061Z</time>
      </trkpt>
      <trkpt lat="48.075094" lon="11.542404">
        <ele>560.438086</ele>
        <time>2021-07-02T17:19:23.952Z</time>
      </trkpt>
      <trkpt lat="48.075016" lon="11.542365">
        <ele>560.147111</ele>
        <time>2021-07-02T17:19:33.021Z</time>
      </trkpt>
      <trkpt lat="48.074923" lon="11.542375">
        <ele>559.817209</ele>
        <time>2021-07-02T17:19:43.137Z</time>
      </trkpt>
      <trkpt lat="48.074856" lon="11.542521">
        <ele>559.398483</ele>
        <time>2021-07-02T17:19:55.850Z</time>
      </trkpt>
      <trkpt lat="48.074853" lon="11.542443">
        <ele>559.213779</ele>
        <time>2021-07-02T17:20:01.775Z</time>
      </trkpt>
      <trkpt lat="48.074830" lon="11.542385">
        <ele>559.054331</ele>
        <time>2021-07-02T17:20:06.698Z</time>
      </trkpt>
      <trkpt lat="48.074815" lon="11.542366">
        <ele>558.984801</ele>
        <time>2021-07-02T17:20:09.020Z</time>
      </trkpt>
      <trkpt lat="48.074793" lon="11.542355">
        <ele>558.902731</ele>
        <time>2021-07-02T17:20:11.489Z</time>
      </trkpt>
      <trkpt lat="48.074727" lon="11.542369">
        <ele>558.666875</ele>
        <time>2021-07-02T17:20:18.801Z</time>
      </trkpt>
      <trkpt lat="48.074701" lon="11.542372">
        <ele>558.574608</ele>
        <time>2021-07-02T17:20:21.677Z</time>
      </trkpt>
      <trkpt lat="48.074374" lon="11.538900">
        <ele>552.951560</ele>
        <time>2021-07-02T17:24:28.946Z</time>
      </trkpt>
      <trkpt lat="48.074323" lon="11.538916">
        <ele>553.030420</ele>
        <time>2021-07-02T17:24:34.374Z</time>
      </trkpt>
      <trkpt lat="48.074292" lon="11.538909">
        <ele>553.077866</ele>
        <time>2021-07-02T17:24:38.520Z</time>
      </trkpt>
      <trkpt lat="48.074232" lon="11.538742">
        <ele>553.269600</ele>
        <time>2021-07-02T17:24:51.761Z</time>
      </trkpt>
      <trkpt lat="48.074207" lon="11.538401">
        <ele>553.616486</ele>
        <time>2021-07-02T17:25:15.222Z</time>
      </trkpt>
      <trkpt lat="48.074158" lon="11.538184">
        <ele>553.848106</ele>
        <time>2021-07-02T17:25:31.880Z</time>
      </trkpt>
      <trkpt lat="48.074021" lon="11.537828">
        <ele>554.263530</ele>
        <time>2021-07-02T17:26:00.273Z</time>
      </trkpt>
      <trkpt lat="48.073992" lon="11.537690">
        <ele>554.409814</ele>
        <time>2021-07-02T17:26:11.303Z</time>
      </trkpt>
      <trkpt lat="48.073931" lon="11.537716">
        <ele>554.505801</ele>
        <time>2021-07-02T17:26:17.864Z</time>
      </trkpt>
      <trkpt lat="48.073550" lon="11.537904">
        <ele>555.112930</ele>
        <time>2021-07-02T17:27:01.545Z</time>
      </trkpt>
      <trkpt lat="48.073391" lon="11.537957">
        <ele>555.359454</ele>
        <time>2021-07-02T17:27:20.252Z</time>
      </trkpt>
      <trkpt lat="48.073239" lon="11.538073">
        <ele>555.617669</ele>
        <time>2021-07-02T17:27:39.425Z</time>
      </trkpt>
      <trkpt lat="48.073052" lon="11.538144">
        <ele>556.026232</ele>
        <time>2021-07-02T17:28:00.587Z</time>
      </trkpt>
      <trkpt lat="48.072635" lon="11.538258">
        <ele>556.979215</ele>
        <time>2021-07-02T17:28:46.290Z</time>
      </trkpt>
      <trkpt lat="48.072440" lon="11.538307">
        <ele>557.423737</ele>
        <time>2021-07-02T17:29:07.418Z</time>
      </trkpt>
      <trkpt lat="48.072251" lon="11.538352">
        <ele>557.853977</ele>
        <time>2021-07-02T17:29:27.673Z</time>
      </trkpt>
      <trkpt lat="48.072074" lon="11.538395">
        <ele>558.257105</ele>
        <time>2021-07-02T17:29:46.736Z</time>
      </trkpt>
      <trkpt lat="48.071485" lon="11.538516">
        <ele>559.593671</ele>
        <time>2021-07-02T17:30:50.967Z</time>
      </trkpt>
      <trkpt lat="48.071259" lon="11.538485">
        <ele>560.049432</ele>
        <time>2021-07-02T17:31:14.834Z</time>
      </trkpt>
      <trkpt lat="48.071193" lon="11.538459">
        <ele>560.181487</ele>
        <time>2021-07-02T17:31:22.723Z</time>
      </trkpt>
      <trkpt lat="48.071150" lon="11.538455">
        <ele>560.264849</ele>
        <time>2021-07-02T17:31:27.868Z</time>
      </trkpt>
      <trkpt lat="48.070447" lon="11.538581">
        <ele>561.634823</ele>
        <time>2021-07-02T17:32:45.008Z</time>
      </trkpt>
      <trkpt lat="48.068145" lon="11.539242">
        <ele>565.027746</ele>
        <time>2021-07-02T17:36:50.071Z</time>
      </trkpt>
      <trkpt lat="48.068024" lon="11.539257">
        <ele>565.172511</ele>
        <time>2021-07-02T17:37:02.917Z</time>
      </trkpt>
      <trkpt lat="48.067964" lon="11.539259">
        <ele>565.244068</ele>
        <time>2021-07-02T17:37:09.247Z</time>
      </trkpt>
      <trkpt lat="48.067818" lon="11.539233">
        <ele>565.322207</ele>
        <time>2021-07-02T17:37:24.839Z</time>
      </trkpt>
      <trkpt lat="48.067632" lon="11.539193">
        <ele>565.279155</ele>
        <time>2021-07-02T17:37:43.805Z</time>
      </trkpt>
      <trkpt lat="48.067582" lon="11.539155">
        <ele>565.266307</ele>
        <time>2021-07-02T17:37:49.746Z</time>
      </trkpt>
      <trkpt lat="48.067459" lon="11.539101">
        <ele>565.236939</ele>
        <time>2021-07-02T17:38:02.974Z</time>
      </trkpt>
      <trkpt lat="48.067472" lon="11.538972">
        <ele>565.216965</ele>
        <time>2021-07-02T17:38:11.938Z</time>
      </trkpt>
      <trkpt lat="48.067491" lon="11.538763">
        <ele>565.184672</ele>
        <time>2021-07-02T17:38:26.122Z</time>
      </trkpt>
      <trkpt lat="48.067509" lon="11.538626">
        <ele>565.163296</ele>
        <time>2021-07-02T17:38:35.869Z</time>
      </trkpt>
      <trkpt lat="48.067472" lon="11.538608">
        <ele>565.154382</ele>
        <time>2021-07-02T17:38:39.745Z</time>
      </trkpt>
      <trkpt lat="48.066997" lon="11.538391">
        <ele>565.040598</ele>
        <time>2021-07-02T17:39:29.885Z</time>
      </trkpt>
      <trkpt lat="48.066761" lon="11.538363">
        <ele>564.986359</ele>
        <time>2021-07-02T17:39:53.937Z</time>
      </trkpt>
      <trkpt lat="48.066615" lon="11.538397">
        <ele>564.952506</ele>
        <time>2021-07-02T17:40:09.369Z</time>
      </trkpt>
      <trkpt lat="48.066468" lon="11.538442">
        <ele>564.907428</ele>
        <time>2021-07-02T17:40:24.636Z</time>
      </trkpt>
      <trkpt lat="48.066263" lon="11.538529">
        <ele>564.790369</ele>
        <time>2021-07-02T17:40:46.656Z</time>
      </trkpt>
      <trkpt lat="48.066041" lon="11.538437">
        <ele>564.663821</ele>
        <time>2021-07-02T17:41:10.538Z</time>
      </trkpt>
      <trkpt lat="48.065801" lon="11.538331">
        <ele>564.526352</ele>
        <time>2021-07-02T17:41:37.537Z</time>
      </trkpt>
      <trkpt lat="48.065587" lon="11.538266">
        <ele>564.406393</ele>
        <time>2021-07-02T17:41:59.533Z</time>
      </trkpt>
      <trkpt lat="48.065535" lon="11.538251">
        <ele>564.377300</ele>
        <time>2021-07-02T17:42:05.080Z</time>
      </trkpt>
      <trkpt lat="48.065416" lon="11.538217">
        <ele>564.310746</ele>
        <time>2021-07-02T17:42:18.149Z</time>
      </trkpt>
      <trkpt lat="48.064484" lon="11.537866">
        <ele>565.274667</ele>
        <time>2021-07-02T17:43:58.654Z</time>
      </trkpt>
      <trkpt lat="48.064386" lon="11.537822">
        <ele>565.759779</ele>
        <time>2021-07-02T17:44:09.228Z</time>
      </trkpt>
      <trkpt lat="48.064279" lon="11.537666">
        <ele>566.468089</ele>
        <time>2021-07-02T17:44:27.839Z</time>
      </trkpt>
      <trkpt lat="48.064084" lon="11.537127">
        <ele>568.410155</ele>
        <time>2021-07-02T17:45:14.997Z</time>
      </trkpt>
      <trkpt lat="48.063911" lon="11.536928">
        <ele>569.444753</ele>
        <time>2021-07-02T17:45:40.555Z</time>
      </trkpt>
      <trkpt lat="48.063380" lon="11.536786">
        <ele>572.002268</ele>
        <time>2021-07-02T17:46:47.898Z</time>
      </trkpt>
      <trkpt lat="48.062820" lon="11.536449">
        <ele>575.602625</ele>
        <time>2021-07-02T17:48:04.547Z</time>
      </trkpt>
      <trkpt lat="48.061978" lon="11.534850">
        <ele>583.743455</ele>
        <time>2021-07-02T17:50:49.239Z</time>
      </trkpt>
      <trkpt lat="48.061638" lon="11.534601">
        <ele>584.436886</ele>
        <time>2021-07-02T17:51:31.682Z</time>
      </trkpt>
      <trkpt lat="48.061336" lon="11.534288">
        <ele>585.109861</ele>
        <time>2021-07-02T17:52:11.337Z</time>
      </trkpt>
      <trkpt lat="48.061004" lon="11.533469">
        <ele>586.282582</ele>
        <time>2021-07-02T17:53:17.885Z</time>
      </trkpt>
      <trkpt lat="48.060842" lon="11.533048">
        <ele>586.877337</ele>
        <time>2021-07-02T17:53:50.534Z</time>
      </trkpt>
      <trkpt lat="48.060701" lon="11.532678">
        <ele>586.314928</ele>
        <time>2021-07-02T17:54:19.697Z</time>
      </trkpt>
      <trkpt lat="48.060521" lon="11.532217">
        <ele>585.506510</ele>
        <time>2021-07-02T17:54:56.799Z</time>
      </trkpt>
      <trkpt lat="48.060401" lon="11.531604">
        <ele>584.539334</ele>
        <time>2021-07-02T17:55:41.719Z</time>
      </trkpt>
      <trkpt lat="48.060411" lon="11.531392">
        <ele>584.217532</ele>
        <time>2021-07-02T17:55:57.078Z</time>
      </trkpt>
      <trkpt lat="48.060516" lon="11.531043">
        <ele>583.638016</ele>
        <time>2021-07-02T17:56:23.917Z</time>
      </trkpt>
      <trkpt lat="48.060497" lon="11.530917">
        <ele>583.442436</ele>
        <time>2021-07-02T17:56:33.336Z</time>
      </trkpt>
      <trkpt lat="48.060448" lon="11.530808">
        <ele>583.243532</ele>
        <time>2021-07-02T17:56:42.582Z</time>
      </trkpt>
      <trkpt lat="48.060375" lon="11.530685">
        <ele>582.994458</ele>
        <time>2021-07-02T17:56:54.054Z</time>
      </trkpt>
      <trkpt lat="48.060327" lon="11.530588">
        <ele>582.761525</ele>
        <time>2021-07-02T17:57:02.493Z</time>
      </trkpt>
      <trkpt lat="48.060265" lon="11.530425">
        <ele>581.961622</ele>
        <time>2021-07-02T17:57:16.298Z</time>
      </trkpt>
      <trkpt lat="48.060265" lon="11.530425">
        <ele>581.961622</ele>
        <time>2021-07-02T17:57:16.342Z</time>
      </trkpt>
      <trkpt lat="48.060222" lon="11.530222">
        <ele>581.053375</ele>
        <time>2021-07-02T17:57:31.145Z</time>
      </trkpt>
      <trkpt lat="48.060169" lon="11.529924">
        <ele>579.738160</ele>
        <time>2021-07-02T17:57:54.376Z</time>
      </trkpt>
      <trkpt lat="48.060096" lon="11.529550">
        <ele>578.076399</ele>
        <time>2021-07-02T17:58:23.982Z</time>
      </trkpt>
      <trkpt lat="48.060051" lon="11.529335">
        <ele>577.115499</ele>
        <time>2021-07-02T17:58:41.361Z</time>
      </trkpt>
      <trkpt lat="48.060025" lon="11.529217">
        <ele>576.585578</ele>
        <time>2021-07-02T17:58:50.807Z</time>
      </trkpt>
      <trkpt lat="48.059945" lon="11.528936">
        <ele>575.282893</ele>
        <time>2021-07-02T17:59:14.849Z</time>
      </trkpt>
      <trkpt lat="48.059892" lon="11.528829">
        <ele>574.714864</ele>
        <time>2021-07-02T17:59:24.803Z</time>
      </trkpt>
      <trkpt lat="48.059884" lon="11.528811">
        <ele>574.622668</ele>
        <time>2021-07-02T17:59:26.475Z</time>
      </trkpt>
      <trkpt lat="48.059813" lon="11.528699">
        <ele>573.964282</ele>
        <time>2021-07-02T17:59:38.573Z</time>
      </trkpt>
      <trkpt lat="48.059759" lon="11.528632">
        <ele>573.516614</ele>
        <time>2021-07-02T17:59:46.713Z</time>
      </trkpt>
      <trkpt lat="48.059669" lon="11.528549">
        <ele>572.841948</ele>
        <time>2021-07-02T17:59:59.104Z</time>
      </trkpt>
      <trkpt lat="48.059565" lon="11.528462">
        <ele>572.081587</ele>
        <time>2021-07-02T18:00:12.590Z</time>
      </trkpt>
      <trkpt lat="48.059421" lon="11.528370">
        <ele>571.118682</ele>
        <time>2021-07-02T18:00:30.755Z</time>
      </trkpt>
      <trkpt lat="48.059271" lon="11.528308">
        <ele>570.254812</ele>
        <time>2021-07-02T18:00:48.573Z</time>
      </trkpt>
      <trkpt lat="48.059130" lon="11.528240">
        <ele>569.432437</ele>
        <time>2021-07-02T18:01:05.893Z</time>
      </trkpt>
      <trkpt lat="48.058810" lon="11.528029">
        <ele>567.491197</ele>
        <time>2021-07-02T18:01:45.882Z</time>
      </trkpt>
      <trkpt lat="48.058530" lon="11.527040">
        <ele>563.506132</ele>
        <time>2021-07-02T18:03:07.631Z</time>
      </trkpt>
      <trkpt lat="48.057791" lon="11.525554">
        <ele>562.553295</ele>
        <time>2021-07-02T18:05:13.659Z</time>
      </trkpt>
      <trkpt lat="48.057776" lon="11.525438">
        <ele>562.662044</ele>
        <time>2021-07-02T18:05:23.681Z</time>
      </trkpt>
      <trkpt lat="48.057663" lon="11.525316">
        <ele>562.853941</ele>
        <time>2021-07-02T18:05:39.552Z</time>
      </trkpt>
      <trkpt lat="48.057558" lon="11.525186">
        <ele>563.041624</ele>
        <time>2021-07-02T18:05:53.336Z</time>
      </trkpt>
      <trkpt lat="48.057454" lon="11.525023">
        <ele>563.249038</ele>
        <time>2021-07-02T18:06:10.859Z</time>
      </trkpt>
      <trkpt lat="48.057258" lon="11.524659">
        <ele>563.679272</ele>
        <time>2021-07-02T18:06:45.720Z</time>
      </trkpt>
      <trkpt lat="48.057127" lon="11.524393">
        <ele>564.064296</ele>
        <time>2021-07-02T18:07:10.033Z</time>
      </trkpt>
      <trkpt lat="48.056986" lon="11.524065">
        <ele>564.647059</ele>
        <time>2021-07-02T18:07:41.068Z</time>
      </trkpt>
      <trkpt lat="48.056927" lon="11.523929">
        <ele>564.889343</ele>
        <time>2021-07-02T18:07:52.458Z</time>
      </trkpt>
      <trkpt lat="48.056874" lon="11.523802">
        <ele>565.113078</ele>
        <time>2021-07-02T18:08:04.724Z</time>
      </trkpt>
      <trkpt lat="48.056864" lon="11.523709">
        <ele>565.253838</ele>
        <time>2021-07-02T18:08:11.492Z</time>
      </trkpt>
      <trkpt lat="48.056868" lon="11.523574">
        <ele>565.455772</ele>
        <time>2021-07-02T18:08:22.964Z</time>
      </trkpt>
      <trkpt lat="48.056720" lon="11.523526">
        <ele>565.794344</ele>
        <time>2021-07-02T18:08:39.111Z</time>
      </trkpt>
      <trkpt lat="48.056588" lon="11.523465">
        <ele>566.103216</ele>
        <time>2021-07-02T18:08:54.635Z</time>
      </trkpt>
      <trkpt lat="48.056604" lon="11.523411">
        <ele>566.191484</ele>
        <time>2021-07-02T18:09:00.005Z</time>
      </trkpt>
      <trkpt lat="48.056573" lon="11.523401">
        <ele>566.262384</ele>
        <time>2021-07-02T18:09:03.708Z</time>
      </trkpt>
      <trkpt lat="48.056097" lon="11.523039">
        <ele>567.456184</ele>
        <time>2021-07-02T18:09:58.451Z</time>
      </trkpt>
      <trkpt lat="48.056060" lon="11.522999">
        <ele>567.558242</ele>
        <time>2021-07-02T18:10:03.130Z</time>
      </trkpt>
      <trkpt lat="48.056044" lon="11.523036">
        <ele>567.624096</ele>
        <time>2021-07-02T18:10:06.426Z</time>
      </trkpt>
      <trkpt lat="48.056011" lon="11.522965">
        <ele>567.753326</ele>
        <time>2021-07-02T18:10:12.878Z</time>
      </trkpt>
      <trkpt lat="48.055874" lon="11.522584">
        <ele>567.649613</ele>
        <time>2021-07-02T18:10:43.091Z</time>
      </trkpt>
      <trkpt lat="48.055838" lon="11.522527">
        <ele>567.599322</ele>
        <time>2021-07-02T18:10:48.704Z</time>
      </trkpt>
      <trkpt lat="48.055694" lon="11.522453">
        <ele>567.453237</ele>
        <time>2021-07-02T18:11:04.254Z</time>
      </trkpt>
      <trkpt lat="48.055395" lon="11.522427">
        <ele>567.165876</ele>
        <time>2021-07-02T18:11:35.603Z</time>
      </trkpt>
      <trkpt lat="48.055360" lon="11.522423">
        <ele>567.132197</ele>
        <time>2021-07-02T18:11:39.271Z</time>
      </trkpt>
      <trkpt lat="48.055310" lon="11.522415">
        <ele>567.083951</ele>
        <time>2021-07-02T18:11:44.404Z</time>
      </trkpt>
      <trkpt lat="48.055061" lon="11.522371">
        <ele>566.843385</ele>
        <time>2021-07-02T18:12:09.838Z</time>
      </trkpt>
      <trkpt lat="48.054887" lon="11.522316">
        <ele>566.672755</ele>
        <time>2021-07-02T18:12:27.919Z</time>
      </trkpt>
      <trkpt lat="48.054725" lon="11.522238">
        <ele>566.509472</ele>
        <time>2021-07-02T18:12:45.200Z</time>
      </trkpt>
      <trkpt lat="48.054359" lon="11.522047">
        <ele>566.166945</ele>
        <time>2021-07-02T18:13:24.721Z</time>
      </trkpt>
      <trkpt lat="48.054174" lon="11.521950">
        <ele>566.454693</ele>
        <time>2021-07-02T18:13:45.216Z</time>
      </trkpt>
      <trkpt lat="48.054081" lon="11.521881">
        <ele>566.607069</ele>
        <time>2021-07-02T18:13:55.901Z</time>
      </trkpt>
      <trkpt lat="48.054043" lon="11.521830">
        <ele>566.682003</ele>
        <time>2021-07-02T18:14:01.660Z</time>
      </trkpt>
      <trkpt lat="48.054038" lon="11.521747">
        <ele>566.763769</ele>
        <time>2021-07-02T18:14:07.529Z</time>
      </trkpt>
      <trkpt lat="48.053786" lon="11.521602">
        <ele>567.160085</ele>
        <time>2021-07-02T18:14:34.731Z</time>
      </trkpt>
      <trkpt lat="48.053762" lon="11.521582">
        <ele>567.200410</ele>
        <time>2021-07-02T18:14:38.165Z</time>
      </trkpt>
      <trkpt lat="48.053560" lon="11.521426">
        <ele>567.534093</ele>
        <time>2021-07-02T18:15:02.135Z</time>
      </trkpt>
      <trkpt lat="48.053026" lon="11.520962">
        <ele>568.440548</ele>
        <time>2021-07-02T18:16:11.139Z</time>
      </trkpt>
      <trkpt lat="48.052936" lon="11.520874">
        <ele>568.598369</ele>
        <time>2021-07-02T18:16:22.767Z</time>
      </trkpt>
      <trkpt lat="48.052874" lon="11.520822">
        <ele>568.702703</ele>
        <time>2021-07-02T18:16:30.621Z</time>
      </trkpt>
      <trkpt lat="48.052861" lon="11.520812">
        <ele>568.724159</ele>
        <time>2021-07-02T18:16:32.266Z</time>
      </trkpt>
      <trkpt lat="48.052450" lon="11.520490">
        <ele>569.414167</ele>
        <time>2021-07-02T18:17:23.593Z</time>
      </trkpt>
      <trkpt lat="48.052229" lon="11.520398">
        <ele>569.755808</ele>
        <time>2021-07-02T18:17:47.605Z</time>
      </trkpt>
      <trkpt lat="48.051953" lon="11.520246">
        <ele>570.193823</ele>
        <time>2021-07-02T18:18:18.483Z</time>
      </trkpt>
      <trkpt lat="48.051855" lon="11.520186">
        <ele>570.351525</ele>
        <time>2021-07-02T18:18:29.673Z</time>
      </trkpt>
      <trkpt lat="48.051681" lon="11.520079">
        <ele>570.631702</ele>
        <time>2021-07-02T18:18:49.563Z</time>
      </trkpt>
      <trkpt lat="48.051395" lon="11.519903">
        <ele>571.092273</ele>
        <time>2021-07-02T18:19:22.399Z</time>
      </trkpt>
      <trkpt lat="48.050529" lon="11.519437">
        <ele>570.680689</ele>
        <time>2021-07-02T18:20:55.110Z</time>
      </trkpt>
      <trkpt lat="48.050167" lon="11.519088">
        <ele>570.173084</ele>
        <time>2021-07-02T18:21:40.102Z</time>
      </trkpt>
      <trkpt lat="48.049907" lon="11.518964">
        <ele>569.851436</ele>
        <time>2021-07-02T18:22:08.445Z</time>
      </trkpt>
      <trkpt lat="48.049730" lon="11.518915">
        <ele>569.639272</ele>
        <time>2021-07-02T18:22:27.229Z</time>
      </trkpt>
      <trkpt lat="48.049398" lon="11.518632">
        <ele>569.170637</ele>
        <time>2021-07-02T18:23:07.030Z</time>
      </trkpt>
      <trkpt lat="48.049027" lon="11.518316">
        <ele>568.609744</ele>
        <time>2021-07-02T18:23:51.417Z</time>
      </trkpt>
      <trkpt lat="48.048353" lon="11.517668">
        <ele>567.557126</ele>
        <time>2021-07-02T18:25:14.124Z</time>
      </trkpt>
      <trkpt lat="48.048123" lon="11.517339">
        <ele>567.139031</ele>
        <time>2021-07-02T18:25:46.657Z</time>
      </trkpt>
      <trkpt lat="48.047903" lon="11.516922">
        <ele>567.342536</ele>
        <time>2021-07-02T18:26:22.663Z</time>
      </trkpt>
      <trkpt lat="48.047708" lon="11.516335">
        <ele>568.001105</ele>
        <time>2021-07-02T18:27:07.691Z</time>
      </trkpt>
      <trkpt lat="48.047691" lon="11.516284">
        <ele>568.058362</ele>
        <time>2021-07-02T18:27:11.499Z</time>
      </trkpt>
      <trkpt lat="48.047559" lon="11.515866">
        <ele>568.522832</ele>
        <time>2021-07-02T18:27:44.704Z</time>
      </trkpt>
      <trkpt lat="48.047482" lon="11.515847">
        <ele>568.640121</ele>
        <time>2021-07-02T18:27:52.662Z</time>
      </trkpt>
      <trkpt lat="48.047274" lon="11.515507">
        <ele>569.103172</ele>
        <time>2021-07-02T18:28:26.030Z</time>
      </trkpt>
      <trkpt lat="48.046957" lon="11.514992">
        <ele>570.001254</ele>
        <time>2021-07-02T18:29:17.411Z</time>
      </trkpt>
      <trkpt lat="48.046865" lon="11.514744">
        <ele>570.755197</ele>
        <time>2021-07-02T18:29:39.700Z</time>
      </trkpt>
      <trkpt lat="48.046754" lon="11.514479">
        <ele>571.586486</ele>
        <time>2021-07-02T18:30:03.305Z</time>
      </trkpt>
      <trkpt lat="48.046625" lon="11.514250">
        <ele>572.382525</ele>
        <time>2021-07-02T18:30:26.816Z</time>
      </trkpt>
      <trkpt lat="48.046189" lon="11.513921">
        <ele>574.324300</ele>
        <time>2021-07-02T18:31:22.195Z</time>
      </trkpt>
      <trkpt lat="48.045782" lon="11.513608">
        <ele>576.144022</ele>
        <time>2021-07-02T18:32:15.044Z</time>
      </trkpt>
      <trkpt lat="48.045707" lon="11.513550">
        <ele>576.479744</ele>
        <time>2021-07-02T18:32:25.459Z</time>
      </trkpt>
      <trkpt lat="48.045499" lon="11.513416">
        <ele>576.877773</ele>
        <time>2021-07-02T18:32:51.530Z</time>
      </trkpt>
      <trkpt lat="48.044981" lon="11.513238">
        <ele>577.024888</ele>
        <time>2021-07-02T18:33:52.088Z</time>
      </trkpt>
      <trkpt lat="48.044198" lon="11.513065">
        <ele>577.243970</ele>
        <time>2021-07-02T18:35:12.047Z</time>
      </trkpt>
      <trkpt lat="48.043594" lon="11.512972">
        <ele>575.095746</ele>
        <time>2021-07-02T18:36:19.036Z</time>
      </trkpt>
      <trkpt lat="48.043574" lon="11.512999">
        <ele>574.869797</ele>
        <time>2021-07-02T18:36:22.312Z</time>
      </trkpt>
      <trkpt lat="48.043498" lon="11.513099">
        <ele>574.020889</ele>
        <time>2021-07-02T18:36:33.971Z</time>
      </trkpt>
      <trkpt lat="48.043391" lon="11.513149">
        <ele>573.080746</ele>
        <time>2021-07-02T18:36:46.781Z</time>
      </trkpt>
      <trkpt lat="48.043087" lon="11.513070">
        <ele>570.493016</ele>
        <time>2021-07-02T18:37:23.722Z</time>
      </trkpt>
      <trkpt lat="48.042922" lon="11.513132">
        <ele>569.066223</ele>
        <time>2021-07-02T18:37:44.569Z</time>
      </trkpt>
      <trkpt lat="48.042898" lon="11.513290">
        <ele>568.157726</ele>
        <time>2021-07-02T18:37:57.728Z</time>
      </trkpt>
      <trkpt lat="48.042948" lon="11.513338">
        <ele>567.659454</ele>
        <time>2021-07-02T18:38:06.131Z</time>
      </trkpt>
      <trkpt lat="48.043068" lon="11.513516">
        <ele>566.242078</ele>
        <time>2021-07-02T18:38:26.784Z</time>
      </trkpt>
      <trkpt lat="48.043180" lon="11.513717">
        <ele>564.774950</ele>
        <time>2021-07-02T18:38:47.518Z</time>
      </trkpt>
      <trkpt lat="48.043225" lon="11.513848">
        <ele>563.949145</ele>
        <time>2021-07-02T18:38:59.432Z</time>
      </trkpt>
      <trkpt lat="48.043187" lon="11.514066">
        <ele>562.685945</ele>
        <time>2021-07-02T18:39:17.765Z</time>
      </trkpt>
      <trkpt lat="48.042980" lon="11.514236">
        <ele>561.851807</ele>
        <time>2021-07-02T18:39:45.487Z</time>
      </trkpt>
      <trkpt lat="48.042918" lon="11.514297">
        <ele>561.690319</ele>
        <time>2021-07-02T18:39:54.668Z</time>
      </trkpt>
      <trkpt lat="48.042875" lon="11.514361">
        <ele>561.558315</ele>
        <time>2021-07-02T18:40:01.528Z</time>
      </trkpt>
      <trkpt lat="48.042847" lon="11.514397">
        <ele>561.477969</ele>
        <time>2021-07-02T18:40:05.660Z</time>
      </trkpt>
      <trkpt lat="48.042870" lon="11.514620">
        <ele>561.149697</ele>
        <time>2021-07-02T18:40:22.883Z</time>
      </trkpt>
      <trkpt lat="48.042967" lon="11.515368">
        <ele>560.041182</ele>
        <time>2021-07-02T18:41:20.559Z</time>
      </trkpt>
      <trkpt lat="48.043254" lon="11.517566">
        <ele>563.866671</ele>
        <time>2021-07-02T18:44:16.575Z</time>
      </trkpt>
      <trkpt lat="48.043261" lon="11.517655">
        <ele>564.329629</ele>
        <time>2021-07-02T18:44:23.654Z</time>
      </trkpt>
      <trkpt lat="48.043265" lon="11.517731">
        <ele>564.723472</ele>
        <time>2021-07-02T18:44:31.474Z</time>
      </trkpt>
      <trkpt lat="48.043260" lon="11.517810">
        <ele>565.133422</ele>
        <time>2021-07-02T18:44:38.492Z</time>
      </trkpt>
      <trkpt lat="48.043234" lon="11.517944">
        <ele>565.854251</ele>
        <time>2021-07-02T18:44:51.016Z</time>
      </trkpt>
      <trkpt lat="48.043214" lon="11.517997">
        <ele>566.168661</ele>
        <time>2021-07-02T18:44:59.578Z</time>
      </trkpt>
      <trkpt lat="48.042950" lon="11.518310">
        <ele>568.771779</ele>
        <time>2021-07-02T18:45:43.990Z</time>
      </trkpt>
      <trkpt lat="48.042682" lon="11.518933">
        <ele>572.520009</ele>
        <time>2021-07-02T18:46:48.794Z</time>
      </trkpt>
      <trkpt lat="48.042371" lon="11.519249">
        <ele>574.789667</ele>
        <time>2021-07-02T18:47:37.469Z</time>
      </trkpt>
      <trkpt lat="48.042270" lon="11.519351">
        <ele>575.525348</ele>
        <time>2021-07-02T18:47:53.424Z</time>
      </trkpt>
      <trkpt lat="48.042248" lon="11.519445">
        <ele>575.927311</ele>
        <time>2021-07-02T18:48:01.819Z</time>
      </trkpt>
      <trkpt lat="48.042161" lon="11.519779">
        <ele>577.374051</ele>
        <time>2021-07-02T18:48:31.913Z</time>
      </trkpt>
      <trkpt lat="48.042005" lon="11.519981">
        <ele>578.619664</ele>
        <time>2021-07-02T18:48:55.889Z</time>
      </trkpt>
      <trkpt lat="48.041988" lon="11.520105">
        <ele>579.130552</ele>
        <time>2021-07-02T18:49:05.301Z</time>
      </trkpt>
      <trkpt lat="48.042101" lon="11.520004">
        <ele>579.925225</ele>
        <time>2021-07-02T18:49:21.302Z</time>
      </trkpt>
      <trkpt lat="48.042313" lon="11.519907">
        <ele>581.263556</ele>
        <time>2021-07-02T18:49:45.812Z</time>
      </trkpt>
      <trkpt lat="48.042602" lon="11.519882">
        <ele>583.011091</ele>
        <time>2021-07-02T18:50:18.825Z</time>
      </trkpt>
      <trkpt lat="48.042602" lon="11.519882">
        <ele>583.011091</ele>
        <time>2021-07-02T18:50:18.880Z</time>
      </trkpt>
      <trkpt lat="48.042704" lon="11.519905">
        <ele>583.230693</ele>
        <time>2021-07-02T18:50:30.474Z</time>
      </trkpt>
      <trkpt lat="48.042847" lon="11.519992">
        <ele>583.464236</ele>
        <time>2021-07-02T18:50:48.306Z</time>
      </trkpt>
      <trkpt lat="48.042740" lon="11.520830">
        <ele>584.327132</ele>
        <time>2021-07-02T18:51:47.904Z</time>
      </trkpt>
      <trkpt lat="48.042565" lon="11.521800">
        <ele>585.343313</ele>
        <time>2021-07-02T18:52:56.822Z</time>
      </trkpt>
      <trkpt lat="48.042551" lon="11.521846">
        <ele>585.394433</ele>
        <time>2021-07-02T18:53:00.539Z</time>
      </trkpt>
      <trkpt lat="48.042597" lon="11.521910">
        <ele>585.489474</ele>
        <time>2021-07-02T18:53:06.898Z</time>
      </trkpt>
      <trkpt lat="48.042621" lon="11.521989">
        <ele>585.577240</ele>
        <time>2021-07-02T18:53:12.862Z</time>
      </trkpt>
      <trkpt lat="48.042594" lon="11.522002">
        <ele>585.620150</ele>
        <time>2021-07-02T18:53:15.866Z</time>
      </trkpt>
      <trkpt lat="48.042566" lon="11.522051">
        <ele>585.685346</ele>
        <time>2021-07-02T18:53:20.247Z</time>
      </trkpt>
      <trkpt lat="48.042371" lon="11.522664">
        <ele>585.816903</ele>
        <time>2021-07-02T18:54:07.380Z</time>
      </trkpt>
      <trkpt lat="48.042347" lon="11.522736">
        <ele>585.816903</ele>
        <time>2021-07-02T18:54:13.164Z</time>
      </trkpt>
      <trkpt lat="48.042209" lon="11.523117">
        <ele>585.816903</ele>
        <time>2021-07-02T18:54:42.836Z</time>
      </trkpt>
      <trkpt lat="48.042176" lon="11.523175">
        <ele>585.816903</ele>
        <time>2021-07-02T18:54:48.107Z</time>
      </trkpt>
      <trkpt lat="48.042133" lon="11.523227">
        <ele>585.816903</ele>
        <time>2021-07-02T18:54:54.006Z</time>
      </trkpt>
      <trkpt lat="48.042079" lon="11.523362">
        <ele>585.816903</ele>
        <time>2021-07-02T18:55:04.722Z</time>
      </trkpt>
      <trkpt lat="48.042060" lon="11.523400">
        <ele>585.816903</ele>
        <time>2021-07-02T18:55:08.003Z</time>
      </trkpt>
      <trkpt lat="48.041885" lon="11.523520">
        <ele>585.816903</ele>
        <time>2021-07-02T18:55:27.824Z</time>
      </trkpt>
      <trkpt lat="48.041870" lon="11.523506">
        <ele>585.816903</ele>
        <time>2021-07-02T18:55:29.687Z</time>
      </trkpt>
      <trkpt lat="48.041807" lon="11.523530">
        <ele>585.816903</ele>
        <time>2021-07-02T18:55:36.242Z</time>
      </trkpt>
      <trkpt lat="48.041800" lon="11.523605">
        <ele>585.816903</ele>
        <time>2021-07-02T18:55:41.344Z</time>
      </trkpt>
      <trkpt lat="48.041809" lon="11.523627">
        <ele>585.816903</ele>
        <time>2021-07-02T18:55:43.159Z</time>
      </trkpt>
      <trkpt lat="48.041701" lon="11.523753">
        <ele>585.816903</ele>
        <time>2021-07-02T18:55:57.000Z</time>
      </trkpt>
      <trkpt lat="48.041676" lon="11.523781">
        <ele>585.816903</ele>
        <time>2021-07-02T18:56:00.192Z</time>
      </trkpt>
      <trkpt lat="48.041655" lon="11.523806">
        <ele>585.816903</ele>
        <time>2021-07-02T18:56:02.999Z</time>
      </trkpt>
    </trkseg>
  </trk>
</gpx>