<?xml version='1.0' encoding='UTF-8'?>
<gpx version="1.1" creator="https://www.komoot.de" xmlns="http://www.topografix.com/GPX/1/1" xmlns:xsi="http://www.w3.org/2001/XMLSchema-instance" xsi:schemaLocation="http://www.topografix.com/GPX/1/1 http://www.topografix.com/GPX/1/1/gpx.xsd">
  <metadata>
    <name>IVV-PW 419 MOB "Zur Burg Grünwald" im Isartal 12 km</name>
    <author>
      <link href="https://www.komoot.de">
        <text>komoot</text>
        <type>text/html</type>
      </link>
    </author>
  </metadata>
  <trk>
    <name>IVV-PW 419 MOB "Zur Burg Grünwald" im Isartal 12 km</name>
    <trkseg>
      <trkpt lat="48.076807" lon="11.550262">
        <ele>565.779448</ele>
        <time>2021-07-02T17:08:52.925Z</time>
      </trkpt>
      <trkpt lat="48.076814" lon="11.550227">
        <ele>565.779448</ele>
        <time>2021-07-02T17:08:55.438Z</time>
      </trkpt>
      <trkpt lat="48.076828" lon="11.550160">
        <ele>565.779448</ele>
        <time>2021-07-02T17:09:00.153Z</time>
      </trkpt>
      <trkpt lat="48.076832" lon="11.550137">
        <ele>565.779448</ele>
        <time>2021-07-02T17:09:01.818Z</time>
      </trkpt>
      <trkpt lat="48.076837" lon="11.550113">
        <ele>565.779448</ele>
        <time>2021-07-02T17:09:03.516Z</time>
      </trkpt>
      <trkpt lat="48.076848" lon="11.550063">
        <ele>565.779448</ele>
        <time>2021-07-02T17:09:07.093Z</time>
      </trkpt>
      <trkpt lat="48.076868" lon="11.549976">
        <ele>565.779448</ele>
        <time>2021-07-02T17:09:13.280Z</time>
      </trkpt>
      <trkpt lat="48.076687" lon="11.549890">
        <ele>565.779448</ele>
        <time>2021-07-02T17:09:32.329Z</time>
      </trkpt>
      <trkpt lat="48.076666" lon="11.549880">
        <ele>565.779448</ele>
        <time>2021-07-02T17:09:34.544Z</time>
      </trkpt>
      <trkpt lat="48.076501" lon="11.549800">
        <ele>565.779448</ele>
        <time>2021-07-02T17:09:52.004Z</time>
      </trkpt>
      <trkpt lat="48.076436" lon="11.549771">
        <ele>565.779448</ele>
        <time>2021-07-02T17:09:58.906Z</time>
      </trkpt>
      <trkpt lat="48.076061" lon="11.549597">
        <ele>565.763210</ele>
        <time>2021-07-02T17:10:38.493Z</time>
      </trkpt>
      <trkpt lat="48.076017" lon="11.549576">
        <ele>565.758112</ele>
        <time>2021-07-02T17:10:43.188Z</time>
      </trkpt>
      <trkpt lat="48.075600" lon="11.549377">
        <ele>565.709804</ele>
        <time>2021-07-02T17:11:27.469Z</time>
      </trkpt>
      <trkpt lat="48.075341" lon="11.549248">
        <ele>565.679676</ele>
        <time>2021-07-02T17:11:54.987Z</time>
      </trkpt>
      <trkpt lat="48.075309" lon="11.549232">
        <ele>565.675952</ele>
        <time>2021-07-02T17:11:58.409Z</time>
      </trkpt>
      <trkpt lat="48.074923" lon="11.549014">
        <ele>565.630415</ele>
        <time>2021-07-02T17:12:39.892Z</time>
      </trkpt>
      <trkpt lat="48.074866" lon="11.548984">
        <ele>565.623746</ele>
        <time>2021-07-02T17:12:45.972Z</time>
      </trkpt>
      <trkpt lat="48.074874" lon="11.548937">
        <ele>565.620170</ele>
        <time>2021-07-02T17:12:49.256Z</time>
      </trkpt>
      <trkpt lat="48.074926" lon="11.548654">
        <ele>565.598525</ele>
        <time>2021-07-02T17:13:09.239Z</time>
      </trkpt>
      <trkpt lat="48.074946" lon="11.548548">
        <ele>565.590402</ele>
        <time>2021-07-02T17:13:16.849Z</time>
      </trkpt>
      <trkpt lat="48.074966" lon="11.548435">
        <ele>565.581781</ele>
        <time>2021-07-02T17:13:24.740Z</time>
      </trkpt>
      <trkpt lat="48.075068" lon="11.547880">
        <ele>565.652824</ele>
        <time>2021-07-02T17:14:03.823Z</time>
      </trkpt>
      <trkpt lat="48.075114" lon="11.547632">
        <ele>565.685632</ele>
        <time>2021-07-02T17:14:21.305Z</time>
      </trkpt>
      <trkpt lat="48.075132" lon="11.547536">
        <ele>565.698342</ele>
        <time>2021-07-02T17:14:28.105Z</time>
      </trkpt>
      <trkpt lat="48.075212" lon="11.547093">
        <ele>565.756838</ele>
        <time>2021-07-02T17:14:58.976Z</time>
      </trkpt>
      <trkpt lat="48.075286" lon="11.546600">
        <ele>565.821248</ele>
        <time>2021-07-02T17:15:32.947Z</time>
      </trkpt>
      <trkpt lat="48.075310" lon="11.546445">
        <ele>565.841530</ele>
        <time>2021-07-02T17:15:43.768Z</time>
      </trkpt>
      <trkpt lat="48.075341" lon="11.546240">
        <ele>565.868322</ele>
        <time>2021-07-02T17:15:57.993Z</time>
      </trkpt>
      <trkpt lat="48.075382" lon="11.545964">
        <ele>565.904363</ele>
        <time>2021-07-02T17:16:17.190Z</time>
      </trkpt>
      <trkpt lat="48.075464" lon="11.545420">
        <ele>565.492837</ele>
        <time>2021-07-02T17:16:54.967Z</time>
      </trkpt>
      <trkpt lat="48.075542" lon="11.544572">
        <ele>564.576956</ele>
        <time>2021-07-02T17:17:53.148Z</time>
      </trkpt>
      <trkpt lat="48.075576" lon="11.544212">
        <ele>564.187943</ele>
        <time>2021-07-02T17:18:18.546Z</time>
      </trkpt>
      <trkpt lat="48.075634" lon="11.543575">
        <ele>563.500082</ele>
        <time>2021-07-02T17:19:03.981Z</time>
      </trkpt>
      <trkpt lat="48.075530" lon="11.543486">
        <ele>563.308237</ele>
        <time>2021-07-02T17:19:16.663Z</time>
      </trkpt>
      <trkpt lat="48.075453" lon="11.543128">
        <ele>562.737991</ele>
        <time>2021-07-02T17:19:43.672Z</time>
      </trkpt>
      <trkpt lat="48.075337" lon="11.542914">
        <ele>562.084392</ele>
        <time>2021-07-02T17:20:03.287Z</time>
      </trkpt>
      <trkpt lat="48.075282" lon="11.542673">
        <ele>561.480357</ele>
        <time>2021-07-02T17:20:21.948Z</time>
      </trkpt>
      <trkpt lat="48.075279" lon="11.542558">
        <ele>561.207388</ele>
        <time>2021-07-02T17:20:30.236Z</time>
      </trkpt>
      <trkpt lat="48.075235" lon="11.542502">
        <ele>561.002356</ele>
        <time>2021-07-02T17:20:36.495Z</time>
      </trkpt>
      <trkpt lat="48.075094" lon="11.542404">
        <ele>560.450491</ele>
        <time>2021-07-02T17:20:53.388Z</time>
      </trkpt>
      <trkpt lat="48.075016" lon="11.542365">
        <ele>560.158561</ele>
        <time>2021-07-02T17:21:02.454Z</time>
      </trkpt>
      <trkpt lat="48.074923" lon="11.542375">
        <ele>559.827576</ele>
        <time>2021-07-02T17:21:12.569Z</time>
      </trkpt>
      <trkpt lat="48.074856" lon="11.542521">
        <ele>559.407475</ele>
        <time>2021-07-02T17:21:25.280Z</time>
      </trkpt>
      <trkpt lat="48.074853" lon="11.542443">
        <ele>559.222165</ele>
        <time>2021-07-02T17:21:31.205Z</time>
      </trkpt>
      <trkpt lat="48.074830" lon="11.542385">
        <ele>559.062193</ele>
        <time>2021-07-02T17:21:36.127Z</time>
      </trkpt>
      <trkpt lat="48.074815" lon="11.542366">
        <ele>558.992435</ele>
        <time>2021-07-02T17:21:38.449Z</time>
      </trkpt>
      <trkpt lat="48.074793" lon="11.542355">
        <ele>558.910096</ele>
        <time>2021-07-02T17:21:40.918Z</time>
      </trkpt>
      <trkpt lat="48.074727" lon="11.542369">
        <ele>558.673465</ele>
        <time>2021-07-02T17:21:48.229Z</time>
      </trkpt>
      <trkpt lat="48.074701" lon="11.542372">
        <ele>558.580896</ele>
        <time>2021-07-02T17:21:51.106Z</time>
      </trkpt>
      <trkpt lat="48.074374" lon="11.538900">
        <ele>552.951565</ele>
        <time>2021-07-02T17:25:58.375Z</time>
      </trkpt>
      <trkpt lat="48.074323" lon="11.538916">
        <ele>553.030425</ele>
        <time>2021-07-02T17:26:03.802Z</time>
      </trkpt>
      <trkpt lat="48.074292" lon="11.538909">
        <ele>553.077870</ele>
        <time>2021-07-02T17:26:07.950Z</time>
      </trkpt>
      <trkpt lat="48.074232" lon="11.538742">
        <ele>553.269604</ele>
        <time>2021-07-02T17:26:21.190Z</time>
      </trkpt>
      <trkpt lat="48.074207" lon="11.538401">
        <ele>553.616489</ele>
        <time>2021-07-02T17:26:44.651Z</time>
      </trkpt>
      <trkpt lat="48.074158" lon="11.538184">
        <ele>553.848109</ele>
        <time>2021-07-02T17:27:01.309Z</time>
      </trkpt>
      <trkpt lat="48.074021" lon="11.537828">
        <ele>554.263531</ele>
        <time>2021-07-02T17:27:29.702Z</time>
      </trkpt>
      <trkpt lat="48.073992" lon="11.537690">
        <ele>554.409815</ele>
        <time>2021-07-02T17:27:40.732Z</time>
      </trkpt>
      <trkpt lat="48.073931" lon="11.537716">
        <ele>554.505801</ele>
        <time>2021-07-02T17:27:47.293Z</time>
      </trkpt>
      <trkpt lat="48.073550" lon="11.537904">
        <ele>555.112929</ele>
        <time>2021-07-02T17:28:30.974Z</time>
      </trkpt>
      <trkpt lat="48.073391" lon="11.537957">
        <ele>555.359452</ele>
        <time>2021-07-02T17:28:49.680Z</time>
      </trkpt>
      <trkpt lat="48.073239" lon="11.538073">
        <ele>555.617667</ele>
        <time>2021-07-02T17:29:08.854Z</time>
      </trkpt>
      <trkpt lat="48.073052" lon="11.538144">
        <ele>556.026231</ele>
        <time>2021-07-02T17:29:30.016Z</time>
      </trkpt>
      <trkpt lat="48.072635" lon="11.538258">
        <ele>556.979214</ele>
        <time>2021-07-02T17:30:15.718Z</time>
      </trkpt>
      <trkpt lat="48.072440" lon="11.538307">
        <ele>557.423736</ele>
        <time>2021-07-02T17:30:36.847Z</time>
      </trkpt>
      <trkpt lat="48.072251" lon="11.538352">
        <ele>557.853977</ele>
        <time>2021-07-02T17:30:57.101Z</time>
      </trkpt>
      <trkpt lat="48.072074" lon="11.538395">
        <ele>558.257104</ele>
        <time>2021-07-02T17:31:16.165Z</time>
      </trkpt>
      <trkpt lat="48.071485" lon="11.538516">
        <ele>559.593671</ele>
        <time>2021-07-02T17:32:20.395Z</time>
      </trkpt>
      <trkpt lat="48.071259" lon="11.538485">
        <ele>560.049431</ele>
        <time>2021-07-02T17:32:44.262Z</time>
      </trkpt>
      <trkpt lat="48.071193" lon="11.538459">
        <ele>560.181486</ele>
        <time>2021-07-02T17:32:52.152Z</time>
      </trkpt>
      <trkpt lat="48.071150" lon="11.538455">
        <ele>560.264849</ele>
        <time>2021-07-02T17:32:57.296Z</time>
      </trkpt>
      <trkpt lat="48.070447" lon="11.538581">
        <ele>561.634824</ele>
        <time>2021-07-02T17:34:14.437Z</time>
      </trkpt>
      <trkpt lat="48.068145" lon="11.539242">
        <ele>565.027747</ele>
        <time>2021-07-02T17:38:19.500Z</time>
      </trkpt>
      <trkpt lat="48.068024" lon="11.539257">
        <ele>565.172512</ele>
        <time>2021-07-02T17:38:32.345Z</time>
      </trkpt>
      <trkpt lat="48.067964" lon="11.539259">
        <ele>565.244069</ele>
        <time>2021-07-02T17:38:38.676Z</time>
      </trkpt>
      <trkpt lat="48.067818" lon="11.539233">
        <ele>565.322204</ele>
        <time>2021-07-02T17:38:54.268Z</time>
      </trkpt>
      <trkpt lat="48.067632" lon="11.539193">
        <ele>565.279153</ele>
        <time>2021-07-02T17:39:13.233Z</time>
      </trkpt>
      <trkpt lat="48.067582" lon="11.539155">
        <ele>565.266305</ele>
        <time>2021-07-02T17:39:19.174Z</time>
      </trkpt>
      <trkpt lat="48.067459" lon="11.539101">
        <ele>565.236938</ele>
        <time>2021-07-02T17:39:32.403Z</time>
      </trkpt>
      <trkpt lat="48.067472" lon="11.538972">
        <ele>565.216964</ele>
        <time>2021-07-02T17:39:41.367Z</time>
      </trkpt>
      <trkpt lat="48.067491" lon="11.538763">
        <ele>565.184672</ele>
        <time>2021-07-02T17:39:55.551Z</time>
      </trkpt>
      <trkpt lat="48.067509" lon="11.538626">
        <ele>565.163295</ele>
        <time>2021-07-02T17:40:05.298Z</time>
      </trkpt>
      <trkpt lat="48.067472" lon="11.538608">
        <ele>565.154382</ele>
        <time>2021-07-02T17:40:09.173Z</time>
      </trkpt>
      <trkpt lat="48.066997" lon="11.538391">
        <ele>565.040599</ele>
        <time>2021-07-02T17:40:59.313Z</time>
      </trkpt>
      <trkpt lat="48.066761" lon="11.538363">
        <ele>564.986360</ele>
        <time>2021-07-02T17:41:23.366Z</time>
      </trkpt>
      <trkpt lat="48.066615" lon="11.538397">
        <ele>564.952508</ele>
        <time>2021-07-02T17:41:38.798Z</time>
      </trkpt>
      <trkpt lat="48.066468" lon="11.538442">
        <ele>564.907430</ele>
        <time>2021-07-02T17:41:54.064Z</time>
      </trkpt>
      <trkpt lat="48.066263" lon="11.538529">
        <ele>564.790370</ele>
        <time>2021-07-02T17:42:16.084Z</time>
      </trkpt>
      <trkpt lat="48.066041" lon="11.538437">
        <ele>564.663821</ele>
        <time>2021-07-02T17:42:39.967Z</time>
      </trkpt>
      <trkpt lat="48.065801" lon="11.538331">
        <ele>564.526352</ele>
        <time>2021-07-02T17:43:06.966Z</time>
      </trkpt>
      <trkpt lat="48.065587" lon="11.538266">
        <ele>564.406391</ele>
        <time>2021-07-02T17:43:28.963Z</time>
      </trkpt>
      <trkpt lat="48.065535" lon="11.538251">
        <ele>564.377298</ele>
        <time>2021-07-02T17:43:34.508Z</time>
      </trkpt>
      <trkpt lat="48.065416" lon="11.538217">
        <ele>564.310743</ele>
        <time>2021-07-02T17:43:47.579Z</time>
      </trkpt>
      <trkpt lat="48.064484" lon="11.537866">
        <ele>565.274672</ele>
        <time>2021-07-02T17:45:28.083Z</time>
      </trkpt>
      <trkpt lat="48.064386" lon="11.537822">
        <ele>565.759783</ele>
        <time>2021-07-02T17:45:38.656Z</time>
      </trkpt>
      <trkpt lat="48.064279" lon="11.537666">
        <ele>566.468092</ele>
        <time>2021-07-02T17:45:57.268Z</time>
      </trkpt>
      <trkpt lat="48.064084" lon="11.537127">
        <ele>568.410155</ele>
        <time>2021-07-02T17:46:44.426Z</time>
      </trkpt>
      <trkpt lat="48.063911" lon="11.536928">
        <ele>569.444753</ele>
        <time>2021-07-02T17:47:09.984Z</time>
      </trkpt>
      <trkpt lat="48.063380" lon="11.536786">
        <ele>572.002264</ele>
        <time>2021-07-02T17:48:17.326Z</time>
      </trkpt>
      <trkpt lat="48.062820" lon="11.536449">
        <ele>575.602625</ele>
        <time>2021-07-02T17:49:33.976Z</time>
      </trkpt>
      <trkpt lat="48.061978" lon="11.534850">
        <ele>583.743450</ele>
        <time>2021-07-02T17:52:18.668Z</time>
      </trkpt>
      <trkpt lat="48.061638" lon="11.534601">
        <ele>584.436883</ele>
        <time>2021-07-02T17:53:01.110Z</time>
      </trkpt>
      <trkpt lat="48.061336" lon="11.534288">
        <ele>585.109860</ele>
        <time>2021-07-02T17:53:40.765Z</time>
      </trkpt>
      <trkpt lat="48.061004" lon="11.533469">
        <ele>586.282585</ele>
        <time>2021-07-02T17:54:47.313Z</time>
      </trkpt>
      <trkpt lat="48.060842" lon="11.533048">
        <ele>586.877342</ele>
        <time>2021-07-02T17:55:19.963Z</time>
      </trkpt>
      <trkpt lat="48.060701" lon="11.532678">
        <ele>586.314925</ele>
        <time>2021-07-02T17:55:49.126Z</time>
      </trkpt>
      <trkpt lat="48.060521" lon="11.532217">
        <ele>585.506509</ele>
        <time>2021-07-02T17:56:26.227Z</time>
      </trkpt>
      <trkpt lat="48.060401" lon="11.531604">
        <ele>584.539335</ele>
        <time>2021-07-02T17:57:11.148Z</time>
      </trkpt>
      <trkpt lat="48.060411" lon="11.531392">
        <ele>584.217534</ele>
        <time>2021-07-02T17:57:26.506Z</time>
      </trkpt>
      <trkpt lat="48.060516" lon="11.531043">
        <ele>583.638019</ele>
        <time>2021-07-02T17:57:53.345Z</time>
      </trkpt>
      <trkpt lat="48.060497" lon="11.530917">
        <ele>583.442439</ele>
        <time>2021-07-02T17:58:02.765Z</time>
      </trkpt>
      <trkpt lat="48.060448" lon="11.530808">
        <ele>583.243536</ele>
        <time>2021-07-02T17:58:12.011Z</time>
      </trkpt>
      <trkpt lat="48.060375" lon="11.530685">
        <ele>582.994462</ele>
        <time>2021-07-02T17:58:23.482Z</time>
      </trkpt>
      <trkpt lat="48.060327" lon="11.530588">
        <ele>582.761520</ele>
        <time>2021-07-02T17:58:31.921Z</time>
      </trkpt>
      <trkpt lat="48.060265" lon="11.530425">
        <ele>581.961618</ele>
        <time>2021-07-02T17:58:45.726Z</time>
      </trkpt>
      <trkpt lat="48.060265" lon="11.530425">
        <ele>581.961618</ele>
        <time>2021-07-02T17:58:45.771Z</time>
      </trkpt>
      <trkpt lat="48.060222" lon="11.530222">
        <ele>581.053371</ele>
        <time>2021-07-02T17:59:00.573Z</time>
      </trkpt>
      <trkpt lat="48.060169" lon="11.529924">
        <ele>579.738157</ele>
        <time>2021-07-02T17:59:23.805Z</time>
      </trkpt>
      <trkpt lat="48.060096" lon="11.529550">
        <ele>578.076398</ele>
        <time>2021-07-02T17:59:53.411Z</time>
      </trkpt>
      <trkpt lat="48.060051" lon="11.529335">
        <ele>577.115498</ele>
        <time>2021-07-02T18:00:10.790Z</time>
      </trkpt>
      <trkpt lat="48.060025" lon="11.529217">
        <ele>576.585577</ele>
        <time>2021-07-02T18:00:20.236Z</time>
      </trkpt>
      <trkpt lat="48.059945" lon="11.528936">
        <ele>575.282893</ele>
        <time>2021-07-02T18:00:44.278Z</time>
      </trkpt>
      <trkpt lat="48.059892" lon="11.528829">
        <ele>574.714864</ele>
        <time>2021-07-02T18:00:54.232Z</time>
      </trkpt>
      <trkpt lat="48.059884" lon="11.528811">
        <ele>574.622668</ele>
        <time>2021-07-02T18:00:55.904Z</time>
      </trkpt>
      <trkpt lat="48.059813" lon="11.528699">
        <ele>573.964283</ele>
        <time>2021-07-02T18:01:08.002Z</time>
      </trkpt>
      <trkpt lat="48.059759" lon="11.528632">
        <ele>573.516615</ele>
        <time>2021-07-02T18:01:16.142Z</time>
      </trkpt>
      <trkpt lat="48.059669" lon="11.528549">
        <ele>572.841949</ele>
        <time>2021-07-02T18:01:28.533Z</time>
      </trkpt>
      <trkpt lat="48.059565" lon="11.528462">
        <ele>572.081589</ele>
        <time>2021-07-02T18:01:42.019Z</time>
      </trkpt>
      <trkpt lat="48.059421" lon="11.528370">
        <ele>571.118686</ele>
        <time>2021-07-02T18:02:00.184Z</time>
      </trkpt>
      <trkpt lat="48.059271" lon="11.528308">
        <ele>570.254816</ele>
        <time>2021-07-02T18:02:18.002Z</time>
      </trkpt>
      <trkpt lat="48.059130" lon="11.528240">
        <ele>569.432439</ele>
        <time>2021-07-02T18:02:35.322Z</time>
      </trkpt>
      <trkpt lat="48.058810" lon="11.528029">
        <ele>567.491197</ele>
        <time>2021-07-02T18:03:15.311Z</time>
      </trkpt>
      <trkpt lat="48.058530" lon="11.527040">
        <ele>563.506127</ele>
        <time>2021-07-02T18:04:37.060Z</time>
      </trkpt>
      <trkpt lat="48.057791" lon="11.525554">
        <ele>562.553297</ele>
        <time>2021-07-02T18:06:43.088Z</time>
      </trkpt>
      <trkpt lat="48.057776" lon="11.525438">
        <ele>562.662045</ele>
        <time>2021-07-02T18:06:53.110Z</time>
      </trkpt>
      <trkpt lat="48.057663" lon="11.525316">
        <ele>562.853941</ele>
        <time>2021-07-02T18:07:08.981Z</time>
      </trkpt>
      <trkpt lat="48.057558" lon="11.525186">
        <ele>563.041624</ele>
        <time>2021-07-02T18:07:22.765Z</time>
      </trkpt>
      <trkpt lat="48.057454" lon="11.525023">
        <ele>563.249036</ele>
        <time>2021-07-02T18:07:40.288Z</time>
      </trkpt>
      <trkpt lat="48.057258" lon="11.524659">
        <ele>563.679268</ele>
        <time>2021-07-02T18:08:15.149Z</time>
      </trkpt>
      <trkpt lat="48.057127" lon="11.524393">
        <ele>564.064293</ele>
        <time>2021-07-02T18:08:39.462Z</time>
      </trkpt>
      <trkpt lat="48.056986" lon="11.524065">
        <ele>564.647057</ele>
        <time>2021-07-02T18:09:10.496Z</time>
      </trkpt>
      <trkpt lat="48.056927" lon="11.523929">
        <ele>564.889342</ele>
        <time>2021-07-02T18:09:21.887Z</time>
      </trkpt>
      <trkpt lat="48.056874" lon="11.523802">
        <ele>565.113078</ele>
        <time>2021-07-02T18:09:34.153Z</time>
      </trkpt>
      <trkpt lat="48.056864" lon="11.523709">
        <ele>565.253838</ele>
        <time>2021-07-02T18:09:40.921Z</time>
      </trkpt>
      <trkpt lat="48.056868" lon="11.523574">
        <ele>565.455772</ele>
        <time>2021-07-02T18:09:52.392Z</time>
      </trkpt>
      <trkpt lat="48.056720" lon="11.523526">
        <ele>565.794345</ele>
        <time>2021-07-02T18:10:08.539Z</time>
      </trkpt>
      <trkpt lat="48.056588" lon="11.523465">
        <ele>566.103218</ele>
        <time>2021-07-02T18:10:24.063Z</time>
      </trkpt>
      <trkpt lat="48.056604" lon="11.523411">
        <ele>566.191486</ele>
        <time>2021-07-02T18:10:29.434Z</time>
      </trkpt>
      <trkpt lat="48.056573" lon="11.523401">
        <ele>566.262386</ele>
        <time>2021-07-02T18:10:33.137Z</time>
      </trkpt>
      <trkpt lat="48.056097" lon="11.523039">
        <ele>567.456189</ele>
        <time>2021-07-02T18:11:27.880Z</time>
      </trkpt>
      <trkpt lat="48.056060" lon="11.522999">
        <ele>567.558247</ele>
        <time>2021-07-02T18:11:32.558Z</time>
      </trkpt>
      <trkpt lat="48.056044" lon="11.523036">
        <ele>567.624101</ele>
        <time>2021-07-02T18:11:35.855Z</time>
      </trkpt>
      <trkpt lat="48.056011" lon="11.522965">
        <ele>567.753332</ele>
        <time>2021-07-02T18:11:42.307Z</time>
      </trkpt>
      <trkpt lat="48.055874" lon="11.522584">
        <ele>567.649612</ele>
        <time>2021-07-02T18:12:12.519Z</time>
      </trkpt>
      <trkpt lat="48.055838" lon="11.522527">
        <ele>567.599320</ele>
        <time>2021-07-02T18:12:18.132Z</time>
      </trkpt>
      <trkpt lat="48.055694" lon="11.522453">
        <ele>567.453235</ele>
        <time>2021-07-02T18:12:33.683Z</time>
      </trkpt>
      <trkpt lat="48.055395" lon="11.522427">
        <ele>567.165874</ele>
        <time>2021-07-02T18:13:05.031Z</time>
      </trkpt>
      <trkpt lat="48.055360" lon="11.522423">
        <ele>567.132195</ele>
        <time>2021-07-02T18:13:08.700Z</time>
      </trkpt>
      <trkpt lat="48.055310" lon="11.522415">
        <ele>567.083949</ele>
        <time>2021-07-02T18:13:13.832Z</time>
      </trkpt>
      <trkpt lat="48.055061" lon="11.522371">
        <ele>566.843384</ele>
        <time>2021-07-02T18:13:39.267Z</time>
      </trkpt>
      <trkpt lat="48.054887" lon="11.522316">
        <ele>566.672753</ele>
        <time>2021-07-02T18:13:57.348Z</time>
      </trkpt>
      <trkpt lat="48.054725" lon="11.522238">
        <ele>566.509471</ele>
        <time>2021-07-02T18:14:14.629Z</time>
      </trkpt>
      <trkpt lat="48.054359" lon="11.522047">
        <ele>566.166949</ele>
        <time>2021-07-02T18:14:54.150Z</time>
      </trkpt>
      <trkpt lat="48.054174" lon="11.521950">
        <ele>566.454697</ele>
        <time>2021-07-02T18:15:14.645Z</time>
      </trkpt>
      <trkpt lat="48.054081" lon="11.521881">
        <ele>566.607072</ele>
        <time>2021-07-02T18:15:25.330Z</time>
      </trkpt>
      <trkpt lat="48.054043" lon="11.521830">
        <ele>566.682006</ele>
        <time>2021-07-02T18:15:31.088Z</time>
      </trkpt>
      <trkpt lat="48.054038" lon="11.521747">
        <ele>566.763772</ele>
        <time>2021-07-02T18:15:36.958Z</time>
      </trkpt>
      <trkpt lat="48.053786" lon="11.521602">
        <ele>567.160086</ele>
        <time>2021-07-02T18:16:04.159Z</time>
      </trkpt>
      <trkpt lat="48.053762" lon="11.521582">
        <ele>567.200411</ele>
        <time>2021-07-02T18:16:07.594Z</time>
      </trkpt>
      <trkpt lat="48.053560" lon="11.521426">
        <ele>567.534093</ele>
        <time>2021-07-02T18:16:31.563Z</time>
      </trkpt>
      <trkpt lat="48.053026" lon="11.520962">
        <ele>568.440547</ele>
        <time>2021-07-02T18:17:40.568Z</time>
      </trkpt>
      <trkpt lat="48.052936" lon="11.520874">
        <ele>568.598367</ele>
        <time>2021-07-02T18:17:52.195Z</time>
      </trkpt>
      <trkpt lat="48.052874" lon="11.520822">
        <ele>568.702700</ele>
        <time>2021-07-02T18:18:00.049Z</time>
      </trkpt>
      <trkpt lat="48.052861" lon="11.520812">
        <ele>568.724157</ele>
        <time>2021-07-02T18:18:01.695Z</time>
      </trkpt>
      <trkpt lat="48.052450" lon="11.520490">
        <ele>569.414166</ele>
        <time>2021-07-02T18:18:53.021Z</time>
      </trkpt>
      <trkpt lat="48.052229" lon="11.520398">
        <ele>569.755808</ele>
        <time>2021-07-02T18:19:17.034Z</time>
      </trkpt>
      <trkpt lat="48.051953" lon="11.520246">
        <ele>570.193824</ele>
        <time>2021-07-02T18:19:47.912Z</time>
      </trkpt>
      <trkpt lat="48.051855" lon="11.520186">
        <ele>570.351525</ele>
        <time>2021-07-02T18:19:59.101Z</time>
      </trkpt>
      <trkpt lat="48.051681" lon="11.520079">
        <ele>570.631704</ele>
        <time>2021-07-02T18:20:18.992Z</time>
      </trkpt>
      <trkpt lat="48.051395" lon="11.519903">
        <ele>571.092275</ele>
        <time>2021-07-02T18:20:51.827Z</time>
      </trkpt>
      <trkpt lat="48.050529" lon="11.519437">
        <ele>570.680688</ele>
        <time>2021-07-02T18:22:24.539Z</time>
      </trkpt>
      <trkpt lat="48.050167" lon="11.519088">
        <ele>570.173084</ele>
        <time>2021-07-02T18:23:09.531Z</time>
      </trkpt>
      <trkpt lat="48.049907" lon="11.518964">
        <ele>569.851437</ele>
        <time>2021-07-02T18:23:37.873Z</time>
      </trkpt>
      <trkpt lat="48.049730" lon="11.518915">
        <ele>569.639273</ele>
        <time>2021-07-02T18:23:56.658Z</time>
      </trkpt>
      <trkpt lat="48.049398" lon="11.518632">
        <ele>569.170638</ele>
        <time>2021-07-02T18:24:36.459Z</time>
      </trkpt>
      <trkpt lat="48.049027" lon="11.518316">
        <ele>568.609745</ele>
        <time>2021-07-02T18:25:20.846Z</time>
      </trkpt>
      <trkpt lat="48.048353" lon="11.517668">
        <ele>567.557124</ele>
        <time>2021-07-02T18:26:43.552Z</time>
      </trkpt>
      <trkpt lat="48.048123" lon="11.517339">
        <ele>567.139029</ele>
        <time>2021-07-02T18:27:16.085Z</time>
      </trkpt>
      <trkpt lat="48.047903" lon="11.516922">
        <ele>567.342539</ele>
        <time>2021-07-02T18:27:52.091Z</time>
      </trkpt>
      <trkpt lat="48.047708" lon="11.516335">
        <ele>568.001106</ele>
        <time>2021-07-02T18:28:37.120Z</time>
      </trkpt>
      <trkpt lat="48.047691" lon="11.516284">
        <ele>568.058363</ele>
        <time>2021-07-02T18:28:40.928Z</time>
      </trkpt>
      <trkpt lat="48.047559" lon="11.515866">
        <ele>568.522832</ele>
        <time>2021-07-02T18:29:14.132Z</time>
      </trkpt>
      <trkpt lat="48.047482" lon="11.515847">
        <ele>568.640120</ele>
        <time>2021-07-02T18:29:22.091Z</time>
      </trkpt>
      <trkpt lat="48.047274" lon="11.515507">
        <ele>569.103170</ele>
        <time>2021-07-02T18:29:55.459Z</time>
      </trkpt>
      <trkpt lat="48.046957" lon="11.514992">
        <ele>570.001256</ele>
        <time>2021-07-02T18:30:46.839Z</time>
      </trkpt>
      <trkpt lat="48.046865" lon="11.514744">
        <ele>570.755199</ele>
        <time>2021-07-02T18:31:09.129Z</time>
      </trkpt>
      <trkpt lat="48.046754" lon="11.514479">
        <ele>571.586487</ele>
        <time>2021-07-02T18:31:32.734Z</time>
      </trkpt>
      <trkpt lat="48.046625" lon="11.514250">
        <ele>572.382526</ele>
        <time>2021-07-02T18:31:56.245Z</time>
      </trkpt>
      <trkpt lat="48.046189" lon="11.513921">
        <ele>574.324301</ele>
        <time>2021-07-02T18:32:51.624Z</time>
      </trkpt>
      <trkpt lat="48.045782" lon="11.513608">
        <ele>576.144022</ele>
        <time>2021-07-02T18:33:44.473Z</time>
      </trkpt>
      <trkpt lat="48.045707" lon="11.513550">
        <ele>576.479744</ele>
        <time>2021-07-02T18:33:54.888Z</time>
      </trkpt>
      <trkpt lat="48.045499" lon="11.513416">
        <ele>576.877767</ele>
        <time>2021-07-02T18:34:20.958Z</time>
      </trkpt>
      <trkpt lat="48.044981" lon="11.513238">
        <ele>577.024887</ele>
        <time>2021-07-02T18:35:21.517Z</time>
      </trkpt>
      <trkpt lat="48.044198" lon="11.513065">
        <ele>577.243978</ele>
        <time>2021-07-02T18:36:41.476Z</time>
      </trkpt>
      <trkpt lat="48.043594" lon="11.512972">
        <ele>575.095740</ele>
        <time>2021-07-02T18:37:48.465Z</time>
      </trkpt>
      <trkpt lat="48.043574" lon="11.512999">
        <ele>574.869791</ele>
        <time>2021-07-02T18:37:51.741Z</time>
      </trkpt>
      <trkpt lat="48.043498" lon="11.513099">
        <ele>574.020884</ele>
        <time>2021-07-02T18:38:03.399Z</time>
      </trkpt>
      <trkpt lat="48.043391" lon="11.513149">
        <ele>573.080741</ele>
        <time>2021-07-02T18:38:16.210Z</time>
      </trkpt>
      <trkpt lat="48.043087" lon="11.513070">
        <ele>570.493012</ele>
        <time>2021-07-02T18:38:53.150Z</time>
      </trkpt>
      <trkpt lat="48.042922" lon="11.513132">
        <ele>569.066220</ele>
        <time>2021-07-02T18:39:13.998Z</time>
      </trkpt>
      <trkpt lat="48.042898" lon="11.513290">
        <ele>568.157724</ele>
        <time>2021-07-02T18:39:27.157Z</time>
      </trkpt>
      <trkpt lat="48.042948" lon="11.513338">
        <ele>567.659451</ele>
        <time>2021-07-02T18:39:35.559Z</time>
      </trkpt>
      <trkpt lat="48.043068" lon="11.513516">
        <ele>566.242076</ele>
        <time>2021-07-02T18:39:56.212Z</time>
      </trkpt>
      <trkpt lat="48.043180" lon="11.513717">
        <ele>564.774950</ele>
        <time>2021-07-02T18:40:16.947Z</time>
      </trkpt>
      <trkpt lat="48.043225" lon="11.513848">
        <ele>563.949145</ele>
        <time>2021-07-02T18:40:28.860Z</time>
      </trkpt>
      <trkpt lat="48.043187" lon="11.514066">
        <ele>562.685946</ele>
        <time>2021-07-02T18:40:47.194Z</time>
      </trkpt>
      <trkpt lat="48.042980" lon="11.514236">
        <ele>561.851818</ele>
        <time>2021-07-02T18:41:14.916Z</time>
      </trkpt>
      <trkpt lat="48.042918" lon="11.514297">
        <ele>561.690330</ele>
        <time>2021-07-02T18:41:24.097Z</time>
      </trkpt>
      <trkpt lat="48.042875" lon="11.514361">
        <ele>561.558324</ele>
        <time>2021-07-02T18:41:30.957Z</time>
      </trkpt>
      <trkpt lat="48.042847" lon="11.514397">
        <ele>561.477977</ele>
        <time>2021-07-02T18:41:35.089Z</time>
      </trkpt>
      <trkpt lat="48.042870" lon="11.514620">
        <ele>561.149703</ele>
        <time>2021-07-02T18:41:52.311Z</time>
      </trkpt>
      <trkpt lat="48.042967" lon="11.515368">
        <ele>560.041179</ele>
        <time>2021-07-02T18:42:49.987Z</time>
      </trkpt>
      <trkpt lat="48.043254" lon="11.517566">
        <ele>563.866674</ele>
        <time>2021-07-02T18:45:46.004Z</time>
      </trkpt>
      <trkpt lat="48.043261" lon="11.517655">
        <ele>564.329632</ele>
        <time>2021-07-02T18:45:53.083Z</time>
      </trkpt>
      <trkpt lat="48.043265" lon="11.517731">
        <ele>564.723474</ele>
        <time>2021-07-02T18:46:00.902Z</time>
      </trkpt>
      <trkpt lat="48.043260" lon="11.517810">
        <ele>565.133425</ele>
        <time>2021-07-02T18:46:07.920Z</time>
      </trkpt>
      <trkpt lat="48.043234" lon="11.517944">
        <ele>565.854253</ele>
        <time>2021-07-02T18:46:20.444Z</time>
      </trkpt>
      <trkpt lat="48.043214" lon="11.517997">
        <ele>566.168662</ele>
        <time>2021-07-02T18:46:29.007Z</time>
      </trkpt>
      <trkpt lat="48.042950" lon="11.518310">
        <ele>568.771779</ele>
        <time>2021-07-02T18:47:13.419Z</time>
      </trkpt>
      <trkpt lat="48.042682" lon="11.518933">
        <ele>572.523391</ele>
        <time>2021-07-02T18:48:18.222Z</time>
      </trkpt>
      <trkpt lat="48.042371" lon="11.519249">
        <ele>574.820314</ele>
        <time>2021-07-02T18:49:06.897Z</time>
      </trkpt>
      <trkpt lat="48.042270" lon="11.519351">
        <ele>575.564832</ele>
        <time>2021-07-02T18:49:22.841Z</time>
      </trkpt>
      <trkpt lat="48.042248" lon="11.519445">
        <ele>575.971625</ele>
        <time>2021-07-02T18:49:31.233Z</time>
      </trkpt>
      <trkpt lat="48.042161" lon="11.519779">
        <ele>577.435745</ele>
        <time>2021-07-02T18:50:01.436Z</time>
      </trkpt>
      <trkpt lat="48.042005" lon="11.519981">
        <ele>578.696321</ele>
        <time>2021-07-02T18:50:25.614Z</time>
      </trkpt>
      <trkpt lat="48.041988" lon="11.520105">
        <ele>579.213346</ele>
        <time>2021-07-02T18:50:35.101Z</time>
      </trkpt>
      <trkpt lat="48.042101" lon="11.520004">
        <ele>580.017565</ele>
        <time>2021-07-02T18:50:51.194Z</time>
      </trkpt>
      <trkpt lat="48.042313" lon="11.519907">
        <ele>581.371974</ele>
        <time>2021-07-02T18:51:15.942Z</time>
      </trkpt>
      <trkpt lat="48.042602" lon="11.519882">
        <ele>583.140501</ele>
        <time>2021-07-02T18:51:49.214Z</time>
      </trkpt>
      <trkpt lat="48.042704" lon="11.519905">
        <ele>583.320286</ele>
        <time>2021-07-02T18:52:00.562Z</time>
      </trkpt>
      <trkpt lat="48.042847" lon="11.519992">
        <ele>583.483100</ele>
        <time>2021-07-02T18:52:18.348Z</time>
      </trkpt>
      <trkpt lat="48.043236" lon="11.520137">
        <ele>583.905907</ele>
        <time>2021-07-02T18:52:59.751Z</time>
      </trkpt>
      <trkpt lat="48.043283" lon="11.520155">
        <ele>583.957075</ele>
        <time>2021-07-02T18:53:04.836Z</time>
      </trkpt>
      <trkpt lat="48.043483" lon="11.520156">
        <ele>584.168007</ele>
        <time>2021-07-02T18:53:24.863Z</time>
      </trkpt>
      <trkpt lat="48.043829" lon="11.520223">
        <ele>584.535961</ele>
        <time>2021-07-02T18:53:59.867Z</time>
      </trkpt>
      <trkpt lat="48.044052" lon="11.520352">
        <ele>584.788125</ele>
        <time>2021-07-02T18:54:24.012Z</time>
      </trkpt>
      <trkpt lat="48.044052" lon="11.520352">
        <ele>584.788125</ele>
        <time>2021-07-02T18:54:24.034Z</time>
      </trkpt>
      <trkpt lat="48.044173" lon="11.520487">
        <ele>584.947328</ele>
        <time>2021-07-02T18:54:39.215Z</time>
      </trkpt>
      <trkpt lat="48.044801" lon="11.521307">
        <ele>584.834645</ele>
        <time>2021-07-02T18:56:03.037Z</time>
      </trkpt>
      <trkpt lat="48.044880" lon="11.521432">
        <ele>584.784871</ele>
        <time>2021-07-02T18:56:14.712Z</time>
      </trkpt>
      <trkpt lat="48.045036" lon="11.521662">
        <ele>584.690066</ele>
        <time>2021-07-02T18:56:36.922Z</time>
      </trkpt>
      <trkpt lat="48.045183" lon="11.521816">
        <ele>584.612390</ele>
        <time>2021-07-02T18:56:55.256Z</time>
      </trkpt>
      <trkpt lat="48.045321" lon="11.521960">
        <ele>584.539564</ele>
        <time>2021-07-02T18:57:12.305Z</time>
      </trkpt>
      <trkpt lat="48.045726" lon="11.522382">
        <ele>584.297743</ele>
        <time>2021-07-02T18:58:02.754Z</time>
      </trkpt>
      <trkpt lat="48.045797" lon="11.522456">
        <ele>584.204228</ele>
        <time>2021-07-02T18:58:11.633Z</time>
      </trkpt>
      <trkpt lat="48.045992" lon="11.522660">
        <ele>583.947077</ele>
        <time>2021-07-02T18:58:35.757Z</time>
      </trkpt>
      <trkpt lat="48.046011" lon="11.522680">
        <ele>583.921971</ele>
        <time>2021-07-02T18:58:38.174Z</time>
      </trkpt>
      <trkpt lat="48.046204" lon="11.522881">
        <ele>583.667833</ele>
        <time>2021-07-02T18:59:02.165Z</time>
      </trkpt>
      <trkpt lat="48.046681" lon="11.523378">
        <ele>583.039638</ele>
        <time>2021-07-02T19:00:01.690Z</time>
      </trkpt>
      <trkpt lat="48.047042" lon="11.523632">
        <ele>582.608522</ele>
        <time>2021-07-02T19:00:42.614Z</time>
      </trkpt>
      <trkpt lat="48.047321" lon="11.523684">
        <ele>582.296423</ele>
        <time>2021-07-02T19:01:11.548Z</time>
      </trkpt>
      <trkpt lat="48.047356" lon="11.523680">
        <ele>582.255236</ele>
        <time>2021-07-02T19:01:15.175Z</time>
      </trkpt>
      <trkpt lat="48.047488" lon="11.523658">
        <ele>582.099397</ele>
        <time>2021-07-02T19:01:28.930Z</time>
      </trkpt>
      <trkpt lat="48.047898" lon="11.523697">
        <ele>581.617357</ele>
        <time>2021-07-02T19:02:11.161Z</time>
      </trkpt>
      <trkpt lat="48.048609" lon="11.523930">
        <ele>580.763329</ele>
        <time>2021-07-02T19:03:25.728Z</time>
      </trkpt>
      <trkpt lat="48.048822" lon="11.524067">
        <ele>580.491284</ele>
        <time>2021-07-02T19:03:49.566Z</time>
      </trkpt>
      <trkpt lat="48.049127" lon="11.524113">
        <ele>580.203238</ele>
        <time>2021-07-02T19:04:20.859Z</time>
      </trkpt>
      <trkpt lat="48.049729" lon="11.524720">
        <ele>579.735067</ele>
        <time>2021-07-02T19:05:34.862Z</time>
      </trkpt>
      <trkpt lat="48.050932" lon="11.525388">
        <ele>579.058613</ele>
        <time>2021-07-02T19:07:44.363Z</time>
      </trkpt>
      <trkpt lat="48.051538" lon="11.525866">
        <ele>578.915819</ele>
        <time>2021-07-02T19:08:53.545Z</time>
      </trkpt>
      <trkpt lat="48.051893" lon="11.526137">
        <ele>578.832747</ele>
        <time>2021-07-02T19:09:33.421Z</time>
      </trkpt>
      <trkpt lat="48.052092" lon="11.526286">
        <ele>578.786363</ele>
        <time>2021-07-02T19:09:55.741Z</time>
      </trkpt>
      <trkpt lat="48.052744" lon="11.526522">
        <ele>578.869578</ele>
        <time>2021-07-02T19:11:03.296Z</time>
      </trkpt>
      <trkpt lat="48.052952" lon="11.526693">
        <ele>578.921045</ele>
        <time>2021-07-02T19:11:27.184Z</time>
      </trkpt>
      <trkpt lat="48.053119" lon="11.526793">
        <ele>578.960053</ele>
        <time>2021-07-02T19:11:45.440Z</time>
      </trkpt>
      <trkpt lat="48.053119" lon="11.526793">
        <ele>578.960053</ele>
        <time>2021-07-02T19:11:45.857Z</time>
      </trkpt>
      <trkpt lat="48.054701" lon="11.527857">
        <ele>579.073502</ele>
        <time>2021-07-02T19:14:40.710Z</time>
      </trkpt>
      <trkpt lat="48.055270" lon="11.528396">
        <ele>579.017942</ele>
        <time>2021-07-02T19:15:48.661Z</time>
      </trkpt>
      <trkpt lat="48.055480" lon="11.528673">
        <ele>578.994204</ele>
        <time>2021-07-02T19:16:16.990Z</time>
      </trkpt>
      <trkpt lat="48.055585" lon="11.529275">
        <ele>578.951638</ele>
        <time>2021-07-02T19:16:59.054Z</time>
      </trkpt>
      <trkpt lat="48.055615" lon="11.530297">
        <ele>578.881648</ele>
        <time>2021-07-02T19:18:07.975Z</time>
      </trkpt>
      <trkpt lat="48.055535" lon="11.531299">
        <ele>578.813391</ele>
        <time>2021-07-02T19:19:16.347Z</time>
      </trkpt>
      <trkpt lat="48.055282" lon="11.531882">
        <ele>578.812494</ele>
        <time>2021-07-02T19:20:03.176Z</time>
      </trkpt>
      <trkpt lat="48.055253" lon="11.531946">
        <ele>578.812394</ele>
        <time>2021-07-02T19:20:08.511Z</time>
      </trkpt>
      <trkpt lat="48.055268" lon="11.531961">
        <ele>578.812359</ele>
        <time>2021-07-02T19:20:10.309Z</time>
      </trkpt>
      <trkpt lat="48.055269" lon="11.531998">
        <ele>578.812312</ele>
        <time>2021-07-02T19:20:12.805Z</time>
      </trkpt>
      <trkpt lat="48.055284" lon="11.532049">
        <ele>578.812240</ele>
        <time>2021-07-02T19:20:16.597Z</time>
      </trkpt>
      <trkpt lat="48.055343" lon="11.532201">
        <ele>578.812013</ele>
        <time>2021-07-02T19:20:28.412Z</time>
      </trkpt>
      <trkpt lat="48.055457" lon="11.532315">
        <ele>578.811748</ele>
        <time>2021-07-02T19:20:42.202Z</time>
      </trkpt>
      <trkpt lat="48.055546" lon="11.532404">
        <ele>578.811541</ele>
        <time>2021-07-02T19:20:53.000Z</time>
      </trkpt>
      <trkpt lat="48.055720" lon="11.532646">
        <ele>578.811083</ele>
        <time>2021-07-02T19:21:16.900Z</time>
      </trkpt>
      <trkpt lat="48.055738" lon="11.532699">
        <ele>578.811006</ele>
        <time>2021-07-02T19:21:20.987Z</time>
      </trkpt>
      <trkpt lat="48.055821" lon="11.532932">
        <ele>578.810665</ele>
        <time>2021-07-02T19:21:38.710Z</time>
      </trkpt>
      <trkpt lat="48.055861" lon="11.533311">
        <ele>578.810170</ele>
        <time>2021-07-02T19:22:04.528Z</time>
      </trkpt>
      <trkpt lat="48.055907" lon="11.533570">
        <ele>578.788837</ele>
        <time>2021-07-02T19:22:22.540Z</time>
      </trkpt>
      <trkpt lat="48.055946" lon="11.533787">
        <ele>578.732783</ele>
        <time>2021-07-02T19:22:37.671Z</time>
      </trkpt>
      <trkpt lat="48.056018" lon="11.534629">
        <ele>578.521031</ele>
        <time>2021-07-02T19:23:35.199Z</time>
      </trkpt>
      <trkpt lat="48.056333" lon="11.536264">
        <ele>578.076542</ele>
        <time>2021-07-02T19:25:30.344Z</time>
      </trkpt>
      <trkpt lat="48.056669" lon="11.537342">
        <ele>577.638660</ele>
        <time>2021-07-02T19:26:50.892Z</time>
      </trkpt>
      <trkpt lat="48.056669" lon="11.537342">
        <ele>577.638660</ele>
        <time>2021-07-02T19:26:51.018Z</time>
      </trkpt>
      <trkpt lat="48.056887" lon="11.537756">
        <ele>577.444636</ele>
        <time>2021-07-02T19:27:26.830Z</time>
      </trkpt>
      <trkpt lat="48.056926" lon="11.537950">
        <ele>577.370058</ele>
        <time>2021-07-02T19:27:40.587Z</time>
      </trkpt>
      <trkpt lat="48.057015" lon="11.538180">
        <ele>577.272221</ele>
        <time>2021-07-02T19:27:58.492Z</time>
      </trkpt>
      <trkpt lat="48.057085" lon="11.538306">
        <ele>577.211905</ele>
        <time>2021-07-02T19:28:09.769Z</time>
      </trkpt>
      <trkpt lat="48.057411" lon="11.538729">
        <ele>576.939129</ele>
        <time>2021-07-02T19:28:53.510Z</time>
      </trkpt>
      <trkpt lat="48.057556" lon="11.539006">
        <ele>576.783442</ele>
        <time>2021-07-02T19:29:17.361Z</time>
      </trkpt>
      <trkpt lat="48.058306" lon="11.539864">
        <ele>576.158404</ele>
        <time>2021-07-02T19:30:53.660Z</time>
      </trkpt>
      <trkpt lat="48.058548" lon="11.539983">
        <ele>575.989761</ele>
        <time>2021-07-02T19:31:19.501Z</time>
      </trkpt>
      <trkpt lat="48.059123" lon="11.540694">
        <ele>575.734771</ele>
        <time>2021-07-02T19:32:34.694Z</time>
      </trkpt>
      <trkpt lat="48.059965" lon="11.541251">
        <ele>575.440845</ele>
        <time>2021-07-02T19:34:07.274Z</time>
      </trkpt>
      <trkpt lat="48.060634" lon="11.541598">
        <ele>575.028492</ele>
        <time>2021-07-02T19:35:18.623Z</time>
      </trkpt>
      <trkpt lat="48.061055" lon="11.541720">
        <ele>574.739965</ele>
        <time>2021-07-02T19:36:02.280Z</time>
      </trkpt>
      <trkpt lat="48.061146" lon="11.541735">
        <ele>574.678367</ele>
        <time>2021-07-02T19:36:11.622Z</time>
      </trkpt>
      <trkpt lat="48.061463" lon="11.541897">
        <ele>574.452981</ele>
        <time>2021-07-02T19:36:45.717Z</time>
      </trkpt>
      <trkpt lat="48.061761" lon="11.542022">
        <ele>574.244746</ele>
        <time>2021-07-02T19:37:17.188Z</time>
      </trkpt>
      <trkpt lat="48.061952" lon="11.542183">
        <ele>574.076178</ele>
        <time>2021-07-02T19:37:39.513Z</time>
      </trkpt>
      <trkpt lat="48.062160" lon="11.542225">
        <ele>573.895591</ele>
        <time>2021-07-02T19:38:01.010Z</time>
      </trkpt>
      <trkpt lat="48.062478" lon="11.542352">
        <ele>573.612404</ele>
        <time>2021-07-02T19:38:34.556Z</time>
      </trkpt>
      <trkpt lat="48.062722" lon="11.542526">
        <ele>573.379842</ele>
        <time>2021-07-02T19:39:02.091Z</time>
      </trkpt>
      <trkpt lat="48.063622" lon="11.543443">
        <ele>572.461780</ele>
        <time>2021-07-02T19:40:53.147Z</time>
      </trkpt>
      <trkpt lat="48.064293" lon="11.543875">
        <ele>571.898051</ele>
        <time>2021-07-02T19:42:07.394Z</time>
      </trkpt>
      <trkpt lat="48.064358" lon="11.543904">
        <ele>571.845706</ele>
        <time>2021-07-02T19:42:14.263Z</time>
      </trkpt>
      <trkpt lat="48.064420" lon="11.543932">
        <ele>571.795727</ele>
        <time>2021-07-02T19:42:20.921Z</time>
      </trkpt>
      <trkpt lat="48.064855" lon="11.544085">
        <ele>571.450875</ele>
        <time>2021-07-02T19:43:06.128Z</time>
      </trkpt>
      <trkpt lat="48.065054" lon="11.544149">
        <ele>571.293793</ele>
        <time>2021-07-02T19:43:26.802Z</time>
      </trkpt>
      <trkpt lat="48.065258" lon="11.544221">
        <ele>571.096864</ele>
        <time>2021-07-02T19:43:48.211Z</time>
      </trkpt>
      <trkpt lat="48.065466" lon="11.544292">
        <ele>570.877138</ele>
        <time>2021-07-02T19:44:09.939Z</time>
      </trkpt>
      <trkpt lat="48.065507" lon="11.544307">
        <ele>570.833667</ele>
        <time>2021-07-02T19:44:14.315Z</time>
      </trkpt>
      <trkpt lat="48.065625" lon="11.544344">
        <ele>570.709497</ele>
        <time>2021-07-02T19:44:26.670Z</time>
      </trkpt>
      <trkpt lat="48.066156" lon="11.544465">
        <ele>570.156304</ele>
        <time>2021-07-02T19:45:21.502Z</time>
      </trkpt>
      <trkpt lat="48.066424" lon="11.544537">
        <ele>569.875873</ele>
        <time>2021-07-02T19:45:49.687Z</time>
      </trkpt>
      <trkpt lat="48.066523" lon="11.544566">
        <ele>569.771975</ele>
        <time>2021-07-02T19:45:59.836Z</time>
      </trkpt>
      <trkpt lat="48.066640" lon="11.544536">
        <ele>569.649718</ele>
        <time>2021-07-02T19:46:12.255Z</time>
      </trkpt>
      <trkpt lat="48.067434" lon="11.544818">
        <ele>569.156968</ele>
        <time>2021-07-02T19:47:35.498Z</time>
      </trkpt>
      <trkpt lat="48.067629" lon="11.544941">
        <ele>569.070712</ele>
        <time>2021-07-02T19:47:56.707Z</time>
      </trkpt>
      <trkpt lat="48.067764" lon="11.545003">
        <ele>569.013151</ele>
        <time>2021-07-02T19:48:11.101Z</time>
      </trkpt>
      <trkpt lat="48.067814" lon="11.544989">
        <ele>568.992417</ele>
        <time>2021-07-02T19:48:16.203Z</time>
      </trkpt>
      <trkpt lat="48.067864" lon="11.545037">
        <ele>568.968204</ele>
        <time>2021-07-02T19:48:22.198Z</time>
      </trkpt>
      <trkpt lat="48.068113" lon="11.545114">
        <ele>568.864565</ele>
        <time>2021-07-02T19:48:47.933Z</time>
      </trkpt>
      <trkpt lat="48.068322" lon="11.545152">
        <ele>568.778748</ele>
        <time>2021-07-02T19:49:09.177Z</time>
      </trkpt>
      <trkpt lat="48.068436" lon="11.545187">
        <ele>568.731313</ele>
        <time>2021-07-02T19:49:20.954Z</time>
      </trkpt>
      <trkpt lat="48.068838" lon="11.545347">
        <ele>568.711433</ele>
        <time>2021-07-02T19:50:02.889Z</time>
      </trkpt>
      <trkpt lat="48.069970" lon="11.545340">
        <ele>569.018886</ele>
        <time>2021-07-02T19:51:58.880Z</time>
      </trkpt>
      <trkpt lat="48.071200" lon="11.545075">
        <ele>568.348610</ele>
        <time>2021-07-02T19:54:03.889Z</time>
      </trkpt>
      <trkpt lat="48.071810" lon="11.544952">
        <ele>567.736911</ele>
        <time>2021-07-02T19:55:07.222Z</time>
      </trkpt>
      <trkpt lat="48.072141" lon="11.544662">
        <ele>567.355737</ele>
        <time>2021-07-02T19:55:47.130Z</time>
      </trkpt>
      <trkpt lat="48.073263" lon="11.543917">
        <ele>565.126825</ele>
        <time>2021-07-02T19:57:55.728Z</time>
      </trkpt>
      <trkpt lat="48.073845" lon="11.543447">
        <ele>564.100023</ele>
        <time>2021-07-02T19:59:04.103Z</time>
      </trkpt>
      <trkpt lat="48.074290" lon="11.543026">
        <ele>564.204926</ele>
        <time>2021-07-02T19:59:57.272Z</time>
      </trkpt>
      <trkpt lat="48.074408" lon="11.542941">
        <ele>564.231021</ele>
        <time>2021-07-02T20:00:10.758Z</time>
      </trkpt>
      <trkpt lat="48.074563" lon="11.542894">
        <ele>564.262534</ele>
        <time>2021-07-02T20:00:26.619Z</time>
      </trkpt>
      <trkpt lat="48.074962" lon="11.542808">
        <ele>564.342861</ele>
        <time>2021-07-02T20:01:07.817Z</time>
      </trkpt>
      <trkpt lat="48.075019" lon="11.542791">
        <ele>564.354442</ele>
        <time>2021-07-02T20:01:13.956Z</time>
      </trkpt>
      <trkpt lat="48.075220" lon="11.542693">
        <ele>564.396566</ele>
        <time>2021-07-02T20:01:35.741Z</time>
      </trkpt>
      <trkpt lat="48.075282" lon="11.542673">
        <ele>564.409204</ele>
        <time>2021-07-02T20:01:42.242Z</time>
      </trkpt>
      <trkpt lat="48.075337" lon="11.542914">
        <ele>564.449287</ele>
        <time>2021-07-02T20:02:00.458Z</time>
      </trkpt>
      <trkpt lat="48.075453" lon="11.543128">
        <ele>564.598384</ele>
        <time>2021-07-02T20:02:19.477Z</time>
      </trkpt>
      <trkpt lat="48.075530" lon="11.543486">
        <ele>564.801869</ele>
        <time>2021-07-02T20:02:46.290Z</time>
      </trkpt>
      <trkpt lat="48.075634" lon="11.543575">
        <ele>564.898880</ele>
        <time>2021-07-02T20:02:58.787Z</time>
      </trkpt>
      <trkpt lat="48.075542" lon="11.544572">
        <ele>565.443428</ele>
        <time>2021-07-02T20:04:08.597Z</time>
      </trkpt>
      <trkpt lat="48.075464" lon="11.545420">
        <ele>565.896023</ele>
        <time>2021-07-02T20:05:07.046Z</time>
      </trkpt>
      <trkpt lat="48.075382" lon="11.545964">
        <ele>565.843339</ele>
        <time>2021-07-02T20:05:44.664Z</time>
      </trkpt>
      <trkpt lat="48.075341" lon="11.546240">
        <ele>565.816628</ele>
        <time>2021-07-02T20:06:03.769Z</time>
      </trkpt>
      <trkpt lat="48.075310" lon="11.546445">
        <ele>565.796772</ele>
        <time>2021-07-02T20:06:17.926Z</time>
      </trkpt>
      <trkpt lat="48.075286" lon="11.546600">
        <ele>565.781741</ele>
        <time>2021-07-02T20:06:28.685Z</time>
      </trkpt>
      <trkpt lat="48.075212" lon="11.547093">
        <ele>565.734006</ele>
        <time>2021-07-02T20:07:02.621Z</time>
      </trkpt>
      <trkpt lat="48.075132" lon="11.547536">
        <ele>565.690653</ele>
        <time>2021-07-02T20:07:33.436Z</time>
      </trkpt>
      <trkpt lat="48.075114" lon="11.547632">
        <ele>565.681234</ele>
        <time>2021-07-02T20:07:40.211Z</time>
      </trkpt>
      <trkpt lat="48.075068" lon="11.547880">
        <ele>565.656919</ele>
        <time>2021-07-02T20:07:57.594Z</time>
      </trkpt>
      <trkpt lat="48.074966" lon="11.548435">
        <ele>565.650943</ele>
        <time>2021-07-02T20:08:36.467Z</time>
      </trkpt>
      <trkpt lat="48.074946" lon="11.548548">
        <ele>565.653021</ele>
        <time>2021-07-02T20:08:44.340Z</time>
      </trkpt>
      <trkpt lat="48.074926" lon="11.548654">
        <ele>565.654979</ele>
        <time>2021-07-02T20:08:51.869Z</time>
      </trkpt>
      <trkpt lat="48.074874" lon="11.548937">
        <ele>565.660197</ele>
        <time>2021-07-02T20:09:11.711Z</time>
      </trkpt>
      <trkpt lat="48.074866" lon="11.548984">
        <ele>565.661059</ele>
        <time>2021-07-02T20:09:15.018Z</time>
      </trkpt>
      <trkpt lat="48.074923" lon="11.549014">
        <ele>565.662667</ele>
        <time>2021-07-02T20:09:21.100Z</time>
      </trkpt>
      <trkpt lat="48.075309" lon="11.549232">
        <ele>565.673643</ele>
        <time>2021-07-02T20:10:02.528Z</time>
      </trkpt>
      <trkpt lat="48.075341" lon="11.549248">
        <ele>565.674541</ele>
        <time>2021-07-02T20:10:05.979Z</time>
      </trkpt>
      <trkpt lat="48.075600" lon="11.549377">
        <ele>565.681804</ele>
        <time>2021-07-02T20:10:33.654Z</time>
      </trkpt>
      <trkpt lat="48.076017" lon="11.549576">
        <ele>565.691132</ele>
        <time>2021-07-02T20:11:18.310Z</time>
      </trkpt>
      <trkpt lat="48.076061" lon="11.549597">
        <ele>565.691132</ele>
        <time>2021-07-02T20:11:23.030Z</time>
      </trkpt>
      <trkpt lat="48.076436" lon="11.549771">
        <ele>565.691132</ele>
        <time>2021-07-02T20:12:02.824Z</time>
      </trkpt>
      <trkpt lat="48.076501" lon="11.549800">
        <ele>565.691132</ele>
        <time>2021-07-02T20:12:09.690Z</time>
      </trkpt>
      <trkpt lat="48.076666" lon="11.549880">
        <ele>565.691132</ele>
        <time>2021-07-02T20:12:27.245Z</time>
      </trkpt>
      <trkpt lat="48.076687" lon="11.549890">
        <ele>565.691132</ele>
        <time>2021-07-02T20:12:29.458Z</time>
      </trkpt>
      <trkpt lat="48.076868" lon="11.549976">
        <ele>565.691132</ele>
        <time>2021-07-02T20:12:48.482Z</time>
      </trkpt>
      <trkpt lat="48.076848" lon="11.550063">
        <ele>565.691132</ele>
        <time>2021-07-02T20:12:54.711Z</time>
      </trkpt>
      <trkpt lat="48.076837" lon="11.550113">
        <ele>565.691132</ele>
        <time>2021-07-02T20:12:58.313Z</time>
      </trkpt>
      <trkpt lat="48.076832" lon="11.550137">
        <ele>565.691132</ele>
        <time>2021-07-02T20:13:00.022Z</time>
      </trkpt>
      <trkpt lat="48.076828" lon="11.550160">
        <ele>565.691132</ele>
        <time>2021-07-02T20:13:01.721Z</time>
      </trkpt>
      <trkpt lat="48.076814" lon="11.550227">
        <ele>565.691132</ele>
        <time>2021-07-02T20:13:06.411Z</time>
      </trkpt>
      <trkpt lat="48.076807" lon="11.550262">
        <ele>565.691132</ele>
        <time>2021-07-02T20:13:08.955Z</time>
      </trkpt>
    </trkseg>
  </trk>
</gpx>