<?xml version='1.0' encoding='UTF-8'?>
<gpx version="1.1" creator="https://www.komoot.de" xmlns="http://www.topografix.com/GPX/1/1" xmlns:xsi="http://www.w3.org/2001/XMLSchema-instance" xsi:schemaLocation="http://www.topografix.com/GPX/1/1 http://www.topografix.com/GPX/1/1/gpx.xsd">
  <metadata>
    <name>neuer PW Otterberg</name>
    <author>
      <link href="https://www.komoot.de">
        <text>komoot</text>
        <type>text/html</type>
      </link>
    </author>
  </metadata>
  <trk>
    <name>neuer PW Otterberg</name>
    <trkseg>
      <trkpt lat="49.505008" lon="7.772347">
        <ele>258.744080</ele>
        <time>2024-08-25T17:29:25.092Z</time>
      </trkpt>
      <trkpt lat="49.505088" lon="7.772229">
        <ele>258.744080</ele>
        <time>2024-08-25T17:29:36.659Z</time>
      </trkpt>
      <trkpt lat="49.505111" lon="7.772222">
        <ele>258.744080</ele>
        <time>2024-08-25T17:29:39.171Z</time>
      </trkpt>
      <trkpt lat="49.505126" lon="7.772216">
        <ele>258.744080</ele>
        <time>2024-08-25T17:29:40.875Z</time>
      </trkpt>
      <trkpt lat="49.505237" lon="7.772236">
        <ele>258.744080</ele>
        <time>2024-08-25T17:29:53.207Z</time>
      </trkpt>
      <trkpt lat="49.505380" lon="7.772340">
        <ele>258.744080</ele>
        <time>2024-08-25T17:30:10.722Z</time>
      </trkpt>
      <trkpt lat="49.506045" lon="7.773074">
        <ele>260.619477</ele>
        <time>2024-08-25T17:31:45.331Z</time>
      </trkpt>
      <trkpt lat="49.506204" lon="7.773282">
        <ele>261.775407</ele>
        <time>2024-08-25T17:32:09.796Z</time>
      </trkpt>
      <trkpt lat="49.506258" lon="7.773411">
        <ele>262.327621</ele>
        <time>2024-08-25T17:32:21.439Z</time>
      </trkpt>
      <trkpt lat="49.505943" lon="7.773936">
        <ele>264.899425</ele>
        <time>2024-08-25T17:33:16.710Z</time>
      </trkpt>
      <trkpt lat="49.506413" lon="7.774681">
        <ele>268.636591</ele>
        <time>2024-08-25T17:34:38.946Z</time>
      </trkpt>
      <trkpt lat="49.506805" lon="7.775636">
        <ele>272.547235</ele>
        <time>2024-08-25T17:36:09.929Z</time>
      </trkpt>
      <trkpt lat="49.506959" lon="7.776139">
        <ele>274.470714</ele>
        <time>2024-08-25T17:36:52.208Z</time>
      </trkpt>
      <trkpt lat="49.507331" lon="7.777158">
        <ele>278.404499</ele>
        <time>2024-08-25T17:38:19.047Z</time>
      </trkpt>
      <trkpt lat="49.507481" lon="7.777710">
        <ele>279.460253</ele>
        <time>2024-08-25T17:39:03.298Z</time>
      </trkpt>
      <trkpt lat="49.507681" lon="7.778669">
        <ele>281.237371</ele>
        <time>2024-08-25T17:40:17.104Z</time>
      </trkpt>
      <trkpt lat="49.507958" lon="7.779629">
        <ele>283.090812</ele>
        <time>2024-08-25T17:41:30.490Z</time>
      </trkpt>
      <trkpt lat="49.507692" lon="7.780776">
        <ele>282.328710</ele>
        <time>2024-08-25T17:42:51.208Z</time>
      </trkpt>
      <trkpt lat="49.507463" lon="7.781645">
        <ele>281.647677</ele>
        <time>2024-08-25T17:43:54.894Z</time>
      </trkpt>
      <trkpt lat="49.507816" lon="7.782059">
        <ele>281.183851</ele>
        <time>2024-08-25T17:44:41.370Z</time>
      </trkpt>
      <trkpt lat="49.507865" lon="7.782116">
        <ele>281.267907</ele>
        <time>2024-08-25T17:44:47.766Z</time>
      </trkpt>
      <trkpt lat="49.508026" lon="7.782066">
        <ele>281.492722</ele>
        <time>2024-08-25T17:45:04.477Z</time>
      </trkpt>
      <trkpt lat="49.508242" lon="7.781880">
        <ele>281.831466</ele>
        <time>2024-08-25T17:45:29.728Z</time>
      </trkpt>
      <trkpt lat="49.508305" lon="7.781710">
        <ele>282.005442</ele>
        <time>2024-08-25T17:45:42.503Z</time>
      </trkpt>
      <trkpt lat="49.508352" lon="7.781483">
        <ele>282.217213</ele>
        <time>2024-08-25T17:45:58.082Z</time>
      </trkpt>
      <trkpt lat="49.508437" lon="7.781399">
        <ele>282.355456</ele>
        <time>2024-08-25T17:46:08.397Z</time>
      </trkpt>
      <trkpt lat="49.508565" lon="7.781341">
        <ele>282.538090</ele>
        <time>2024-08-25T17:46:22.330Z</time>
      </trkpt>
      <trkpt lat="49.508796" lon="7.781341">
        <ele>282.854286</ele>
        <time>2024-08-25T17:46:46.277Z</time>
      </trkpt>
      <trkpt lat="49.509016" lon="7.781468">
        <ele>283.175885</ele>
        <time>2024-08-25T17:47:11.751Z</time>
      </trkpt>
      <trkpt lat="49.509352" lon="7.781884">
        <ele>284.458042</ele>
        <time>2024-08-25T17:48:01.874Z</time>
      </trkpt>
      <trkpt lat="49.509649" lon="7.782333">
        <ele>287.885156</ele>
        <time>2024-08-25T17:48:52.827Z</time>
      </trkpt>
      <trkpt lat="49.510443" lon="7.784156">
        <ele>299.642836</ele>
        <time>2024-08-25T17:52:01.801Z</time>
      </trkpt>
      <trkpt lat="49.510807" lon="7.785511">
        <ele>307.619497</ele>
        <time>2024-08-25T17:54:06.559Z</time>
      </trkpt>
      <trkpt lat="49.511058" lon="7.786122">
        <ele>311.552452</ele>
        <time>2024-08-25T17:55:06.020Z</time>
      </trkpt>
      <trkpt lat="49.511146" lon="7.786478">
        <ele>313.569847</ele>
        <time>2024-08-25T17:55:37.098Z</time>
      </trkpt>
      <trkpt lat="49.511514" lon="7.787536">
        <ele>317.044830</ele>
        <time>2024-08-25T17:57:08.483Z</time>
      </trkpt>
      <trkpt lat="49.512043" lon="7.788487">
        <ele>320.670417</ele>
        <time>2024-08-25T17:58:38.525Z</time>
      </trkpt>
      <trkpt lat="49.512313" lon="7.789163">
        <ele>323.109009</ele>
        <time>2024-08-25T17:59:37.497Z</time>
      </trkpt>
      <trkpt lat="49.512558" lon="7.789963">
        <ele>325.920170</ele>
        <time>2024-08-25T18:00:44.063Z</time>
      </trkpt>
      <trkpt lat="49.512627" lon="7.790321">
        <ele>327.107019</ele>
        <time>2024-08-25T18:01:12.363Z</time>
      </trkpt>
      <trkpt lat="49.512378" lon="7.791112">
        <ele>329.900820</ele>
        <time>2024-08-25T18:02:20.254Z</time>
      </trkpt>
      <trkpt lat="49.512381" lon="7.791860">
        <ele>332.080253</ele>
        <time>2024-08-25T18:03:19.679Z</time>
      </trkpt>
      <trkpt lat="49.512585" lon="7.792231">
        <ele>333.468270</ele>
        <time>2024-08-25T18:03:58.202Z</time>
      </trkpt>
      <trkpt lat="49.512667" lon="7.792378">
        <ele>334.021576</ele>
        <time>2024-08-25T18:04:12.923Z</time>
      </trkpt>
      <trkpt lat="49.512796" lon="7.792925">
        <ele>335.683091</ele>
        <time>2024-08-25T18:04:56.555Z</time>
      </trkpt>
      <trkpt lat="49.513321" lon="7.793945">
        <ele>338.361161</ele>
        <time>2024-08-25T18:06:28.230Z</time>
      </trkpt>
      <trkpt lat="49.513664" lon="7.794064">
        <ele>338.521668</ele>
        <time>2024-08-25T18:07:05.466Z</time>
      </trkpt>
      <trkpt lat="49.514046" lon="7.793999">
        <ele>338.697117</ele>
        <time>2024-08-25T18:07:45.608Z</time>
      </trkpt>
      <trkpt lat="49.514396" lon="7.794537">
        <ele>338.922854</ele>
        <time>2024-08-25T18:08:35.310Z</time>
      </trkpt>
      <trkpt lat="49.514616" lon="7.795177">
        <ele>338.555826</ele>
        <time>2024-08-25T18:09:24.627Z</time>
      </trkpt>
      <trkpt lat="49.514765" lon="7.795530">
        <ele>337.718960</ele>
        <time>2024-08-25T18:09:53.273Z</time>
      </trkpt>
      <trkpt lat="49.515148" lon="7.796419">
        <ele>335.598358</ele>
        <time>2024-08-25T18:11:06.532Z</time>
      </trkpt>
      <trkpt lat="49.515387" lon="7.797076">
        <ele>334.101509</ele>
        <time>2024-08-25T18:11:59.356Z</time>
      </trkpt>
      <trkpt lat="49.515546" lon="7.797513">
        <ele>332.975508</ele>
        <time>2024-08-25T18:12:34.734Z</time>
      </trkpt>
      <trkpt lat="49.515643" lon="7.797826">
        <ele>332.086431</ele>
        <time>2024-08-25T18:12:59.457Z</time>
      </trkpt>
      <trkpt lat="49.515898" lon="7.798416">
        <ele>330.269529</ele>
        <time>2024-08-25T18:13:50.118Z</time>
      </trkpt>
      <trkpt lat="49.516097" lon="7.798984">
        <ele>328.615032</ele>
        <time>2024-08-25T18:14:35.809Z</time>
      </trkpt>
      <trkpt lat="49.516365" lon="7.799327">
        <ele>327.239249</ele>
        <time>2024-08-25T18:15:13.093Z</time>
      </trkpt>
      <trkpt lat="49.516551" lon="7.800054">
        <ele>326.626537</ele>
        <time>2024-08-25T18:16:06.729Z</time>
      </trkpt>
      <trkpt lat="49.516849" lon="7.800753">
        <ele>326.930226</ele>
        <time>2024-08-25T18:17:02.024Z</time>
      </trkpt>
      <trkpt lat="49.517145" lon="7.801690">
        <ele>327.308652</ele>
        <time>2024-08-25T18:18:13.799Z</time>
      </trkpt>
      <trkpt lat="49.517269" lon="7.801931">
        <ele>327.420326</ele>
        <time>2024-08-25T18:18:36.346Z</time>
      </trkpt>
      <trkpt lat="49.517200" lon="7.801955">
        <ele>327.459895</ele>
        <time>2024-08-25T18:18:44.124Z</time>
      </trkpt>
      <trkpt lat="49.517551" lon="7.802305">
        <ele>329.835947</ele>
        <time>2024-08-25T18:19:32.691Z</time>
      </trkpt>
      <trkpt lat="49.517905" lon="7.802479">
        <ele>331.949371</ele>
        <time>2024-08-25T18:20:17.236Z</time>
      </trkpt>
      <trkpt lat="49.518297" lon="7.802596">
        <ele>334.220365</ele>
        <time>2024-08-25T18:21:05.967Z</time>
      </trkpt>
      <trkpt lat="49.518468" lon="7.802606">
        <ele>335.193640</ele>
        <time>2024-08-25T18:21:27.124Z</time>
      </trkpt>
      <trkpt lat="49.518790" lon="7.802515">
        <ele>337.055604</ele>
        <time>2024-08-25T18:22:07.802Z</time>
      </trkpt>
      <trkpt lat="49.518935" lon="7.802441">
        <ele>337.917464</ele>
        <time>2024-08-25T18:22:26.783Z</time>
      </trkpt>
      <trkpt lat="49.519279" lon="7.802166">
        <ele>340.056674</ele>
        <time>2024-08-25T18:23:14.434Z</time>
      </trkpt>
      <trkpt lat="49.520239" lon="7.801369">
        <ele>346.076069</ele>
        <time>2024-08-25T18:25:24.184Z</time>
      </trkpt>
      <trkpt lat="49.520326" lon="7.801299">
        <ele>346.617833</ele>
        <time>2024-08-25T18:25:35.535Z</time>
      </trkpt>
      <trkpt lat="49.520821" lon="7.801043">
        <ele>348.815440</ele>
        <time>2024-08-25T18:26:35.023Z</time>
      </trkpt>
      <trkpt lat="49.521707" lon="7.800782">
        <ele>351.983728</ele>
        <time>2024-08-25T18:28:16.137Z</time>
      </trkpt>
      <trkpt lat="49.525675" lon="7.803746">
        <ele>365.145306</ele>
        <time>2024-08-25T18:36:23.424Z</time>
      </trkpt>
      <trkpt lat="49.526661" lon="7.804388">
        <ele>367.612370</ele>
        <time>2024-08-25T18:38:19.121Z</time>
      </trkpt>
      <trkpt lat="49.527562" lon="7.805025">
        <ele>369.784707</ele>
        <time>2024-08-25T18:40:05.139Z</time>
      </trkpt>
      <trkpt lat="49.528208" lon="7.806537">
        <ele>372.238650</ele>
        <time>2024-08-25T18:42:12.037Z</time>
      </trkpt>
      <trkpt lat="49.528505" lon="7.807232">
        <ele>372.810417</ele>
        <time>2024-08-25T18:43:10.129Z</time>
      </trkpt>
      <trkpt lat="49.528544" lon="7.807256">
        <ele>372.844612</ele>
        <time>2024-08-25T18:43:14.491Z</time>
      </trkpt>
      <trkpt lat="49.528707" lon="7.807359">
        <ele>372.988062</ele>
        <time>2024-08-25T18:43:32.911Z</time>
      </trkpt>
      <trkpt lat="49.528911" lon="7.807489">
        <ele>373.167814</ele>
        <time>2024-08-25T18:43:55.279Z</time>
      </trkpt>
      <trkpt lat="49.528885" lon="7.807800">
        <ele>373.333533</ele>
        <time>2024-08-25T18:44:16.016Z</time>
      </trkpt>
      <trkpt lat="49.528911" lon="7.807489">
        <ele>373.499252</ele>
        <time>2024-08-25T18:44:36.623Z</time>
      </trkpt>
      <trkpt lat="49.529045" lon="7.807568">
        <ele>373.616075</ele>
        <time>2024-08-25T18:44:51.274Z</time>
      </trkpt>
      <trkpt lat="49.529224" lon="7.807465">
        <ele>373.771657</ele>
        <time>2024-08-25T18:45:10.595Z</time>
      </trkpt>
      <trkpt lat="49.529278" lon="7.807396">
        <ele>373.828780</ele>
        <time>2024-08-25T18:45:17.652Z</time>
      </trkpt>
      <trkpt lat="49.529327" lon="7.807130">
        <ele>373.903005</ele>
        <time>2024-08-25T18:45:35.724Z</time>
      </trkpt>
      <trkpt lat="49.529393" lon="7.806419">
        <ele>373.789879</ele>
        <time>2024-08-25T18:46:23.204Z</time>
      </trkpt>
      <trkpt lat="49.529516" lon="7.806114">
        <ele>373.733322</ele>
        <time>2024-08-25T18:46:46.831Z</time>
      </trkpt>
      <trkpt lat="49.530118" lon="7.805949">
        <ele>373.584943</ele>
        <time>2024-08-25T18:47:48.336Z</time>
      </trkpt>
      <trkpt lat="49.530738" lon="7.806625">
        <ele>373.172729</ele>
        <time>2024-08-25T18:49:06.008Z</time>
      </trkpt>
      <trkpt lat="49.531020" lon="7.806714">
        <ele>372.909716</ele>
        <time>2024-08-25T18:49:35.486Z</time>
      </trkpt>
      <trkpt lat="49.531158" lon="7.806651">
        <ele>372.778208</ele>
        <time>2024-08-25T18:49:50.264Z</time>
      </trkpt>
      <trkpt lat="49.531292" lon="7.806539">
        <ele>372.638917</ele>
        <time>2024-08-25T18:50:06.004Z</time>
      </trkpt>
      <trkpt lat="49.531385" lon="7.806384">
        <ele>372.513739</ele>
        <time>2024-08-25T18:50:19.895Z</time>
      </trkpt>
      <trkpt lat="49.531444" lon="7.806127">
        <ele>372.352080</ele>
        <time>2024-08-25T18:50:37.851Z</time>
      </trkpt>
      <trkpt lat="49.531732" lon="7.805873">
        <ele>372.048875</ele>
        <time>2024-08-25T18:51:11.570Z</time>
      </trkpt>
      <trkpt lat="49.531807" lon="7.805758">
        <ele>371.952196</ele>
        <time>2024-08-25T18:51:22.368Z</time>
      </trkpt>
      <trkpt lat="49.531864" lon="7.805619">
        <ele>371.854692</ele>
        <time>2024-08-25T18:51:33.163Z</time>
      </trkpt>
      <trkpt lat="49.531847" lon="7.805264">
        <ele>372.030614</ele>
        <time>2024-08-25T18:51:56.696Z</time>
      </trkpt>
      <trkpt lat="49.531893" lon="7.805037">
        <ele>372.168014</ele>
        <time>2024-08-25T18:52:12.390Z</time>
      </trkpt>
      <trkpt lat="49.531946" lon="7.804871">
        <ele>372.274902</ele>
        <time>2024-08-25T18:52:24.510Z</time>
      </trkpt>
      <trkpt lat="49.532018" lon="7.804818">
        <ele>372.345938</ele>
        <time>2024-08-25T18:52:32.556Z</time>
      </trkpt>
      <trkpt lat="49.532103" lon="7.804820">
        <ele>372.421616</ele>
        <time>2024-08-25T18:52:41.130Z</time>
      </trkpt>
      <trkpt lat="49.532778" lon="7.805239">
        <ele>373.069449</ele>
        <time>2024-08-25T18:53:56.587Z</time>
      </trkpt>
      <trkpt lat="49.533075" lon="7.805163">
        <ele>373.337467</ele>
        <time>2024-08-25T18:54:29.961Z</time>
      </trkpt>
      <trkpt lat="49.533273" lon="7.805302">
        <ele>373.591066</ele>
        <time>2024-08-25T18:54:54.154Z</time>
      </trkpt>
      <trkpt lat="49.533783" lon="7.806533">
        <ele>374.994305</ele>
        <time>2024-08-25T18:56:37.870Z</time>
      </trkpt>
      <trkpt lat="49.534014" lon="7.806774">
        <ele>375.407315</ele>
        <time>2024-08-25T18:57:06.733Z</time>
      </trkpt>
      <trkpt lat="49.535002" lon="7.806711">
        <ele>375.910173</ele>
        <time>2024-08-25T18:58:47.086Z</time>
      </trkpt>
      <trkpt lat="49.535840" lon="7.806137">
        <ele>375.567919</ele>
        <time>2024-08-25T19:00:20.701Z</time>
      </trkpt>
      <trkpt lat="49.535966" lon="7.806051">
        <ele>375.516488</ele>
        <time>2024-08-25T19:00:34.542Z</time>
      </trkpt>
      <trkpt lat="49.536163" lon="7.806051">
        <ele>375.442966</ele>
        <time>2024-08-25T19:00:54.716Z</time>
      </trkpt>
      <trkpt lat="49.536839" lon="7.806419">
        <ele>375.420022</ele>
        <time>2024-08-25T19:02:09.316Z</time>
      </trkpt>
      <trkpt lat="49.536902" lon="7.806517">
        <ele>375.418411</ele>
        <time>2024-08-25T19:02:18.675Z</time>
      </trkpt>
      <trkpt lat="49.536863" lon="7.806724">
        <ele>375.415895</ele>
        <time>2024-08-25T19:02:33.214Z</time>
      </trkpt>
      <trkpt lat="49.536559" lon="7.807130">
        <ele>375.408658</ele>
        <time>2024-08-25T19:03:14.251Z</time>
      </trkpt>
      <trkpt lat="49.536476" lon="7.807422">
        <ele>375.404936</ele>
        <time>2024-08-25T19:03:35.025Z</time>
      </trkpt>
      <trkpt lat="49.536213" lon="7.807955">
        <ele>374.860236</ele>
        <time>2024-08-25T19:04:19.881Z</time>
      </trkpt>
      <trkpt lat="49.536213" lon="7.809338">
        <ele>371.889896</ele>
        <time>2024-08-25T19:05:57.092Z</time>
      </trkpt>
      <trkpt lat="49.536312" lon="7.809909">
        <ele>370.620518</ele>
        <time>2024-08-25T19:06:39.127Z</time>
      </trkpt>
      <trkpt lat="49.536402" lon="7.810645">
        <ele>369.591467</ele>
        <time>2024-08-25T19:07:31.531Z</time>
      </trkpt>
      <trkpt lat="49.536312" lon="7.810975">
        <ele>369.845686</ele>
        <time>2024-08-25T19:07:55.791Z</time>
      </trkpt>
      <trkpt lat="49.536163" lon="7.811077">
        <ele>370.024111</ele>
        <time>2024-08-25T19:08:12.535Z</time>
      </trkpt>
      <trkpt lat="49.535793" lon="7.810632">
        <ele>370.537757</ele>
        <time>2024-08-25T19:09:00.004Z</time>
      </trkpt>
      <trkpt lat="49.535669" lon="7.810010">
        <ele>370.999876</ele>
        <time>2024-08-25T19:09:46.560Z</time>
      </trkpt>
      <trkpt lat="49.535004" lon="7.809169">
        <ele>372.352116</ele>
        <time>2024-08-25T19:11:29.968Z</time>
      </trkpt>
      <trkpt lat="49.534200" lon="7.808546">
        <ele>374.106742</ele>
        <time>2024-08-25T19:13:07.783Z</time>
      </trkpt>
      <trkpt lat="49.533946" lon="7.808569">
        <ele>374.602825</ele>
        <time>2024-08-25T19:13:33.598Z</time>
      </trkpt>
      <trkpt lat="49.533708" lon="7.808927">
        <ele>373.945417</ele>
        <time>2024-08-25T19:14:08.477Z</time>
      </trkpt>
      <trkpt lat="49.534023" lon="7.810155">
        <ele>368.977432</ele>
        <time>2024-08-25T19:15:43.125Z</time>
      </trkpt>
      <trkpt lat="49.534246" lon="7.810723">
        <ele>366.479813</ele>
        <time>2024-08-25T19:16:33.028Z</time>
      </trkpt>
      <trkpt lat="49.534303" lon="7.810978">
        <ele>365.465104</ele>
        <time>2024-08-25T19:16:53.548Z</time>
      </trkpt>
      <trkpt lat="49.534182" lon="7.811664">
        <ele>362.153795</ele>
        <time>2024-08-25T19:17:48.223Z</time>
      </trkpt>
      <trkpt lat="49.534532" lon="7.812967">
        <ele>354.866880</ele>
        <time>2024-08-25T19:19:34.283Z</time>
      </trkpt>
      <trkpt lat="49.534875" lon="7.813888">
        <ele>349.544944</ele>
        <time>2024-08-25T19:20:53.775Z</time>
      </trkpt>
      <trkpt lat="49.534948" lon="7.814172">
        <ele>348.294302</ele>
        <time>2024-08-25T19:21:16.412Z</time>
      </trkpt>
      <trkpt lat="49.535250" lon="7.815348">
        <ele>343.116259</ele>
        <time>2024-08-25T19:22:49.732Z</time>
      </trkpt>
      <trkpt lat="49.535259" lon="7.815510">
        <ele>342.450573</ele>
        <time>2024-08-25T19:23:01.605Z</time>
      </trkpt>
      <trkpt lat="49.535359" lon="7.817507">
        <ele>335.786336</ele>
        <time>2024-08-25T19:25:24.834Z</time>
      </trkpt>
      <trkpt lat="49.535372" lon="7.817772">
        <ele>335.063427</ele>
        <time>2024-08-25T19:25:43.674Z</time>
      </trkpt>
      <trkpt lat="49.536551" lon="7.819419">
        <ele>329.196705</ele>
        <time>2024-08-25T19:28:34.201Z</time>
      </trkpt>
      <trkpt lat="49.536910" lon="7.820207">
        <ele>327.304610</ele>
        <time>2024-08-25T19:29:41.007Z</time>
      </trkpt>
      <trkpt lat="49.537212" lon="7.820944">
        <ele>325.816297</ele>
        <time>2024-08-25T19:30:40.636Z</time>
      </trkpt>
      <trkpt lat="49.537426" lon="7.822743">
        <ele>325.449321</ele>
        <time>2024-08-25T19:32:42.196Z</time>
      </trkpt>
      <trkpt lat="49.537288" lon="7.822867">
        <ele>325.399930</ele>
        <time>2024-08-25T19:32:58.906Z</time>
      </trkpt>
      <trkpt lat="49.537167" lon="7.823036">
        <ele>325.349438</ele>
        <time>2024-08-25T19:33:15.557Z</time>
      </trkpt>
      <trkpt lat="49.537029" lon="7.823356">
        <ele>325.555919</ele>
        <time>2024-08-25T19:33:42.386Z</time>
      </trkpt>
      <trkpt lat="49.536898" lon="7.823742">
        <ele>327.320990</ele>
        <time>2024-08-25T19:34:13.586Z</time>
      </trkpt>
      <trkpt lat="49.536741" lon="7.823615">
        <ele>328.428160</ele>
        <time>2024-08-25T19:34:33.823Z</time>
      </trkpt>
      <trkpt lat="49.536433" lon="7.823174">
        <ele>331.053380</ele>
        <time>2024-08-25T19:35:23.932Z</time>
      </trkpt>
      <trkpt lat="49.535834" lon="7.822507">
        <ele>335.667889</ele>
        <time>2024-08-25T19:36:57.393Z</time>
      </trkpt>
      <trkpt lat="49.534988" lon="7.820895">
        <ele>350.095044</ele>
        <time>2024-08-25T19:40:02.861Z</time>
      </trkpt>
      <trkpt lat="49.534546" lon="7.819859">
        <ele>358.551025</ele>
        <time>2024-08-25T19:42:00.148Z</time>
      </trkpt>
      <trkpt lat="49.533966" lon="7.819202">
        <ele>364.704926</ele>
        <time>2024-08-25T19:43:37.733Z</time>
      </trkpt>
      <trkpt lat="49.533328" lon="7.818313">
        <ele>372.058423</ele>
        <time>2024-08-25T19:45:25.933Z</time>
      </trkpt>
      <trkpt lat="49.532776" lon="7.816086">
        <ele>372.109349</ele>
        <time>2024-08-25T19:48:02.315Z</time>
      </trkpt>
      <trkpt lat="49.530793" lon="7.816830">
        <ele>363.457749</ele>
        <time>2024-08-25T19:51:49.443Z</time>
      </trkpt>
      <trkpt lat="49.530607" lon="7.816978">
        <ele>363.119673</ele>
        <time>2024-08-25T19:52:11.956Z</time>
      </trkpt>
      <trkpt lat="49.530477" lon="7.817048">
        <ele>362.924943</ele>
        <time>2024-08-25T19:52:26.697Z</time>
      </trkpt>
      <trkpt lat="49.530063" lon="7.817065">
        <ele>362.339317</ele>
        <time>2024-08-25T19:53:09.980Z</time>
      </trkpt>
      <trkpt lat="49.528420" lon="7.816228">
        <ele>359.360842</ele>
        <time>2024-08-25T19:56:03.962Z</time>
      </trkpt>
      <trkpt lat="49.527960" lon="7.815799">
        <ele>358.180704</ele>
        <time>2024-08-25T19:56:59.817Z</time>
      </trkpt>
      <trkpt lat="49.527783" lon="7.815491">
        <ele>357.594683</ele>
        <time>2024-08-25T19:57:28.372Z</time>
      </trkpt>
      <trkpt lat="49.527126" lon="7.814900">
        <ele>353.504022</ele>
        <time>2024-08-25T19:58:53.200Z</time>
      </trkpt>
      <trkpt lat="49.526606" lon="7.814613">
        <ele>349.304570</ele>
        <time>2024-08-25T19:59:57.703Z</time>
      </trkpt>
      <trkpt lat="49.525852" lon="7.814409">
        <ele>343.484392</ele>
        <time>2024-08-25T20:01:27.841Z</time>
      </trkpt>
      <trkpt lat="49.525431" lon="7.813954">
        <ele>339.906170</ele>
        <time>2024-08-25T20:02:27.614Z</time>
      </trkpt>
      <trkpt lat="49.525164" lon="7.814094">
        <ele>337.956251</ele>
        <time>2024-08-25T20:02:59.965Z</time>
      </trkpt>
      <trkpt lat="49.524482" lon="7.814319">
        <ele>333.134274</ele>
        <time>2024-08-25T20:04:18.932Z</time>
      </trkpt>
      <trkpt lat="49.523906" lon="7.814672">
        <ele>329.184908</ele>
        <time>2024-08-25T20:05:27.860Z</time>
      </trkpt>
      <trkpt lat="49.523251" lon="7.814973">
        <ele>325.274853</ele>
        <time>2024-08-25T20:06:43.170Z</time>
      </trkpt>
      <trkpt lat="49.522608" lon="7.814973">
        <ele>321.596602</ele>
        <time>2024-08-25T20:07:55.035Z</time>
      </trkpt>
      <trkpt lat="49.522405" lon="7.815076">
        <ele>320.351749</ele>
        <time>2024-08-25T20:08:19.330Z</time>
      </trkpt>
      <trkpt lat="49.522144" lon="7.815252">
        <ele>318.452983</ele>
        <time>2024-08-25T20:08:51.859Z</time>
      </trkpt>
      <trkpt lat="49.522057" lon="7.815366">
        <ele>317.691792</ele>
        <time>2024-08-25T20:09:04.948Z</time>
      </trkpt>
      <trkpt lat="49.521977" lon="7.815574">
        <ele>316.645848</ele>
        <time>2024-08-25T20:09:22.744Z</time>
      </trkpt>
      <trkpt lat="49.521730" lon="7.816050">
        <ele>314.009486</ele>
        <time>2024-08-25T20:10:07.756Z</time>
      </trkpt>
      <trkpt lat="49.521471" lon="7.816417">
        <ele>311.664213</ele>
        <time>2024-08-25T20:10:47.856Z</time>
      </trkpt>
      <trkpt lat="49.520988" lon="7.816763">
        <ele>308.197326</ele>
        <time>2024-08-25T20:11:48.302Z</time>
      </trkpt>
      <trkpt lat="49.520820" lon="7.816802">
        <ele>307.295829</ele>
        <time>2024-08-25T20:12:07.427Z</time>
      </trkpt>
      <trkpt lat="49.520743" lon="7.816784">
        <ele>306.882578</ele>
        <time>2024-08-25T20:12:16.162Z</time>
      </trkpt>
      <trkpt lat="49.520326" lon="7.818028">
        <ele>302.059926</ele>
        <time>2024-08-25T20:13:57.821Z</time>
      </trkpt>
      <trkpt lat="49.519988" lon="7.819503">
        <ele>297.622799</ele>
        <time>2024-08-25T20:15:47.564Z</time>
      </trkpt>
      <trkpt lat="49.519887" lon="7.820096">
        <ele>296.381827</ele>
        <time>2024-08-25T20:16:29.886Z</time>
      </trkpt>
      <trkpt lat="49.519795" lon="7.820839">
        <ele>294.850734</ele>
        <time>2024-08-25T20:17:22.081Z</time>
      </trkpt>
      <trkpt lat="49.519973" lon="7.821936">
        <ele>292.802772</ele>
        <time>2024-08-25T20:18:39.292Z</time>
      </trkpt>
      <trkpt lat="49.520219" lon="7.823076">
        <ele>291.096226</ele>
        <time>2024-08-25T20:20:00.602Z</time>
      </trkpt>
      <trkpt lat="49.520552" lon="7.824622">
        <ele>288.897118</ele>
        <time>2024-08-25T20:21:51.373Z</time>
      </trkpt>
      <trkpt lat="49.520363" lon="7.826719">
        <ele>286.419496</ele>
        <time>2024-08-25T20:24:13.759Z</time>
      </trkpt>
      <trkpt lat="49.519962" lon="7.826847">
        <ele>286.123314</ele>
        <time>2024-08-25T20:24:56.337Z</time>
      </trkpt>
      <trkpt lat="49.519874" lon="7.826900">
        <ele>286.100579</ele>
        <time>2024-08-25T20:25:06.147Z</time>
      </trkpt>
      <trkpt lat="49.519774" lon="7.827065">
        <ele>286.065321</ele>
        <time>2024-08-25T20:25:21.115Z</time>
      </trkpt>
      <trkpt lat="49.519716" lon="7.827290">
        <ele>286.027506</ele>
        <time>2024-08-25T20:25:37.138Z</time>
      </trkpt>
      <trkpt lat="49.519555" lon="7.828396">
        <ele>285.850458</ele>
        <time>2024-08-25T20:26:50.819Z</time>
      </trkpt>
      <trkpt lat="49.519483" lon="7.828549">
        <ele>285.820940</ele>
        <time>2024-08-25T20:27:03.472Z</time>
      </trkpt>
      <trkpt lat="49.519235" lon="7.828563">
        <ele>285.761229</ele>
        <time>2024-08-25T20:27:29.291Z</time>
      </trkpt>
      <trkpt lat="49.518708" lon="7.829085">
        <ele>287.071536</ele>
        <time>2024-08-25T20:28:35.879Z</time>
      </trkpt>
      <trkpt lat="49.517912" lon="7.827846">
        <ele>289.484374</ele>
        <time>2024-08-25T20:30:38.817Z</time>
      </trkpt>
      <trkpt lat="49.516843" lon="7.826529">
        <ele>292.834471</ele>
        <time>2024-08-25T20:33:10.487Z</time>
      </trkpt>
      <trkpt lat="49.516309" lon="7.826323">
        <ele>294.025324</ele>
        <time>2024-08-25T20:34:08.914Z</time>
      </trkpt>
      <trkpt lat="49.515597" lon="7.826370">
        <ele>294.105139</ele>
        <time>2024-08-25T20:35:20.987Z</time>
      </trkpt>
      <trkpt lat="49.515597" lon="7.826305">
        <ele>294.109865</ele>
        <time>2024-08-25T20:35:25.339Z</time>
      </trkpt>
      <trkpt lat="49.516114" lon="7.825735">
        <ele>294.181073</ele>
        <time>2024-08-25T20:36:29.066Z</time>
      </trkpt>
      <trkpt lat="49.516517" lon="7.825723">
        <ele>294.179387</ele>
        <time>2024-08-25T20:37:09.817Z</time>
      </trkpt>
      <trkpt lat="49.516509" lon="7.825301">
        <ele>294.011313</ele>
        <time>2024-08-25T20:37:38.147Z</time>
      </trkpt>
      <trkpt lat="49.516047" lon="7.823842">
        <ele>293.365062</ele>
        <time>2024-08-25T20:39:26.739Z</time>
      </trkpt>
      <trkpt lat="49.515642" lon="7.823012">
        <ele>293.614678</ele>
        <time>2024-08-25T20:40:35.893Z</time>
      </trkpt>
      <trkpt lat="49.513857" lon="7.820674">
        <ele>298.251166</ele>
        <time>2024-08-25T20:44:49.093Z</time>
      </trkpt>
      <trkpt lat="49.512887" lon="7.819943">
        <ele>300.488048</ele>
        <time>2024-08-25T20:46:46.484Z</time>
      </trkpt>
      <trkpt lat="49.511889" lon="7.818690">
        <ele>301.394413</ele>
        <time>2024-08-25T20:48:59.841Z</time>
      </trkpt>
      <trkpt lat="49.511439" lon="7.818195">
        <ele>301.610793</ele>
        <time>2024-08-25T20:49:56.118Z</time>
      </trkpt>
      <trkpt lat="49.510686" lon="7.817364">
        <ele>301.082692</ele>
        <time>2024-08-25T20:51:30.820Z</time>
      </trkpt>
      <trkpt lat="49.510360" lon="7.817135">
        <ele>300.878426</ele>
        <time>2024-08-25T20:52:07.123Z</time>
      </trkpt>
      <trkpt lat="49.509618" lon="7.816424">
        <ele>301.295012</ele>
        <time>2024-08-25T20:53:34.770Z</time>
      </trkpt>
      <trkpt lat="49.509422" lon="7.816238">
        <ele>301.588689</ele>
        <time>2024-08-25T20:53:58.863Z</time>
      </trkpt>
      <trkpt lat="49.508401" lon="7.815308">
        <ele>303.193506</ele>
        <time>2024-08-25T20:56:05.829Z</time>
      </trkpt>
      <trkpt lat="49.508100" lon="7.815114">
        <ele>303.873405</ele>
        <time>2024-08-25T20:56:41.365Z</time>
      </trkpt>
      <trkpt lat="49.507900" lon="7.814988">
        <ele>304.323664</ele>
        <time>2024-08-25T20:57:04.708Z</time>
      </trkpt>
      <trkpt lat="49.506847" lon="7.814395">
        <ele>306.659883</ele>
        <time>2024-08-25T20:59:05.556Z</time>
      </trkpt>
      <trkpt lat="49.506417" lon="7.813731">
        <ele>307.562073</ele>
        <time>2024-08-25T21:00:09.892Z</time>
      </trkpt>
      <trkpt lat="49.505993" lon="7.812959">
        <ele>308.520262</ele>
        <time>2024-08-25T21:01:17.454Z</time>
      </trkpt>
      <trkpt lat="49.505574" lon="7.812112">
        <ele>309.700718</ele>
        <time>2024-08-25T21:02:30.729Z</time>
      </trkpt>
      <trkpt lat="49.505529" lon="7.811620">
        <ele>310.576207</ele>
        <time>2024-08-25T21:03:05.620Z</time>
      </trkpt>
      <trkpt lat="49.505584" lon="7.811361">
        <ele>311.056362</ele>
        <time>2024-08-25T21:03:24.526Z</time>
      </trkpt>
      <trkpt lat="49.505917" lon="7.811090">
        <ele>312.078363</ele>
        <time>2024-08-25T21:04:05.776Z</time>
      </trkpt>
      <trkpt lat="49.506009" lon="7.810962">
        <ele>312.414798</ele>
        <time>2024-08-25T21:04:19.650Z</time>
      </trkpt>
      <trkpt lat="49.506198" lon="7.810305">
        <ele>313.680966</ele>
        <time>2024-08-25T21:05:11.272Z</time>
      </trkpt>
      <trkpt lat="49.506040" lon="7.808519">
        <ele>317.525148</ele>
        <time>2024-08-25T21:07:23.917Z</time>
      </trkpt>
      <trkpt lat="49.505642" lon="7.805159">
        <ele>324.408083</ele>
        <time>2024-08-25T21:11:29.804Z</time>
      </trkpt>
      <trkpt lat="49.505530" lon="7.803898">
        <ele>326.390102</ele>
        <time>2024-08-25T21:13:00.234Z</time>
      </trkpt>
      <trkpt lat="49.505571" lon="7.802769">
        <ele>327.778071</ele>
        <time>2024-08-25T21:14:18.468Z</time>
      </trkpt>
      <trkpt lat="49.505247" lon="7.801529">
        <ele>329.291528</ele>
        <time>2024-08-25T21:15:49.856Z</time>
      </trkpt>
      <trkpt lat="49.504928" lon="7.800919">
        <ele>329.966727</ele>
        <time>2024-08-25T21:16:42.516Z</time>
      </trkpt>
      <trkpt lat="49.504664" lon="7.799712">
        <ele>331.064720</ele>
        <time>2024-08-25T21:18:08.139Z</time>
      </trkpt>
      <trkpt lat="49.504295" lon="7.797856">
        <ele>333.414460</ele>
        <time>2024-08-25T21:20:24.180Z</time>
      </trkpt>
      <trkpt lat="49.504795" lon="7.797569">
        <ele>334.475458</ele>
        <time>2024-08-25T21:21:21.812Z</time>
      </trkpt>
      <trkpt lat="49.505071" lon="7.797512">
        <ele>334.937194</ele>
        <time>2024-08-25T21:21:51.494Z</time>
      </trkpt>
      <trkpt lat="49.505702" lon="7.797807">
        <ele>334.609461</ele>
        <time>2024-08-25T21:23:00.985Z</time>
      </trkpt>
      <trkpt lat="49.505943" lon="7.798111">
        <ele>334.454634</ele>
        <time>2024-08-25T21:23:32.371Z</time>
      </trkpt>
      <trkpt lat="49.506253" lon="7.798284">
        <ele>334.290763</ele>
        <time>2024-08-25T21:24:06.134Z</time>
      </trkpt>
      <trkpt lat="49.506608" lon="7.798165">
        <ele>334.110201</ele>
        <time>2024-08-25T21:24:44.496Z</time>
      </trkpt>
      <trkpt lat="49.506676" lon="7.797970">
        <ele>333.828040</ele>
        <time>2024-08-25T21:24:59.871Z</time>
      </trkpt>
      <trkpt lat="49.506690" lon="7.797831">
        <ele>333.365086</ele>
        <time>2024-08-25T21:25:09.662Z</time>
      </trkpt>
      <trkpt lat="49.506451" lon="7.797131">
        <ele>330.762157</ele>
        <time>2024-08-25T21:26:05.971Z</time>
      </trkpt>
      <trkpt lat="49.506262" lon="7.795767">
        <ele>326.171801</ele>
        <time>2024-08-25T21:27:47.316Z</time>
      </trkpt>
      <trkpt lat="49.506272" lon="7.794964">
        <ele>323.397783</ele>
        <time>2024-08-25T21:28:45.712Z</time>
      </trkpt>
      <trkpt lat="49.506252" lon="7.794439">
        <ele>321.507306</ele>
        <time>2024-08-25T21:29:23.651Z</time>
      </trkpt>
      <trkpt lat="49.506306" lon="7.794221">
        <ele>320.668576</ele>
        <time>2024-08-25T21:29:40.516Z</time>
      </trkpt>
      <trkpt lat="49.506508" lon="7.793860">
        <ele>318.955558</ele>
        <time>2024-08-25T21:30:14.887Z</time>
      </trkpt>
      <trkpt lat="49.506850" lon="7.793451">
        <ele>316.558498</ele>
        <time>2024-08-25T21:31:03.351Z</time>
      </trkpt>
      <trkpt lat="49.506882" lon="7.792469">
        <ele>313.331468</ele>
        <time>2024-08-25T21:32:14.063Z</time>
      </trkpt>
      <trkpt lat="49.506589" lon="7.791739">
        <ele>310.729262</ele>
        <time>2024-08-25T21:33:14.721Z</time>
      </trkpt>
      <trkpt lat="49.506328" lon="7.790965">
        <ele>308.084753</ele>
        <time>2024-08-25T21:34:16.753Z</time>
      </trkpt>
      <trkpt lat="49.506119" lon="7.790428">
        <ele>306.294324</ele>
        <time>2024-08-25T21:35:01.225Z</time>
      </trkpt>
      <trkpt lat="49.506014" lon="7.789630">
        <ele>304.486218</ele>
        <time>2024-08-25T21:35:58.633Z</time>
      </trkpt>
      <trkpt lat="49.506114" lon="7.788554">
        <ele>302.072432</ele>
        <time>2024-08-25T21:37:13.525Z</time>
      </trkpt>
      <trkpt lat="49.506315" lon="7.788019">
        <ele>300.699863</ele>
        <time>2024-08-25T21:37:56.007Z</time>
      </trkpt>
      <trkpt lat="49.506387" lon="7.787827">
        <ele>300.242189</ele>
        <time>2024-08-25T21:38:11.329Z</time>
      </trkpt>
      <trkpt lat="49.506563" lon="7.787782">
        <ele>299.723558</ele>
        <time>2024-08-25T21:38:30.397Z</time>
      </trkpt>
      <trkpt lat="49.506968" lon="7.788411">
        <ele>298.051472</ele>
        <time>2024-08-25T21:39:31.340Z</time>
      </trkpt>
      <trkpt lat="49.507077" lon="7.788354">
        <ele>297.716842</ele>
        <time>2024-08-25T21:39:43.615Z</time>
      </trkpt>
      <trkpt lat="49.506762" lon="7.787380">
        <ele>295.662850</ele>
        <time>2024-08-25T21:40:58.489Z</time>
      </trkpt>
      <trkpt lat="49.506941" lon="7.786731">
        <ele>294.137354</ele>
        <time>2024-08-25T21:41:46.962Z</time>
      </trkpt>
      <trkpt lat="49.507148" lon="7.786606">
        <ele>293.347895</ele>
        <time>2024-08-25T21:42:10.580Z</time>
      </trkpt>
      <trkpt lat="49.507269" lon="7.786493">
        <ele>292.845448</ele>
        <time>2024-08-25T21:42:25.778Z</time>
      </trkpt>
      <trkpt lat="49.507384" lon="7.786303">
        <ele>292.246598</ele>
        <time>2024-08-25T21:42:43.907Z</time>
      </trkpt>
      <trkpt lat="49.507424" lon="7.786123">
        <ele>291.807964</ele>
        <time>2024-08-25T21:42:57.257Z</time>
      </trkpt>
      <trkpt lat="49.507449" lon="7.785568">
        <ele>290.525292</ele>
        <time>2024-08-25T21:43:36.192Z</time>
      </trkpt>
      <trkpt lat="49.507440" lon="7.785269">
        <ele>289.835184</ele>
        <time>2024-08-25T21:43:57.117Z</time>
      </trkpt>
      <trkpt lat="49.507421" lon="7.784895">
        <ele>288.970262</ele>
        <time>2024-08-25T21:44:23.540Z</time>
      </trkpt>
      <trkpt lat="49.507365" lon="7.784610">
        <ele>288.439015</ele>
        <time>2024-08-25T21:44:44.823Z</time>
      </trkpt>
      <trkpt lat="49.507351" lon="7.784252">
        <ele>287.849800</ele>
        <time>2024-08-25T21:45:10.235Z</time>
      </trkpt>
      <trkpt lat="49.507449" lon="7.783158">
        <ele>286.035477</ele>
        <time>2024-08-25T21:46:25.840Z</time>
      </trkpt>
      <trkpt lat="49.507561" lon="7.782744">
        <ele>285.298662</ele>
        <time>2024-08-25T21:46:55.841Z</time>
      </trkpt>
      <trkpt lat="49.507662" lon="7.782534">
        <ele>284.869334</ele>
        <time>2024-08-25T21:47:13.679Z</time>
      </trkpt>
      <trkpt lat="49.507865" lon="7.782116">
        <ele>284.224283</ele>
        <time>2024-08-25T21:47:48.473Z</time>
      </trkpt>
      <trkpt lat="49.507816" lon="7.782059">
        <ele>284.195154</ele>
        <time>2024-08-25T21:47:54.769Z</time>
      </trkpt>
      <trkpt lat="49.507463" lon="7.781645">
        <ele>283.984681</ele>
        <time>2024-08-25T21:48:39.681Z</time>
      </trkpt>
      <trkpt lat="49.507692" lon="7.780776">
        <ele>283.695812</ele>
        <time>2024-08-25T21:49:41.098Z</time>
      </trkpt>
      <trkpt lat="49.507958" lon="7.779629">
        <ele>282.904218</ele>
        <time>2024-08-25T21:51:01.871Z</time>
      </trkpt>
      <trkpt lat="49.507681" lon="7.778669">
        <ele>281.225902</ele>
        <time>2024-08-25T21:52:13.103Z</time>
      </trkpt>
      <trkpt lat="49.507481" lon="7.777710">
        <ele>279.616698</ele>
        <time>2024-08-25T21:53:23.463Z</time>
      </trkpt>
      <trkpt lat="49.507331" lon="7.777158">
        <ele>278.303518</ele>
        <time>2024-08-25T21:54:05.488Z</time>
      </trkpt>
      <trkpt lat="49.506959" lon="7.776139">
        <ele>274.439386</ele>
        <time>2024-08-25T21:55:27.826Z</time>
      </trkpt>
      <trkpt lat="49.506805" lon="7.775636">
        <ele>272.601161</ele>
        <time>2024-08-25T21:56:07.554Z</time>
      </trkpt>
      <trkpt lat="49.506413" lon="7.774681">
        <ele>268.739344</ele>
        <time>2024-08-25T21:57:31.271Z</time>
      </trkpt>
      <trkpt lat="49.505943" lon="7.773936">
        <ele>264.856643</ele>
        <time>2024-08-25T21:58:47.425Z</time>
      </trkpt>
      <trkpt lat="49.506258" lon="7.773411">
        <ele>262.184686</ele>
        <time>2024-08-25T21:59:39.059Z</time>
      </trkpt>
      <trkpt lat="49.506204" lon="7.773282">
        <ele>261.610967</ele>
        <time>2024-08-25T21:59:50.053Z</time>
      </trkpt>
      <trkpt lat="49.506045" lon="7.773074">
        <ele>260.410023</ele>
        <time>2024-08-25T22:00:13.031Z</time>
      </trkpt>
      <trkpt lat="49.505380" lon="7.772340">
        <ele>259.485037</ele>
        <time>2024-08-25T22:01:42.492Z</time>
      </trkpt>
      <trkpt lat="49.505237" lon="7.772236">
        <ele>259.485037</ele>
        <time>2024-08-25T22:01:59.335Z</time>
      </trkpt>
      <trkpt lat="49.505126" lon="7.772216">
        <ele>259.485037</ele>
        <time>2024-08-25T22:02:11.180Z</time>
      </trkpt>
      <trkpt lat="49.505111" lon="7.772222">
        <ele>259.485037</ele>
        <time>2024-08-25T22:02:12.823Z</time>
      </trkpt>
      <trkpt lat="49.505088" lon="7.772229">
        <ele>259.485037</ele>
        <time>2024-08-25T22:02:15.252Z</time>
      </trkpt>
    </trkseg>
  </trk>
</gpx>