<?xml version="1.0"?>
<gpx xmlns="http://www.topografix.com/GPX/1/1" xmlns:xsi="http://www.w3.org/2001/XMLSchema-instance" version="1.1" creator="AllTrails.com" xsi:schemaLocation="http://www.topografix.com/GPX/1/1 http://www.topografix.com/GPX/1/1/gpx.xsd">
  <metadata>
    <name><![CDATA[DVV Otterberg-Rund um den Drehenthalerhof]]></name>
    <desc><![CDATA[(PW157-2)]]></desc>
    <link href="http://www.alltrails.com">
      <text>AllTrails, LLC</text>
    </link>
    <bounds minlat="49.50432" minlon="7.77211" maxlat="49.52654" maxlon="7.82907"/>
  </metadata>
  <trk>
    <name><![CDATA[IVV PW Otterberg Rund um den Drehenthaler Hof on GPSies.com]]></name>
    <desc><![CDATA[]]></desc>
    <src>AllTrails</src>
    <trkseg>
      <trkpt lat="49.50455" lon="7.77211">
        <ele>253.77</ele>
      </trkpt>
      <trkpt lat="49.50501" lon="7.77232">
        <ele>252.97</ele>
      </trkpt>
      <trkpt lat="49.50543" lon="7.77259">
        <ele>249.03</ele>
      </trkpt>
      <trkpt lat="49.50577" lon="7.77291">
        <ele>249.13</ele>
      </trkpt>
      <trkpt lat="49.50615" lon="7.7735">
        <ele>256.59</ele>
      </trkpt>
      <trkpt lat="49.50604" lon="7.77365">
        <ele>256.65</ele>
      </trkpt>
      <trkpt lat="49.50594" lon="7.77384">
        <ele>257.62</ele>
      </trkpt>
      <trkpt lat="49.5059" lon="7.77399">
        <ele>258.74</ele>
      </trkpt>
      <trkpt lat="49.50636" lon="7.77469">
        <ele>257.74</ele>
      </trkpt>
      <trkpt lat="49.50637" lon="7.77469">
        <ele>257.36</ele>
      </trkpt>
      <trkpt lat="49.50666" lon="7.77531">
        <ele>269.47</ele>
      </trkpt>
      <trkpt lat="49.50688" lon="7.77588">
        <ele>265.46</ele>
      </trkpt>
      <trkpt lat="49.50716" lon="7.77652">
        <ele>263.88</ele>
      </trkpt>
      <trkpt lat="49.50716" lon="7.77651">
        <ele>263.78</ele>
      </trkpt>
      <trkpt lat="49.50732" lon="7.77721">
        <ele>270.77</ele>
      </trkpt>
      <trkpt lat="49.50755" lon="7.77788">
        <ele>277.04</ele>
      </trkpt>
      <trkpt lat="49.50776" lon="7.77856">
        <ele>275.27</ele>
      </trkpt>
      <trkpt lat="49.50783" lon="7.77932">
        <ele>275.88</ele>
      </trkpt>
      <trkpt lat="49.50783" lon="7.77931">
        <ele>275.85</ele>
      </trkpt>
      <trkpt lat="49.50785" lon="7.77972">
        <ele>280.19</ele>
      </trkpt>
      <trkpt lat="49.50775" lon="7.7803">
        <ele>278.29</ele>
      </trkpt>
      <trkpt lat="49.50772" lon="7.78067">
        <ele>273.99</ele>
      </trkpt>
      <trkpt lat="49.50758" lon="7.78133">
        <ele>277.13</ele>
      </trkpt>
      <trkpt lat="49.50745" lon="7.78163">
        <ele>285.8</ele>
      </trkpt>
      <trkpt lat="49.50753" lon="7.78171">
        <ele>281.75</ele>
      </trkpt>
      <trkpt lat="49.50765" lon="7.78187">
        <ele>280.05</ele>
      </trkpt>
      <trkpt lat="49.50777" lon="7.78208">
        <ele>273.3</ele>
      </trkpt>
      <trkpt lat="49.50786" lon="7.78214">
        <ele>274.13</ele>
      </trkpt>
      <trkpt lat="49.5079" lon="7.7822">
        <ele>275.06</ele>
      </trkpt>
      <trkpt lat="49.50807" lon="7.7821">
        <ele>276.75</ele>
      </trkpt>
      <trkpt lat="49.50837" lon="7.78156">
        <ele>273.68</ele>
      </trkpt>
      <trkpt lat="49.50873" lon="7.78142">
        <ele>280.29</ele>
      </trkpt>
      <trkpt lat="49.50901" lon="7.7815">
        <ele>283.95</ele>
      </trkpt>
      <trkpt lat="49.50932" lon="7.78175">
        <ele>289.25</ele>
      </trkpt>
      <trkpt lat="49.50965" lon="7.78227">
        <ele>296.73</ele>
      </trkpt>
      <trkpt lat="49.51022" lon="7.78375">
        <ele>296.96</ele>
      </trkpt>
      <trkpt lat="49.51063" lon="7.78493">
        <ele>307.39</ele>
      </trkpt>
      <trkpt lat="49.51086" lon="7.7856">
        <ele>308.7</ele>
      </trkpt>
      <trkpt lat="49.51106" lon="7.7862">
        <ele>316.05</ele>
      </trkpt>
      <trkpt lat="49.51106" lon="7.78621">
        <ele>316.13</ele>
      </trkpt>
      <trkpt lat="49.51148" lon="7.78742">
        <ele>323.06</ele>
      </trkpt>
      <trkpt lat="49.51206" lon="7.78872">
        <ele>326.69</ele>
      </trkpt>
      <trkpt lat="49.51206" lon="7.78873">
        <ele>326.68</ele>
      </trkpt>
      <trkpt lat="49.51247" lon="7.78978">
        <ele>327.12</ele>
      </trkpt>
      <trkpt lat="49.51256" lon="7.79022">
        <ele>326.17</ele>
      </trkpt>
      <trkpt lat="49.51247" lon="7.79064">
        <ele>330.27</ele>
      </trkpt>
      <trkpt lat="49.51236" lon="7.79105">
        <ele>339.22</ele>
      </trkpt>
      <trkpt lat="49.51233" lon="7.79143">
        <ele>340.68</ele>
      </trkpt>
      <trkpt lat="49.51233" lon="7.79184">
        <ele>341.83</ele>
      </trkpt>
      <trkpt lat="49.51236" lon="7.79196">
        <ele>341.24</ele>
      </trkpt>
      <trkpt lat="49.51251" lon="7.79215">
        <ele>338.75</ele>
      </trkpt>
      <trkpt lat="49.51265" lon="7.7926">
        <ele>342.95</ele>
      </trkpt>
      <trkpt lat="49.51285" lon="7.79322">
        <ele>346.3</ele>
      </trkpt>
      <trkpt lat="49.51285" lon="7.79324">
        <ele>346.56</ele>
      </trkpt>
      <trkpt lat="49.51305" lon="7.7937">
        <ele>352.67</ele>
      </trkpt>
      <trkpt lat="49.51324" lon="7.79395">
        <ele>351.64</ele>
      </trkpt>
      <trkpt lat="49.51343" lon="7.79397">
        <ele>349.51</ele>
      </trkpt>
      <trkpt lat="49.51372" lon="7.79389">
        <ele>348.0</ele>
      </trkpt>
      <trkpt lat="49.51388" lon="7.79386">
        <ele>348.1</ele>
      </trkpt>
      <trkpt lat="49.51397" lon="7.79392">
        <ele>348.0</ele>
      </trkpt>
      <trkpt lat="49.51408" lon="7.79399">
        <ele>348.0</ele>
      </trkpt>
      <trkpt lat="49.51433" lon="7.7946">
        <ele>347.33</ele>
      </trkpt>
      <trkpt lat="49.51449" lon="7.79507">
        <ele>352.76</ele>
      </trkpt>
      <trkpt lat="49.5145" lon="7.79508">
        <ele>352.84</ele>
      </trkpt>
      <trkpt lat="49.51468" lon="7.79534">
        <ele>353.49</ele>
      </trkpt>
      <trkpt lat="49.51533" lon="7.79695">
        <ele>347.42</ele>
      </trkpt>
      <trkpt lat="49.51607" lon="7.79874">
        <ele>339.68</ele>
      </trkpt>
      <trkpt lat="49.51675" lon="7.80041">
        <ele>334.25</ele>
      </trkpt>
      <trkpt lat="49.51726" lon="7.80182">
        <ele>333.42</ele>
      </trkpt>
      <trkpt lat="49.51717" lon="7.8019">
        <ele>330.24</ele>
      </trkpt>
      <trkpt lat="49.51727" lon="7.80206">
        <ele>329.22</ele>
      </trkpt>
      <trkpt lat="49.51785" lon="7.80247">
        <ele>331.34</ele>
      </trkpt>
      <trkpt lat="49.51801" lon="7.80258">
        <ele>333.06</ele>
      </trkpt>
      <trkpt lat="49.51826" lon="7.80258">
        <ele>340.86</ele>
      </trkpt>
      <trkpt lat="49.51857" lon="7.80255">
        <ele>346.89</ele>
      </trkpt>
      <trkpt lat="49.51876" lon="7.80246">
        <ele>349.82</ele>
      </trkpt>
      <trkpt lat="49.51941" lon="7.80203">
        <ele>359.03</ele>
      </trkpt>
      <trkpt lat="49.52012" lon="7.80148">
        <ele>361.25</ele>
      </trkpt>
      <trkpt lat="49.5205" lon="7.80116">
        <ele>360.88</ele>
      </trkpt>
      <trkpt lat="49.52095" lon="7.80099">
        <ele>363.29</ele>
      </trkpt>
      <trkpt lat="49.52176" lon="7.80076">
        <ele>366.92</ele>
      </trkpt>
      <trkpt lat="49.52179" lon="7.80095">
        <ele>366.91</ele>
      </trkpt>
      <trkpt lat="49.52242" lon="7.80144">
        <ele>372.18</ele>
      </trkpt>
      <trkpt lat="49.52349" lon="7.80224">
        <ele>380.03</ele>
      </trkpt>
      <trkpt lat="49.52499" lon="7.80325">
        <ele>374.51</ele>
      </trkpt>
      <trkpt lat="49.52574" lon="7.80381">
        <ele>375.9</ele>
      </trkpt>
      <trkpt lat="49.52556" lon="7.80415">
        <ele>375.91</ele>
      </trkpt>
      <trkpt lat="49.52622" lon="7.80579">
        <ele>373.54</ele>
      </trkpt>
      <trkpt lat="49.52652" lon="7.80644">
        <ele>366.87</ele>
      </trkpt>
      <trkpt lat="49.52654" lon="7.80667">
        <ele>363.13</ele>
      </trkpt>
      <trkpt lat="49.52654" lon="7.8069">
        <ele>358.92</ele>
      </trkpt>
      <trkpt lat="49.52649" lon="7.80737">
        <ele>355.0</ele>
      </trkpt>
      <trkpt lat="49.52648" lon="7.80738">
        <ele>355.17</ele>
      </trkpt>
      <trkpt lat="49.52647" lon="7.80846">
        <ele>346.97</ele>
      </trkpt>
      <trkpt lat="49.52647" lon="7.80847">
        <ele>346.98</ele>
      </trkpt>
      <trkpt lat="49.5264" lon="7.80895">
        <ele>346.94</ele>
      </trkpt>
      <trkpt lat="49.52619" lon="7.80966">
        <ele>349.11</ele>
      </trkpt>
      <trkpt lat="49.52599" lon="7.8104">
        <ele>343.1</ele>
      </trkpt>
      <trkpt lat="49.52578" lon="7.81125">
        <ele>335.23</ele>
      </trkpt>
      <trkpt lat="49.52571" lon="7.81178">
        <ele>334.42</ele>
      </trkpt>
      <trkpt lat="49.52554" lon="7.81255">
        <ele>339.36</ele>
      </trkpt>
      <trkpt lat="49.52545" lon="7.81311">
        <ele>343.61</ele>
      </trkpt>
      <trkpt lat="49.52545" lon="7.81312">
        <ele>343.66</ele>
      </trkpt>
      <trkpt lat="49.52539" lon="7.81353">
        <ele>344.13</ele>
      </trkpt>
      <trkpt lat="49.52524" lon="7.814">
        <ele>340.87</ele>
      </trkpt>
      <trkpt lat="49.52524" lon="7.81401">
        <ele>341.16</ele>
      </trkpt>
      <trkpt lat="49.52516" lon="7.81409">
        <ele>342.64</ele>
      </trkpt>
      <trkpt lat="49.52497" lon="7.81411">
        <ele>341.7</ele>
      </trkpt>
      <trkpt lat="49.52475" lon="7.81416">
        <ele>343.75</ele>
      </trkpt>
      <trkpt lat="49.52453" lon="7.81431">
        <ele>341.56</ele>
      </trkpt>
      <trkpt lat="49.52413" lon="7.81461">
        <ele>337.13</ele>
      </trkpt>
      <trkpt lat="49.5237" lon="7.8148">
        <ele>331.77</ele>
      </trkpt>
      <trkpt lat="49.52356" lon="7.81484">
        <ele>330.56</ele>
      </trkpt>
      <trkpt lat="49.52314" lon="7.81496">
        <ele>321.87</ele>
      </trkpt>
      <trkpt lat="49.523" lon="7.81497">
        <ele>320.4</ele>
      </trkpt>
      <trkpt lat="49.5228" lon="7.81492">
        <ele>321.84</ele>
      </trkpt>
      <trkpt lat="49.5225" lon="7.81507">
        <ele>317.5</ele>
      </trkpt>
      <trkpt lat="49.52229" lon="7.81522">
        <ele>316.91</ele>
      </trkpt>
      <trkpt lat="49.52212" lon="7.81539">
        <ele>315.65</ele>
      </trkpt>
      <trkpt lat="49.52187" lon="7.81576">
        <ele>320.35</ele>
      </trkpt>
      <trkpt lat="49.52168" lon="7.81619">
        <ele>323.87</ele>
      </trkpt>
      <trkpt lat="49.52142" lon="7.8165">
        <ele>317.35</ele>
      </trkpt>
      <trkpt lat="49.52118" lon="7.81676">
        <ele>307.9</ele>
      </trkpt>
      <trkpt lat="49.52103" lon="7.81681">
        <ele>302.36</ele>
      </trkpt>
      <trkpt lat="49.5209" lon="7.81684">
        <ele>296.99</ele>
      </trkpt>
      <trkpt lat="49.52078" lon="7.81681">
        <ele>294.45</ele>
      </trkpt>
      <trkpt lat="49.52053" lon="7.81753">
        <ele>291.72</ele>
      </trkpt>
      <trkpt lat="49.52038" lon="7.81805">
        <ele>297.09</ele>
      </trkpt>
      <trkpt lat="49.52019" lon="7.81871">
        <ele>295.96</ele>
      </trkpt>
      <trkpt lat="49.51998" lon="7.81965">
        <ele>299.37</ele>
      </trkpt>
      <trkpt lat="49.51981" lon="7.82029">
        <ele>290.52</ele>
      </trkpt>
      <trkpt lat="49.5198" lon="7.82078">
        <ele>291.4</ele>
      </trkpt>
      <trkpt lat="49.51983" lon="7.82122">
        <ele>296.09</ele>
      </trkpt>
      <trkpt lat="49.51998" lon="7.82215">
        <ele>301.45</ele>
      </trkpt>
      <trkpt lat="49.51998" lon="7.82217">
        <ele>301.42</ele>
      </trkpt>
      <trkpt lat="49.52008" lon="7.82258">
        <ele>294.24</ele>
      </trkpt>
      <trkpt lat="49.52032" lon="7.82336">
        <ele>294.62</ele>
      </trkpt>
      <trkpt lat="49.52046" lon="7.82392">
        <ele>296.05</ele>
      </trkpt>
      <trkpt lat="49.52058" lon="7.82455">
        <ele>291.26</ele>
      </trkpt>
      <trkpt lat="49.52048" lon="7.82538">
        <ele>287.27</ele>
      </trkpt>
      <trkpt lat="49.5204" lon="7.82608">
        <ele>279.95</ele>
      </trkpt>
      <trkpt lat="49.52037" lon="7.82678">
        <ele>283.42</ele>
      </trkpt>
      <trkpt lat="49.52021" lon="7.8268">
        <ele>278.87</ele>
      </trkpt>
      <trkpt lat="49.52" lon="7.82683">
        <ele>272.41</ele>
      </trkpt>
      <trkpt lat="49.51988" lon="7.8269">
        <ele>273.23</ele>
      </trkpt>
      <trkpt lat="49.51987" lon="7.8269">
        <ele>273.32</ele>
      </trkpt>
      <trkpt lat="49.51974" lon="7.82716">
        <ele>274.65</ele>
      </trkpt>
      <trkpt lat="49.51968" lon="7.82764">
        <ele>277.69</ele>
      </trkpt>
      <trkpt lat="49.51961" lon="7.82809">
        <ele>280.42</ele>
      </trkpt>
      <trkpt lat="49.51959" lon="7.82828">
        <ele>280.86</ele>
      </trkpt>
      <trkpt lat="49.51956" lon="7.82848">
        <ele>281.2</ele>
      </trkpt>
      <trkpt lat="49.51956" lon="7.82849">
        <ele>281.17</ele>
      </trkpt>
      <trkpt lat="49.5195" lon="7.8286">
        <ele>282.03</ele>
      </trkpt>
      <trkpt lat="49.51929" lon="7.82858">
        <ele>284.9</ele>
      </trkpt>
      <trkpt lat="49.51916" lon="7.82862">
        <ele>285.62</ele>
      </trkpt>
      <trkpt lat="49.51869" lon="7.82907">
        <ele>283.72</ele>
      </trkpt>
      <trkpt lat="49.51852" lon="7.82872">
        <ele>282.89</ele>
      </trkpt>
      <trkpt lat="49.51818" lon="7.82822">
        <ele>288.13</ele>
      </trkpt>
      <trkpt lat="49.51817" lon="7.82822">
        <ele>288.59</ele>
      </trkpt>
      <trkpt lat="49.51781" lon="7.82795">
        <ele>294.05</ele>
      </trkpt>
      <trkpt lat="49.5176" lon="7.82771">
        <ele>288.61</ele>
      </trkpt>
      <trkpt lat="49.51738" lon="7.82727">
        <ele>286.97</ele>
      </trkpt>
      <trkpt lat="49.51716" lon="7.82705">
        <ele>290.76</ele>
      </trkpt>
      <trkpt lat="49.51684" lon="7.8266">
        <ele>291.78</ele>
      </trkpt>
      <trkpt lat="49.51684" lon="7.82661">
        <ele>291.98</ele>
      </trkpt>
      <trkpt lat="49.51677" lon="7.82652">
        <ele>291.05</ele>
      </trkpt>
      <trkpt lat="49.5166" lon="7.82644">
        <ele>292.21</ele>
      </trkpt>
      <trkpt lat="49.51632" lon="7.82641">
        <ele>296.94</ele>
      </trkpt>
      <trkpt lat="49.51575" lon="7.82646">
        <ele>303.31</ele>
      </trkpt>
      <trkpt lat="49.51553" lon="7.82649">
        <ele>302.68</ele>
      </trkpt>
      <trkpt lat="49.51575" lon="7.82616">
        <ele>306.41</ele>
      </trkpt>
      <trkpt lat="49.51598" lon="7.82589">
        <ele>298.92</ele>
      </trkpt>
      <trkpt lat="49.51613" lon="7.82585">
        <ele>293.02</ele>
      </trkpt>
      <trkpt lat="49.51639" lon="7.82586">
        <ele>289.18</ele>
      </trkpt>
      <trkpt lat="49.51651" lon="7.8258">
        <ele>286.96</ele>
      </trkpt>
      <trkpt lat="49.51655" lon="7.82566">
        <ele>285.07</ele>
      </trkpt>
      <trkpt lat="49.51654" lon="7.82548">
        <ele>284.28</ele>
      </trkpt>
      <trkpt lat="49.51639" lon="7.82505">
        <ele>286.98</ele>
      </trkpt>
      <trkpt lat="49.51608" lon="7.82419">
        <ele>289.13</ele>
      </trkpt>
      <trkpt lat="49.51564" lon="7.82315">
        <ele>291.43</ele>
      </trkpt>
      <trkpt lat="49.51542" lon="7.82274">
        <ele>292.37</ele>
      </trkpt>
      <trkpt lat="49.51482" lon="7.82192">
        <ele>298.32</ele>
      </trkpt>
      <trkpt lat="49.51347" lon="7.82018">
        <ele>304.19</ele>
      </trkpt>
      <trkpt lat="49.51331" lon="7.82009">
        <ele>305.86</ele>
      </trkpt>
      <trkpt lat="49.51308" lon="7.82004">
        <ele>303.87</ele>
      </trkpt>
      <trkpt lat="49.51293" lon="7.81993">
        <ele>300.18</ele>
      </trkpt>
      <trkpt lat="49.51243" lon="7.81938">
        <ele>295.37</ele>
      </trkpt>
      <trkpt lat="49.51185" lon="7.81876">
        <ele>326.16</ele>
      </trkpt>
      <trkpt lat="49.5116" lon="7.8185">
        <ele>326.43</ele>
      </trkpt>
      <trkpt lat="49.51136" lon="7.81843">
        <ele>324.24</ele>
      </trkpt>
      <trkpt lat="49.51124" lon="7.8182">
        <ele>327.03</ele>
      </trkpt>
      <trkpt lat="49.51108" lon="7.81788">
        <ele>329.92</ele>
      </trkpt>
      <trkpt lat="49.51049" lon="7.81721">
        <ele>299.39</ele>
      </trkpt>
      <trkpt lat="49.5103" lon="7.81699">
        <ele>299.42</ele>
      </trkpt>
      <trkpt lat="49.50957" lon="7.81644">
        <ele>310.45</ele>
      </trkpt>
      <trkpt lat="49.50924" lon="7.81628">
        <ele>312.57</ele>
      </trkpt>
      <trkpt lat="49.50906" lon="7.81596">
        <ele>306.53</ele>
      </trkpt>
      <trkpt lat="49.50893" lon="7.81576">
        <ele>307.45</ele>
      </trkpt>
      <trkpt lat="49.50873" lon="7.81556">
        <ele>308.84</ele>
      </trkpt>
      <trkpt lat="49.50798" lon="7.81509">
        <ele>300.77</ele>
      </trkpt>
      <trkpt lat="49.50761" lon="7.81489">
        <ele>297.93</ele>
      </trkpt>
      <trkpt lat="49.50724" lon="7.81465">
        <ele>296.93</ele>
      </trkpt>
      <trkpt lat="49.50692" lon="7.81448">
        <ele>304.58</ele>
      </trkpt>
      <trkpt lat="49.50672" lon="7.81428">
        <ele>306.52</ele>
      </trkpt>
      <trkpt lat="49.5065" lon="7.81388">
        <ele>306.36</ele>
      </trkpt>
      <trkpt lat="49.50639" lon="7.81364">
        <ele>307.08</ele>
      </trkpt>
      <trkpt lat="49.50613" lon="7.81338">
        <ele>307.16</ele>
      </trkpt>
      <trkpt lat="49.5058" lon="7.81255">
        <ele>303.5</ele>
      </trkpt>
      <trkpt lat="49.50556" lon="7.81213">
        <ele>307.63</ele>
      </trkpt>
      <trkpt lat="49.50555" lon="7.81162">
        <ele>304.86</ele>
      </trkpt>
      <trkpt lat="49.50557" lon="7.81136">
        <ele>303.27</ele>
      </trkpt>
      <trkpt lat="49.50579" lon="7.81119">
        <ele>308.43</ele>
      </trkpt>
      <trkpt lat="49.50598" lon="7.81102">
        <ele>312.1</ele>
      </trkpt>
      <trkpt lat="49.50612" lon="7.81074">
        <ele>317.19</ele>
      </trkpt>
      <trkpt lat="49.50613" lon="7.81028">
        <ele>320.4</ele>
      </trkpt>
      <trkpt lat="49.50614" lon="7.80982">
        <ele>320.01</ele>
      </trkpt>
      <trkpt lat="49.50606" lon="7.80918">
        <ele>316.5</ele>
      </trkpt>
      <trkpt lat="49.50604" lon="7.80858">
        <ele>325.25</ele>
      </trkpt>
      <trkpt lat="49.50595" lon="7.80765">
        <ele>331.13</ele>
      </trkpt>
      <trkpt lat="49.50577" lon="7.80629">
        <ele>327.76</ele>
      </trkpt>
      <trkpt lat="49.50563" lon="7.80511">
        <ele>328.97</ele>
      </trkpt>
      <trkpt lat="49.50562" lon="7.80353">
        <ele>335.28</ele>
      </trkpt>
      <trkpt lat="49.50562" lon="7.80306">
        <ele>339.58</ele>
      </trkpt>
      <trkpt lat="49.50547" lon="7.80223">
        <ele>340.73</ele>
      </trkpt>
      <trkpt lat="49.50525" lon="7.80145">
        <ele>341.16</ele>
      </trkpt>
      <trkpt lat="49.50489" lon="7.80062">
        <ele>343.81</ele>
      </trkpt>
      <trkpt lat="49.50456" lon="7.79921">
        <ele>341.7</ele>
      </trkpt>
      <trkpt lat="49.50447" lon="7.79877">
        <ele>335.43</ele>
      </trkpt>
      <trkpt lat="49.50436" lon="7.7983">
        <ele>334.38</ele>
      </trkpt>
      <trkpt lat="49.50432" lon="7.79786">
        <ele>335.88</ele>
      </trkpt>
      <trkpt lat="49.50433" lon="7.79786">
        <ele>336.11</ele>
      </trkpt>
      <trkpt lat="49.50454" lon="7.79775">
        <ele>342.23</ele>
      </trkpt>
      <trkpt lat="49.5047" lon="7.79755">
        <ele>347.41</ele>
      </trkpt>
      <trkpt lat="49.50499" lon="7.79743">
        <ele>355.47</ele>
      </trkpt>
      <trkpt lat="49.50521" lon="7.79758">
        <ele>359.13</ele>
      </trkpt>
      <trkpt lat="49.50561" lon="7.79793">
        <ele>356.31</ele>
      </trkpt>
      <trkpt lat="49.50591" lon="7.79816">
        <ele>347.37</ele>
      </trkpt>
      <trkpt lat="49.50593" lon="7.79817">
        <ele>346.84</ele>
      </trkpt>
      <trkpt lat="49.50616" lon="7.79824">
        <ele>342.7</ele>
      </trkpt>
      <trkpt lat="49.5064" lon="7.7982">
        <ele>345.66</ele>
      </trkpt>
      <trkpt lat="49.50641" lon="7.7982">
        <ele>345.75</ele>
      </trkpt>
      <trkpt lat="49.5066" lon="7.79814">
        <ele>346.96</ele>
      </trkpt>
      <trkpt lat="49.50668" lon="7.79803">
        <ele>346.78</ele>
      </trkpt>
      <trkpt lat="49.50674" lon="7.79787">
        <ele>345.3</ele>
      </trkpt>
      <trkpt lat="49.50639" lon="7.79704">
        <ele>336.01</ele>
      </trkpt>
      <trkpt lat="49.50635" lon="7.7968">
        <ele>337.62</ele>
      </trkpt>
      <trkpt lat="49.50634" lon="7.79637">
        <ele>340.52</ele>
      </trkpt>
      <trkpt lat="49.50631" lon="7.79569">
        <ele>338.27</ele>
      </trkpt>
      <trkpt lat="49.50631" lon="7.79568">
        <ele>338.23</ele>
      </trkpt>
      <trkpt lat="49.50627" lon="7.79524">
        <ele>336.18</ele>
      </trkpt>
      <trkpt lat="49.50619" lon="7.79458">
        <ele>331.32</ele>
      </trkpt>
      <trkpt lat="49.5062" lon="7.79438">
        <ele>329.12</ele>
      </trkpt>
      <trkpt lat="49.50636" lon="7.79394">
        <ele>324.36</ele>
      </trkpt>
      <trkpt lat="49.5065" lon="7.79373">
        <ele>325.03</ele>
      </trkpt>
      <trkpt lat="49.50684" lon="7.79339">
        <ele>331.24</ele>
      </trkpt>
      <trkpt lat="49.50685" lon="7.79302">
        <ele>331.73</ele>
      </trkpt>
      <trkpt lat="49.50687" lon="7.79256">
        <ele>329.29</ele>
      </trkpt>
      <trkpt lat="49.50687" lon="7.79254">
        <ele>329.14</ele>
      </trkpt>
      <trkpt lat="49.50678" lon="7.79219">
        <ele>327.95</ele>
      </trkpt>
      <trkpt lat="49.50668" lon="7.79191">
        <ele>326.98</ele>
      </trkpt>
      <trkpt lat="49.50642" lon="7.79122">
        <ele>324.55</ele>
      </trkpt>
      <trkpt lat="49.50621" lon="7.79065">
        <ele>318.3</ele>
      </trkpt>
      <trkpt lat="49.50606" lon="7.79009">
        <ele>318.88</ele>
      </trkpt>
      <trkpt lat="49.50605" lon="7.79009">
        <ele>318.71</ele>
      </trkpt>
      <trkpt lat="49.50602" lon="7.78961">
        <ele>320.22</ele>
      </trkpt>
      <trkpt lat="49.50604" lon="7.78917">
        <ele>313.62</ele>
      </trkpt>
      <trkpt lat="49.50613" lon="7.78856">
        <ele>312.23</ele>
      </trkpt>
      <trkpt lat="49.50626" lon="7.78817">
        <ele>311.59</ele>
      </trkpt>
      <trkpt lat="49.50638" lon="7.78789">
        <ele>308.3</ele>
      </trkpt>
      <trkpt lat="49.50639" lon="7.78789">
        <ele>308.19</ele>
      </trkpt>
      <trkpt lat="49.50648" lon="7.7878">
        <ele>305.55</ele>
      </trkpt>
      <trkpt lat="49.50659" lon="7.78784">
        <ele>303.73</ele>
      </trkpt>
      <trkpt lat="49.50677" lon="7.78803">
        <ele>300.81</ele>
      </trkpt>
      <trkpt lat="49.50678" lon="7.78804">
        <ele>300.59</ele>
      </trkpt>
      <trkpt lat="49.50699" lon="7.7883">
        <ele>297.65</ele>
      </trkpt>
      <trkpt lat="49.50713" lon="7.78839">
        <ele>296.8</ele>
      </trkpt>
      <trkpt lat="49.5071" lon="7.78816">
        <ele>298.0</ele>
      </trkpt>
      <trkpt lat="49.5071" lon="7.78815">
        <ele>298.07</ele>
      </trkpt>
      <trkpt lat="49.50698" lon="7.7878">
        <ele>300.14</ele>
      </trkpt>
      <trkpt lat="49.50683" lon="7.78746">
        <ele>302.25</ele>
      </trkpt>
      <trkpt lat="49.50674" lon="7.78716">
        <ele>303.63</ele>
      </trkpt>
      <trkpt lat="49.50679" lon="7.78696">
        <ele>306.69</ele>
      </trkpt>
      <trkpt lat="49.50694" lon="7.78673">
        <ele>307.25</ele>
      </trkpt>
      <trkpt lat="49.50725" lon="7.78658">
        <ele>300.41</ele>
      </trkpt>
      <trkpt lat="49.50742" lon="7.78637">
        <ele>298.04</ele>
      </trkpt>
      <trkpt lat="49.50756" lon="7.78602">
        <ele>296.46</ele>
      </trkpt>
      <trkpt lat="49.50755" lon="7.78566">
        <ele>290.22</ele>
      </trkpt>
      <trkpt lat="49.50745" lon="7.78526">
        <ele>281.97</ele>
      </trkpt>
      <trkpt lat="49.50746" lon="7.78491">
        <ele>281.15</ele>
      </trkpt>
      <trkpt lat="49.50741" lon="7.78446">
        <ele>279.38</ele>
      </trkpt>
      <trkpt lat="49.50738" lon="7.78385">
        <ele>282.06</ele>
      </trkpt>
      <trkpt lat="49.50744" lon="7.78341">
        <ele>279.36</ele>
      </trkpt>
      <trkpt lat="49.50755" lon="7.78274">
        <ele>272.36</ele>
      </trkpt>
      <trkpt lat="49.50787" lon="7.78216">
        <ele>274.36</ele>
      </trkpt>
      <trkpt lat="49.50778" lon="7.78208">
        <ele>273.02</ele>
      </trkpt>
      <trkpt lat="49.50764" lon="7.78185">
        <ele>280.46</ele>
      </trkpt>
      <trkpt lat="49.50752" lon="7.78172">
        <ele>282.08</ele>
      </trkpt>
      <trkpt lat="49.50744" lon="7.78162">
        <ele>286.77</ele>
      </trkpt>
      <trkpt lat="49.50758" lon="7.78133">
        <ele>277.13</ele>
      </trkpt>
      <trkpt lat="49.50771" lon="7.78067">
        <ele>274.31</ele>
      </trkpt>
      <trkpt lat="49.50776" lon="7.78028">
        <ele>278.3</ele>
      </trkpt>
      <trkpt lat="49.50785" lon="7.77972">
        <ele>280.19</ele>
      </trkpt>
      <trkpt lat="49.50783" lon="7.77931">
        <ele>275.85</ele>
      </trkpt>
      <trkpt lat="49.50776" lon="7.77856">
        <ele>275.27</ele>
      </trkpt>
      <trkpt lat="49.50776" lon="7.77857">
        <ele>275.32</ele>
      </trkpt>
      <trkpt lat="49.50755" lon="7.77786">
        <ele>277.03</ele>
      </trkpt>
      <trkpt lat="49.50755" lon="7.77787">
        <ele>277.03</ele>
      </trkpt>
      <trkpt lat="49.50732" lon="7.77722">
        <ele>270.87</ele>
      </trkpt>
      <trkpt lat="49.50714" lon="7.77652">
        <ele>264.35</ele>
      </trkpt>
      <trkpt lat="49.50685" lon="7.77586">
        <ele>267.6</ele>
      </trkpt>
      <trkpt lat="49.50666" lon="7.77532">
        <ele>269.83</ele>
      </trkpt>
      <trkpt lat="49.50635" lon="7.77469">
        <ele>258.11</ele>
      </trkpt>
      <trkpt lat="49.50591" lon="7.77394">
        <ele>258.31</ele>
      </trkpt>
      <trkpt lat="49.50597" lon="7.77377">
        <ele>257.19</ele>
      </trkpt>
      <trkpt lat="49.50612" lon="7.77349">
        <ele>256.22</ele>
      </trkpt>
      <trkpt lat="49.50577" lon="7.77289">
        <ele>249.04</ele>
      </trkpt>
      <trkpt lat="49.50542" lon="7.77257">
        <ele>249.21</ele>
      </trkpt>
      <trkpt lat="49.505" lon="7.77232">
        <ele>253.0</ele>
      </trkpt>
      <trkpt lat="49.50501" lon="7.77232">
        <ele>252.97</ele>
      </trkpt>
      <trkpt lat="49.50458" lon="7.77214">
        <ele>253.71</ele>
      </trkpt>
    </trkseg>
  </trk>
</gpx>
