<?xml version="1.0" encoding="UTF-8" standalone="yes"?>
<gpx xmlns:gpxtpx1="http://www.garmin.com/xmlschemas/TrackPointExtension/v1" xmlns="http://www.topografix.com/GPX/1/1" xmlns:trp="http://www.garmin.com/xmlschemas/TripExtensions/v1" xmlns:gpxx="http://www.garmin.com/xmlschemas/GpxExtensions/v3" xmlns:gpxtpx="http://www.garmin.com/xmlschemas/TrackPointExtension/v2" version="1.1" creator="RouteConverter 2.31.2">
    <metadata>
        <link href="http://www.garmin.com">
            <text>Garmin International</text>
        </link>
        <time>2023-02-23T05:44:27.701Z</time>
    </metadata>
    <trk>
        <name>PW Sprendlingen 10 Km</name>
        <extensions>
            <gpxx:TrackExtension>
                <gpxx:DisplayColor>Cyan</gpxx:DisplayColor>
            </gpxx:TrackExtension>
        </extensions>
        <trkseg>
            <trkpt lat="49.8548072" lon="7.9846607">
                <ele>111.0</ele>
                <name>Position 1</name>
            </trkpt>
            <trkpt lat="49.8549214" lon="7.9845249">
                <ele>112.0</ele>
                <name>Position 2</name>
            </trkpt>
            <trkpt lat="49.8550739" lon="7.9843882">
                <ele>113.1</ele>
                <name>Position 3</name>
            </trkpt>
            <trkpt lat="49.8552901" lon="7.9844965">
                <ele>113.0</ele>
                <name>Position 4</name>
            </trkpt>
            <trkpt lat="49.8555652" lon="7.9848028">
                <ele>112.0</ele>
                <name>Position 5</name>
            </trkpt>
            <trkpt lat="49.8557844" lon="7.984988">
                <ele>112.0</ele>
                <name>Position 6</name>
            </trkpt>
            <trkpt lat="49.856003" lon="7.9851931">
                <ele>112.0</ele>
                <name>Position 7</name>
            </trkpt>
            <trkpt lat="49.8562115" lon="7.9852546">
                <ele>112.0</ele>
                <name>Position 8</name>
            </trkpt>
            <trkpt lat="49.856448" lon="7.9853704">
                <ele>113.0</ele>
                <name>Position 9</name>
            </trkpt>
            <trkpt lat="49.8566974" lon="7.9854936">
                <ele>113.0</ele>
                <name>Position 10</name>
            </trkpt>
            <trkpt lat="49.8569014" lon="7.9855982">
                <ele>113.0</ele>
                <name>Position 11</name>
            </trkpt>
            <trkpt lat="49.8570841" lon="7.9856966">
                <ele>113.0</ele>
                <name>Position 12</name>
            </trkpt>
            <trkpt lat="49.8573298" lon="7.9858137">
                <ele>113.0</ele>
                <name>Position 13</name>
            </trkpt>
            <trkpt lat="49.8575622" lon="7.9859745">
                <ele>113.0</ele>
                <name>Position 14</name>
            </trkpt>
            <trkpt lat="49.8575447" lon="7.9860639">
                <ele>113.0</ele>
                <name>Position 15</name>
            </trkpt>
            <trkpt lat="49.8574903" lon="7.9864936">
                <ele>112.0</ele>
                <name>Position 16</name>
            </trkpt>
            <trkpt lat="49.8574339" lon="7.9868391">
                <ele>111.0</ele>
                <name>Position 17</name>
            </trkpt>
            <trkpt lat="49.8574204" lon="7.9869108">
                <ele>111.0</ele>
                <name>Position 18</name>
            </trkpt>
            <trkpt lat="49.8574053" lon="7.9869977">
                <ele>111.0</ele>
                <name>Position 19</name>
            </trkpt>
            <trkpt lat="49.8573929" lon="7.9871439">
                <ele>111.0</ele>
                <name>Position 20</name>
            </trkpt>
            <trkpt lat="49.8572931" lon="7.9874242">
                <ele>110.0</ele>
                <name>Position 21</name>
            </trkpt>
            <trkpt lat="49.8572452" lon="7.9878284">
                <ele>111.0</ele>
                <name>Position 22</name>
            </trkpt>
            <trkpt lat="49.8572058" lon="7.9884138">
                <ele>112.0</ele>
                <name>Position 23</name>
            </trkpt>
            <trkpt lat="49.8571398" lon="7.9888937">
                <ele>115.0</ele>
                <name>Position 24</name>
            </trkpt>
            <trkpt lat="49.8570042" lon="7.9892524">
                <ele>116.0</ele>
                <name>Position 25</name>
            </trkpt>
            <trkpt lat="49.8570071" lon="7.9892735">
                <ele>116.0</ele>
                <name>Position 26</name>
            </trkpt>
            <trkpt lat="49.8570073" lon="7.9893205">
                <ele>116.0</ele>
                <name>Position 27</name>
            </trkpt>
            <trkpt lat="49.8569999" lon="7.9894698">
                <ele>116.0</ele>
                <name>Position 28</name>
            </trkpt>
            <trkpt lat="49.8571176" lon="7.9898325">
                <ele>117.0</ele>
                <name>Position 29</name>
            </trkpt>
            <trkpt lat="49.8571382" lon="7.9899036">
                <ele>118.0</ele>
                <name>Position 30</name>
            </trkpt>
            <trkpt lat="49.8571121" lon="7.990042">
                <ele>118.0</ele>
                <name>Position 31</name>
            </trkpt>
            <trkpt lat="49.8571011" lon="7.9901691">
                <ele>118.0</ele>
                <name>Position 32</name>
            </trkpt>
            <trkpt lat="49.8570076" lon="7.9903086">
                <ele>117.0</ele>
                <name>Position 33</name>
            </trkpt>
            <trkpt lat="49.856957" lon="7.9904903">
                <ele>117.0</ele>
                <name>Position 34</name>
            </trkpt>
            <trkpt lat="49.856949" lon="7.9909331">
                <ele>118.0</ele>
                <name>Position 35</name>
            </trkpt>
            <trkpt lat="49.8568135" lon="7.9912798">
                <ele>118.0</ele>
                <name>Position 36</name>
            </trkpt>
            <trkpt lat="49.8567495" lon="7.9917087">
                <ele>119.0</ele>
                <name>Position 37</name>
            </trkpt>
            <trkpt lat="49.8567373" lon="7.9920915">
                <ele>119.0</ele>
                <name>Position 38</name>
            </trkpt>
            <trkpt lat="49.8566619" lon="7.9925281">
                <ele>120.0</ele>
                <name>Position 39</name>
            </trkpt>
            <trkpt lat="49.8565682" lon="7.9929731">
                <ele>120.0</ele>
                <name>Position 40</name>
            </trkpt>
            <trkpt lat="49.8565073" lon="7.9933228">
                <ele>121.0</ele>
                <name>Position 41</name>
            </trkpt>
            <trkpt lat="49.8564326" lon="7.9936583">
                <ele>123.2</ele>
                <name>Position 42</name>
            </trkpt>
            <trkpt lat="49.8563459" lon="7.9941172">
                <ele>124.0</ele>
                <name>Position 43</name>
            </trkpt>
            <trkpt lat="49.8562506" lon="7.9946126">
                <ele>126.0</ele>
                <name>Position 44</name>
            </trkpt>
            <trkpt lat="49.8561225" lon="7.9952798">
                <ele>129.0</ele>
                <name>Position 45</name>
            </trkpt>
            <trkpt lat="49.8560352" lon="7.9957016">
                <ele>131.0</ele>
                <name>Position 46</name>
            </trkpt>
            <trkpt lat="49.8559632" lon="7.9960245">
                <ele>133.0</ele>
                <name>Position 47</name>
            </trkpt>
            <trkpt lat="49.8559445" lon="7.9960858">
                <ele>134.0</ele>
                <name>Position 48</name>
            </trkpt>
            <trkpt lat="49.8558698" lon="7.9965156">
                <ele>137.0</ele>
                <name>Position 49</name>
            </trkpt>
            <trkpt lat="49.8557685" lon="7.9969233">
                <ele>138.0</ele>
                <name>Position 50</name>
            </trkpt>
            <trkpt lat="49.8557368" lon="7.9971366">
                <ele>139.0</ele>
                <name>Position 51</name>
            </trkpt>
            <trkpt lat="49.855706" lon="7.9972265">
                <ele>139.0</ele>
                <name>Position 52</name>
            </trkpt>
            <trkpt lat="49.8556283" lon="7.997718">
                <ele>139.0</ele>
                <name>Position 53</name>
            </trkpt>
            <trkpt lat="49.8555897" lon="7.9981517">
                <ele>138.0</ele>
                <name>Position 54</name>
            </trkpt>
            <trkpt lat="49.8555088" lon="7.9988117">
                <ele>136.0</ele>
                <name>Position 55</name>
            </trkpt>
            <trkpt lat="49.85545" lon="7.9993708">
                <ele>134.0</ele>
                <name>Position 56</name>
            </trkpt>
            <trkpt lat="49.8553503" lon="8.0000911">
                <ele>130.0</ele>
                <name>Position 57</name>
            </trkpt>
            <trkpt lat="49.8553193" lon="8.0003688">
                <ele>130.0</ele>
                <name>Position 58</name>
            </trkpt>
            <trkpt lat="49.8552762" lon="8.0005404">
                <ele>130.0</ele>
                <name>Position 59</name>
            </trkpt>
            <trkpt lat="49.8553028" lon="8.0005661">
                <ele>130.0</ele>
                <name>Position 60</name>
            </trkpt>
            <trkpt lat="49.8553036" lon="8.0007228">
                <ele>130.0</ele>
                <name>Position 61</name>
            </trkpt>
            <trkpt lat="49.8552554" lon="8.0010996">
                <ele>130.4</ele>
                <name>Position 62</name>
            </trkpt>
            <trkpt lat="49.8552458" lon="8.0014437">
                <ele>131.0</ele>
                <name>Position 63</name>
            </trkpt>
            <trkpt lat="49.8552281" lon="8.0018963">
                <ele>134.0</ele>
                <name>Position 64</name>
            </trkpt>
            <trkpt lat="49.8552415" lon="8.0023146">
                <ele>137.0</ele>
                <name>Position 65</name>
            </trkpt>
            <trkpt lat="49.8552687" lon="8.0027934">
                <ele>140.0</ele>
                <name>Position 66</name>
            </trkpt>
            <trkpt lat="49.8552803" lon="8.0031424">
                <ele>142.0</ele>
                <name>Position 67</name>
            </trkpt>
            <trkpt lat="49.8552951" lon="8.0035304">
                <ele>144.0</ele>
                <name>Position 68</name>
            </trkpt>
            <trkpt lat="49.8553015" lon="8.0039871">
                <ele>146.0</ele>
                <name>Position 69</name>
            </trkpt>
            <trkpt lat="49.855286" lon="8.0043199">
                <ele>148.0</ele>
                <name>Position 70</name>
            </trkpt>
            <trkpt lat="49.8552846" lon="8.0047555">
                <ele>150.0</ele>
                <name>Position 71</name>
            </trkpt>
            <trkpt lat="49.8552842" lon="8.0050798">
                <ele>152.0</ele>
                <name>Position 72</name>
            </trkpt>
            <trkpt lat="49.8552783" lon="8.0053815">
                <ele>154.0</ele>
                <name>Position 73</name>
            </trkpt>
            <trkpt lat="49.8552892" lon="8.005734">
                <ele>157.0</ele>
                <name>Position 74</name>
            </trkpt>
            <trkpt lat="49.8552879" lon="8.0060513">
                <ele>160.0</ele>
                <name>Position 75</name>
            </trkpt>
            <trkpt lat="49.8552426" lon="8.0062704">
                <ele>162.0</ele>
                <name>Position 76</name>
            </trkpt>
            <trkpt lat="49.8552203" lon="8.0063984">
                <ele>164.0</ele>
                <name>Position 77</name>
            </trkpt>
            <trkpt lat="49.8552152" lon="8.0064334">
                <ele>164.0</ele>
                <name>Position 78</name>
            </trkpt>
            <trkpt lat="49.8551207" lon="8.0067933">
                <ele>168.0</ele>
                <name>Position 79</name>
            </trkpt>
            <trkpt lat="49.8550796" lon="8.0069041">
                <ele>170.0</ele>
                <name>Position 80</name>
            </trkpt>
            <trkpt lat="49.8550592" lon="8.0069425">
                <ele>170.0</ele>
                <name>Position 81</name>
            </trkpt>
            <trkpt lat="49.8550608" lon="8.0069452">
                <ele>170.0</ele>
                <name>Position 82</name>
            </trkpt>
            <trkpt lat="49.8549888" lon="8.0072302">
                <ele>174.0</ele>
                <name>Position 83</name>
            </trkpt>
            <trkpt lat="49.8549517" lon="8.0073357">
                <ele>175.0</ele>
                <name>Position 84</name>
            </trkpt>
            <trkpt lat="49.8549419" lon="8.0073592">
                <ele>175.0</ele>
                <name>Position 85</name>
            </trkpt>
            <trkpt lat="49.854922" lon="8.0074473">
                <ele>176.0</ele>
                <name>Position 86</name>
            </trkpt>
            <trkpt lat="49.8549335" lon="8.0075369">
                <ele>177.0</ele>
                <name>Position 87</name>
            </trkpt>
            <trkpt lat="49.8550088" lon="8.0077257">
                <ele>178.0</ele>
                <name>Position 88</name>
            </trkpt>
            <trkpt lat="49.8550043" lon="8.0078065">
                <ele>178.0</ele>
                <name>Position 89</name>
            </trkpt>
            <trkpt lat="49.8550351" lon="8.0079727">
                <ele>178.0</ele>
                <name>Position 90</name>
            </trkpt>
            <trkpt lat="49.8551216" lon="8.0084208">
                <ele>179.0</ele>
                <name>Position 91</name>
            </trkpt>
            <trkpt lat="49.8552509" lon="8.0087257">
                <ele>179.0</ele>
                <name>Position 92</name>
            </trkpt>
            <trkpt lat="49.8552833" lon="8.0088296">
                <ele>179.0</ele>
                <name>Position 93</name>
            </trkpt>
            <trkpt lat="49.8552916" lon="8.0088672">
                <ele>179.0</ele>
                <name>Position 94</name>
            </trkpt>
            <trkpt lat="49.85533" lon="8.0089654">
                <ele>178.0</ele>
                <name>Position 95</name>
            </trkpt>
            <trkpt lat="49.8554056" lon="8.0091048">
                <ele>178.0</ele>
                <name>Position 96</name>
            </trkpt>
            <trkpt lat="49.8554202" lon="8.0091259">
                <ele>177.0</ele>
                <name>Position 97</name>
            </trkpt>
            <trkpt lat="49.8554222" lon="8.0091526">
                <ele>177.0</ele>
                <name>Position 98</name>
            </trkpt>
            <trkpt lat="49.8554556" lon="8.0092213">
                <ele>177.0</ele>
                <name>Position 99</name>
            </trkpt>
            <trkpt lat="49.8555253" lon="8.0093916">
                <ele>176.0</ele>
                <name>Position 100</name>
            </trkpt>
            <trkpt lat="49.8555251" lon="8.0093967">
                <ele>176.0</ele>
                <name>Position 101</name>
            </trkpt>
            <trkpt lat="49.8555574" lon="8.0094954">
                <ele>176.0</ele>
                <name>Position 102</name>
            </trkpt>
            <trkpt lat="49.8555775" lon="8.0095556">
                <ele>176.0</ele>
                <name>Position 103</name>
            </trkpt>
            <trkpt lat="49.8555846" lon="8.0096067">
                <ele>176.0</ele>
                <name>Position 104</name>
            </trkpt>
            <trkpt lat="49.855693" lon="8.0098235">
                <ele>175.0</ele>
                <name>Position 105</name>
            </trkpt>
            <trkpt lat="49.8557254" lon="8.0098659">
                <ele>174.0</ele>
                <name>Position 106</name>
            </trkpt>
            <trkpt lat="49.855843" lon="8.0100587">
                <ele>173.0</ele>
                <name>Position 107</name>
            </trkpt>
            <trkpt lat="49.8559119" lon="8.0102127">
                <ele>173.0</ele>
                <name>Position 108</name>
            </trkpt>
            <trkpt lat="49.8560603" lon="8.0104762">
                <ele>174.0</ele>
                <name>Position 109</name>
            </trkpt>
            <trkpt lat="49.8562228" lon="8.010685">
                <ele>174.0</ele>
                <name>Position 110</name>
            </trkpt>
            <trkpt lat="49.8563635" lon="8.0109067">
                <ele>174.0</ele>
                <name>Position 111</name>
            </trkpt>
            <trkpt lat="49.8565112" lon="8.0112823">
                <ele>176.0</ele>
                <name>Position 112</name>
            </trkpt>
            <trkpt lat="49.8566677" lon="8.0116064">
                <ele>177.0</ele>
                <name>Position 113</name>
            </trkpt>
            <trkpt lat="49.8568433" lon="8.0119617">
                <ele>179.0</ele>
                <name>Position 114</name>
            </trkpt>
            <trkpt lat="49.8569877" lon="8.0121829">
                <ele>179.0</ele>
                <name>Position 115</name>
            </trkpt>
            <trkpt lat="49.8570191" lon="8.0122399">
                <ele>179.0</ele>
                <name>Position 116</name>
            </trkpt>
            <trkpt lat="49.8570894" lon="8.0123363">
                <ele>179.0</ele>
                <name>Position 117</name>
            </trkpt>
            <trkpt lat="49.8571924" lon="8.0124708">
                <ele>179.0</ele>
                <name>Position 118</name>
            </trkpt>
            <trkpt lat="49.8573164" lon="8.0125925">
                <ele>178.0</ele>
                <name>Position 119</name>
            </trkpt>
            <trkpt lat="49.8574881" lon="8.0127316">
                <ele>177.0</ele>
                <name>Position 120</name>
            </trkpt>
            <trkpt lat="49.8576602" lon="8.0129106">
                <ele>175.0</ele>
                <name>Position 121</name>
            </trkpt>
            <trkpt lat="49.8577072" lon="8.0129713">
                <ele>175.0</ele>
                <name>Position 122</name>
            </trkpt>
            <trkpt lat="49.8577622" lon="8.0130653">
                <ele>175.0</ele>
                <name>Position 123</name>
            </trkpt>
            <trkpt lat="49.857766" lon="8.0130763">
                <ele>175.0</ele>
                <name>Position 124</name>
            </trkpt>
            <trkpt lat="49.8578255" lon="8.0132068">
                <ele>175.0</ele>
                <name>Position 125</name>
            </trkpt>
            <trkpt lat="49.8579535" lon="8.0135355">
                <ele>176.0</ele>
                <name>Position 126</name>
            </trkpt>
            <trkpt lat="49.8580077" lon="8.0137464">
                <ele>176.0</ele>
                <name>Position 127</name>
            </trkpt>
            <trkpt lat="49.8580238" lon="8.0138338">
                <ele>176.0</ele>
                <name>Position 128</name>
            </trkpt>
            <trkpt lat="49.8580993" lon="8.0140539">
                <ele>177.0</ele>
                <name>Position 129</name>
            </trkpt>
            <trkpt lat="49.8581155" lon="8.0140952">
                <ele>177.0</ele>
                <name>Position 130</name>
            </trkpt>
            <trkpt lat="49.8581397" lon="8.0141761">
                <ele>177.0</ele>
                <name>Position 131</name>
            </trkpt>
            <trkpt lat="49.8582204" lon="8.0144242">
                <ele>178.0</ele>
                <name>Position 132</name>
            </trkpt>
            <trkpt lat="49.8582338" lon="8.014455">
                <ele>178.0</ele>
                <name>Position 133</name>
            </trkpt>
            <trkpt lat="49.858347" lon="8.0147931">
                <ele>180.0</ele>
                <name>Position 134</name>
            </trkpt>
            <trkpt lat="49.8584431" lon="8.0150921">
                <ele>182.0</ele>
                <name>Position 135</name>
            </trkpt>
            <trkpt lat="49.8584943" lon="8.015245">
                <ele>182.0</ele>
                <name>Position 136</name>
            </trkpt>
            <trkpt lat="49.8585325" lon="8.0154026">
                <ele>182.0</ele>
                <name>Position 137</name>
            </trkpt>
            <trkpt lat="49.8585275" lon="8.0154493">
                <ele>182.0</ele>
                <name>Position 138</name>
            </trkpt>
            <trkpt lat="49.8585278" lon="8.0155274">
                <ele>183.0</ele>
                <name>Position 139</name>
            </trkpt>
            <trkpt lat="49.858462" lon="8.0156837">
                <ele>184.0</ele>
                <name>Position 140</name>
            </trkpt>
            <trkpt lat="49.8584531" lon="8.01572">
                <ele>184.0</ele>
                <name>Position 141</name>
            </trkpt>
            <trkpt lat="49.8584188" lon="8.0157785">
                <ele>185.0</ele>
                <name>Position 142</name>
            </trkpt>
            <trkpt lat="49.8584092" lon="8.0158081">
                <ele>185.0</ele>
                <name>Position 143</name>
            </trkpt>
            <trkpt lat="49.8584398" lon="8.0159845">
                <ele>186.0</ele>
                <name>Position 144</name>
            </trkpt>
            <trkpt lat="49.8585405" lon="8.0161108">
                <ele>186.0</ele>
                <name>Position 145</name>
            </trkpt>
            <trkpt lat="49.8585636" lon="8.016138">
                <ele>186.0</ele>
                <name>Position 146</name>
            </trkpt>
            <trkpt lat="49.8586597" lon="8.0162383">
                <ele>185.0</ele>
                <name>Position 147</name>
            </trkpt>
            <trkpt lat="49.8587083" lon="8.0163623">
                <ele>186.0</ele>
                <name>Position 148</name>
            </trkpt>
            <trkpt lat="49.8587607" lon="8.0164843">
                <ele>186.0</ele>
                <name>Position 149</name>
            </trkpt>
            <trkpt lat="49.8587942" lon="8.0165804">
                <ele>186.0</ele>
                <name>Position 150</name>
            </trkpt>
            <trkpt lat="49.8587991" lon="8.0167498">
                <ele>187.0</ele>
                <name>Position 151</name>
            </trkpt>
            <trkpt lat="49.858791" lon="8.0167612">
                <ele>187.0</ele>
                <name>Position 152</name>
            </trkpt>
            <trkpt lat="49.8587756" lon="8.0168041">
                <ele>188.0</ele>
                <name>Position 153</name>
            </trkpt>
            <trkpt lat="49.8587133" lon="8.0169151">
                <ele>189.0</ele>
                <name>Position 154</name>
            </trkpt>
            <trkpt lat="49.8586981" lon="8.0169427">
                <ele>190.0</ele>
                <name>Position 155</name>
            </trkpt>
            <trkpt lat="49.8586819" lon="8.0169689">
                <ele>190.0</ele>
                <name>Position 156</name>
            </trkpt>
            <trkpt lat="49.8586064" lon="8.0171015">
                <ele>192.0</ele>
                <name>Position 157</name>
            </trkpt>
            <trkpt lat="49.8586009" lon="8.0171098">
                <ele>192.0</ele>
                <name>Position 158</name>
            </trkpt>
            <trkpt lat="49.8585334" lon="8.0171843">
                <ele>193.0</ele>
                <name>Position 159</name>
            </trkpt>
            <trkpt lat="49.8585129" lon="8.0172049">
                <ele>194.0</ele>
                <name>Position 160</name>
            </trkpt>
            <trkpt lat="49.8584822" lon="8.0172476">
                <ele>194.0</ele>
                <name>Position 161</name>
            </trkpt>
            <trkpt lat="49.8584413" lon="8.0173274">
                <ele>195.0</ele>
                <name>Position 162</name>
            </trkpt>
            <trkpt lat="49.8584146" lon="8.0173586">
                <ele>196.0</ele>
                <name>Position 163</name>
            </trkpt>
            <trkpt lat="49.8583279" lon="8.0175564">
                <ele>198.0</ele>
                <name>Position 164</name>
            </trkpt>
            <trkpt lat="49.858188" lon="8.0177873">
                <ele>201.0</ele>
                <name>Position 165</name>
            </trkpt>
            <trkpt lat="49.8580569" lon="8.018001">
                <ele>204.0</ele>
                <name>Position 166</name>
            </trkpt>
            <trkpt lat="49.857911" lon="8.0181815">
                <ele>208.0</ele>
                <name>Position 167</name>
            </trkpt>
            <trkpt lat="49.8577559" lon="8.0183534">
                <ele>211.0</ele>
                <name>Position 168</name>
            </trkpt>
            <trkpt lat="49.8576526" lon="8.0184657">
                <ele>214.0</ele>
                <name>Position 169</name>
            </trkpt>
            <trkpt lat="49.8575839" lon="8.0185436">
                <ele>216.0</ele>
                <name>Position 170</name>
            </trkpt>
            <trkpt lat="49.8575854" lon="8.0185726">
                <ele>216.0</ele>
                <name>Position 171</name>
            </trkpt>
            <trkpt lat="49.8575716" lon="8.0187083">
                <ele>218.0</ele>
                <name>Position 172</name>
            </trkpt>
            <trkpt lat="49.8576428" lon="8.0189625">
                <ele>218.8</ele>
                <name>Position 173</name>
            </trkpt>
            <trkpt lat="49.8577734" lon="8.0192867">
                <ele>219.0</ele>
                <name>Position 174</name>
            </trkpt>
            <trkpt lat="49.8579357" lon="8.0196541">
                <ele>219.0</ele>
                <name>Position 175</name>
            </trkpt>
            <trkpt lat="49.8580571" lon="8.0199781">
                <ele>218.0</ele>
                <name>Position 176</name>
            </trkpt>
            <trkpt lat="49.8581995" lon="8.0202514">
                <ele>217.0</ele>
                <name>Position 177</name>
            </trkpt>
            <trkpt lat="49.8582841" lon="8.0204157">
                <ele>216.0</ele>
                <name>Position 178</name>
            </trkpt>
            <trkpt lat="49.8583268" lon="8.0204945">
                <ele>215.0</ele>
                <name>Position 179</name>
            </trkpt>
            <trkpt lat="49.8585979" lon="8.0207973">
                <ele>213.0</ele>
                <name>Position 180</name>
            </trkpt>
            <trkpt lat="49.8588464" lon="8.0211201">
                <ele>211.0</ele>
                <name>Position 181</name>
            </trkpt>
            <trkpt lat="49.8590816" lon="8.0213735">
                <ele>209.0</ele>
                <name>Position 182</name>
            </trkpt>
            <trkpt lat="49.8593354" lon="8.0216284">
                <ele>207.0</ele>
                <name>Position 183</name>
            </trkpt>
            <trkpt lat="49.8596991" lon="8.0219724">
                <ele>205.0</ele>
                <name>Position 184</name>
            </trkpt>
            <trkpt lat="49.8599953" lon="8.0222546">
                <ele>202.0</ele>
                <name>Position 185</name>
            </trkpt>
            <trkpt lat="49.8602379" lon="8.0224603">
                <ele>202.0</ele>
                <name>Position 186</name>
            </trkpt>
            <trkpt lat="49.8603185" lon="8.0224499">
                <ele>201.0</ele>
                <name>Position 187</name>
            </trkpt>
            <trkpt lat="49.8605229" lon="8.0222422">
                <ele>199.0</ele>
                <name>Position 188</name>
            </trkpt>
            <trkpt lat="49.8607615" lon="8.0220645">
                <ele>195.0</ele>
                <name>Position 189</name>
            </trkpt>
            <trkpt lat="49.8610749" lon="8.0218653">
                <ele>192.0</ele>
                <name>Position 190</name>
            </trkpt>
            <trkpt lat="49.8611028" lon="8.0218484">
                <ele>192.0</ele>
                <name>Position 191</name>
            </trkpt>
            <trkpt lat="49.8612518" lon="8.0217776">
                <ele>191.0</ele>
                <name>Position 192</name>
            </trkpt>
            <trkpt lat="49.8612662" lon="8.0220682">
                <ele>193.0</ele>
                <name>Position 193</name>
            </trkpt>
            <trkpt lat="49.8612571" lon="8.0222716">
                <ele>194.0</ele>
                <name>Position 194</name>
            </trkpt>
            <trkpt lat="49.8612548" lon="8.02252">
                <ele>196.0</ele>
                <name>Position 195</name>
            </trkpt>
            <trkpt lat="49.8612484" lon="8.0228125">
                <ele>199.0</ele>
                <name>Position 196</name>
            </trkpt>
            <trkpt lat="49.8612351" lon="8.023139">
                <ele>202.0</ele>
                <name>Position 197</name>
            </trkpt>
            <trkpt lat="49.8611692" lon="8.0234956">
                <ele>206.0</ele>
                <name>Position 198</name>
            </trkpt>
            <trkpt lat="49.8611516" lon="8.0236116">
                <ele>207.3</ele>
                <name>Position 199</name>
            </trkpt>
            <trkpt lat="49.8610943" lon="8.0238346">
                <ele>210.0</ele>
                <name>Position 200</name>
            </trkpt>
            <trkpt lat="49.8610906" lon="8.02391">
                <ele>211.0</ele>
                <name>Position 201</name>
            </trkpt>
            <trkpt lat="49.8610505" lon="8.0241647">
                <ele>214.0</ele>
                <name>Position 202</name>
            </trkpt>
            <trkpt lat="49.860979" lon="8.0245035">
                <ele>217.0</ele>
                <name>Position 203</name>
            </trkpt>
            <trkpt lat="49.8608889" lon="8.0247993">
                <ele>220.0</ele>
                <name>Position 204</name>
            </trkpt>
            <trkpt lat="49.8608547" lon="8.0248514">
                <ele>221.0</ele>
                <name>Position 205</name>
            </trkpt>
            <trkpt lat="49.8607872" lon="8.0249079">
                <ele>222.0</ele>
                <name>Position 206</name>
            </trkpt>
            <trkpt lat="49.8605727" lon="8.0249858">
                <ele>224.0</ele>
                <name>Position 207</name>
            </trkpt>
            <trkpt lat="49.8605077" lon="8.0250167">
                <ele>225.0</ele>
                <name>Position 208</name>
            </trkpt>
            <trkpt lat="49.8604032" lon="8.0250384">
                <ele>226.0</ele>
                <name>Position 209</name>
            </trkpt>
            <trkpt lat="49.8599859" lon="8.0251636">
                <ele>229.0</ele>
                <name>Position 210</name>
            </trkpt>
            <trkpt lat="49.8597249" lon="8.025234">
                <ele>232.0</ele>
                <name>Position 211</name>
            </trkpt>
            <trkpt lat="49.8595063" lon="8.0254141">
                <ele>235.0</ele>
                <name>Position 212</name>
            </trkpt>
            <trkpt lat="49.8593031" lon="8.0256061">
                <ele>238.0</ele>
                <name>Position 213</name>
            </trkpt>
            <trkpt lat="49.8591431" lon="8.0258162">
                <ele>240.0</ele>
                <name>Position 214</name>
            </trkpt>
            <trkpt lat="49.8590924" lon="8.0259083">
                <ele>241.0</ele>
                <name>Position 215</name>
            </trkpt>
            <trkpt lat="49.8590854" lon="8.025904">
                <ele>241.0</ele>
                <name>Position 216</name>
            </trkpt>
            <trkpt lat="49.8591021" lon="8.0259037">
                <ele>241.0</ele>
                <name>Position 217</name>
            </trkpt>
            <trkpt lat="49.8591298" lon="8.0259471">
                <ele>240.0</ele>
                <name>Position 218</name>
            </trkpt>
            <trkpt lat="49.8591593" lon="8.0261442">
                <ele>241.0</ele>
                <name>Position 219</name>
            </trkpt>
            <trkpt lat="49.8591708" lon="8.0262318">
                <ele>241.0</ele>
                <name>Position 220</name>
            </trkpt>
            <trkpt lat="49.859221" lon="8.0265299">
                <ele>242.0</ele>
                <name>Position 221</name>
            </trkpt>
            <trkpt lat="49.8592272" lon="8.0265716">
                <ele>243.0</ele>
                <name>Position 222</name>
            </trkpt>
            <trkpt lat="49.8592621" lon="8.026843">
                <ele>243.0</ele>
                <name>Position 223</name>
            </trkpt>
            <trkpt lat="49.8593575" lon="8.0271373">
                <ele>243.0</ele>
                <name>Position 224</name>
            </trkpt>
            <trkpt lat="49.8594271" lon="8.0274574">
                <ele>243.0</ele>
                <name>Position 225</name>
            </trkpt>
            <trkpt lat="49.8595122" lon="8.0277533">
                <ele>243.0</ele>
                <name>Position 226</name>
            </trkpt>
            <trkpt lat="49.859534" lon="8.0278562">
                <ele>243.0</ele>
                <name>Position 227</name>
            </trkpt>
            <trkpt lat="49.8595498" lon="8.0279147">
                <ele>243.0</ele>
                <name>Position 228</name>
            </trkpt>
            <trkpt lat="49.8596343" lon="8.0283035">
                <ele>242.0</ele>
                <name>Position 229</name>
            </trkpt>
            <trkpt lat="49.8596628" lon="8.0285574">
                <ele>242.0</ele>
                <name>Position 230</name>
            </trkpt>
            <trkpt lat="49.8594969" lon="8.0287342">
                <ele>244.0</ele>
                <name>Position 231</name>
            </trkpt>
            <trkpt lat="49.8593148" lon="8.0287997">
                <ele>245.0</ele>
                <name>Position 232</name>
            </trkpt>
            <trkpt lat="49.8592472" lon="8.0288311">
                <ele>246.0</ele>
                <name>Position 233</name>
            </trkpt>
            <trkpt lat="49.8592234" lon="8.0288354">
                <ele>246.0</ele>
                <name>Position 234</name>
            </trkpt>
            <trkpt lat="49.8591665" lon="8.0288411">
                <ele>247.0</ele>
                <name>Position 235</name>
            </trkpt>
            <trkpt lat="49.858918" lon="8.0288966">
                <ele>249.0</ele>
                <name>Position 236</name>
            </trkpt>
            <trkpt lat="49.8588444" lon="8.0289134">
                <ele>249.0</ele>
                <name>Position 237</name>
            </trkpt>
            <trkpt lat="49.858592" lon="8.0289617">
                <ele>251.0</ele>
                <name>Position 238</name>
            </trkpt>
            <trkpt lat="49.8585176" lon="8.0289826">
                <ele>252.0</ele>
                <name>Position 239</name>
            </trkpt>
            <trkpt lat="49.8582108" lon="8.0290378">
                <ele>254.0</ele>
                <name>Position 240</name>
            </trkpt>
            <trkpt lat="49.857969" lon="8.0290619">
                <ele>255.0</ele>
                <name>Position 241</name>
            </trkpt>
            <trkpt lat="49.8577789" lon="8.0290909">
                <ele>256.0</ele>
                <name>Position 242</name>
            </trkpt>
            <trkpt lat="49.8575415" lon="8.029138">
                <ele>257.0</ele>
                <name>Position 243</name>
            </trkpt>
            <trkpt lat="49.8573921" lon="8.0291509">
                <ele>257.0</ele>
                <name>Position 244</name>
            </trkpt>
            <trkpt lat="49.8570986" lon="8.0292342">
                <ele>254.4</ele>
                <name>Position 245</name>
            </trkpt>
            <trkpt lat="49.8570316" lon="8.0292291">
                <ele>254.4</ele>
                <name>Position 246</name>
            </trkpt>
            <trkpt lat="49.8569454" lon="8.0292106">
                <ele>254.0</ele>
                <name>Position 247</name>
            </trkpt>
            <trkpt lat="49.8567726" lon="8.0290619">
                <ele>254.0</ele>
                <name>Position 248</name>
            </trkpt>
            <trkpt lat="49.8567465" lon="8.0290329">
                <ele>254.0</ele>
                <name>Position 249</name>
            </trkpt>
            <trkpt lat="49.856692" lon="8.0289877">
                <ele>254.0</ele>
                <name>Position 250</name>
            </trkpt>
            <trkpt lat="49.8565362" lon="8.028872">
                <ele>255.0</ele>
                <name>Position 251</name>
            </trkpt>
            <trkpt lat="49.8563722" lon="8.0286969">
                <ele>256.0</ele>
                <name>Position 252</name>
            </trkpt>
            <trkpt lat="49.8562063" lon="8.0286164">
                <ele>256.0</ele>
                <name>Position 253</name>
            </trkpt>
            <trkpt lat="49.8561964" lon="8.0286125">
                <ele>256.0</ele>
                <name>Position 254</name>
            </trkpt>
            <trkpt lat="49.8559926" lon="8.0285601">
                <ele>256.0</ele>
                <name>Position 255</name>
            </trkpt>
            <trkpt lat="49.8557105" lon="8.0285291">
                <ele>256.0</ele>
                <name>Position 256</name>
            </trkpt>
            <trkpt lat="49.8556622" lon="8.0285246">
                <ele>256.0</ele>
                <name>Position 257</name>
            </trkpt>
            <trkpt lat="49.8554515" lon="8.0285636">
                <ele>255.0</ele>
                <name>Position 258</name>
            </trkpt>
            <trkpt lat="49.855086" lon="8.0287175">
                <ele>253.0</ele>
                <name>Position 259</name>
            </trkpt>
            <trkpt lat="49.8548531" lon="8.0288292">
                <ele>253.0</ele>
                <name>Position 260</name>
            </trkpt>
            <trkpt lat="49.8546098" lon="8.0290271">
                <ele>253.0</ele>
                <name>Position 261</name>
            </trkpt>
            <trkpt lat="49.8543225" lon="8.0292431">
                <ele>255.0</ele>
                <name>Position 262</name>
            </trkpt>
            <trkpt lat="49.8540154" lon="8.0295182">
                <ele>254.0</ele>
                <name>Position 263</name>
            </trkpt>
            <trkpt lat="49.8538083" lon="8.0296804">
                <ele>253.0</ele>
                <name>Position 264</name>
            </trkpt>
            <trkpt lat="49.8537546" lon="8.029715">
                <ele>253.0</ele>
                <name>Position 265</name>
            </trkpt>
            <trkpt lat="49.8536559" lon="8.0297803">
                <ele>254.0</ele>
                <name>Position 266</name>
            </trkpt>
            <trkpt lat="49.853376" lon="8.0300577">
                <ele>255.0</ele>
                <name>Position 267</name>
            </trkpt>
            <trkpt lat="49.8531094" lon="8.0303543">
                <ele>253.0</ele>
                <name>Position 268</name>
            </trkpt>
            <trkpt lat="49.8527909" lon="8.0306848">
                <ele>250.0</ele>
                <name>Position 269</name>
            </trkpt>
            <trkpt lat="49.8525111" lon="8.0309906">
                <ele>248.0</ele>
                <name>Position 270</name>
            </trkpt>
            <trkpt lat="49.852255" lon="8.0309676">
                <ele>247.0</ele>
                <name>Position 271</name>
            </trkpt>
            <trkpt lat="49.8520785" lon="8.0307609">
                <ele>249.0</ele>
                <name>Position 272</name>
            </trkpt>
            <trkpt lat="49.8519265" lon="8.0304979">
                <ele>250.0</ele>
                <name>Position 273</name>
            </trkpt>
            <trkpt lat="49.851744" lon="8.0302152">
                <ele>251.0</ele>
                <name>Position 274</name>
            </trkpt>
            <trkpt lat="49.8516707" lon="8.0301164">
                <ele>252.0</ele>
                <name>Position 275</name>
            </trkpt>
            <trkpt lat="49.8515181" lon="8.0299641">
                <ele>251.0</ele>
                <name>Position 276</name>
            </trkpt>
            <trkpt lat="49.8513477" lon="8.0296825">
                <ele>250.0</ele>
                <name>Position 277</name>
            </trkpt>
            <trkpt lat="49.8512555" lon="8.0295254">
                <ele>249.6</ele>
                <name>Position 278</name>
            </trkpt>
            <trkpt lat="49.8511874" lon="8.0294083">
                <ele>250.6</ele>
                <name>Position 279</name>
            </trkpt>
            <trkpt lat="49.8510364" lon="8.0291247">
                <ele>252.0</ele>
                <name>Position 280</name>
            </trkpt>
            <trkpt lat="49.8508417" lon="8.0288167">
                <ele>252.0</ele>
                <name>Position 281</name>
            </trkpt>
            <trkpt lat="49.8506128" lon="8.0286697">
                <ele>250.0</ele>
                <name>Position 282</name>
            </trkpt>
            <trkpt lat="49.850514" lon="8.0285227">
                <ele>250.0</ele>
                <name>Position 283</name>
            </trkpt>
            <trkpt lat="49.8503937" lon="8.0282175">
                <ele>250.0</ele>
                <name>Position 284</name>
            </trkpt>
            <trkpt lat="49.8501916" lon="8.0279589">
                <ele>249.0</ele>
                <name>Position 285</name>
            </trkpt>
            <trkpt lat="49.8500043" lon="8.0276304">
                <ele>249.0</ele>
                <name>Position 286</name>
            </trkpt>
            <trkpt lat="49.8500034" lon="8.0276143">
                <ele>249.0</ele>
                <name>Position 287</name>
            </trkpt>
            <trkpt lat="49.8500096" lon="8.0275653">
                <ele>249.0</ele>
                <name>Position 288</name>
            </trkpt>
            <trkpt lat="49.8499762" lon="8.0271397">
                <ele>250.0</ele>
                <name>Position 289</name>
            </trkpt>
            <trkpt lat="49.8499516" lon="8.0267498">
                <ele>250.0</ele>
                <name>Position 290</name>
            </trkpt>
            <trkpt lat="49.8499488" lon="8.0264039">
                <ele>251.0</ele>
                <name>Position 291</name>
            </trkpt>
            <trkpt lat="49.849932" lon="8.0259349">
                <ele>253.0</ele>
                <name>Position 292</name>
            </trkpt>
            <trkpt lat="49.8499295" lon="8.0257098">
                <ele>253.0</ele>
                <name>Position 293</name>
            </trkpt>
            <trkpt lat="49.8499139" lon="8.0254203">
                <ele>253.0</ele>
                <name>Position 294</name>
            </trkpt>
            <trkpt lat="49.84989" lon="8.024917">
                <ele>253.0</ele>
                <name>Position 295</name>
            </trkpt>
            <trkpt lat="49.849897" lon="8.0245322">
                <ele>254.0</ele>
                <name>Position 296</name>
            </trkpt>
            <trkpt lat="49.8498957" lon="8.0240325">
                <ele>254.0</ele>
                <name>Position 297</name>
            </trkpt>
            <trkpt lat="49.8498653" lon="8.0236749">
                <ele>253.9</ele>
                <name>Position 298</name>
            </trkpt>
            <trkpt lat="49.8498533" lon="8.0231249">
                <ele>255.0</ele>
                <name>Position 299</name>
            </trkpt>
            <trkpt lat="49.8498057" lon="8.0225949">
                <ele>254.4</ele>
                <name>Position 300</name>
            </trkpt>
            <trkpt lat="49.8498078" lon="8.0220615">
                <ele>255.0</ele>
                <name>Position 301</name>
            </trkpt>
            <trkpt lat="49.849799" lon="8.0215623">
                <ele>255.0</ele>
                <name>Position 302</name>
            </trkpt>
            <trkpt lat="49.8497979" lon="8.0211709">
                <ele>255.0</ele>
                <name>Position 303</name>
            </trkpt>
            <trkpt lat="49.8497951" lon="8.0207015">
                <ele>255.0</ele>
                <name>Position 304</name>
            </trkpt>
            <trkpt lat="49.8497626" lon="8.0202479">
                <ele>254.0</ele>
                <name>Position 305</name>
            </trkpt>
            <trkpt lat="49.8497579" lon="8.0198627">
                <ele>254.0</ele>
                <name>Position 306</name>
            </trkpt>
            <trkpt lat="49.849755" lon="8.0198044">
                <ele>254.0</ele>
                <name>Position 307</name>
            </trkpt>
            <trkpt lat="49.8497908" lon="8.0193767">
                <ele>254.0</ele>
                <name>Position 308</name>
            </trkpt>
            <trkpt lat="49.8498014" lon="8.0190255">
                <ele>254.0</ele>
                <name>Position 309</name>
            </trkpt>
            <trkpt lat="49.8497599" lon="8.0186099">
                <ele>252.0</ele>
                <name>Position 310</name>
            </trkpt>
            <trkpt lat="49.8497083" lon="8.0180765">
                <ele>252.0</ele>
                <name>Position 311</name>
            </trkpt>
            <trkpt lat="49.8496692" lon="8.017533">
                <ele>253.0</ele>
                <name>Position 312</name>
            </trkpt>
            <trkpt lat="49.8496104" lon="8.0173353">
                <ele>253.0</ele>
                <name>Position 313</name>
            </trkpt>
            <trkpt lat="49.849588" lon="8.0171719">
                <ele>253.0</ele>
                <name>Position 314</name>
            </trkpt>
            <trkpt lat="49.8495672" lon="8.0168451">
                <ele>254.0</ele>
                <name>Position 315</name>
            </trkpt>
            <trkpt lat="49.8495573" lon="8.0164513">
                <ele>255.0</ele>
                <name>Position 316</name>
            </trkpt>
            <trkpt lat="49.849516" lon="8.0159681">
                <ele>256.0</ele>
                <name>Position 317</name>
            </trkpt>
            <trkpt lat="49.8495059" lon="8.0158717">
                <ele>256.0</ele>
                <name>Position 318</name>
            </trkpt>
            <trkpt lat="49.8495082" lon="8.0153866">
                <ele>256.0</ele>
                <name>Position 319</name>
            </trkpt>
            <trkpt lat="49.8495512" lon="8.0149303">
                <ele>257.0</ele>
                <name>Position 320</name>
            </trkpt>
            <trkpt lat="49.8495953" lon="8.0143979">
                <ele>256.0</ele>
                <name>Position 321</name>
            </trkpt>
            <trkpt lat="49.8496016" lon="8.0140637">
                <ele>255.0</ele>
                <name>Position 322</name>
            </trkpt>
            <trkpt lat="49.8496465" lon="8.0136967">
                <ele>254.0</ele>
                <name>Position 323</name>
            </trkpt>
            <trkpt lat="49.8497063" lon="8.0132708">
                <ele>253.0</ele>
                <name>Position 324</name>
            </trkpt>
            <trkpt lat="49.8498294" lon="8.0126496">
                <ele>252.0</ele>
                <name>Position 325</name>
            </trkpt>
            <trkpt lat="49.8499376" lon="8.0122597">
                <ele>252.0</ele>
                <name>Position 326</name>
            </trkpt>
            <trkpt lat="49.8499409" lon="8.0121943">
                <ele>251.0</ele>
                <name>Position 327</name>
            </trkpt>
            <trkpt lat="49.8498812" lon="8.0120594">
                <ele>249.0</ele>
                <name>Position 328</name>
            </trkpt>
            <trkpt lat="49.8496917" lon="8.0119184">
                <ele>245.0</ele>
                <name>Position 329</name>
            </trkpt>
            <trkpt lat="49.8495254" lon="8.0117474">
                <ele>241.0</ele>
                <name>Position 330</name>
            </trkpt>
            <trkpt lat="49.8493226" lon="8.011565">
                <ele>236.0</ele>
                <name>Position 331</name>
            </trkpt>
            <trkpt lat="49.8492462" lon="8.0114765">
                <ele>234.0</ele>
                <name>Position 332</name>
            </trkpt>
            <trkpt lat="49.8491736" lon="8.0114088">
                <ele>232.0</ele>
                <name>Position 333</name>
            </trkpt>
            <trkpt lat="49.8489637" lon="8.0111301">
                <ele>226.0</ele>
                <name>Position 334</name>
            </trkpt>
            <trkpt lat="49.8488415" lon="8.01094">
                <ele>222.0</ele>
                <name>Position 335</name>
            </trkpt>
            <trkpt lat="49.8486331" lon="8.0107477">
                <ele>217.0</ele>
                <name>Position 336</name>
            </trkpt>
            <trkpt lat="49.8483227" lon="8.0102745">
                <ele>209.0</ele>
                <name>Position 337</name>
            </trkpt>
            <trkpt lat="49.8480485" lon="8.009882">
                <ele>202.0</ele>
                <name>Position 338</name>
            </trkpt>
            <trkpt lat="49.8478604" lon="8.0095992">
                <ele>198.0</ele>
                <name>Position 339</name>
            </trkpt>
            <trkpt lat="49.8478781" lon="8.0095439">
                <ele>199.0</ele>
                <name>Position 340</name>
            </trkpt>
            <trkpt lat="49.8479304" lon="8.0094087">
                <ele>199.0</ele>
                <name>Position 341</name>
            </trkpt>
            <trkpt lat="49.8481141" lon="8.0091115">
                <ele>200.0</ele>
                <name>Position 342</name>
            </trkpt>
            <trkpt lat="49.8482676" lon="8.0088796">
                <ele>200.0</ele>
                <name>Position 343</name>
            </trkpt>
            <trkpt lat="49.8484359" lon="8.0085695">
                <ele>198.0</ele>
                <name>Position 344</name>
            </trkpt>
            <trkpt lat="49.8486212" lon="8.008311">
                <ele>197.0</ele>
                <name>Position 345</name>
            </trkpt>
            <trkpt lat="49.8487569" lon="8.0080547">
                <ele>196.0</ele>
                <name>Position 346</name>
            </trkpt>
            <trkpt lat="49.8489745" lon="8.0077965">
                <ele>196.0</ele>
                <name>Position 347</name>
            </trkpt>
            <trkpt lat="49.8494437" lon="8.0076618">
                <ele>197.0</ele>
                <name>Position 348</name>
            </trkpt>
            <trkpt lat="49.8497812" lon="8.0074928">
                <ele>196.0</ele>
                <name>Position 349</name>
            </trkpt>
            <trkpt lat="49.8498936" lon="8.007134">
                <ele>194.0</ele>
                <name>Position 350</name>
            </trkpt>
            <trkpt lat="49.8498786" lon="8.0066771">
                <ele>191.0</ele>
                <name>Position 351</name>
            </trkpt>
            <trkpt lat="49.8499901" lon="8.0066206">
                <ele>191.0</ele>
                <name>Position 352</name>
            </trkpt>
            <trkpt lat="49.8503165" lon="8.0067762">
                <ele>187.0</ele>
                <name>Position 353</name>
            </trkpt>
            <trkpt lat="49.8504559" lon="8.0071712">
                <ele>188.0</ele>
                <name>Position 354</name>
            </trkpt>
            <trkpt lat="49.8505965" lon="8.00753">
                <ele>189.0</ele>
                <name>Position 355</name>
            </trkpt>
            <trkpt lat="49.8508727" lon="8.0076634">
                <ele>187.0</ele>
                <name>Position 356</name>
            </trkpt>
            <trkpt lat="49.8512348" lon="8.0076555">
                <ele>184.0</ele>
                <name>Position 357</name>
            </trkpt>
            <trkpt lat="49.8515304" lon="8.0076659">
                <ele>182.0</ele>
                <name>Position 358</name>
            </trkpt>
            <trkpt lat="49.8517639" lon="8.0076338">
                <ele>181.0</ele>
                <name>Position 359</name>
            </trkpt>
            <trkpt lat="49.8519999" lon="8.00743">
                <ele>178.0</ele>
                <name>Position 360</name>
            </trkpt>
            <trkpt lat="49.8522941" lon="8.0070879">
                <ele>175.0</ele>
                <name>Position 361</name>
            </trkpt>
            <trkpt lat="49.8525206" lon="8.0069061">
                <ele>174.0</ele>
                <name>Position 362</name>
            </trkpt>
            <trkpt lat="49.8527111" lon="8.0069271">
                <ele>173.0</ele>
                <name>Position 363</name>
            </trkpt>
            <trkpt lat="49.8527034" lon="8.0069358">
                <ele>173.0</ele>
                <name>Position 364</name>
            </trkpt>
            <trkpt lat="49.8526898" lon="8.0068862">
                <ele>172.0</ele>
                <name>Position 365</name>
            </trkpt>
            <trkpt lat="49.8526669" lon="8.0067905">
                <ele>171.0</ele>
                <name>Position 366</name>
            </trkpt>
            <trkpt lat="49.8526478" lon="8.006584">
                <ele>169.0</ele>
                <name>Position 367</name>
            </trkpt>
            <trkpt lat="49.8526747" lon="8.0060525">
                <ele>163.0</ele>
                <name>Position 368</name>
            </trkpt>
            <trkpt lat="49.8527971" lon="8.0055995">
                <ele>157.0</ele>
                <name>Position 369</name>
            </trkpt>
            <trkpt lat="49.8529121" lon="8.0051657">
                <ele>153.0</ele>
                <name>Position 370</name>
            </trkpt>
            <trkpt lat="49.853008" lon="8.004565">
                <ele>149.0</ele>
                <name>Position 371</name>
            </trkpt>
            <trkpt lat="49.8530379" lon="8.0042965">
                <ele>147.0</ele>
                <name>Position 372</name>
            </trkpt>
            <trkpt lat="49.8530102" lon="8.0042255">
                <ele>147.0</ele>
                <name>Position 373</name>
            </trkpt>
            <trkpt lat="49.8530003" lon="8.0041369">
                <ele>146.0</ele>
                <name>Position 374</name>
            </trkpt>
            <trkpt lat="49.8528331" lon="8.0039611">
                <ele>147.0</ele>
                <name>Position 375</name>
            </trkpt>
            <trkpt lat="49.8525919" lon="8.0041072">
                <ele>149.0</ele>
                <name>Position 376</name>
            </trkpt>
            <trkpt lat="49.8523088" lon="8.0041852">
                <ele>149.0</ele>
                <name>Position 377</name>
            </trkpt>
            <trkpt lat="49.8519712" lon="8.0039767">
                <ele>148.0</ele>
                <name>Position 378</name>
            </trkpt>
            <trkpt lat="49.8516657" lon="8.0038005">
                <ele>147.0</ele>
                <name>Position 379</name>
            </trkpt>
            <trkpt lat="49.8512805" lon="8.0035909">
                <ele>145.0</ele>
                <name>Position 380</name>
            </trkpt>
            <trkpt lat="49.8510494" lon="8.0031385">
                <ele>142.0</ele>
                <name>Position 381</name>
            </trkpt>
            <trkpt lat="49.8508863" lon="8.0025884">
                <ele>139.0</ele>
                <name>Position 382</name>
            </trkpt>
            <trkpt lat="49.8507835" lon="8.0020497">
                <ele>136.0</ele>
                <name>Position 383</name>
            </trkpt>
            <trkpt lat="49.8506637" lon="8.0014595">
                <ele>133.0</ele>
                <name>Position 384</name>
            </trkpt>
            <trkpt lat="49.8505682" lon="8.0010178">
                <ele>129.0</ele>
                <name>Position 385</name>
            </trkpt>
            <trkpt lat="49.8504733" lon="8.0006653">
                <ele>128.0</ele>
                <name>Position 386</name>
            </trkpt>
            <trkpt lat="49.8503171" lon="8.0004182">
                <ele>127.0</ele>
                <name>Position 387</name>
            </trkpt>
            <trkpt lat="49.8502906" lon="8.0003798">
                <ele>127.0</ele>
                <name>Position 388</name>
            </trkpt>
            <trkpt lat="49.8501066" lon="8.0001776">
                <ele>126.0</ele>
                <name>Position 389</name>
            </trkpt>
            <trkpt lat="49.8499161" lon="7.9999359">
                <ele>125.0</ele>
                <name>Position 390</name>
            </trkpt>
            <trkpt lat="49.849746" lon="7.9997425">
                <ele>126.0</ele>
                <name>Position 391</name>
            </trkpt>
            <trkpt lat="49.8495462" lon="7.9995125">
                <ele>126.0</ele>
                <name>Position 392</name>
            </trkpt>
            <trkpt lat="49.8493162" lon="7.9992614">
                <ele>125.0</ele>
                <name>Position 393</name>
            </trkpt>
            <trkpt lat="49.8489976" lon="7.9988585">
                <ele>124.0</ele>
                <name>Position 394</name>
            </trkpt>
            <trkpt lat="49.8488557" lon="7.9986807">
                <ele>124.0</ele>
                <name>Position 395</name>
            </trkpt>
            <trkpt lat="49.8486326" lon="7.9984079">
                <ele>123.0</ele>
                <name>Position 396</name>
            </trkpt>
            <trkpt lat="49.8484172" lon="7.9981572">
                <ele>123.0</ele>
                <name>Position 397</name>
            </trkpt>
            <trkpt lat="49.8482371" lon="7.9979279">
                <ele>122.0</ele>
                <name>Position 398</name>
            </trkpt>
            <trkpt lat="49.8478378" lon="7.9974885">
                <ele>121.0</ele>
                <name>Position 399</name>
            </trkpt>
            <trkpt lat="49.8476465" lon="7.9972215">
                <ele>121.0</ele>
                <name>Position 400</name>
            </trkpt>
            <trkpt lat="49.8476395" lon="7.9971637">
                <ele>121.0</ele>
                <name>Position 401</name>
            </trkpt>
            <trkpt lat="49.847882" lon="7.996928">
                <ele>119.0</ele>
                <name>Position 402</name>
            </trkpt>
            <trkpt lat="49.8480841" lon="7.9967527">
                <ele>118.0</ele>
                <name>Position 403</name>
            </trkpt>
            <trkpt lat="49.8482394" lon="7.9965832">
                <ele>117.0</ele>
                <name>Position 404</name>
            </trkpt>
            <trkpt lat="49.8484154" lon="7.9963817">
                <ele>116.0</ele>
                <name>Position 405</name>
            </trkpt>
            <trkpt lat="49.848626" lon="7.9961663">
                <ele>116.0</ele>
                <name>Position 406</name>
            </trkpt>
            <trkpt lat="49.8488324" lon="7.9959444">
                <ele>116.0</ele>
                <name>Position 407</name>
            </trkpt>
            <trkpt lat="49.8490649" lon="7.9956963">
                <ele>117.0</ele>
                <name>Position 408</name>
            </trkpt>
            <trkpt lat="49.8492855" lon="7.9954567">
                <ele>118.0</ele>
                <name>Position 409</name>
            </trkpt>
            <trkpt lat="49.8495055" lon="7.9952312">
                <ele>119.0</ele>
                <name>Position 410</name>
            </trkpt>
            <trkpt lat="49.8496954" lon="7.9949946">
                <ele>119.0</ele>
                <name>Position 411</name>
            </trkpt>
            <trkpt lat="49.8499229" lon="7.9947235">
                <ele>120.0</ele>
                <name>Position 412</name>
            </trkpt>
            <trkpt lat="49.8501679" lon="7.99446">
                <ele>121.0</ele>
                <name>Position 413</name>
            </trkpt>
            <trkpt lat="49.8503657" lon="7.9942522">
                <ele>121.0</ele>
                <name>Position 414</name>
            </trkpt>
            <trkpt lat="49.8505721" lon="7.994025">
                <ele>121.0</ele>
                <name>Position 415</name>
            </trkpt>
            <trkpt lat="49.8509134" lon="7.9936578">
                <ele>122.0</ele>
                <name>Position 416</name>
            </trkpt>
            <trkpt lat="49.8512135" lon="7.9933385">
                <ele>123.0</ele>
                <name>Position 417</name>
            </trkpt>
            <trkpt lat="49.8515085" lon="7.9930456">
                <ele>124.0</ele>
                <name>Position 418</name>
            </trkpt>
            <trkpt lat="49.8517994" lon="7.99277">
                <ele>123.0</ele>
                <name>Position 419</name>
            </trkpt>
            <trkpt lat="49.8520899" lon="7.9924935">
                <ele>122.0</ele>
                <name>Position 420</name>
            </trkpt>
            <trkpt lat="49.8523309" lon="7.9923235">
                <ele>121.0</ele>
                <name>Position 421</name>
            </trkpt>
            <trkpt lat="49.852435" lon="7.9922335">
                <ele>121.0</ele>
                <name>Position 422</name>
            </trkpt>
            <trkpt lat="49.8526141" lon="7.9920486">
                <ele>120.0</ele>
                <name>Position 423</name>
            </trkpt>
            <trkpt lat="49.852837" lon="7.9918319">
                <ele>119.0</ele>
                <name>Position 424</name>
            </trkpt>
            <trkpt lat="49.8530107" lon="7.9916471">
                <ele>118.0</ele>
                <name>Position 425</name>
            </trkpt>
            <trkpt lat="49.8532218" lon="7.9914719">
                <ele>117.0</ele>
                <name>Position 426</name>
            </trkpt>
            <trkpt lat="49.8534448" lon="7.9913163">
                <ele>116.0</ele>
                <name>Position 427</name>
            </trkpt>
            <trkpt lat="49.8536008" lon="7.9911378">
                <ele>116.0</ele>
                <name>Position 428</name>
            </trkpt>
            <trkpt lat="49.8536691" lon="7.9910851">
                <ele>116.0</ele>
                <name>Position 429</name>
            </trkpt>
            <trkpt lat="49.8537108" lon="7.9910651">
                <ele>116.0</ele>
                <name>Position 430</name>
            </trkpt>
            <trkpt lat="49.8538041" lon="7.9909839">
                <ele>115.0</ele>
                <name>Position 431</name>
            </trkpt>
            <trkpt lat="49.8539275" lon="7.9908428">
                <ele>115.0</ele>
                <name>Position 432</name>
            </trkpt>
            <trkpt lat="49.8540061" lon="7.9907536">
                <ele>115.0</ele>
                <name>Position 433</name>
            </trkpt>
            <trkpt lat="49.8541842" lon="7.990567">
                <ele>115.0</ele>
                <name>Position 434</name>
            </trkpt>
            <trkpt lat="49.8544389" lon="7.9903787">
                <ele>115.0</ele>
                <name>Position 435</name>
            </trkpt>
            <trkpt lat="49.8546139" lon="7.990231">
                <ele>115.0</ele>
                <name>Position 436</name>
            </trkpt>
            <trkpt lat="49.8548922" lon="7.9899751">
                <ele>115.0</ele>
                <name>Position 437</name>
            </trkpt>
            <trkpt lat="49.8552148" lon="7.9896827">
                <ele>114.0</ele>
                <name>Position 438</name>
            </trkpt>
            <trkpt lat="49.85542" lon="7.9895003">
                <ele>115.0</ele>
                <name>Position 439</name>
            </trkpt>
            <trkpt lat="49.8557" lon="7.9892622">
                <ele>116.0</ele>
                <name>Position 440</name>
            </trkpt>
            <trkpt lat="49.8557695" lon="7.9892246">
                <ele>116.0</ele>
                <name>Position 441</name>
            </trkpt>
            <trkpt lat="49.8557515" lon="7.9891989">
                <ele>116.0</ele>
                <name>Position 442</name>
            </trkpt>
            <trkpt lat="49.8558077" lon="7.9891515">
                <ele>116.0</ele>
                <name>Position 443</name>
            </trkpt>
            <trkpt lat="49.8557884" lon="7.9889735">
                <ele>116.0</ele>
                <name>Position 444</name>
            </trkpt>
            <trkpt lat="49.855787" lon="7.9888892">
                <ele>116.0</ele>
                <name>Position 445</name>
            </trkpt>
            <trkpt lat="49.8558194" lon="7.9886203">
                <ele>115.0</ele>
                <name>Position 446</name>
            </trkpt>
            <trkpt lat="49.8558733" lon="7.9883752">
                <ele>115.0</ele>
                <name>Position 447</name>
            </trkpt>
            <trkpt lat="49.8559027" lon="7.9881548">
                <ele>113.0</ele>
                <name>Position 448</name>
            </trkpt>
            <trkpt lat="49.8559434" lon="7.9879468">
                <ele>112.0</ele>
                <name>Position 449</name>
            </trkpt>
            <trkpt lat="49.8559368" lon="7.9877174">
                <ele>111.0</ele>
                <name>Position 450</name>
            </trkpt>
            <trkpt lat="49.8558183" lon="7.9876702">
                <ele>111.0</ele>
                <name>Position 451</name>
            </trkpt>
            <trkpt lat="49.8557357" lon="7.9876382">
                <ele>110.0</ele>
                <name>Position 452</name>
            </trkpt>
            <trkpt lat="49.8554951" lon="7.9875889">
                <ele>110.0</ele>
                <name>Position 453</name>
            </trkpt>
            <trkpt lat="49.8552664" lon="7.9875695">
                <ele>110.0</ele>
                <name>Position 454</name>
            </trkpt>
            <trkpt lat="49.8552043" lon="7.987554">
                <ele>110.0</ele>
                <name>Position 455</name>
            </trkpt>
            <trkpt lat="49.8549723" lon="7.9875079">
                <ele>110.0</ele>
                <name>Position 456</name>
            </trkpt>
            <trkpt lat="49.8548528" lon="7.987448">
                <ele>109.7</ele>
                <name>Position 457</name>
            </trkpt>
            <trkpt lat="49.854815" lon="7.9873797">
                <ele>110.0</ele>
                <name>Position 458</name>
            </trkpt>
            <trkpt lat="49.854852" lon="7.9873013">
                <ele>110.0</ele>
                <name>Position 459</name>
            </trkpt>
            <trkpt lat="49.8549841" lon="7.9870785">
                <ele>111.0</ele>
                <name>Position 460</name>
            </trkpt>
            <trkpt lat="49.8550879" lon="7.9869879">
                <ele>111.0</ele>
                <name>Position 461</name>
            </trkpt>
            <trkpt lat="49.8550543" lon="7.9868799">
                <ele>111.0</ele>
                <name>Position 462</name>
            </trkpt>
            <trkpt lat="49.8550191" lon="7.9868297">
                <ele>111.0</ele>
                <name>Position 463</name>
            </trkpt>
            <trkpt lat="49.8549649" lon="7.9867492">
                <ele>111.0</ele>
                <name>Position 464</name>
            </trkpt>
            <trkpt lat="49.8549506" lon="7.9867532">
                <ele>111.0</ele>
                <name>Position 465</name>
            </trkpt>
            <trkpt lat="49.8549308" lon="7.9867501">
                <ele>111.0</ele>
                <name>Position 466</name>
            </trkpt>
            <trkpt lat="49.8549437" lon="7.9867374">
                <ele>111.0</ele>
                <name>Position 467</name>
            </trkpt>
            <trkpt lat="49.8549442" lon="7.9866009">
                <ele>111.0</ele>
                <name>Position 468</name>
            </trkpt>
            <trkpt lat="49.8548774" lon="7.986498">
                <ele>111.0</ele>
                <name>Position 469</name>
            </trkpt>
            <trkpt lat="49.8548093" lon="7.9864225">
                <ele>110.0</ele>
                <name>Position 470</name>
            </trkpt>
            <trkpt lat="49.8548549" lon="7.9863447">
                <ele>110.0</ele>
                <name>Position 471</name>
            </trkpt>
            <trkpt lat="49.8546956" lon="7.9859595">
                <ele>109.0</ele>
                <name>Position 472</name>
            </trkpt>
            <trkpt lat="49.8546826" lon="7.9859463">
                <ele>109.0</ele>
                <name>Position 473</name>
            </trkpt>
            <trkpt lat="49.8544614" lon="7.9859418">
                <ele>108.0</ele>
                <name>Position 474</name>
            </trkpt>
            <trkpt lat="49.8544472" lon="7.9859461">
                <ele>108.0</ele>
                <name>Position 475</name>
            </trkpt>
            <trkpt lat="49.8544324" lon="7.9859515">
                <ele>108.0</ele>
                <name>Position 476</name>
            </trkpt>
            <trkpt lat="49.8544153" lon="7.9859549">
                <ele>108.0</ele>
                <name>Position 477</name>
            </trkpt>
            <trkpt lat="49.8543993" lon="7.9859529">
                <ele>108.0</ele>
                <name>Position 478</name>
            </trkpt>
            <trkpt lat="49.8543827" lon="7.9859512">
                <ele>108.0</ele>
                <name>Position 479</name>
            </trkpt>
            <trkpt lat="49.8543661" lon="7.985946">
                <ele>108.0</ele>
                <name>Position 480</name>
            </trkpt>
            <trkpt lat="49.8543532" lon="7.9859428">
                <ele>108.0</ele>
                <name>Position 481</name>
            </trkpt>
            <trkpt lat="49.8543186" lon="7.9859323">
                <ele>108.0</ele>
                <name>Position 482</name>
            </trkpt>
            <trkpt lat="49.8543127" lon="7.9859165">
                <ele>108.0</ele>
                <name>Position 483</name>
            </trkpt>
            <trkpt lat="49.8543163" lon="7.9858916">
                <ele>108.0</ele>
                <name>Position 484</name>
            </trkpt>
            <trkpt lat="49.8544428" lon="7.9855965">
                <ele>108.0</ele>
                <name>Position 485</name>
            </trkpt>
            <trkpt lat="49.854596" lon="7.9853795">
                <ele>109.0</ele>
                <name>Position 486</name>
            </trkpt>
            <trkpt lat="49.8548082" lon="7.9850531">
                <ele>109.7</ele>
                <name>Position 487</name>
            </trkpt>
            <trkpt lat="49.8548019" lon="7.9848906">
                <ele>110.2</ele>
                <name>Position 488</name>
            </trkpt>
            <trkpt lat="49.8547873" lon="7.9846394">
                <ele>111.2</ele>
                <name>Position 489</name>
            </trkpt>
        </trkseg>
    </trk>
</gpx>
