<?xml version='1.0' encoding='UTF-8'?>
<gpx version="1.1" creator="https://www.komoot.de" xmlns="http://www.topografix.com/GPX/1/1" xmlns:xsi="http://www.w3.org/2001/XMLSchema-instance" xsi:schemaLocation="http://www.topografix.com/GPX/1/1 http://www.topografix.com/GPX/1/1/gpx.xsd">
  <metadata>
    <name>Geoweg 21.05.22</name>
    <author>
      <link href="https://www.komoot.de">
        <text>komoot</text>
        <type>text/html</type>
      </link>
    </author>
  </metadata>
  <trk>
    <name>Geoweg 21.05.22</name>
    <trkseg>
      <trkpt lat="49.976196" lon="7.595850">
        <ele>520.635909</ele>
        <time>2022-05-21T13:46:26.495Z</time>
      </trkpt>
      <trkpt lat="49.976042" lon="7.595943">
        <ele>520.635909</ele>
        <time>2022-05-21T13:46:40.882Z</time>
      </trkpt>
      <trkpt lat="49.975948" lon="7.596046">
        <ele>520.635909</ele>
        <time>2022-05-21T13:46:43.844Z</time>
      </trkpt>
      <trkpt lat="49.975866" lon="7.596113">
        <ele>520.635909</ele>
        <time>2022-05-21T13:46:45.842Z</time>
      </trkpt>
      <trkpt lat="49.975776" lon="7.596206">
        <ele>520.635909</ele>
        <time>2022-05-21T13:46:47.837Z</time>
      </trkpt>
      <trkpt lat="49.975673" lon="7.596318">
        <ele>520.635909</ele>
        <time>2022-05-21T13:46:50.825Z</time>
      </trkpt>
      <trkpt lat="49.975593" lon="7.596385">
        <ele>520.635909</ele>
        <time>2022-05-21T13:46:52.827Z</time>
      </trkpt>
      <trkpt lat="49.975476" lon="7.596491">
        <ele>520.635909</ele>
        <time>2022-05-21T13:46:55.828Z</time>
      </trkpt>
      <trkpt lat="49.975390" lon="7.596562">
        <ele>520.456369</ele>
        <time>2022-05-21T13:46:57.836Z</time>
      </trkpt>
      <trkpt lat="49.975305" lon="7.596640">
        <ele>519.882999</ele>
        <time>2022-05-21T13:46:59.830Z</time>
      </trkpt>
      <trkpt lat="49.975222" lon="7.596721">
        <ele>519.313726</ele>
        <time>2022-05-21T13:47:01.822Z</time>
      </trkpt>
      <trkpt lat="49.975133" lon="7.596800">
        <ele>518.718383</ele>
        <time>2022-05-21T13:47:03.834Z</time>
      </trkpt>
      <trkpt lat="49.975028" lon="7.596876">
        <ele>518.045555</ele>
        <time>2022-05-21T13:47:05.824Z</time>
      </trkpt>
      <trkpt lat="49.974932" lon="7.596947">
        <ele>517.427988</ele>
        <time>2022-05-21T13:47:07.829Z</time>
      </trkpt>
      <trkpt lat="49.974834" lon="7.597015">
        <ele>516.804561</ele>
        <time>2022-05-21T13:47:09.825Z</time>
      </trkpt>
      <trkpt lat="49.974750" lon="7.597072">
        <ele>516.272134</ele>
        <time>2022-05-21T13:47:11.828Z</time>
      </trkpt>
      <trkpt lat="49.974620" lon="7.597082">
        <ele>515.515998</ele>
        <time>2022-05-21T13:47:14.834Z</time>
      </trkpt>
      <trkpt lat="49.974522" lon="7.596915">
        <ele>514.671361</ele>
        <time>2022-05-21T13:47:17.830Z</time>
      </trkpt>
      <trkpt lat="49.974460" lon="7.596783">
        <ele>514.060669</ele>
        <time>2022-05-21T13:47:19.832Z</time>
      </trkpt>
      <trkpt lat="49.974395" lon="7.596637">
        <ele>513.397245</ele>
        <time>2022-05-21T13:47:21.832Z</time>
      </trkpt>
      <trkpt lat="49.974312" lon="7.596498">
        <ele>512.688591</ele>
        <time>2022-05-21T13:47:23.827Z</time>
      </trkpt>
      <trkpt lat="49.974233" lon="7.596356">
        <ele>511.987100</ele>
        <time>2022-05-21T13:47:25.829Z</time>
      </trkpt>
      <trkpt lat="49.974168" lon="7.596202">
        <ele>511.298888</ele>
        <time>2022-05-21T13:47:27.823Z</time>
      </trkpt>
      <trkpt lat="49.974119" lon="7.596050">
        <ele>510.663643</ele>
        <time>2022-05-21T13:47:29.833Z</time>
      </trkpt>
      <trkpt lat="49.974063" lon="7.595869">
        <ele>510.015219</ele>
        <time>2022-05-21T13:47:31.834Z</time>
      </trkpt>
      <trkpt lat="49.974009" lon="7.595695">
        <ele>509.562315</ele>
        <time>2022-05-21T13:47:33.827Z</time>
      </trkpt>
      <trkpt lat="49.973956" lon="7.595542">
        <ele>509.154928</ele>
        <time>2022-05-21T13:47:35.832Z</time>
      </trkpt>
      <trkpt lat="49.973903" lon="7.595387">
        <ele>508.743407</ele>
        <time>2022-05-21T13:47:37.829Z</time>
      </trkpt>
      <trkpt lat="49.973853" lon="7.595248">
        <ele>508.370053</ele>
        <time>2022-05-21T13:47:39.831Z</time>
      </trkpt>
      <trkpt lat="49.973809" lon="7.595113">
        <ele>508.015261</ele>
        <time>2022-05-21T13:47:41.828Z</time>
      </trkpt>
      <trkpt lat="49.973736" lon="7.594974">
        <ele>507.594570</ele>
        <time>2022-05-21T13:47:44.830Z</time>
      </trkpt>
      <trkpt lat="49.973649" lon="7.594929">
        <ele>507.260368</ele>
        <time>2022-05-21T13:47:47.827Z</time>
      </trkpt>
      <trkpt lat="49.973541" lon="7.594961">
        <ele>506.859622</ele>
        <time>2022-05-21T13:47:50.831Z</time>
      </trkpt>
      <trkpt lat="49.973449" lon="7.595013">
        <ele>506.502811</ele>
        <time>2022-05-21T13:47:52.837Z</time>
      </trkpt>
      <trkpt lat="49.973353" lon="7.595029">
        <ele>506.150885</ele>
        <time>2022-05-21T13:47:55.837Z</time>
      </trkpt>
      <trkpt lat="49.973232" lon="7.595021">
        <ele>505.709439</ele>
        <time>2022-05-21T13:48:15.829Z</time>
      </trkpt>
      <trkpt lat="49.973173" lon="7.595152">
        <ele>505.334527</ele>
        <time>2022-05-21T13:48:17.829Z</time>
      </trkpt>
      <trkpt lat="49.973100" lon="7.595319">
        <ele>504.861166</ele>
        <time>2022-05-21T13:48:19.833Z</time>
      </trkpt>
      <trkpt lat="49.973029" lon="7.595476">
        <ele>504.411235</ele>
        <time>2022-05-21T13:48:21.831Z</time>
      </trkpt>
      <trkpt lat="49.972953" lon="7.595613">
        <ele>503.987101</ele>
        <time>2022-05-21T13:48:23.835Z</time>
      </trkpt>
      <trkpt lat="49.972863" lon="7.595767">
        <ele>503.638380</ele>
        <time>2022-05-21T13:48:25.827Z</time>
      </trkpt>
      <trkpt lat="49.972771" lon="7.595927">
        <ele>503.666859</ele>
        <time>2022-05-21T13:48:27.837Z</time>
      </trkpt>
      <trkpt lat="49.972670" lon="7.596099">
        <ele>503.697765</ele>
        <time>2022-05-21T13:48:29.830Z</time>
      </trkpt>
      <trkpt lat="49.972580" lon="7.596269">
        <ele>503.726982</ele>
        <time>2022-05-21T13:48:31.828Z</time>
      </trkpt>
      <trkpt lat="49.972495" lon="7.596407">
        <ele>503.752338</ele>
        <time>2022-05-21T13:48:33.833Z</time>
      </trkpt>
      <trkpt lat="49.972427" lon="7.596523">
        <ele>503.773165</ele>
        <time>2022-05-21T13:48:35.827Z</time>
      </trkpt>
      <trkpt lat="49.972340" lon="7.596654">
        <ele>503.798153</ele>
        <time>2022-05-21T13:48:38.826Z</time>
      </trkpt>
      <trkpt lat="49.972248" lon="7.596701">
        <ele>503.818133</ele>
        <time>2022-05-21T13:48:42.829Z</time>
      </trkpt>
      <trkpt lat="49.972133" lon="7.596624">
        <ele>503.843966</ele>
        <time>2022-05-21T13:48:46.831Z</time>
      </trkpt>
      <trkpt lat="49.972043" lon="7.596567">
        <ele>503.864016</ele>
        <time>2022-05-21T13:48:48.829Z</time>
      </trkpt>
      <trkpt lat="49.971931" lon="7.596512">
        <ele>503.888250</ele>
        <time>2022-05-21T13:48:50.827Z</time>
      </trkpt>
      <trkpt lat="49.971821" lon="7.596456">
        <ele>503.912131</ele>
        <time>2022-05-21T13:48:52.828Z</time>
      </trkpt>
      <trkpt lat="49.971704" lon="7.596387">
        <ele>503.937948</ele>
        <time>2022-05-21T13:48:54.831Z</time>
      </trkpt>
      <trkpt lat="49.971590" lon="7.596330">
        <ele>503.962655</ele>
        <time>2022-05-21T13:48:56.829Z</time>
      </trkpt>
      <trkpt lat="49.971472" lon="7.596283">
        <ele>503.987787</ele>
        <time>2022-05-21T13:48:58.831Z</time>
      </trkpt>
      <trkpt lat="49.971349" lon="7.596246">
        <ele>504.142349</ele>
        <time>2022-05-21T13:49:00.830Z</time>
      </trkpt>
      <trkpt lat="49.971235" lon="7.596217">
        <ele>504.430450</ele>
        <time>2022-05-21T13:49:02.829Z</time>
      </trkpt>
      <trkpt lat="49.971123" lon="7.596188">
        <ele>504.713629</ele>
        <time>2022-05-21T13:49:04.830Z</time>
      </trkpt>
      <trkpt lat="49.971018" lon="7.596167">
        <ele>504.977661</ele>
        <time>2022-05-21T13:49:06.827Z</time>
      </trkpt>
      <trkpt lat="49.970908" lon="7.596134">
        <ele>505.257065</ele>
        <time>2022-05-21T13:49:08.829Z</time>
      </trkpt>
      <trkpt lat="49.970795" lon="7.596104">
        <ele>505.542971</ele>
        <time>2022-05-21T13:49:10.836Z</time>
      </trkpt>
      <trkpt lat="49.970667" lon="7.596071">
        <ele>505.866567</ele>
        <time>2022-05-21T13:49:12.836Z</time>
      </trkpt>
      <trkpt lat="49.970539" lon="7.596052">
        <ele>506.187255</ele>
        <time>2022-05-21T13:49:14.825Z</time>
      </trkpt>
      <trkpt lat="49.970408" lon="7.596029">
        <ele>506.516051</ele>
        <time>2022-05-21T13:49:16.826Z</time>
      </trkpt>
      <trkpt lat="49.970298" lon="7.596001">
        <ele>506.794048</ele>
        <time>2022-05-21T13:49:18.831Z</time>
      </trkpt>
      <trkpt lat="49.970177" lon="7.595985">
        <ele>507.096916</ele>
        <time>2022-05-21T13:49:21.829Z</time>
      </trkpt>
      <trkpt lat="49.970077" lon="7.595967">
        <ele>507.347986</ele>
        <time>2022-05-21T13:49:23.830Z</time>
      </trkpt>
      <trkpt lat="49.969972" lon="7.595947">
        <ele>507.611817</ele>
        <time>2022-05-21T13:49:25.831Z</time>
      </trkpt>
      <trkpt lat="49.969880" lon="7.595922">
        <ele>507.844747</ele>
        <time>2022-05-21T13:49:27.834Z</time>
      </trkpt>
      <trkpt lat="49.969771" lon="7.595904">
        <ele>508.118127</ele>
        <time>2022-05-21T13:49:29.837Z</time>
      </trkpt>
      <trkpt lat="49.969647" lon="7.595883">
        <ele>508.429217</ele>
        <time>2022-05-21T13:49:31.832Z</time>
      </trkpt>
      <trkpt lat="49.969508" lon="7.595858">
        <ele>508.589852</ele>
        <time>2022-05-21T13:49:33.830Z</time>
      </trkpt>
      <trkpt lat="49.969369" lon="7.595832">
        <ele>508.712469</ele>
        <time>2022-05-21T13:49:35.830Z</time>
      </trkpt>
      <trkpt lat="49.969242" lon="7.595800">
        <ele>508.825150</ele>
        <time>2022-05-21T13:49:37.833Z</time>
      </trkpt>
      <trkpt lat="49.969116" lon="7.595768">
        <ele>508.936967</ele>
        <time>2022-05-21T13:49:39.829Z</time>
      </trkpt>
      <trkpt lat="49.968994" lon="7.595733">
        <ele>509.045622</ele>
        <time>2022-05-21T13:49:41.828Z</time>
      </trkpt>
      <trkpt lat="49.968872" lon="7.595708">
        <ele>509.153396</ele>
        <time>2022-05-21T13:49:43.833Z</time>
      </trkpt>
      <trkpt lat="49.968745" lon="7.595691">
        <ele>509.265037</ele>
        <time>2022-05-21T13:49:45.829Z</time>
      </trkpt>
      <trkpt lat="49.968622" lon="7.595672">
        <ele>509.373294</ele>
        <time>2022-05-21T13:49:47.835Z</time>
      </trkpt>
      <trkpt lat="49.968496" lon="7.595665">
        <ele>509.483719</ele>
        <time>2022-05-21T13:49:49.832Z</time>
      </trkpt>
      <trkpt lat="49.968379" lon="7.595652">
        <ele>509.586452</ele>
        <time>2022-05-21T13:49:51.827Z</time>
      </trkpt>
      <trkpt lat="49.968264" lon="7.595623">
        <ele>509.688488</ele>
        <time>2022-05-21T13:49:53.832Z</time>
      </trkpt>
      <trkpt lat="49.968149" lon="7.595600">
        <ele>509.790037</ele>
        <time>2022-05-21T13:49:55.833Z</time>
      </trkpt>
      <trkpt lat="49.968022" lon="7.595565">
        <ele>509.903001</ele>
        <time>2022-05-21T13:49:57.829Z</time>
      </trkpt>
      <trkpt lat="49.967904" lon="7.595527">
        <ele>510.008542</ele>
        <time>2022-05-21T13:49:59.832Z</time>
      </trkpt>
      <trkpt lat="49.967798" lon="7.595512">
        <ele>510.194940</ele>
        <time>2022-05-21T13:50:01.829Z</time>
      </trkpt>
      <trkpt lat="49.967660" lon="7.595459">
        <ele>510.620309</ele>
        <time>2022-05-21T13:50:03.836Z</time>
      </trkpt>
      <trkpt lat="49.967515" lon="7.595441">
        <ele>511.055592</ele>
        <time>2022-05-21T13:50:05.830Z</time>
      </trkpt>
      <trkpt lat="49.967368" lon="7.595413">
        <ele>511.498768</ele>
        <time>2022-05-21T13:50:07.830Z</time>
      </trkpt>
      <trkpt lat="49.967241" lon="7.595373">
        <ele>511.886527</ele>
        <time>2022-05-21T13:50:09.830Z</time>
      </trkpt>
      <trkpt lat="49.967121" lon="7.595352">
        <ele>512.247887</ele>
        <time>2022-05-21T13:50:11.826Z</time>
      </trkpt>
      <trkpt lat="49.967011" lon="7.595322">
        <ele>512.582081</ele>
        <time>2022-05-21T13:50:13.834Z</time>
      </trkpt>
      <trkpt lat="49.966906" lon="7.595299">
        <ele>512.899389</ele>
        <time>2022-05-21T13:50:15.827Z</time>
      </trkpt>
      <trkpt lat="49.966804" lon="7.595285">
        <ele>513.205804</ele>
        <time>2022-05-21T13:50:17.832Z</time>
      </trkpt>
      <trkpt lat="49.966712" lon="7.595265">
        <ele>513.483786</ele>
        <time>2022-05-21T13:50:19.828Z</time>
      </trkpt>
      <trkpt lat="49.966613" lon="7.595244">
        <ele>513.782782</ele>
        <time>2022-05-21T13:50:21.828Z</time>
      </trkpt>
      <trkpt lat="49.966485" lon="7.595203">
        <ele>514.173858</ele>
        <time>2022-05-21T13:50:23.827Z</time>
      </trkpt>
      <trkpt lat="49.966360" lon="7.595157">
        <ele>514.558248</ele>
        <time>2022-05-21T13:50:25.827Z</time>
      </trkpt>
      <trkpt lat="49.966259" lon="7.595097">
        <ele>514.881798</ele>
        <time>2022-05-21T13:50:27.830Z</time>
      </trkpt>
      <trkpt lat="49.966151" lon="7.595096">
        <ele>515.204986</ele>
        <time>2022-05-21T13:50:29.832Z</time>
      </trkpt>
      <trkpt lat="49.966020" lon="7.595067">
        <ele>515.638577</ele>
        <time>2022-05-21T13:50:31.828Z</time>
      </trkpt>
      <trkpt lat="49.965900" lon="7.595059">
        <ele>516.085014</ele>
        <time>2022-05-21T13:50:33.826Z</time>
      </trkpt>
      <trkpt lat="49.965779" lon="7.595043">
        <ele>516.536381</ele>
        <time>2022-05-21T13:50:35.826Z</time>
      </trkpt>
      <trkpt lat="49.965648" lon="7.595030">
        <ele>517.024285</ele>
        <time>2022-05-21T13:50:37.831Z</time>
      </trkpt>
      <trkpt lat="49.965514" lon="7.595013">
        <ele>517.524003</ele>
        <time>2022-05-21T13:50:39.831Z</time>
      </trkpt>
      <trkpt lat="49.965395" lon="7.595007">
        <ele>517.966546</ele>
        <time>2022-05-21T13:50:41.827Z</time>
      </trkpt>
      <trkpt lat="49.965268" lon="7.595013">
        <ele>518.438809</ele>
        <time>2022-05-21T13:50:43.828Z</time>
      </trkpt>
      <trkpt lat="49.965140" lon="7.595029">
        <ele>518.916106</ele>
        <time>2022-05-21T13:50:45.827Z</time>
      </trkpt>
      <trkpt lat="49.965033" lon="7.595061">
        <ele>519.321105</ele>
        <time>2022-05-21T13:50:48.829Z</time>
      </trkpt>
      <trkpt lat="49.964933" lon="7.595062">
        <ele>519.692802</ele>
        <time>2022-05-21T13:50:52.834Z</time>
      </trkpt>
      <trkpt lat="49.964838" lon="7.595067">
        <ele>520.046108</ele>
        <time>2022-05-21T13:50:57.826Z</time>
      </trkpt>
      <trkpt lat="49.964727" lon="7.595071">
        <ele>520.458794</ele>
        <time>2022-05-21T13:51:01.831Z</time>
      </trkpt>
      <trkpt lat="49.964638" lon="7.595026">
        <ele>520.806654</ele>
        <time>2022-05-21T13:51:24.822Z</time>
      </trkpt>
      <trkpt lat="49.964610" lon="7.595171">
        <ele>521.168623</ele>
        <time>2022-05-21T13:51:38.826Z</time>
      </trkpt>
      <trkpt lat="49.964555" lon="7.595291">
        <ele>521.520914</ele>
        <time>2022-05-21T13:51:47.834Z</time>
      </trkpt>
      <trkpt lat="49.964499" lon="7.595419">
        <ele>521.891029</ele>
        <time>2022-05-21T13:51:55.830Z</time>
      </trkpt>
      <trkpt lat="49.964446" lon="7.595535">
        <ele>522.255982</ele>
        <time>2022-05-21T13:52:03.832Z</time>
      </trkpt>
      <trkpt lat="49.964396" lon="7.595657">
        <ele>522.687204</ele>
        <time>2022-05-21T13:52:10.829Z</time>
      </trkpt>
      <trkpt lat="49.964302" lon="7.595608">
        <ele>523.146655</ele>
        <time>2022-05-21T13:52:24.829Z</time>
      </trkpt>
      <trkpt lat="49.964232" lon="7.595517">
        <ele>523.569524</ele>
        <time>2022-05-21T13:52:33.837Z</time>
      </trkpt>
      <trkpt lat="49.964162" lon="7.595419">
        <ele>524.006074</ele>
        <time>2022-05-21T13:52:48.830Z</time>
      </trkpt>
      <trkpt lat="49.964085" lon="7.595330">
        <ele>524.450729</ele>
        <time>2022-05-21T13:52:56.833Z</time>
      </trkpt>
      <trkpt lat="49.963992" lon="7.595264">
        <ele>524.924492</ele>
        <time>2022-05-21T13:53:03.831Z</time>
      </trkpt>
      <trkpt lat="49.963891" lon="7.595243">
        <ele>525.396712</ele>
        <time>2022-05-21T13:53:10.832Z</time>
      </trkpt>
      <trkpt lat="49.963797" lon="7.595243">
        <ele>525.832324</ele>
        <time>2022-05-21T13:53:17.833Z</time>
      </trkpt>
      <trkpt lat="49.963703" lon="7.595234">
        <ele>526.268762</ele>
        <time>2022-05-21T13:53:28.828Z</time>
      </trkpt>
      <trkpt lat="49.963609" lon="7.595232">
        <ele>526.704416</ele>
        <time>2022-05-21T13:53:33.829Z</time>
      </trkpt>
      <trkpt lat="49.963508" lon="7.595257">
        <ele>527.178364</ele>
        <time>2022-05-21T13:53:40.829Z</time>
      </trkpt>
      <trkpt lat="49.963409" lon="7.595276">
        <ele>527.640630</ele>
        <time>2022-05-21T13:53:47.830Z</time>
      </trkpt>
      <trkpt lat="49.963315" lon="7.595281">
        <ele>528.076498</ele>
        <time>2022-05-21T13:53:55.830Z</time>
      </trkpt>
      <trkpt lat="49.963220" lon="7.595278">
        <ele>528.516835</ele>
        <time>2022-05-21T13:54:01.835Z</time>
      </trkpt>
      <trkpt lat="49.963127" lon="7.595275">
        <ele>528.947906</ele>
        <time>2022-05-21T13:54:10.831Z</time>
      </trkpt>
      <trkpt lat="49.963029" lon="7.595273">
        <ele>529.402095</ele>
        <time>2022-05-21T13:54:16.829Z</time>
      </trkpt>
      <trkpt lat="49.962935" lon="7.595276">
        <ele>529.837799</ele>
        <time>2022-05-21T13:54:23.836Z</time>
      </trkpt>
      <trkpt lat="49.962843" lon="7.595299">
        <ele>530.269622</ele>
        <time>2022-05-21T13:54:30.830Z</time>
      </trkpt>
      <trkpt lat="49.962738" lon="7.595300">
        <ele>530.523282</ele>
        <time>2022-05-21T13:54:39.834Z</time>
      </trkpt>
      <trkpt lat="49.962645" lon="7.595259">
        <ele>530.611567</ele>
        <time>2022-05-21T13:54:47.836Z</time>
      </trkpt>
      <trkpt lat="49.962548" lon="7.595269">
        <ele>530.700351</ele>
        <time>2022-05-21T13:54:55.827Z</time>
      </trkpt>
      <trkpt lat="49.962449" lon="7.595322">
        <ele>530.795978</ele>
        <time>2022-05-21T13:55:04.841Z</time>
      </trkpt>
      <trkpt lat="49.962348" lon="7.595317">
        <ele>530.888267</ele>
        <time>2022-05-21T13:55:11.832Z</time>
      </trkpt>
      <trkpt lat="49.962246" lon="7.595326">
        <ele>530.981572</ele>
        <time>2022-05-21T13:55:19.831Z</time>
      </trkpt>
      <trkpt lat="49.962152" lon="7.595339">
        <ele>531.067761</ele>
        <time>2022-05-21T13:55:25.826Z</time>
      </trkpt>
      <trkpt lat="49.962061" lon="7.595330">
        <ele>531.151038</ele>
        <time>2022-05-21T13:55:32.826Z</time>
      </trkpt>
      <trkpt lat="49.961965" lon="7.595324">
        <ele>531.238785</ele>
        <time>2022-05-21T13:55:40.829Z</time>
      </trkpt>
      <trkpt lat="49.961872" lon="7.595349">
        <ele>531.324981</ele>
        <time>2022-05-21T13:55:49.834Z</time>
      </trkpt>
      <trkpt lat="49.961780" lon="7.595353">
        <ele>531.409037</ele>
        <time>2022-05-21T13:55:57.828Z</time>
      </trkpt>
      <trkpt lat="49.961685" lon="7.595344">
        <ele>531.495960</ele>
        <time>2022-05-21T13:56:04.826Z</time>
      </trkpt>
      <trkpt lat="49.961591" lon="7.595370">
        <ele>531.583158</ele>
        <time>2022-05-21T13:56:11.828Z</time>
      </trkpt>
      <trkpt lat="49.961498" lon="7.595386">
        <ele>531.668612</ele>
        <time>2022-05-21T13:56:23.836Z</time>
      </trkpt>
      <trkpt lat="49.961399" lon="7.595401">
        <ele>531.759456</ele>
        <time>2022-05-21T13:56:31.829Z</time>
      </trkpt>
      <trkpt lat="49.961325" lon="7.595312">
        <ele>531.844907</ele>
        <time>2022-05-21T13:57:02.824Z</time>
      </trkpt>
      <trkpt lat="49.961207" lon="7.595279">
        <ele>531.954405</ele>
        <time>2022-05-21T13:57:05.829Z</time>
      </trkpt>
      <trkpt lat="49.961085" lon="7.595268">
        <ele>532.066013</ele>
        <time>2022-05-21T13:57:08.828Z</time>
      </trkpt>
      <trkpt lat="49.960996" lon="7.595235">
        <ele>532.185389</ele>
        <time>2022-05-21T13:57:10.834Z</time>
      </trkpt>
      <trkpt lat="49.960904" lon="7.595183">
        <ele>532.353294</ele>
        <time>2022-05-21T13:57:12.822Z</time>
      </trkpt>
      <trkpt lat="49.960808" lon="7.595103">
        <ele>532.540120</ele>
        <time>2022-05-21T13:57:14.837Z</time>
      </trkpt>
      <trkpt lat="49.960707" lon="7.595011">
        <ele>532.740906</ele>
        <time>2022-05-21T13:57:16.837Z</time>
      </trkpt>
      <trkpt lat="49.960600" lon="7.594878">
        <ele>532.975890</ele>
        <time>2022-05-21T13:57:18.829Z</time>
      </trkpt>
      <trkpt lat="49.960474" lon="7.594769">
        <ele>533.223216</ele>
        <time>2022-05-21T13:57:20.829Z</time>
      </trkpt>
      <trkpt lat="49.960360" lon="7.594646">
        <ele>533.461233</ele>
        <time>2022-05-21T13:57:22.827Z</time>
      </trkpt>
      <trkpt lat="49.960251" lon="7.594539">
        <ele>533.682347</ele>
        <time>2022-05-21T13:57:24.832Z</time>
      </trkpt>
      <trkpt lat="49.960148" lon="7.594439">
        <ele>533.890638</ele>
        <time>2022-05-21T13:57:26.825Z</time>
      </trkpt>
      <trkpt lat="49.960027" lon="7.594335">
        <ele>534.127789</ele>
        <time>2022-05-21T13:57:28.827Z</time>
      </trkpt>
      <trkpt lat="49.959919" lon="7.594219">
        <ele>534.352949</ele>
        <time>2022-05-21T13:57:30.830Z</time>
      </trkpt>
      <trkpt lat="49.959824" lon="7.594123">
        <ele>534.547297</ele>
        <time>2022-05-21T13:57:32.833Z</time>
      </trkpt>
      <trkpt lat="49.959709" lon="7.594016">
        <ele>534.777179</ele>
        <time>2022-05-21T13:57:34.834Z</time>
      </trkpt>
      <trkpt lat="49.959588" lon="7.593914">
        <ele>535.013270</ele>
        <time>2022-05-21T13:57:36.830Z</time>
      </trkpt>
      <trkpt lat="49.959461" lon="7.593841">
        <ele>535.316555</ele>
        <time>2022-05-21T13:57:38.841Z</time>
      </trkpt>
      <trkpt lat="49.959343" lon="7.593815">
        <ele>535.801744</ele>
        <time>2022-05-21T13:57:40.832Z</time>
      </trkpt>
      <trkpt lat="49.959236" lon="7.593823">
        <ele>536.237853</ele>
        <time>2022-05-21T13:57:42.840Z</time>
      </trkpt>
      <trkpt lat="49.959120" lon="7.593859">
        <ele>536.719418</ele>
        <time>2022-05-21T13:57:44.832Z</time>
      </trkpt>
      <trkpt lat="49.959013" lon="7.593937">
        <ele>537.200547</ele>
        <time>2022-05-21T13:57:46.830Z</time>
      </trkpt>
      <trkpt lat="49.958930" lon="7.594047">
        <ele>537.644592</ele>
        <time>2022-05-21T13:57:48.834Z</time>
      </trkpt>
      <trkpt lat="49.958862" lon="7.594154">
        <ele>538.038510</ele>
        <time>2022-05-21T13:57:50.831Z</time>
      </trkpt>
      <trkpt lat="49.958799" lon="7.594257">
        <ele>538.410738</ele>
        <time>2022-05-21T13:57:52.829Z</time>
      </trkpt>
      <trkpt lat="49.958724" lon="7.594362">
        <ele>538.821657</ele>
        <time>2022-05-21T13:57:54.829Z</time>
      </trkpt>
      <trkpt lat="49.958616" lon="7.594461">
        <ele>539.332094</ele>
        <time>2022-05-21T13:57:57.830Z</time>
      </trkpt>
      <trkpt lat="49.958546" lon="7.594565">
        <ele>539.726308</ele>
        <time>2022-05-21T13:57:59.829Z</time>
      </trkpt>
      <trkpt lat="49.958457" lon="7.594702">
        <ele>540.236238</ele>
        <time>2022-05-21T13:58:02.831Z</time>
      </trkpt>
      <trkpt lat="49.958377" lon="7.594842">
        <ele>540.726668</ele>
        <time>2022-05-21T13:58:05.830Z</time>
      </trkpt>
      <trkpt lat="49.958312" lon="7.594997">
        <ele>541.211258</ele>
        <time>2022-05-21T13:58:08.827Z</time>
      </trkpt>
      <trkpt lat="49.958233" lon="7.595164">
        <ele>541.754164</ele>
        <time>2022-05-21T13:58:11.833Z</time>
      </trkpt>
      <trkpt lat="49.958144" lon="7.595308">
        <ele>542.277159</ele>
        <time>2022-05-21T13:58:14.829Z</time>
      </trkpt>
      <trkpt lat="49.958064" lon="7.595404">
        <ele>542.387439</ele>
        <time>2022-05-21T13:58:18.828Z</time>
      </trkpt>
      <trkpt lat="49.958021" lon="7.595568">
        <ele>542.040998</ele>
        <time>2022-05-21T13:58:25.835Z</time>
      </trkpt>
      <trkpt lat="49.957968" lon="7.595682">
        <ele>541.765854</ele>
        <time>2022-05-21T13:58:28.831Z</time>
      </trkpt>
      <trkpt lat="49.957882" lon="7.595755">
        <ele>541.467902</ele>
        <time>2022-05-21T13:58:31.830Z</time>
      </trkpt>
      <trkpt lat="49.957790" lon="7.595798">
        <ele>541.175786</ele>
        <time>2022-05-21T13:58:34.835Z</time>
      </trkpt>
      <trkpt lat="49.957699" lon="7.595812">
        <ele>540.897731</ele>
        <time>2022-05-21T13:58:38.831Z</time>
      </trkpt>
      <trkpt lat="49.957542" lon="7.595456">
        <ele>540.053396</ele>
        <time>2022-05-21T14:01:08.834Z</time>
      </trkpt>
      <trkpt lat="49.957489" lon="7.595315">
        <ele>539.733937</ele>
        <time>2022-05-21T14:01:11.828Z</time>
      </trkpt>
      <trkpt lat="49.957421" lon="7.595164">
        <ele>539.373369</ele>
        <time>2022-05-21T14:01:14.826Z</time>
      </trkpt>
      <trkpt lat="49.957354" lon="7.595035">
        <ele>539.049042</ele>
        <time>2022-05-21T14:01:17.829Z</time>
      </trkpt>
      <trkpt lat="49.957268" lon="7.594891">
        <ele>538.664676</ele>
        <time>2022-05-21T14:01:20.835Z</time>
      </trkpt>
      <trkpt lat="49.957195" lon="7.594769">
        <ele>538.338746</ele>
        <time>2022-05-21T14:01:22.837Z</time>
      </trkpt>
      <trkpt lat="49.957136" lon="7.594647">
        <ele>538.040174</ele>
        <time>2022-05-21T14:01:24.835Z</time>
      </trkpt>
      <trkpt lat="49.957089" lon="7.594505">
        <ele>537.727779</ele>
        <time>2022-05-21T14:01:26.825Z</time>
      </trkpt>
      <trkpt lat="49.957038" lon="7.594367">
        <ele>537.416445</ele>
        <time>2022-05-21T14:01:28.826Z</time>
      </trkpt>
      <trkpt lat="49.956984" lon="7.594232">
        <ele>537.105467</ele>
        <time>2022-05-21T14:01:30.828Z</time>
      </trkpt>
      <trkpt lat="49.956923" lon="7.594087">
        <ele>536.768802</ele>
        <time>2022-05-21T14:01:32.825Z</time>
      </trkpt>
      <trkpt lat="49.956867" lon="7.593961">
        <ele>536.471622</ele>
        <time>2022-05-21T14:01:34.830Z</time>
      </trkpt>
      <trkpt lat="49.956807" lon="7.593832">
        <ele>536.162723</ele>
        <time>2022-05-21T14:01:36.832Z</time>
      </trkpt>
      <trkpt lat="49.956752" lon="7.593700">
        <ele>535.857541</ele>
        <time>2022-05-21T14:01:38.832Z</time>
      </trkpt>
      <trkpt lat="49.956694" lon="7.593564">
        <ele>535.540907</ele>
        <time>2022-05-21T14:01:40.828Z</time>
      </trkpt>
      <trkpt lat="49.956618" lon="7.593418">
        <ele>535.176461</ele>
        <time>2022-05-21T14:01:42.829Z</time>
      </trkpt>
      <trkpt lat="49.956547" lon="7.593280">
        <ele>534.833563</ele>
        <time>2022-05-21T14:01:44.832Z</time>
      </trkpt>
      <trkpt lat="49.956473" lon="7.593127">
        <ele>534.462115</ele>
        <time>2022-05-21T14:01:46.828Z</time>
      </trkpt>
      <trkpt lat="49.956403" lon="7.592997">
        <ele>534.133144</ele>
        <time>2022-05-21T14:01:48.830Z</time>
      </trkpt>
      <trkpt lat="49.956334" lon="7.592866">
        <ele>533.804600</ele>
        <time>2022-05-21T14:01:50.832Z</time>
      </trkpt>
      <trkpt lat="49.956274" lon="7.592727">
        <ele>533.479774</ele>
        <time>2022-05-21T14:01:52.827Z</time>
      </trkpt>
      <trkpt lat="49.956215" lon="7.592597">
        <ele>533.171046</ele>
        <time>2022-05-21T14:01:54.828Z</time>
      </trkpt>
      <trkpt lat="49.956176" lon="7.592450">
        <ele>532.862477</ele>
        <time>2022-05-21T14:01:56.826Z</time>
      </trkpt>
      <trkpt lat="49.956130" lon="7.592321">
        <ele>532.576262</ele>
        <time>2022-05-21T14:01:58.827Z</time>
      </trkpt>
      <trkpt lat="49.956065" lon="7.592191">
        <ele>532.256760</ele>
        <time>2022-05-21T14:02:00.832Z</time>
      </trkpt>
      <trkpt lat="49.956004" lon="7.592052">
        <ele>531.930242</ele>
        <time>2022-05-21T14:02:02.833Z</time>
      </trkpt>
      <trkpt lat="49.955946" lon="7.591910">
        <ele>531.616696</ele>
        <time>2022-05-21T14:02:04.826Z</time>
      </trkpt>
      <trkpt lat="49.955882" lon="7.591765">
        <ele>531.518326</ele>
        <time>2022-05-21T14:02:06.828Z</time>
      </trkpt>
      <trkpt lat="49.955802" lon="7.591616">
        <ele>531.409759</ele>
        <time>2022-05-21T14:02:08.836Z</time>
      </trkpt>
      <trkpt lat="49.955740" lon="7.591487">
        <ele>531.319681</ele>
        <time>2022-05-21T14:02:10.833Z</time>
      </trkpt>
      <trkpt lat="49.955678" lon="7.591359">
        <ele>531.230049</ele>
        <time>2022-05-21T14:02:12.829Z</time>
      </trkpt>
      <trkpt lat="49.955622" lon="7.591238">
        <ele>531.146665</ele>
        <time>2022-05-21T14:02:14.832Z</time>
      </trkpt>
      <trkpt lat="49.955571" lon="7.591118">
        <ele>531.066209</ele>
        <time>2022-05-21T14:02:16.833Z</time>
      </trkpt>
      <trkpt lat="49.955521" lon="7.590988">
        <ele>530.981479</ele>
        <time>2022-05-21T14:02:18.826Z</time>
      </trkpt>
      <trkpt lat="49.955462" lon="7.590874">
        <ele>530.899632</ele>
        <time>2022-05-21T14:02:20.832Z</time>
      </trkpt>
      <trkpt lat="49.955403" lon="7.590686">
        <ele>530.782614</ele>
        <time>2022-05-21T14:02:23.831Z</time>
      </trkpt>
      <trkpt lat="49.955342" lon="7.590578">
        <ele>530.702217</ele>
        <time>2022-05-21T14:02:25.824Z</time>
      </trkpt>
      <trkpt lat="49.955286" lon="7.590453">
        <ele>530.617005</ele>
        <time>2022-05-21T14:02:27.827Z</time>
      </trkpt>
      <trkpt lat="49.955230" lon="7.590335">
        <ele>530.534977</ele>
        <time>2022-05-21T14:02:29.821Z</time>
      </trkpt>
      <trkpt lat="49.955179" lon="7.590217">
        <ele>530.455452</ele>
        <time>2022-05-21T14:02:31.825Z</time>
      </trkpt>
      <trkpt lat="49.955097" lon="7.590067">
        <ele>530.345337</ele>
        <time>2022-05-21T14:02:34.823Z</time>
      </trkpt>
      <trkpt lat="49.955042" lon="7.589955">
        <ele>530.266515</ele>
        <time>2022-05-21T14:02:36.826Z</time>
      </trkpt>
      <trkpt lat="49.955008" lon="7.589809">
        <ele>530.179652</ele>
        <time>2022-05-21T14:02:38.830Z</time>
      </trkpt>
      <trkpt lat="49.954940" lon="7.589697">
        <ele>530.093502</ele>
        <time>2022-05-21T14:02:40.838Z</time>
      </trkpt>
      <trkpt lat="49.954897" lon="7.589566">
        <ele>529.848690</ele>
        <time>2022-05-21T14:02:42.832Z</time>
      </trkpt>
      <trkpt lat="49.954821" lon="7.589424">
        <ele>529.385969</ele>
        <time>2022-05-21T14:02:45.824Z</time>
      </trkpt>
      <trkpt lat="49.954763" lon="7.589265">
        <ele>528.928087</ele>
        <time>2022-05-21T14:02:48.829Z</time>
      </trkpt>
      <trkpt lat="49.954692" lon="7.589110">
        <ele>528.451433</ele>
        <time>2022-05-21T14:02:50.834Z</time>
      </trkpt>
      <trkpt lat="49.954646" lon="7.588977">
        <ele>528.073158</ele>
        <time>2022-05-21T14:02:53.832Z</time>
      </trkpt>
      <trkpt lat="49.954640" lon="7.588810">
        <ele>527.654147</ele>
        <time>2022-05-21T14:02:58.827Z</time>
      </trkpt>
      <trkpt lat="49.954725" lon="7.588766">
        <ele>527.305314</ele>
        <time>2022-05-21T14:03:04.828Z</time>
      </trkpt>
      <trkpt lat="49.954841" lon="7.588728">
        <ele>526.843728</ele>
        <time>2022-05-21T14:03:17.832Z</time>
      </trkpt>
      <trkpt lat="49.954948" lon="7.588690">
        <ele>526.416370</ele>
        <time>2022-05-21T14:03:20.829Z</time>
      </trkpt>
      <trkpt lat="49.955052" lon="7.588614">
        <ele>525.968906</ele>
        <time>2022-05-21T14:03:24.827Z</time>
      </trkpt>
      <trkpt lat="49.955128" lon="7.588495">
        <ele>525.548863</ele>
        <time>2022-05-21T14:03:28.831Z</time>
      </trkpt>
      <trkpt lat="49.955256" lon="7.588491">
        <ele>525.050375</ele>
        <time>2022-05-21T14:03:31.831Z</time>
      </trkpt>
      <trkpt lat="49.955351" lon="7.588502">
        <ele>524.679454</ele>
        <time>2022-05-21T14:03:33.829Z</time>
      </trkpt>
      <trkpt lat="49.955501" lon="7.588512">
        <ele>524.094870</ele>
        <time>2022-05-21T14:03:35.825Z</time>
      </trkpt>
      <trkpt lat="49.955631" lon="7.588513">
        <ele>523.588689</ele>
        <time>2022-05-21T14:03:38.824Z</time>
      </trkpt>
      <trkpt lat="49.955731" lon="7.588522">
        <ele>523.198673</ele>
        <time>2022-05-21T14:03:41.824Z</time>
      </trkpt>
      <trkpt lat="49.955869" lon="7.588524">
        <ele>522.725042</ele>
        <time>2022-05-21T14:03:44.827Z</time>
      </trkpt>
      <trkpt lat="49.956008" lon="7.588505">
        <ele>522.269740</ele>
        <time>2022-05-21T14:03:47.824Z</time>
      </trkpt>
      <trkpt lat="49.956101" lon="7.588513">
        <ele>521.965821</ele>
        <time>2022-05-21T14:03:49.833Z</time>
      </trkpt>
      <trkpt lat="49.956197" lon="7.588501">
        <ele>521.651566</ele>
        <time>2022-05-21T14:03:51.827Z</time>
      </trkpt>
      <trkpt lat="49.956318" lon="7.588477">
        <ele>521.253547</ele>
        <time>2022-05-21T14:03:54.827Z</time>
      </trkpt>
      <trkpt lat="49.956435" lon="7.588438">
        <ele>520.863101</ele>
        <time>2022-05-21T14:03:57.829Z</time>
      </trkpt>
      <trkpt lat="49.956528" lon="7.588424">
        <ele>520.558227</ele>
        <time>2022-05-21T14:03:59.824Z</time>
      </trkpt>
      <trkpt lat="49.956649" lon="7.588347">
        <ele>520.131600</ele>
        <time>2022-05-21T14:04:02.830Z</time>
      </trkpt>
      <trkpt lat="49.956741" lon="7.588311">
        <ele>519.822042</ele>
        <time>2022-05-21T14:04:04.829Z</time>
      </trkpt>
      <trkpt lat="49.956828" lon="7.588264">
        <ele>519.521507</ele>
        <time>2022-05-21T14:04:06.837Z</time>
      </trkpt>
      <trkpt lat="49.956937" lon="7.588188">
        <ele>519.131700</ele>
        <time>2022-05-21T14:04:09.825Z</time>
      </trkpt>
      <trkpt lat="49.957057" lon="7.588100">
        <ele>518.698754</ele>
        <time>2022-05-21T14:04:12.833Z</time>
      </trkpt>
      <trkpt lat="49.957149" lon="7.588054">
        <ele>518.383413</ele>
        <time>2022-05-21T14:04:14.831Z</time>
      </trkpt>
      <trkpt lat="49.957247" lon="7.588011">
        <ele>518.051147</ele>
        <time>2022-05-21T14:04:16.834Z</time>
      </trkpt>
      <trkpt lat="49.957354" lon="7.587970">
        <ele>517.691558</ele>
        <time>2022-05-21T14:04:18.830Z</time>
      </trkpt>
      <trkpt lat="49.957460" lon="7.587903">
        <ele>517.318181</ele>
        <time>2022-05-21T14:04:21.832Z</time>
      </trkpt>
      <trkpt lat="49.957576" lon="7.587839">
        <ele>516.941964</ele>
        <time>2022-05-21T14:04:24.828Z</time>
      </trkpt>
      <trkpt lat="49.957695" lon="7.587794">
        <ele>516.580080</ele>
        <time>2022-05-21T14:04:27.829Z</time>
      </trkpt>
      <trkpt lat="49.957800" lon="7.587743">
        <ele>516.255024</ele>
        <time>2022-05-21T14:04:30.828Z</time>
      </trkpt>
      <trkpt lat="49.957923" lon="7.587690">
        <ele>515.877870</ele>
        <time>2022-05-21T14:04:33.828Z</time>
      </trkpt>
      <trkpt lat="49.958021" lon="7.587653">
        <ele>515.579874</ele>
        <time>2022-05-21T14:04:36.829Z</time>
      </trkpt>
      <trkpt lat="49.958147" lon="7.587624">
        <ele>515.203502</ele>
        <time>2022-05-21T14:04:39.834Z</time>
      </trkpt>
      <trkpt lat="49.958246" lon="7.587629">
        <ele>514.910817</ele>
        <time>2022-05-21T14:04:41.831Z</time>
      </trkpt>
      <trkpt lat="49.958353" lon="7.587592">
        <ele>514.586918</ele>
        <time>2022-05-21T14:04:45.827Z</time>
      </trkpt>
      <trkpt lat="49.958443" lon="7.587556">
        <ele>514.312316</ele>
        <time>2022-05-21T14:04:48.834Z</time>
      </trkpt>
      <trkpt lat="49.958558" lon="7.587496">
        <ele>513.953876</ele>
        <time>2022-05-21T14:04:51.832Z</time>
      </trkpt>
      <trkpt lat="49.958667" lon="7.587405">
        <ele>513.588280</ele>
        <time>2022-05-21T14:04:54.825Z</time>
      </trkpt>
      <trkpt lat="49.958758" lon="7.587322">
        <ele>513.276514</ele>
        <time>2022-05-21T14:04:57.833Z</time>
      </trkpt>
      <trkpt lat="49.958841" lon="7.587232">
        <ele>512.977482</ele>
        <time>2022-05-21T14:05:01.826Z</time>
      </trkpt>
      <trkpt lat="49.958965" lon="7.587099">
        <ele>512.532315</ele>
        <time>2022-05-21T14:08:11.829Z</time>
      </trkpt>
      <trkpt lat="49.959033" lon="7.586970">
        <ele>512.215285</ele>
        <time>2022-05-21T14:08:15.826Z</time>
      </trkpt>
      <trkpt lat="49.959093" lon="7.586858">
        <ele>511.938226</ele>
        <time>2022-05-21T14:08:19.828Z</time>
      </trkpt>
      <trkpt lat="49.959159" lon="7.586693">
        <ele>511.643563</ele>
        <time>2022-05-21T14:08:23.829Z</time>
      </trkpt>
      <trkpt lat="49.959243" lon="7.586550">
        <ele>511.366433</ele>
        <time>2022-05-21T14:08:26.829Z</time>
      </trkpt>
      <trkpt lat="49.959303" lon="7.586440">
        <ele>511.160041</ele>
        <time>2022-05-21T14:08:28.831Z</time>
      </trkpt>
      <trkpt lat="49.959393" lon="7.586337">
        <ele>510.911418</ele>
        <time>2022-05-21T14:08:30.833Z</time>
      </trkpt>
      <trkpt lat="49.959455" lon="7.586231">
        <ele>510.706391</ele>
        <time>2022-05-21T14:08:32.837Z</time>
      </trkpt>
      <trkpt lat="49.959524" lon="7.586124">
        <ele>510.489573</ele>
        <time>2022-05-21T14:08:34.825Z</time>
      </trkpt>
      <trkpt lat="49.959592" lon="7.586015">
        <ele>510.272279</ele>
        <time>2022-05-21T14:08:36.831Z</time>
      </trkpt>
      <trkpt lat="49.959661" lon="7.585911">
        <ele>510.058473</ele>
        <time>2022-05-21T14:08:38.827Z</time>
      </trkpt>
      <trkpt lat="49.959737" lon="7.585808">
        <ele>509.834169</ele>
        <time>2022-05-21T14:08:40.832Z</time>
      </trkpt>
      <trkpt lat="49.959817" lon="7.585721">
        <ele>509.616973</ele>
        <time>2022-05-21T14:08:42.828Z</time>
      </trkpt>
      <trkpt lat="49.959893" lon="7.585627">
        <ele>509.400916</ele>
        <time>2022-05-21T14:08:44.888Z</time>
      </trkpt>
      <trkpt lat="49.959994" lon="7.585508">
        <ele>509.118985</ele>
        <time>2022-05-21T14:08:47.825Z</time>
      </trkpt>
      <trkpt lat="49.960080" lon="7.585452">
        <ele>508.911564</ele>
        <time>2022-05-21T14:08:49.827Z</time>
      </trkpt>
      <trkpt lat="49.960156" lon="7.585376">
        <ele>508.710533</ele>
        <time>2022-05-21T14:08:51.829Z</time>
      </trkpt>
      <trkpt lat="49.960273" lon="7.585332">
        <ele>508.442749</ele>
        <time>2022-05-21T14:09:00.825Z</time>
      </trkpt>
      <trkpt lat="49.960383" lon="7.585235">
        <ele>508.161414</ele>
        <time>2022-05-21T14:09:03.825Z</time>
      </trkpt>
      <trkpt lat="49.960452" lon="7.585124">
        <ele>507.940518</ele>
        <time>2022-05-21T14:09:06.833Z</time>
      </trkpt>
      <trkpt lat="49.960553" lon="7.585007">
        <ele>507.729046</ele>
        <time>2022-05-21T14:09:09.827Z</time>
      </trkpt>
      <trkpt lat="49.960665" lon="7.584924">
        <ele>507.543576</ele>
        <time>2022-05-21T14:09:12.829Z</time>
      </trkpt>
      <trkpt lat="49.960762" lon="7.584852">
        <ele>507.382898</ele>
        <time>2022-05-21T14:09:14.831Z</time>
      </trkpt>
      <trkpt lat="49.960843" lon="7.584775">
        <ele>507.240972</ele>
        <time>2022-05-21T14:09:16.827Z</time>
      </trkpt>
      <trkpt lat="49.960955" lon="7.584640">
        <ele>507.029119</ele>
        <time>2022-05-21T14:09:19.830Z</time>
      </trkpt>
      <trkpt lat="49.961062" lon="7.584538">
        <ele>506.841495</ele>
        <time>2022-05-21T14:09:22.832Z</time>
      </trkpt>
      <trkpt lat="49.961152" lon="7.584422">
        <ele>506.666733</ele>
        <time>2022-05-21T14:09:25.830Z</time>
      </trkpt>
      <trkpt lat="49.961230" lon="7.584316">
        <ele>506.511865</ele>
        <time>2022-05-21T14:09:28.835Z</time>
      </trkpt>
      <trkpt lat="49.961317" lon="7.584259">
        <ele>506.370738</ele>
        <time>2022-05-21T14:09:31.830Z</time>
      </trkpt>
      <trkpt lat="49.961408" lon="7.584180">
        <ele>506.214935</ele>
        <time>2022-05-21T14:09:35.830Z</time>
      </trkpt>
      <trkpt lat="49.961488" lon="7.584243">
        <ele>506.080881</ele>
        <time>2022-05-21T14:09:40.826Z</time>
      </trkpt>
      <trkpt lat="49.961579" lon="7.584377">
        <ele>505.893512</ele>
        <time>2022-05-21T14:09:44.825Z</time>
      </trkpt>
      <trkpt lat="49.961664" lon="7.584504">
        <ele>505.717279</ele>
        <time>2022-05-21T14:09:47.829Z</time>
      </trkpt>
      <trkpt lat="49.961765" lon="7.584648">
        <ele>505.512419</ele>
        <time>2022-05-21T14:09:50.828Z</time>
      </trkpt>
      <trkpt lat="49.961839" lon="7.584778">
        <ele>505.345497</ele>
        <time>2022-05-21T14:09:52.831Z</time>
      </trkpt>
      <trkpt lat="49.961902" lon="7.584900">
        <ele>505.195060</ele>
        <time>2022-05-21T14:09:54.827Z</time>
      </trkpt>
      <trkpt lat="49.961977" lon="7.585012">
        <ele>505.141224</ele>
        <time>2022-05-21T14:09:56.824Z</time>
      </trkpt>
      <trkpt lat="49.962056" lon="7.585110">
        <ele>505.098549</ele>
        <time>2022-05-21T14:09:58.833Z</time>
      </trkpt>
      <trkpt lat="49.962138" lon="7.585256">
        <ele>505.045907</ele>
        <time>2022-05-21T14:10:01.827Z</time>
      </trkpt>
      <trkpt lat="49.962208" lon="7.585369">
        <ele>505.003297</ele>
        <time>2022-05-21T14:10:03.826Z</time>
      </trkpt>
      <trkpt lat="49.962279" lon="7.585493">
        <ele>504.958208</ele>
        <time>2022-05-21T14:10:05.832Z</time>
      </trkpt>
      <trkpt lat="49.962358" lon="7.585593">
        <ele>504.915193</ele>
        <time>2022-05-21T14:10:07.829Z</time>
      </trkpt>
      <trkpt lat="49.962437" lon="7.585733">
        <ele>504.864611</ele>
        <time>2022-05-21T14:10:10.825Z</time>
      </trkpt>
      <trkpt lat="49.962516" lon="7.585868">
        <ele>504.815042</ele>
        <time>2022-05-21T14:10:13.829Z</time>
      </trkpt>
      <trkpt lat="49.962583" lon="7.585966">
        <ele>504.776199</ele>
        <time>2022-05-21T14:10:15.829Z</time>
      </trkpt>
      <trkpt lat="49.962652" lon="7.586061">
        <ele>504.737281</ele>
        <time>2022-05-21T14:10:17.829Z</time>
      </trkpt>
      <trkpt lat="49.962735" lon="7.586210">
        <ele>504.683747</ele>
        <time>2022-05-21T14:10:20.849Z</time>
      </trkpt>
      <trkpt lat="49.962803" lon="7.586304">
        <ele>504.645326</ele>
        <time>2022-05-21T14:10:22.830Z</time>
      </trkpt>
      <trkpt lat="49.962899" lon="7.586454">
        <ele>504.587856</ele>
        <time>2022-05-21T14:10:25.828Z</time>
      </trkpt>
      <trkpt lat="49.962995" lon="7.586589">
        <ele>504.533198</ele>
        <time>2022-05-21T14:10:28.848Z</time>
      </trkpt>
      <trkpt lat="49.963086" lon="7.586750">
        <ele>504.474988</ele>
        <time>2022-05-21T14:10:31.831Z</time>
      </trkpt>
      <trkpt lat="49.963158" lon="7.586860">
        <ele>504.432364</ele>
        <time>2022-05-21T14:10:33.825Z</time>
      </trkpt>
      <trkpt lat="49.963227" lon="7.586968">
        <ele>504.548986</ele>
        <time>2022-05-21T14:10:35.829Z</time>
      </trkpt>
      <trkpt lat="49.963325" lon="7.587110">
        <ele>504.782725</ele>
        <time>2022-05-21T14:10:38.831Z</time>
      </trkpt>
      <trkpt lat="49.963407" lon="7.587265">
        <ele>505.007959</ele>
        <time>2022-05-21T14:10:41.832Z</time>
      </trkpt>
      <trkpt lat="49.963478" lon="7.587388">
        <ele>505.193436</ele>
        <time>2022-05-21T14:10:43.876Z</time>
      </trkpt>
      <trkpt lat="49.963564" lon="7.587522">
        <ele>505.405877</ele>
        <time>2022-05-21T14:10:45.834Z</time>
      </trkpt>
      <trkpt lat="49.963640" lon="7.587640">
        <ele>505.593284</ele>
        <time>2022-05-21T14:10:47.821Z</time>
      </trkpt>
      <trkpt lat="49.963709" lon="7.587763">
        <ele>505.776448</ele>
        <time>2022-05-21T14:10:49.831Z</time>
      </trkpt>
      <trkpt lat="49.963783" lon="7.587886">
        <ele>505.965460</ele>
        <time>2022-05-21T14:10:51.832Z</time>
      </trkpt>
      <trkpt lat="49.963867" lon="7.587999">
        <ele>506.159271</ele>
        <time>2022-05-21T14:10:53.831Z</time>
      </trkpt>
      <trkpt lat="49.963938" lon="7.588101">
        <ele>506.327941</ele>
        <time>2022-05-21T14:10:55.826Z</time>
      </trkpt>
      <trkpt lat="49.964015" lon="7.588208">
        <ele>506.508133</ele>
        <time>2022-05-21T14:10:57.829Z</time>
      </trkpt>
      <trkpt lat="49.964095" lon="7.588327">
        <ele>506.701314</ele>
        <time>2022-05-21T14:10:59.827Z</time>
      </trkpt>
      <trkpt lat="49.964164" lon="7.588443">
        <ele>506.878631</ele>
        <time>2022-05-21T14:11:01.825Z</time>
      </trkpt>
      <trkpt lat="49.964231" lon="7.588557">
        <ele>507.051935</ele>
        <time>2022-05-21T14:11:03.825Z</time>
      </trkpt>
      <trkpt lat="49.964292" lon="7.588660">
        <ele>507.209064</ele>
        <time>2022-05-21T14:11:05.828Z</time>
      </trkpt>
      <trkpt lat="49.964355" lon="7.588760">
        <ele>507.366155</ele>
        <time>2022-05-21T14:11:07.823Z</time>
      </trkpt>
      <trkpt lat="49.964438" lon="7.588893">
        <ele>507.567524</ele>
        <time>2022-05-21T14:11:10.835Z</time>
      </trkpt>
      <trkpt lat="49.964532" lon="7.589042">
        <ele>507.693003</ele>
        <time>2022-05-21T14:11:13.836Z</time>
      </trkpt>
      <trkpt lat="49.964602" lon="7.589139">
        <ele>507.780651</ele>
        <time>2022-05-21T14:11:15.829Z</time>
      </trkpt>
      <trkpt lat="49.964694" lon="7.589287">
        <ele>507.904395</ele>
        <time>2022-05-21T14:11:18.827Z</time>
      </trkpt>
      <trkpt lat="49.964763" lon="7.589386">
        <ele>507.992158</ele>
        <time>2022-05-21T14:11:20.823Z</time>
      </trkpt>
      <trkpt lat="49.964832" lon="7.589487">
        <ele>508.080741</ele>
        <time>2022-05-21T14:11:22.823Z</time>
      </trkpt>
      <trkpt lat="49.964919" lon="7.589638">
        <ele>508.202621</ele>
        <time>2022-05-21T14:11:25.837Z</time>
      </trkpt>
      <trkpt lat="49.964992" lon="7.589811">
        <ele>508.327018</ele>
        <time>2022-05-21T14:11:28.831Z</time>
      </trkpt>
      <trkpt lat="49.965080" lon="7.589952">
        <ele>508.445137</ele>
        <time>2022-05-21T14:11:31.833Z</time>
      </trkpt>
      <trkpt lat="49.965178" lon="7.590085">
        <ele>508.566729</ele>
        <time>2022-05-21T14:11:34.824Z</time>
      </trkpt>
      <trkpt lat="49.965268" lon="7.590196">
        <ele>508.674108</ele>
        <time>2022-05-21T14:11:37.829Z</time>
      </trkpt>
      <trkpt lat="49.965338" lon="7.590287">
        <ele>508.759398</ele>
        <time>2022-05-21T14:11:39.827Z</time>
      </trkpt>
      <trkpt lat="49.965450" lon="7.590419">
        <ele>508.890764</ele>
        <time>2022-05-21T14:11:42.831Z</time>
      </trkpt>
      <trkpt lat="49.965537" lon="7.590476">
        <ele>508.979008</ele>
        <time>2022-05-21T14:11:44.829Z</time>
      </trkpt>
      <trkpt lat="49.965613" lon="7.590554">
        <ele>509.064128</ele>
        <time>2022-05-21T14:11:46.831Z</time>
      </trkpt>
      <trkpt lat="49.965723" lon="7.590638">
        <ele>509.178677</ele>
        <time>2022-05-21T14:11:48.831Z</time>
      </trkpt>
      <trkpt lat="49.965812" lon="7.590715">
        <ele>509.337522</ele>
        <time>2022-05-21T14:11:50.832Z</time>
      </trkpt>
      <trkpt lat="49.965923" lon="7.590808">
        <ele>509.684002</ele>
        <time>2022-05-21T14:11:53.835Z</time>
      </trkpt>
      <trkpt lat="49.966042" lon="7.590899">
        <ele>510.048408</ele>
        <time>2022-05-21T14:11:56.824Z</time>
      </trkpt>
      <trkpt lat="49.966129" lon="7.590975">
        <ele>510.322623</ele>
        <time>2022-05-21T14:11:58.825Z</time>
      </trkpt>
      <trkpt lat="49.966228" lon="7.591094">
        <ele>510.666485</ele>
        <time>2022-05-21T14:12:01.829Z</time>
      </trkpt>
      <trkpt lat="49.966349" lon="7.591183">
        <ele>511.034305</ele>
        <time>2022-05-21T14:12:04.835Z</time>
      </trkpt>
      <trkpt lat="49.966455" lon="7.591277">
        <ele>511.369626</ele>
        <time>2022-05-21T14:12:07.833Z</time>
      </trkpt>
      <trkpt lat="49.966539" lon="7.591337">
        <ele>511.623638</ele>
        <time>2022-05-21T14:12:09.829Z</time>
      </trkpt>
      <trkpt lat="49.966617" lon="7.591430">
        <ele>511.893742</ele>
        <time>2022-05-21T14:12:11.830Z</time>
      </trkpt>
      <trkpt lat="49.966698" lon="7.591594">
        <ele>512.259202</ele>
        <time>2022-05-21T14:12:14.825Z</time>
      </trkpt>
      <trkpt lat="49.966757" lon="7.591726">
        <ele>512.543305</ele>
        <time>2022-05-21T14:12:16.826Z</time>
      </trkpt>
      <trkpt lat="49.966804" lon="7.591867">
        <ele>512.823995</ele>
        <time>2022-05-21T14:12:18.829Z</time>
      </trkpt>
      <trkpt lat="49.966848" lon="7.591995">
        <ele>513.080511</ele>
        <time>2022-05-21T14:12:20.829Z</time>
      </trkpt>
      <trkpt lat="49.966894" lon="7.592123">
        <ele>513.339662</ele>
        <time>2022-05-21T14:12:22.823Z</time>
      </trkpt>
      <trkpt lat="49.966949" lon="7.592252">
        <ele>513.613205</ele>
        <time>2022-05-21T14:12:24.826Z</time>
      </trkpt>
      <trkpt lat="49.966993" lon="7.592379">
        <ele>513.868163</ele>
        <time>2022-05-21T14:12:26.826Z</time>
      </trkpt>
      <trkpt lat="49.967038" lon="7.592507">
        <ele>514.125985</ele>
        <time>2022-05-21T14:12:28.827Z</time>
      </trkpt>
      <trkpt lat="49.967088" lon="7.592643">
        <ele>514.059728</ele>
        <time>2022-05-21T14:12:30.833Z</time>
      </trkpt>
      <trkpt lat="49.967143" lon="7.592787">
        <ele>513.892949</ele>
        <time>2022-05-21T14:12:32.832Z</time>
      </trkpt>
      <trkpt lat="49.967194" lon="7.592913">
        <ele>513.744695</ele>
        <time>2022-05-21T14:12:34.823Z</time>
      </trkpt>
      <trkpt lat="49.967252" lon="7.593043">
        <ele>513.587140</ele>
        <time>2022-05-21T14:12:36.823Z</time>
      </trkpt>
      <trkpt lat="49.967308" lon="7.593188">
        <ele>513.418712</ele>
        <time>2022-05-21T14:12:38.822Z</time>
      </trkpt>
      <trkpt lat="49.967363" lon="7.593323">
        <ele>513.259574</ele>
        <time>2022-05-21T14:12:40.826Z</time>
      </trkpt>
      <trkpt lat="49.967436" lon="7.593505">
        <ele>513.045978</ele>
        <time>2022-05-21T14:12:43.835Z</time>
      </trkpt>
      <trkpt lat="49.967483" lon="7.593648">
        <ele>512.886058</ele>
        <time>2022-05-21T14:12:45.839Z</time>
      </trkpt>
      <trkpt lat="49.967556" lon="7.593769">
        <ele>512.720852</ele>
        <time>2022-05-21T14:12:47.826Z</time>
      </trkpt>
      <trkpt lat="49.967584" lon="7.593902">
        <ele>512.581490</ele>
        <time>2022-05-21T14:12:49.828Z</time>
      </trkpt>
      <trkpt lat="49.967663" lon="7.594050">
        <ele>512.389965</ele>
        <time>2022-05-21T14:12:52.825Z</time>
      </trkpt>
      <trkpt lat="49.967731" lon="7.594204">
        <ele>512.203947</ele>
        <time>2022-05-21T14:12:55.829Z</time>
      </trkpt>
      <trkpt lat="49.967788" lon="7.594376">
        <ele>512.011265</ele>
        <time>2022-05-21T14:12:58.828Z</time>
      </trkpt>
      <trkpt lat="49.967819" lon="7.594513">
        <ele>511.866639</ele>
        <time>2022-05-21T14:13:00.830Z</time>
      </trkpt>
      <trkpt lat="49.967886" lon="7.594643">
        <ele>511.700748</ele>
        <time>2022-05-21T14:13:02.837Z</time>
      </trkpt>
      <trkpt lat="49.967947" lon="7.594782">
        <ele>511.533178</ele>
        <time>2022-05-21T14:13:04.829Z</time>
      </trkpt>
      <trkpt lat="49.967996" lon="7.594915">
        <ele>511.383322</ele>
        <time>2022-05-21T14:13:06.825Z</time>
      </trkpt>
      <trkpt lat="49.968040" lon="7.595046">
        <ele>511.258685</ele>
        <time>2022-05-21T14:13:08.829Z</time>
      </trkpt>
      <trkpt lat="49.968107" lon="7.595200">
        <ele>511.101886</ele>
        <time>2022-05-21T14:13:11.830Z</time>
      </trkpt>
      <trkpt lat="49.968162" lon="7.595376">
        <ele>510.936862</ele>
        <time>2022-05-21T14:13:14.830Z</time>
      </trkpt>
      <trkpt lat="49.968212" lon="7.595517">
        <ele>510.801073</ele>
        <time>2022-05-21T14:13:17.829Z</time>
      </trkpt>
      <trkpt lat="49.968301" lon="7.595641">
        <ele>510.644376</ele>
        <time>2022-05-21T14:13:23.830Z</time>
      </trkpt>
      <trkpt lat="49.968444" lon="7.595677">
        <ele>510.454435</ele>
        <time>2022-05-21T14:13:26.831Z</time>
      </trkpt>
      <trkpt lat="49.968551" lon="7.595699">
        <ele>510.312918</ele>
        <time>2022-05-21T14:13:28.823Z</time>
      </trkpt>
      <trkpt lat="49.968659" lon="7.595723">
        <ele>510.169871</ele>
        <time>2022-05-21T14:13:30.828Z</time>
      </trkpt>
      <trkpt lat="49.968802" lon="7.595768">
        <ele>509.978571</ele>
        <time>2022-05-21T14:13:32.829Z</time>
      </trkpt>
      <trkpt lat="49.968943" lon="7.595780">
        <ele>509.793418</ele>
        <time>2022-05-21T14:13:34.840Z</time>
      </trkpt>
      <trkpt lat="49.969087" lon="7.595791">
        <ele>509.604380</ele>
        <time>2022-05-21T14:13:36.842Z</time>
      </trkpt>
      <trkpt lat="49.969194" lon="7.595833">
        <ele>509.459682</ele>
        <time>2022-05-21T14:13:38.831Z</time>
      </trkpt>
      <trkpt lat="49.969327" lon="7.595855">
        <ele>509.284311</ele>
        <time>2022-05-21T14:13:40.822Z</time>
      </trkpt>
      <trkpt lat="49.969461" lon="7.595884">
        <ele>509.106920</ele>
        <time>2022-05-21T14:13:42.825Z</time>
      </trkpt>
      <trkpt lat="49.969580" lon="7.595906">
        <ele>508.773510</ele>
        <time>2022-05-21T14:13:44.831Z</time>
      </trkpt>
      <trkpt lat="49.969686" lon="7.595932">
        <ele>508.358924</ele>
        <time>2022-05-21T14:13:46.831Z</time>
      </trkpt>
      <trkpt lat="49.969792" lon="7.595954">
        <ele>507.945771</ele>
        <time>2022-05-21T14:13:48.836Z</time>
      </trkpt>
      <trkpt lat="49.969916" lon="7.595985">
        <ele>507.460556</ele>
        <time>2022-05-21T14:13:50.827Z</time>
      </trkpt>
      <trkpt lat="49.970036" lon="7.596008">
        <ele>506.993438</ele>
        <time>2022-05-21T14:13:52.833Z</time>
      </trkpt>
      <trkpt lat="49.970157" lon="7.596030">
        <ele>506.522782</ele>
        <time>2022-05-21T14:13:54.827Z</time>
      </trkpt>
      <trkpt lat="49.970278" lon="7.596055">
        <ele>506.051201</ele>
        <time>2022-05-21T14:13:56.830Z</time>
      </trkpt>
      <trkpt lat="49.970397" lon="7.596080">
        <ele>505.587278</ele>
        <time>2022-05-21T14:13:58.824Z</time>
      </trkpt>
      <trkpt lat="49.970516" lon="7.596102">
        <ele>505.124295</ele>
        <time>2022-05-21T14:14:00.825Z</time>
      </trkpt>
      <trkpt lat="49.970627" lon="7.596126">
        <ele>504.691331</ele>
        <time>2022-05-21T14:14:02.826Z</time>
      </trkpt>
      <trkpt lat="49.970742" lon="7.596153">
        <ele>504.242003</ele>
        <time>2022-05-21T14:14:04.825Z</time>
      </trkpt>
      <trkpt lat="49.970866" lon="7.596183">
        <ele>503.757176</ele>
        <time>2022-05-21T14:14:06.828Z</time>
      </trkpt>
      <trkpt lat="49.970988" lon="7.596205">
        <ele>503.282682</ele>
        <time>2022-05-21T14:14:08.829Z</time>
      </trkpt>
      <trkpt lat="49.971102" lon="7.596228">
        <ele>502.838562</ele>
        <time>2022-05-21T14:14:10.823Z</time>
      </trkpt>
      <trkpt lat="49.971223" lon="7.596260">
        <ele>502.364376</ele>
        <time>2022-05-21T14:14:12.827Z</time>
      </trkpt>
      <trkpt lat="49.971350" lon="7.596296">
        <ele>502.150372</ele>
        <time>2022-05-21T14:14:14.826Z</time>
      </trkpt>
      <trkpt lat="49.971485" lon="7.596350">
        <ele>502.290817</ele>
        <time>2022-05-21T14:14:16.829Z</time>
      </trkpt>
      <trkpt lat="49.971618" lon="7.596401">
        <ele>502.428833</ele>
        <time>2022-05-21T14:14:18.831Z</time>
      </trkpt>
      <trkpt lat="49.971756" lon="7.596466">
        <ele>502.574112</ele>
        <time>2022-05-21T14:14:20.828Z</time>
      </trkpt>
      <trkpt lat="49.971882" lon="7.596529">
        <ele>502.707463</ele>
        <time>2022-05-21T14:14:22.830Z</time>
      </trkpt>
      <trkpt lat="49.971985" lon="7.596593">
        <ele>502.819218</ele>
        <time>2022-05-21T14:14:24.831Z</time>
      </trkpt>
      <trkpt lat="49.972106" lon="7.596665">
        <ele>502.949751</ele>
        <time>2022-05-21T14:14:27.826Z</time>
      </trkpt>
      <trkpt lat="49.972197" lon="7.596731">
        <ele>503.050921</ele>
        <time>2022-05-21T14:14:30.825Z</time>
      </trkpt>
      <trkpt lat="49.972315" lon="7.596747">
        <ele>503.170260</ele>
        <time>2022-05-21T14:14:36.831Z</time>
      </trkpt>
      <trkpt lat="49.972402" lon="7.596641">
        <ele>503.281621</ele>
        <time>2022-05-21T14:14:38.831Z</time>
      </trkpt>
      <trkpt lat="49.972506" lon="7.596468">
        <ele>503.435070</ele>
        <time>2022-05-21T14:14:40.826Z</time>
      </trkpt>
      <trkpt lat="49.972623" lon="7.596271">
        <ele>503.608827</ele>
        <time>2022-05-21T14:14:42.827Z</time>
      </trkpt>
      <trkpt lat="49.972687" lon="7.596169">
        <ele>503.701166</ele>
        <time>2022-05-21T14:14:43.829Z</time>
      </trkpt>
      <trkpt lat="49.972810" lon="7.595977">
        <ele>503.876769</ele>
        <time>2022-05-21T14:14:45.830Z</time>
      </trkpt>
      <trkpt lat="49.972923" lon="7.595782">
        <ele>504.041073</ele>
        <time>2022-05-21T14:14:47.829Z</time>
      </trkpt>
      <trkpt lat="49.973034" lon="7.595586">
        <ele>504.203468</ele>
        <time>2022-05-21T14:14:49.829Z</time>
      </trkpt>
      <trkpt lat="49.973123" lon="7.595384">
        <ele>504.355727</ele>
        <time>2022-05-21T14:14:51.828Z</time>
      </trkpt>
      <trkpt lat="49.973194" lon="7.595178">
        <ele>504.501058</ele>
        <time>2022-05-21T14:14:53.831Z</time>
      </trkpt>
      <trkpt lat="49.973262" lon="7.594989">
        <ele>504.635724</ele>
        <time>2022-05-21T14:14:55.827Z</time>
      </trkpt>
      <trkpt lat="49.973327" lon="7.594821">
        <ele>504.757638</ele>
        <time>2022-05-21T14:14:57.827Z</time>
      </trkpt>
      <trkpt lat="49.973386" lon="7.594670">
        <ele>504.867504</ele>
        <time>2022-05-21T14:14:59.831Z</time>
      </trkpt>
      <trkpt lat="49.973449" lon="7.594539">
        <ele>504.969219</ele>
        <time>2022-05-21T14:15:01.825Z</time>
      </trkpt>
      <trkpt lat="49.973535" lon="7.594437">
        <ele>505.073798</ele>
        <time>2022-05-21T14:15:04.830Z</time>
      </trkpt>
      <trkpt lat="49.973614" lon="7.594582">
        <ele>505.191967</ele>
        <time>2022-05-21T14:15:07.829Z</time>
      </trkpt>
      <trkpt lat="49.973666" lon="7.594751">
        <ele>505.308463</ele>
        <time>2022-05-21T14:15:09.831Z</time>
      </trkpt>
      <trkpt lat="49.973713" lon="7.594928">
        <ele>505.427538</ele>
        <time>2022-05-21T14:15:11.829Z</time>
      </trkpt>
      <trkpt lat="49.973766" lon="7.595109">
        <ele>505.551204</ele>
        <time>2022-05-21T14:15:13.823Z</time>
      </trkpt>
      <trkpt lat="49.973825" lon="7.595312">
        <ele>505.896517</ele>
        <time>2022-05-21T14:15:15.830Z</time>
      </trkpt>
      <trkpt lat="49.973895" lon="7.595507">
        <ele>506.645862</ele>
        <time>2022-05-21T14:15:17.829Z</time>
      </trkpt>
      <trkpt lat="49.973953" lon="7.595699">
        <ele>507.357644</ele>
        <time>2022-05-21T14:15:19.829Z</time>
      </trkpt>
      <trkpt lat="49.974009" lon="7.595884">
        <ele>508.043730</ele>
        <time>2022-05-21T14:15:21.827Z</time>
      </trkpt>
      <trkpt lat="49.974055" lon="7.596025">
        <ele>508.574243</ele>
        <time>2022-05-21T14:15:23.826Z</time>
      </trkpt>
      <trkpt lat="49.974102" lon="7.596168">
        <ele>509.113104</ele>
        <time>2022-05-21T14:15:25.822Z</time>
      </trkpt>
      <trkpt lat="49.974157" lon="7.596299">
        <ele>509.638045</ele>
        <time>2022-05-21T14:15:27.823Z</time>
      </trkpt>
      <trkpt lat="49.974226" lon="7.596442">
        <ele>510.237910</ele>
        <time>2022-05-21T14:15:29.829Z</time>
      </trkpt>
      <trkpt lat="49.974298" lon="7.596584">
        <ele>510.844657</ele>
        <time>2022-05-21T14:15:31.824Z</time>
      </trkpt>
      <trkpt lat="49.974374" lon="7.596690">
        <ele>511.377326</ele>
        <time>2022-05-21T14:15:33.831Z</time>
      </trkpt>
      <trkpt lat="49.974433" lon="7.596823">
        <ele>511.919468</ele>
        <time>2022-05-21T14:15:35.826Z</time>
      </trkpt>
      <trkpt lat="49.974487" lon="7.596945">
        <ele>512.416415</ele>
        <time>2022-05-21T14:15:37.824Z</time>
      </trkpt>
      <trkpt lat="49.974545" lon="7.597053">
        <ele>512.888534</ele>
        <time>2022-05-21T14:15:39.826Z</time>
      </trkpt>
      <trkpt lat="49.974649" lon="7.597095">
        <ele>513.449144</ele>
        <time>2022-05-21T14:15:41.826Z</time>
      </trkpt>
      <trkpt lat="49.974758" lon="7.597063">
        <ele>514.027886</ele>
        <time>2022-05-21T14:15:43.827Z</time>
      </trkpt>
      <trkpt lat="49.974870" lon="7.596986">
        <ele>514.666803</ele>
        <time>2022-05-21T14:15:45.823Z</time>
      </trkpt>
      <trkpt lat="49.974988" lon="7.596905">
        <ele>515.026891</ele>
        <time>2022-05-21T14:15:47.835Z</time>
      </trkpt>
      <trkpt lat="49.975101" lon="7.596811">
        <ele>515.026891</ele>
        <time>2022-05-21T14:15:49.824Z</time>
      </trkpt>
      <trkpt lat="49.975198" lon="7.596739">
        <ele>515.026891</ele>
        <time>2022-05-21T14:15:51.825Z</time>
      </trkpt>
      <trkpt lat="49.975314" lon="7.596654">
        <ele>515.026891</ele>
        <time>2022-05-21T14:15:53.829Z</time>
      </trkpt>
      <trkpt lat="49.975420" lon="7.596552">
        <ele>515.026891</ele>
        <time>2022-05-21T14:15:55.830Z</time>
      </trkpt>
      <trkpt lat="49.975534" lon="7.596465">
        <ele>515.026891</ele>
        <time>2022-05-21T14:15:57.830Z</time>
      </trkpt>
      <trkpt lat="49.975650" lon="7.596360">
        <ele>515.026891</ele>
        <time>2022-05-21T14:15:59.825Z</time>
      </trkpt>
      <trkpt lat="49.975762" lon="7.596247">
        <ele>515.026891</ele>
        <time>2022-05-21T14:16:01.827Z</time>
      </trkpt>
      <trkpt lat="49.975873" lon="7.596152">
        <ele>515.026891</ele>
        <time>2022-05-21T14:16:03.828Z</time>
      </trkpt>
      <trkpt lat="49.975965" lon="7.596064">
        <ele>515.026891</ele>
        <time>2022-05-21T14:16:05.825Z</time>
      </trkpt>
      <trkpt lat="49.976075" lon="7.595986">
        <ele>515.026891</ele>
        <time>2022-05-21T14:16:08.825Z</time>
      </trkpt>
      <trkpt lat="49.976164" lon="7.595878">
        <ele>515.026891</ele>
        <time>2022-05-21T14:16:11.834Z</time>
      </trkpt>
      <trkpt lat="49.976213" lon="7.595892">
        <ele>515.026891</ele>
        <time>2022-05-21T14:16:23.652Z</time>
      </trkpt>
    </trkseg>
  </trk>
</gpx>