<?xml version="1.0" encoding="UTF-8" standalone="yes"?>
<gpx version="1.1" creator="outdooractive - http://www.outdooractive.com" xmlns="http://www.topografix.com/GPX/1/1" xmlns:xsi="http://www.w3.org/2001/XMLSchema-instance" xsi:schemaLocation="http://www.topografix.com/GPX/1/1 http://www.topografix.com/GPX/1/1/gpx.xsd" xmlns:oa="http://www.outdooractive.com/GPX/Extensions/1">
  <metadata>
    <name>Winningen-Mosella - Zauber 11 Km</name>
    <author>
      <name>Thomas Fickinger - Community</name>
    </author>
    <link href="https://www.outdooractive.com/r/229637536"/>
    <time>2021-11-09T00:04:45.188</time>
    <extensions>
      <oa:oaCategory>hikingTourTrail</oa:oaCategory>
    </extensions>
  </metadata>
  <trk>
    <name>Winningen-Mosella - Zauber 11 Km</name>
    <desc>Winningen-Mosella - Zauber 11 Km</desc>
    <type>hikingTourTrail</type>
    <trkseg>
      <trkpt lat="50.3162" lon="7.49884">
        <ele>196.23703</ele>
        <name>DVV Winningen-Mosella - Zauber</name>
        <extensions>
          <oa:mapZoom>15</oa:mapZoom>
        </extensions>
      </trkpt>
      <trkpt lat="50.3161" lon="7.49862">
        <ele>193.39762</ele>
      </trkpt>
      <trkpt lat="50.3161" lon="7.49836">
        <ele>190.82419</ele>
      </trkpt>
      <trkpt lat="50.31644" lon="7.49779">
        <ele>192.18648</ele>
      </trkpt>
      <trkpt lat="50.31647" lon="7.49753">
        <ele>188.50605</ele>
      </trkpt>
      <trkpt lat="50.31638" lon="7.49735">
        <ele>179.53663</ele>
      </trkpt>
      <trkpt lat="50.3166" lon="7.49706">
        <ele>181.6078</ele>
      </trkpt>
      <trkpt lat="50.3167" lon="7.49731">
        <ele>192.246</ele>
      </trkpt>
      <trkpt lat="50.3168" lon="7.49734">
        <ele>195.4067</ele>
      </trkpt>
      <trkpt lat="50.31674" lon="7.49719">
        <ele>191.14322</ele>
      </trkpt>
      <trkpt lat="50.31674" lon="7.49699">
        <ele>185.97367</ele>
      </trkpt>
      <trkpt lat="50.3171" lon="7.49668">
        <ele>191.5798</ele>
      </trkpt>
      <trkpt lat="50.31748" lon="7.49588">
        <ele>187.53345</ele>
      </trkpt>
      <trkpt lat="50.3177" lon="7.49492">
        <ele>189.53907</ele>
      </trkpt>
      <trkpt lat="50.3177" lon="7.49492">
        <ele>189.53907</ele>
        <name>50.317700,7.494920</name>
        <extensions>
          <oa:mapZoom>15</oa:mapZoom>
        </extensions>
      </trkpt>
      <trkpt lat="50.31778" lon="7.49472">
        <ele>192.50173</ele>
      </trkpt>
      <trkpt lat="50.31789" lon="7.49463">
        <ele>195.09223</ele>
      </trkpt>
      <trkpt lat="50.31788" lon="7.49481">
        <ele>199.14671</ele>
      </trkpt>
      <trkpt lat="50.31779" lon="7.49504">
        <ele>195.5758</ele>
      </trkpt>
      <trkpt lat="50.3178" lon="7.49593">
        <ele>204.48118</ele>
      </trkpt>
      <trkpt lat="50.31783" lon="7.49605">
        <ele>207.42733</ele>
      </trkpt>
      <trkpt lat="50.31778" lon="7.4978">
        <ele>208.50369</ele>
      </trkpt>
      <trkpt lat="50.31781" lon="7.49822">
        <ele>206.73337</ele>
      </trkpt>
      <trkpt lat="50.31787" lon="7.49838">
        <ele>206.29075</ele>
      </trkpt>
      <trkpt lat="50.31799" lon="7.49854">
        <ele>206.04911</ele>
      </trkpt>
      <trkpt lat="50.31818" lon="7.49864">
        <ele>206.53813</ele>
      </trkpt>
      <trkpt lat="50.31856" lon="7.49873">
        <ele>209.11425</ele>
      </trkpt>
      <trkpt lat="50.31879" lon="7.49887">
        <ele>211.0469</ele>
      </trkpt>
      <trkpt lat="50.31892" lon="7.49909">
        <ele>211.63619</ele>
      </trkpt>
      <trkpt lat="50.319" lon="7.49939">
        <ele>211.23495</ele>
      </trkpt>
      <trkpt lat="50.31913" lon="7.50075">
        <ele>207.47473</ele>
      </trkpt>
      <trkpt lat="50.31925" lon="7.5011">
        <ele>207.37996</ele>
      </trkpt>
      <trkpt lat="50.31974" lon="7.50202">
        <ele>207.39593</ele>
      </trkpt>
      <trkpt lat="50.32095" lon="7.50391">
        <ele>211.93314</ele>
      </trkpt>
      <trkpt lat="50.32095" lon="7.50391">
        <ele>211.93314</ele>
        <name>50.320950,7.503910</name>
        <extensions>
          <oa:mapZoom>15</oa:mapZoom>
        </extensions>
      </trkpt>
      <trkpt lat="50.32111" lon="7.50416">
        <ele>212.56672</ele>
      </trkpt>
      <trkpt lat="50.32053" lon="7.50502">
        <ele>207.98133</ele>
      </trkpt>
      <trkpt lat="50.32036" lon="7.50479">
        <ele>208.69168</ele>
      </trkpt>
      <trkpt lat="50.3201" lon="7.50491">
        <ele>207.85567</ele>
      </trkpt>
      <trkpt lat="50.31734" lon="7.50908">
        <ele>194.55285</ele>
      </trkpt>
      <trkpt lat="50.31722" lon="7.50914">
        <ele>194.09967</ele>
      </trkpt>
      <trkpt lat="50.31711" lon="7.50928">
        <ele>193.85471</ele>
      </trkpt>
      <trkpt lat="50.31612" lon="7.50984">
        <ele>188.29729</ele>
      </trkpt>
      <trkpt lat="50.31576" lon="7.50992">
        <ele>184.25336</ele>
      </trkpt>
      <trkpt lat="50.31569" lon="7.51002">
        <ele>183.75849</ele>
      </trkpt>
      <trkpt lat="50.31589" lon="7.5112">
        <ele>184.03483</ele>
      </trkpt>
      <trkpt lat="50.31601" lon="7.51168">
        <ele>184.56384</ele>
      </trkpt>
      <trkpt lat="50.31615" lon="7.51195">
        <ele>184.22364</ele>
      </trkpt>
      <trkpt lat="50.31642" lon="7.51232">
        <ele>183.28516</ele>
      </trkpt>
      <trkpt lat="50.3167" lon="7.51255">
        <ele>182.33481</ele>
      </trkpt>
      <trkpt lat="50.3171" lon="7.51215">
        <ele>188.91242</ele>
      </trkpt>
      <trkpt lat="50.3171" lon="7.51215">
        <ele>188.91242</ele>
        <name>50.317100,7.512150</name>
        <extensions>
          <oa:mapZoom>15</oa:mapZoom>
        </extensions>
      </trkpt>
      <trkpt lat="50.31744" lon="7.51187">
        <ele>190.94673</ele>
      </trkpt>
      <trkpt lat="50.31797" lon="7.51154">
        <ele>190.32955</ele>
      </trkpt>
      <trkpt lat="50.31845" lon="7.51115">
        <ele>192.57316</ele>
      </trkpt>
      <trkpt lat="50.31884" lon="7.51148">
        <ele>187.6507</ele>
      </trkpt>
      <trkpt lat="50.31905" lon="7.51157">
        <ele>187.54013</ele>
      </trkpt>
      <trkpt lat="50.31957" lon="7.51155">
        <ele>187.2756</ele>
      </trkpt>
      <trkpt lat="50.32012" lon="7.51146">
        <ele>192.13072</ele>
      </trkpt>
      <trkpt lat="50.32039" lon="7.51126">
        <ele>195.06115</ele>
      </trkpt>
      <trkpt lat="50.32081" lon="7.51111">
        <ele>195.8421</ele>
      </trkpt>
      <trkpt lat="50.32101" lon="7.51119">
        <ele>195.68576</ele>
      </trkpt>
      <trkpt lat="50.32153" lon="7.51168">
        <ele>196.14674</ele>
      </trkpt>
      <trkpt lat="50.32155" lon="7.51184">
        <ele>195.35775</ele>
      </trkpt>
      <trkpt lat="50.32153" lon="7.51201">
        <ele>193.91037</ele>
      </trkpt>
      <trkpt lat="50.32145" lon="7.5122">
        <ele>190.91375</ele>
      </trkpt>
      <trkpt lat="50.32113" lon="7.51217">
        <ele>183.16356</ele>
      </trkpt>
      <trkpt lat="50.32109" lon="7.51229">
        <ele>181.40175</ele>
      </trkpt>
      <trkpt lat="50.3211" lon="7.51245">
        <ele>181.25213</ele>
      </trkpt>
      <trkpt lat="50.32139" lon="7.51257">
        <ele>184.79938</ele>
      </trkpt>
      <trkpt lat="50.3217" lon="7.51258">
        <ele>189.84776</ele>
      </trkpt>
      <trkpt lat="50.32188" lon="7.51267">
        <ele>192.0597</ele>
      </trkpt>
      <trkpt lat="50.32235" lon="7.51314">
        <ele>190.88252</ele>
      </trkpt>
      <trkpt lat="50.32245" lon="7.51318">
        <ele>190.93445</ele>
      </trkpt>
      <trkpt lat="50.32262" lon="7.5131">
        <ele>194.25871</ele>
      </trkpt>
      <trkpt lat="50.32282" lon="7.51286">
        <ele>197.68243</ele>
      </trkpt>
      <trkpt lat="50.32364" lon="7.51319">
        <ele>198.07876</ele>
      </trkpt>
      <trkpt lat="50.32481" lon="7.51406">
        <ele>193.55962</ele>
      </trkpt>
      <trkpt lat="50.32478" lon="7.51428">
        <ele>192.54372</ele>
      </trkpt>
      <trkpt lat="50.32478" lon="7.51428">
        <ele>192.54372</ele>
        <name>50.324780,7.514280</name>
        <extensions>
          <oa:mapZoom>15</oa:mapZoom>
        </extensions>
      </trkpt>
      <trkpt lat="50.32481" lon="7.51445">
        <ele>195.09348</ele>
      </trkpt>
      <trkpt lat="50.32476" lon="7.51455">
        <ele>196.41373</ele>
      </trkpt>
      <trkpt lat="50.32431" lon="7.51465">
        <ele>194.64877</ele>
      </trkpt>
      <trkpt lat="50.32423" lon="7.51479">
        <ele>196.50548</ele>
      </trkpt>
      <trkpt lat="50.32424" lon="7.51496">
        <ele>199.51901</ele>
      </trkpt>
      <trkpt lat="50.32442" lon="7.51574">
        <ele>204.6102</ele>
      </trkpt>
      <trkpt lat="50.32491" lon="7.51708">
        <ele>202.63301</ele>
      </trkpt>
      <trkpt lat="50.32493" lon="7.51744">
        <ele>201.1287</ele>
      </trkpt>
      <trkpt lat="50.32491" lon="7.51812">
        <ele>199.88912</ele>
      </trkpt>
      <trkpt lat="50.32501" lon="7.5185">
        <ele>199.99037</ele>
      </trkpt>
      <trkpt lat="50.32523" lon="7.51909">
        <ele>197.49372</ele>
      </trkpt>
      <trkpt lat="50.3254" lon="7.51996">
        <ele>194.07255</ele>
      </trkpt>
      <trkpt lat="50.32486" lon="7.52043">
        <ele>191.15147</ele>
      </trkpt>
      <trkpt lat="50.32486" lon="7.52043">
        <ele>191.15147</ele>
        <name>50.324860,7.520430</name>
        <extensions>
          <oa:mapZoom>15</oa:mapZoom>
        </extensions>
      </trkpt>
      <trkpt lat="50.32482" lon="7.5208">
        <ele>197.11805</ele>
      </trkpt>
      <trkpt lat="50.32453" lon="7.52041">
        <ele>195.42143</ele>
      </trkpt>
      <trkpt lat="50.32363" lon="7.51953">
        <ele>193.7749</ele>
      </trkpt>
      <trkpt lat="50.32342" lon="7.51935">
        <ele>193.75125</ele>
      </trkpt>
      <trkpt lat="50.3233" lon="7.51939">
        <ele>194.57031</ele>
      </trkpt>
      <trkpt lat="50.32159" lon="7.52181">
        <ele>194.32273</ele>
      </trkpt>
      <trkpt lat="50.32125" lon="7.52206">
        <ele>186.78669</ele>
      </trkpt>
      <trkpt lat="50.32125" lon="7.52206">
        <ele>186.78669</ele>
        <name>50.321250,7.522060</name>
        <extensions>
          <oa:mapZoom>15</oa:mapZoom>
        </extensions>
      </trkpt>
      <trkpt lat="50.32115" lon="7.52213">
        <ele>183.63601</ele>
      </trkpt>
      <trkpt lat="50.32105" lon="7.52195">
        <ele>181.50516</ele>
      </trkpt>
      <trkpt lat="50.321" lon="7.52195">
        <ele>180.21962</ele>
      </trkpt>
      <trkpt lat="50.32097" lon="7.52208">
        <ele>178.81087</ele>
      </trkpt>
      <trkpt lat="50.32127" lon="7.52295">
        <ele>179.89729</ele>
      </trkpt>
      <trkpt lat="50.32139" lon="7.52313">
        <ele>179.40927</ele>
      </trkpt>
      <trkpt lat="50.32161" lon="7.52325">
        <ele>183.82918</ele>
      </trkpt>
      <trkpt lat="50.32172" lon="7.52351">
        <ele>183.44684</ele>
      </trkpt>
      <trkpt lat="50.32178" lon="7.52389">
        <ele>185.91326</ele>
      </trkpt>
      <trkpt lat="50.32178" lon="7.52461">
        <ele>186.1356</ele>
      </trkpt>
      <trkpt lat="50.32204" lon="7.52517">
        <ele>183.6468</ele>
      </trkpt>
      <trkpt lat="50.32247" lon="7.52583">
        <ele>181.69144</ele>
      </trkpt>
      <trkpt lat="50.32256" lon="7.52626">
        <ele>182.53602</ele>
      </trkpt>
      <trkpt lat="50.32254" lon="7.52679">
        <ele>183.85737</ele>
      </trkpt>
      <trkpt lat="50.32262" lon="7.52724">
        <ele>183.40655</ele>
      </trkpt>
      <trkpt lat="50.32299" lon="7.52832">
        <ele>182.03651</ele>
      </trkpt>
      <trkpt lat="50.32312" lon="7.52852">
        <ele>181.86349</ele>
      </trkpt>
      <trkpt lat="50.32318" lon="7.52873">
        <ele>181.54945</ele>
      </trkpt>
      <trkpt lat="50.32319" lon="7.52906">
        <ele>183.97734</ele>
      </trkpt>
      <trkpt lat="50.32327" lon="7.52963">
        <ele>185.18112</ele>
      </trkpt>
      <trkpt lat="50.32336" lon="7.52991">
        <ele>185.16709</ele>
      </trkpt>
      <trkpt lat="50.32356" lon="7.53024">
        <ele>183.47538</ele>
      </trkpt>
      <trkpt lat="50.32373" lon="7.53031">
        <ele>183.57823</ele>
      </trkpt>
      <trkpt lat="50.32389" lon="7.53031">
        <ele>185.96131</ele>
      </trkpt>
      <trkpt lat="50.32399" lon="7.53085">
        <ele>184.6309</ele>
      </trkpt>
      <trkpt lat="50.32415" lon="7.53129">
        <ele>183.99223</ele>
      </trkpt>
      <trkpt lat="50.32442" lon="7.53173">
        <ele>182.05511</ele>
      </trkpt>
      <trkpt lat="50.325" lon="7.53253">
        <ele>180.87368</ele>
      </trkpt>
      <trkpt lat="50.32525" lon="7.53297">
        <ele>182.2815</ele>
      </trkpt>
      <trkpt lat="50.32525" lon="7.53297">
        <ele>182.2815</ele>
        <name>50.325250,7.532970</name>
        <extensions>
          <oa:mapZoom>15</oa:mapZoom>
        </extensions>
      </trkpt>
      <trkpt lat="50.32537" lon="7.53322">
        <ele>181.91199</ele>
      </trkpt>
      <trkpt lat="50.32536" lon="7.53346">
        <ele>180.24981</ele>
      </trkpt>
      <trkpt lat="50.32528" lon="7.5335">
        <ele>178.27759</ele>
      </trkpt>
      <trkpt lat="50.32503" lon="7.53295">
        <ele>176.06126</ele>
      </trkpt>
      <trkpt lat="50.3239" lon="7.53172">
        <ele>163.36389</ele>
      </trkpt>
      <trkpt lat="50.32382" lon="7.53129">
        <ele>165.70796</ele>
      </trkpt>
      <trkpt lat="50.32362" lon="7.53076">
        <ele>163.08737</ele>
      </trkpt>
      <trkpt lat="50.32331" lon="7.5307">
        <ele>159.21994</ele>
      </trkpt>
      <trkpt lat="50.32299" lon="7.53054">
        <ele>156.75424</ele>
      </trkpt>
      <trkpt lat="50.32291" lon="7.5304">
        <ele>156.63375</ele>
      </trkpt>
      <trkpt lat="50.32287" lon="7.52991">
        <ele>158.16748</ele>
      </trkpt>
      <trkpt lat="50.32276" lon="7.52964">
        <ele>155.70137</ele>
      </trkpt>
      <trkpt lat="50.32273" lon="7.52948">
        <ele>156.2109</ele>
      </trkpt>
      <trkpt lat="50.3228" lon="7.52904">
        <ele>158.5717</ele>
      </trkpt>
      <trkpt lat="50.32275" lon="7.52885">
        <ele>155.641</ele>
      </trkpt>
      <trkpt lat="50.32255" lon="7.52864">
        <ele>151.88118</ele>
      </trkpt>
      <trkpt lat="50.32241" lon="7.52812">
        <ele>154.5412</ele>
      </trkpt>
      <trkpt lat="50.32214" lon="7.5276">
        <ele>151.76363</ele>
      </trkpt>
      <trkpt lat="50.32204" lon="7.52705">
        <ele>152.05715</ele>
      </trkpt>
      <trkpt lat="50.32193" lon="7.52679">
        <ele>150.02212</ele>
      </trkpt>
      <trkpt lat="50.32203" lon="7.52639">
        <ele>153.6691</ele>
      </trkpt>
      <trkpt lat="50.32203" lon="7.52624">
        <ele>153.45766</ele>
      </trkpt>
      <trkpt lat="50.32195" lon="7.52608">
        <ele>152.23293</ele>
      </trkpt>
      <trkpt lat="50.32179" lon="7.52591">
        <ele>151.80982</ele>
      </trkpt>
      <trkpt lat="50.32161" lon="7.5258">
        <ele>150.27252</ele>
      </trkpt>
      <trkpt lat="50.32118" lon="7.52495">
        <ele>150.5682</ele>
      </trkpt>
      <trkpt lat="50.3211" lon="7.52464">
        <ele>151.27464</ele>
      </trkpt>
      <trkpt lat="50.32127" lon="7.52402">
        <ele>153.86402</ele>
      </trkpt>
      <trkpt lat="50.32127" lon="7.52381">
        <ele>153.9284</ele>
      </trkpt>
      <trkpt lat="50.32115" lon="7.52369">
        <ele>153.15741</ele>
      </trkpt>
      <trkpt lat="50.32079" lon="7.52354">
        <ele>150.3395</ele>
      </trkpt>
      <trkpt lat="50.32073" lon="7.52323">
        <ele>154.32899</ele>
      </trkpt>
      <trkpt lat="50.32046" lon="7.52236">
        <ele>153.90224</ele>
      </trkpt>
      <trkpt lat="50.32032" lon="7.5217">
        <ele>153.33832</ele>
      </trkpt>
      <trkpt lat="50.32044" lon="7.52133">
        <ele>154.66225</ele>
      </trkpt>
      <trkpt lat="50.32036" lon="7.52118">
        <ele>152.07665</ele>
      </trkpt>
      <trkpt lat="50.32001" lon="7.52088">
        <ele>149.712</ele>
      </trkpt>
      <trkpt lat="50.31947" lon="7.51947">
        <ele>154.20923</ele>
      </trkpt>
      <trkpt lat="50.31867" lon="7.51795">
        <ele>151.01896</ele>
      </trkpt>
      <trkpt lat="50.31822" lon="7.51697">
        <ele>148.10975</ele>
      </trkpt>
      <trkpt lat="50.31804" lon="7.51645">
        <ele>148.34951</ele>
      </trkpt>
      <trkpt lat="50.31804" lon="7.51645">
        <ele>148.34951</ele>
        <name>50.318040,7.516450</name>
        <extensions>
          <oa:mapZoom>15</oa:mapZoom>
        </extensions>
      </trkpt>
      <trkpt lat="50.31805" lon="7.51625">
        <ele>149.26746</ele>
      </trkpt>
      <trkpt lat="50.31817" lon="7.51584">
        <ele>149.52887</ele>
      </trkpt>
      <trkpt lat="50.31842" lon="7.51535">
        <ele>150.40029</ele>
      </trkpt>
      <trkpt lat="50.31892" lon="7.51488">
        <ele>148.69475</ele>
      </trkpt>
      <trkpt lat="50.31942" lon="7.51451">
        <ele>142.29837</ele>
      </trkpt>
      <trkpt lat="50.31979" lon="7.51445">
        <ele>141.57107</ele>
      </trkpt>
      <trkpt lat="50.32021" lon="7.51448">
        <ele>140.76385</ele>
      </trkpt>
      <trkpt lat="50.32024" lon="7.51415">
        <ele>134.83871</ele>
      </trkpt>
      <trkpt lat="50.32024" lon="7.51415">
        <ele>134.83871</ele>
        <name>50.320240,7.514150</name>
        <extensions>
          <oa:mapZoom>15</oa:mapZoom>
        </extensions>
      </trkpt>
      <trkpt lat="50.31861" lon="7.51377">
        <ele>118.27225</ele>
      </trkpt>
      <trkpt lat="50.31835" lon="7.51375">
        <ele>116.06517</ele>
      </trkpt>
      <trkpt lat="50.31834" lon="7.51391">
        <ele>116.33282</ele>
      </trkpt>
      <trkpt lat="50.31805" lon="7.51405">
        <ele>113.6517</ele>
      </trkpt>
      <trkpt lat="50.31751" lon="7.51472">
        <ele>109.27574</ele>
      </trkpt>
      <trkpt lat="50.31696" lon="7.51559">
        <ele>102.08797</ele>
      </trkpt>
      <trkpt lat="50.31593" lon="7.51782">
        <ele>89.48498</ele>
      </trkpt>
      <trkpt lat="50.3156" lon="7.51836">
        <ele>86.22536</ele>
      </trkpt>
      <trkpt lat="50.31459" lon="7.51977">
        <ele>78.02977</ele>
      </trkpt>
      <trkpt lat="50.31459" lon="7.51977">
        <ele>78.02977</ele>
        <name>50.314590,7.519770</name>
        <extensions>
          <oa:mapZoom>15</oa:mapZoom>
        </extensions>
      </trkpt>
      <trkpt lat="50.31396" lon="7.51855">
        <ele>79.08952</ele>
      </trkpt>
      <trkpt lat="50.31382" lon="7.51851">
        <ele>78.64385</ele>
      </trkpt>
      <trkpt lat="50.31358" lon="7.51789">
        <ele>78.50344</ele>
      </trkpt>
      <trkpt lat="50.31294" lon="7.51659">
        <ele>77.58068</ele>
      </trkpt>
      <trkpt lat="50.31267" lon="7.51593">
        <ele>77.10903</ele>
      </trkpt>
      <trkpt lat="50.31263" lon="7.51573">
        <ele>76.95625</ele>
      </trkpt>
      <trkpt lat="50.31263" lon="7.51573">
        <ele>76.95625</ele>
        <name>50.312630,7.515730</name>
        <extensions>
          <oa:mapZoom>15</oa:mapZoom>
        </extensions>
      </trkpt>
      <trkpt lat="50.31397" lon="7.51435">
        <ele>89.29935</ele>
      </trkpt>
      <trkpt lat="50.31429" lon="7.51471">
        <ele>90.49117</ele>
      </trkpt>
      <trkpt lat="50.31431" lon="7.51408">
        <ele>96.35032</ele>
      </trkpt>
      <trkpt lat="50.31429" lon="7.51346">
        <ele>100.72422</ele>
      </trkpt>
      <trkpt lat="50.31417" lon="7.51221">
        <ele>109.47936</ele>
      </trkpt>
      <trkpt lat="50.31406" lon="7.51141">
        <ele>115.17946</ele>
      </trkpt>
      <trkpt lat="50.3138" lon="7.51025">
        <ele>118.16895</ele>
      </trkpt>
      <trkpt lat="50.31392" lon="7.50995">
        <ele>120.39283</ele>
      </trkpt>
      <trkpt lat="50.31411" lon="7.50966">
        <ele>124.64445</ele>
      </trkpt>
      <trkpt lat="50.31407" lon="7.5095">
        <ele>123.46406</ele>
      </trkpt>
      <trkpt lat="50.31363" lon="7.5093">
        <ele>127.51128</ele>
      </trkpt>
      <trkpt lat="50.3135" lon="7.50916">
        <ele>129.734</ele>
      </trkpt>
      <trkpt lat="50.31344" lon="7.5089">
        <ele>132.05892</ele>
      </trkpt>
      <trkpt lat="50.31343" lon="7.50847">
        <ele>135.60597</ele>
      </trkpt>
      <trkpt lat="50.31355" lon="7.50811">
        <ele>139.45768</ele>
      </trkpt>
      <trkpt lat="50.31351" lon="7.50712">
        <ele>142.40367</ele>
      </trkpt>
      <trkpt lat="50.31331" lon="7.50601">
        <ele>144.92583</ele>
      </trkpt>
      <trkpt lat="50.31354" lon="7.50551">
        <ele>148.25199</ele>
      </trkpt>
      <trkpt lat="50.31361" lon="7.50487">
        <ele>147.48003</ele>
      </trkpt>
      <trkpt lat="50.31356" lon="7.50457">
        <ele>147.35196</ele>
      </trkpt>
      <trkpt lat="50.31334" lon="7.50417">
        <ele>151.0412</ele>
      </trkpt>
      <trkpt lat="50.31331" lon="7.50398">
        <ele>153.58681</ele>
      </trkpt>
      <trkpt lat="50.31331" lon="7.50398">
        <ele>153.58681</ele>
        <name>50.313310,7.503980</name>
        <extensions>
          <oa:mapZoom>15</oa:mapZoom>
        </extensions>
      </trkpt>
      <trkpt lat="50.3133" lon="7.50366">
        <ele>156.19548</ele>
      </trkpt>
      <trkpt lat="50.31345" lon="7.50261">
        <ele>161.91431</ele>
      </trkpt>
      <trkpt lat="50.3138" lon="7.50151">
        <ele>172.05699</ele>
      </trkpt>
      <trkpt lat="50.31391" lon="7.50128">
        <ele>174.45065</ele>
      </trkpt>
      <trkpt lat="50.314" lon="7.50123">
        <ele>175.92289</ele>
      </trkpt>
      <trkpt lat="50.31419" lon="7.50135">
        <ele>179.12165</ele>
      </trkpt>
      <trkpt lat="50.31451" lon="7.50146">
        <ele>182.06048</ele>
      </trkpt>
      <trkpt lat="50.31467" lon="7.50168">
        <ele>184.16426</ele>
      </trkpt>
      <trkpt lat="50.31491" lon="7.50219">
        <ele>188.54033</ele>
      </trkpt>
      <trkpt lat="50.31504" lon="7.50221">
        <ele>189.41796</ele>
      </trkpt>
      <trkpt lat="50.31524" lon="7.5021">
        <ele>190.41007</ele>
      </trkpt>
      <trkpt lat="50.31553" lon="7.50213">
        <ele>192.04884</ele>
      </trkpt>
      <trkpt lat="50.31573" lon="7.50228">
        <ele>193.4214</ele>
      </trkpt>
      <trkpt lat="50.31577" lon="7.50238">
        <ele>193.73583</ele>
      </trkpt>
      <trkpt lat="50.31593" lon="7.50238">
        <ele>194.56117</ele>
      </trkpt>
      <trkpt lat="50.31607" lon="7.5023">
        <ele>195.15079</ele>
      </trkpt>
      <trkpt lat="50.31632" lon="7.50204">
        <ele>196.06358</ele>
      </trkpt>
      <trkpt lat="50.31661" lon="7.50191">
        <ele>197.19539</ele>
      </trkpt>
      <trkpt lat="50.31705" lon="7.50187">
        <ele>198.17539</ele>
      </trkpt>
      <trkpt lat="50.3172" lon="7.5018">
        <ele>198.38325</ele>
      </trkpt>
      <trkpt lat="50.31727" lon="7.50158">
        <ele>198.73103</ele>
      </trkpt>
      <trkpt lat="50.31729" lon="7.50132">
        <ele>199.39499</ele>
      </trkpt>
      <trkpt lat="50.31725" lon="7.5011">
        <ele>199.81809</ele>
      </trkpt>
      <trkpt lat="50.31729" lon="7.50095">
        <ele>200.084</ele>
      </trkpt>
      <trkpt lat="50.31729" lon="7.50095">
        <ele>200.084</ele>
        <name>50.317290,7.500950</name>
        <extensions>
          <oa:mapZoom>15</oa:mapZoom>
        </extensions>
      </trkpt>
      <trkpt lat="50.31702" lon="7.50024">
        <ele>201.11292</ele>
      </trkpt>
      <trkpt lat="50.31698" lon="7.49996">
        <ele>201.07555</ele>
      </trkpt>
      <trkpt lat="50.31708" lon="7.49962">
        <ele>201.12017</ele>
      </trkpt>
      <trkpt lat="50.31674" lon="7.4991">
        <ele>199.67752</ele>
      </trkpt>
      <trkpt lat="50.31639" lon="7.49912">
        <ele>198.33039</ele>
      </trkpt>
      <trkpt lat="50.31625" lon="7.49899">
        <ele>197.1893</ele>
      </trkpt>
      <trkpt lat="50.3162" lon="7.49884">
        <ele>196.23703</ele>
        <name>50.316200,7.498840</name>
        <extensions>
          <oa:mapZoom>15</oa:mapZoom>
        </extensions>
      </trkpt>
    </trkseg>
  </trk>
</gpx>