<?xml version="1.0" encoding="UTF-8"?>
<gpx xmlns="http://www.topografix.com/GPX/1/1" xmlns:gpsies="https://www.gpsies.com/GPX/1/0" creator="AllTrails https://www.alltrails.com/ - Gpsies_ivvpw" version="1.1" xmlns:xsi="http://www.w3.org/2001/XMLSchema-instance" xsi:schemaLocation="http://www.topografix.com/GPX/1/1 http://www.topografix.com/GPX/1/1/gpx.xsd https://www.gpsies.com/GPX/1/0 https://www.gpsies.com/gpsies.xsd">
  <metadata>
    <name>Gpsies_ivvpw</name>
    <link href="https://www.gpsies.com/">
      <text>Gpsies_ivvpw on AllTrails</text>
    </link>
    <time>2020-02-19T20:01:52Z</time>
  </metadata>
  <trk>
    <name>DVV Bendorf-Auf den Spuren der Römer</name>
    <link href="https://www.gpsies.com/map.do?fileId=upqznwkiggizppuk">
      <type>trackOnWeb</type>
    </link>
    <link href="https://www.gpsies.com/charts/up/map/upqznwkiggizppuk_map.png">
      <type>elevationChartUrlMap</type>
    </link>
    <link href="https://www.gpsies.com/charts/up/mapThumb/upqznwkiggizppuk_mapThumb.png">
      <type>elevationChartUrlMapThumb</type>
    </link>
    <link href="https://www.gpsies.com/charts/up/tab/upqznwkiggizppuk_tab.png">
      <type>elevationChartUrlTab</type>
    </link>
    <trkseg>
      <trkpt lat="50.42618590" lon="7.572203270">
        <ele>80.000000</ele>
      </trkpt>
      <trkpt lat="50.42606290" lon="7.572095990">
        <ele>80.000000</ele>
      </trkpt>
      <trkpt lat="50.42587730" lon="7.572177700">
        <ele>81.000000</ele>
      </trkpt>
      <trkpt lat="50.42590880" lon="7.572270900">
        <ele>81.000000</ele>
      </trkpt>
      <trkpt lat="50.42630410" lon="7.573076900">
        <ele>84.000000</ele>
      </trkpt>
      <trkpt lat="50.42637140" lon="7.573279900">
        <ele>84.000000</ele>
      </trkpt>
      <trkpt lat="50.42641180" lon="7.573416900">
        <ele>85.000000</ele>
      </trkpt>
      <trkpt lat="50.42620980" lon="7.573603300">
        <ele>85.000000</ele>
      </trkpt>
      <trkpt lat="50.42535630" lon="7.574639600">
        <ele>89.000000</ele>
      </trkpt>
      <trkpt lat="50.42521530" lon="7.574708460">
        <ele>90.000000</ele>
      </trkpt>
      <trkpt lat="50.42509910" lon="7.574896210">
        <ele>91.000000</ele>
      </trkpt>
      <trkpt lat="50.42501500" lon="7.575094800">
        <ele>91.000000</ele>
      </trkpt>
      <trkpt lat="50.42501940" lon="7.575199000">
        <ele>91.000000</ele>
      </trkpt>
      <trkpt lat="50.42501500" lon="7.575281200">
        <ele>91.000000</ele>
      </trkpt>
      <trkpt lat="50.42497450" lon="7.575363400">
        <ele>91.000000</ele>
      </trkpt>
      <trkpt lat="50.42527550" lon="7.575656900">
        <ele>90.000000</ele>
      </trkpt>
      <trkpt lat="50.42539680" lon="7.575777500">
        <ele>89.000000</ele>
      </trkpt>
      <trkpt lat="50.42552700" lon="7.575963900">
        <ele>88.000000</ele>
      </trkpt>
      <trkpt lat="50.42592230" lon="7.576375200">
        <ele>90.000000</ele>
      </trkpt>
      <trkpt lat="50.42602560" lon="7.576112000">
        <ele>92.000000</ele>
      </trkpt>
      <trkpt lat="50.42627480" lon="7.575341460">
        <ele>90.000000</ele>
      </trkpt>
      <trkpt lat="50.42656910" lon="7.575026300">
        <ele>90.000000</ele>
      </trkpt>
      <trkpt lat="50.42683400" lon="7.575464900">
        <ele>90.000000</ele>
      </trkpt>
      <trkpt lat="50.42721140" lon="7.576046100">
        <ele>96.000000</ele>
      </trkpt>
      <trkpt lat="50.42760220" lon="7.576671300">
        <ele>98.000000</ele>
      </trkpt>
      <trkpt lat="50.42791200" lon="7.577016700">
        <ele>99.000000</ele>
      </trkpt>
      <trkpt lat="50.42798840" lon="7.577011200">
        <ele>99.000000</ele>
      </trkpt>
      <trkpt lat="50.42838830" lon="7.576610700">
        <ele>101.00000</ele>
      </trkpt>
      <trkpt lat="50.42839730" lon="7.576610700">
        <ele>101.00000</ele>
      </trkpt>
      <trkpt lat="50.42855010" lon="7.576418700">
        <ele>100.00000</ele>
      </trkpt>
      <trkpt lat="50.42891840" lon="7.576051300">
        <ele>101.00000</ele>
      </trkpt>
      <trkpt lat="50.42909350" lon="7.575903300">
        <ele>102.00000</ele>
      </trkpt>
      <trkpt lat="50.42909800" lon="7.575903300">
        <ele>102.00000</ele>
      </trkpt>
      <trkpt lat="50.42932710" lon="7.575826500">
        <ele>104.00000</ele>
      </trkpt>
      <trkpt lat="50.42978070" lon="7.575733300">
        <ele>105.00000</ele>
      </trkpt>
      <trkpt lat="50.42996210" lon="7.575700870">
        <ele>105.00000</ele>
      </trkpt>
      <trkpt lat="50.43004420" lon="7.575700870">
        <ele>105.00000</ele>
      </trkpt>
      <trkpt lat="50.43022530" lon="7.576516270">
        <ele>111.00000</ele>
      </trkpt>
      <trkpt lat="50.43017400" lon="7.576639650">
        <ele>112.00000</ele>
      </trkpt>
      <trkpt lat="50.43001680" lon="7.576730800">
        <ele>113.00000</ele>
      </trkpt>
      <trkpt lat="50.43008860" lon="7.577127800">
        <ele>113.00000</ele>
      </trkpt>
      <trkpt lat="50.43001870" lon="7.577167300">
        <ele>113.00000</ele>
      </trkpt>
      <trkpt lat="50.42970240" lon="7.577342390">
        <ele>113.00000</ele>
      </trkpt>
      <trkpt lat="50.42951790" lon="7.577444300">
        <ele>113.00000</ele>
      </trkpt>
      <trkpt lat="50.42915220" lon="7.578088000">
        <ele>115.00000</ele>
      </trkpt>
      <trkpt lat="50.42891990" lon="7.578538650">
        <ele>117.00000</ele>
      </trkpt>
      <trkpt lat="50.42914880" lon="7.579182380">
        <ele>123.00000</ele>
      </trkpt>
      <trkpt lat="50.42941540" lon="7.579810020">
        <ele>129.00000</ele>
      </trkpt>
      <trkpt lat="50.42979470" lon="7.580217710">
        <ele>137.00000</ele>
      </trkpt>
      <trkpt lat="50.42988010" lon="7.581102840">
        <ele>149.00000</ele>
      </trkpt>
      <trkpt lat="50.42978440" lon="7.581644650">
        <ele>152.00000</ele>
      </trkpt>
      <trkpt lat="50.42984250" lon="7.582932110">
        <ele>163.00000</ele>
      </trkpt>
      <trkpt lat="50.42990060" lon="7.583554380">
        <ele>167.00000</ele>
      </trkpt>
      <trkpt lat="50.43028340" lon="7.585034960">
        <ele>183.00000</ele>
      </trkpt>
      <trkpt lat="50.43041660" lon="7.585861080">
        <ele>188.00000</ele>
      </trkpt>
      <trkpt lat="50.43054440" lon="7.586102200">
        <ele>190.00000</ele>
      </trkpt>
      <trkpt lat="50.43070170" lon="7.586258500">
        <ele>192.00000</ele>
      </trkpt>
      <trkpt lat="50.43093520" lon="7.586422900">
        <ele>192.00000</ele>
      </trkpt>
      <trkpt lat="50.43093970" lon="7.586422900">
        <ele>192.00000</ele>
      </trkpt>
      <trkpt lat="50.43106550" lon="7.586510700">
        <ele>192.00000</ele>
      </trkpt>
      <trkpt lat="50.43124520" lon="7.586719100">
        <ele>192.00000</ele>
      </trkpt>
      <trkpt lat="50.43202270" lon="7.588006850">
        <ele>199.00000</ele>
      </trkpt>
      <trkpt lat="50.43263310" lon="7.587250900">
        <ele>200.00000</ele>
      </trkpt>
      <trkpt lat="50.43475970" lon="7.585319280">
        <ele>200.00000</ele>
      </trkpt>
      <trkpt lat="50.43485880" lon="7.585201260">
        <ele>200.00000</ele>
      </trkpt>
      <trkpt lat="50.43492710" lon="7.585737700">
        <ele>202.00000</ele>
      </trkpt>
      <trkpt lat="50.43501260" lon="7.585453390">
        <ele>202.00000</ele>
      </trkpt>
      <trkpt lat="50.43501940" lon="7.584342950">
        <ele>199.00000</ele>
      </trkpt>
      <trkpt lat="50.43513220" lon="7.583709950">
        <ele>198.00000</ele>
      </trkpt>
      <trkpt lat="50.43511510" lon="7.583055490">
        <ele>200.00000</ele>
      </trkpt>
      <trkpt lat="50.43523810" lon="7.582637070">
        <ele>200.00000</ele>
      </trkpt>
      <trkpt lat="50.43532010" lon="7.581950420">
        <ele>198.00000</ele>
      </trkpt>
      <trkpt lat="50.43472210" lon="7.580743430">
        <ele>183.00000</ele>
      </trkpt>
      <trkpt lat="50.43443170" lon="7.580469840">
        <ele>177.00000</ele>
      </trkpt>
      <trkpt lat="50.43351590" lon="7.578828330">
        <ele>154.00000</ele>
      </trkpt>
      <trkpt lat="50.43353300" lon="7.578549380">
        <ele>150.00000</ele>
      </trkpt>
      <trkpt lat="50.43341000" lon="7.578039760">
        <ele>144.00000</ele>
      </trkpt>
      <trkpt lat="50.43326650" lon="7.577583780">
        <ele>139.00000</ele>
      </trkpt>
      <trkpt lat="50.43306490" lon="7.577331660">
        <ele>134.00000</ele>
      </trkpt>
      <trkpt lat="50.43294190" lon="7.576886410">
        <ele>130.00000</ele>
      </trkpt>
      <trkpt lat="50.43251130" lon="7.576189040">
        <ele>125.00000</ele>
      </trkpt>
      <trkpt lat="50.43213510" lon="7.575736200">
        <ele>118.00000</ele>
      </trkpt>
      <trkpt lat="50.43190990" lon="7.575379010">
        <ele>115.00000</ele>
      </trkpt>
      <trkpt lat="50.43156140" lon="7.574649450">
        <ele>109.00000</ele>
      </trkpt>
      <trkpt lat="50.43132670" lon="7.573937700">
        <ele>103.00000</ele>
      </trkpt>
      <trkpt lat="50.43129970" lon="7.573795100">
        <ele>102.00000</ele>
      </trkpt>
      <trkpt lat="50.43126810" lon="7.573661500">
        <ele>101.00000</ele>
      </trkpt>
      <trkpt lat="50.43126070" lon="7.573131320">
        <ele>98.000000</ele>
      </trkpt>
      <trkpt lat="50.43121280" lon="7.572986480">
        <ele>96.000000</ele>
      </trkpt>
      <trkpt lat="50.43106590" lon="7.572745080">
        <ele>94.000000</ele>
      </trkpt>
      <trkpt lat="50.43086430" lon="7.572551960">
        <ele>94.000000</ele>
      </trkpt>
      <trkpt lat="50.43070030" lon="7.572396390">
        <ele>93.000000</ele>
      </trkpt>
      <trkpt lat="50.43064900" lon="7.572476860">
        <ele>93.000000</ele>
      </trkpt>
      <trkpt lat="50.43076860" lon="7.573356620">
        <ele>99.000000</ele>
      </trkpt>
      <trkpt lat="50.43079590" lon="7.573780410">
        <ele>102.00000</ele>
      </trkpt>
      <trkpt lat="50.42959700" lon="7.574335700">
        <ele>100.00000</ele>
      </trkpt>
      <trkpt lat="50.42948930" lon="7.574346700">
        <ele>99.000000</ele>
      </trkpt>
      <trkpt lat="50.42937100" lon="7.574332950">
        <ele>98.000000</ele>
      </trkpt>
      <trkpt lat="50.42931290" lon="7.574182740">
        <ele>97.000000</ele>
      </trkpt>
      <trkpt lat="50.42927370" lon="7.573913500">
        <ele>97.000000</ele>
      </trkpt>
      <trkpt lat="50.42924450" lon="7.573694580">
        <ele>95.000000</ele>
      </trkpt>
      <trkpt lat="50.42917490" lon="7.573584500">
        <ele>94.000000</ele>
      </trkpt>
      <trkpt lat="50.42910300" lon="7.573524200">
        <ele>93.000000</ele>
      </trkpt>
      <trkpt lat="50.42909850" lon="7.573524200">
        <ele>93.000000</ele>
      </trkpt>
      <trkpt lat="50.42901770" lon="7.573518700">
        <ele>93.000000</ele>
      </trkpt>
      <trkpt lat="50.42867380" lon="7.573576560">
        <ele>92.000000</ele>
      </trkpt>
      <trkpt lat="50.42855490" lon="7.573598000">
        <ele>91.000000</ele>
      </trkpt>
      <trkpt lat="50.42764760" lon="7.574195700">
        <ele>88.000000</ele>
      </trkpt>
      <trkpt lat="50.42679770" lon="7.574756700">
        <ele>90.000000</ele>
      </trkpt>
      <trkpt lat="50.42674020" lon="7.574639700">
        <ele>90.000000</ele>
      </trkpt>
      <trkpt lat="50.42663690" lon="7.573981800">
        <ele>88.000000</ele>
      </trkpt>
      <trkpt lat="50.42640340" lon="7.573417000">
        <ele>85.000000</ele>
      </trkpt>
      <trkpt lat="50.42636730" lon="7.573285400">
        <ele>84.000000</ele>
      </trkpt>
      <trkpt lat="50.42630890" lon="7.573082500">
        <ele>84.000000</ele>
      </trkpt>
      <trkpt lat="50.42590470" lon="7.572265500">
        <ele>81.000000</ele>
      </trkpt>
      <trkpt lat="50.42587320" lon="7.572177800">
        <ele>81.000000</ele>
      </trkpt>
      <trkpt lat="50.42606290" lon="7.572095990">
        <ele>80.000000</ele>
      </trkpt>
      <trkpt lat="50.42619280" lon="7.572208640">
        <ele>80.000000</ele>
      </trkpt>
    </trkseg>
  </trk>
</gpx>
