<?xml version='1.0' encoding='UTF-8'?>
<gpx version="1.1" creator="https://www.komoot.de" xmlns="http://www.topografix.com/GPX/1/1" xmlns:xsi="http://www.w3.org/2001/XMLSchema-instance" xsi:schemaLocation="http://www.topografix.com/GPX/1/1 http://www.topografix.com/GPX/1/1/gpx.xsd">
  <metadata>
    <name>DVV Bendorf-Auf den Spuren der Römer on GPSies.com</name>
    <author>
      <link href="https://www.komoot.de">
        <text>komoot</text>
        <type>text/html</type>
      </link>
    </author>
  </metadata>
  <trk>
    <name>DVV Bendorf-Auf den Spuren der Römer on GPSies.com</name>
    <trkseg>
      <trkpt lat="50.425984" lon="7.572453">
        <ele>85.733097</ele>
        <time>2022-10-29T09:03:30.787Z</time>
      </trkpt>
      <trkpt lat="50.426235" lon="7.572973">
        <ele>85.733097</ele>
        <time>2022-10-29T09:04:14.775Z</time>
      </trkpt>
      <trkpt lat="50.426282" lon="7.573078">
        <ele>85.733097</ele>
        <time>2022-10-29T09:04:23.524Z</time>
      </trkpt>
      <trkpt lat="50.426124" lon="7.573212">
        <ele>85.733097</ele>
        <time>2022-10-29T09:04:42.883Z</time>
      </trkpt>
      <trkpt lat="50.425634" lon="7.573352">
        <ele>86.220696</ele>
        <time>2022-10-29T09:05:36.319Z</time>
      </trkpt>
      <trkpt lat="50.425666" lon="7.573641">
        <ele>86.551204</ele>
        <time>2022-10-29T09:05:56.313Z</time>
      </trkpt>
      <trkpt lat="50.425840" lon="7.574001">
        <ele>87.060354</ele>
        <time>2022-10-29T09:06:27.196Z</time>
      </trkpt>
      <trkpt lat="50.425369" lon="7.574564">
        <ele>88.107402</ele>
        <time>2022-10-29T09:07:30.624Z</time>
      </trkpt>
      <trkpt lat="50.425194" lon="7.574679">
        <ele>88.442936</ele>
        <time>2022-10-29T09:07:50.656Z</time>
      </trkpt>
      <trkpt lat="50.424957" lon="7.575176">
        <ele>89.036849</ele>
        <time>2022-10-29T09:08:32.299Z</time>
      </trkpt>
      <trkpt lat="50.424954" lon="7.575348">
        <ele>89.141046</ele>
        <time>2022-10-29T09:08:43.849Z</time>
      </trkpt>
      <trkpt lat="50.425924" lon="7.576373">
        <ele>90.252519</ele>
        <time>2022-10-29T09:10:42.385Z</time>
      </trkpt>
      <trkpt lat="50.426175" lon="7.575557">
        <ele>91.073759</ele>
        <time>2022-10-29T09:11:43.253Z</time>
      </trkpt>
      <trkpt lat="50.426284" lon="7.575311">
        <ele>91.533961</ele>
        <time>2022-10-29T09:12:03.690Z</time>
      </trkpt>
      <trkpt lat="50.426532" lon="7.575005">
        <ele>92.294417</ele>
        <time>2022-10-29T09:12:37.763Z</time>
      </trkpt>
      <trkpt lat="50.426785" lon="7.575389">
        <ele>93.142822</ele>
        <time>2022-10-29T09:13:16.062Z</time>
      </trkpt>
      <trkpt lat="50.426982" lon="7.575688">
        <ele>93.803432</ele>
        <time>2022-10-29T09:13:46.082Z</time>
      </trkpt>
      <trkpt lat="50.427435" lon="7.576434">
        <ele>95.559614</ele>
        <time>2022-10-29T09:14:58.842Z</time>
      </trkpt>
      <trkpt lat="50.427521" lon="7.576557">
        <ele>95.954163</ele>
        <time>2022-10-29T09:15:11.781Z</time>
      </trkpt>
      <trkpt lat="50.427832" lon="7.576942">
        <ele>97.297344</ele>
        <time>2022-10-29T09:15:56.402Z</time>
      </trkpt>
      <trkpt lat="50.427995" lon="7.576997">
        <ele>97.862739</ele>
        <time>2022-10-29T09:16:15.346Z</time>
      </trkpt>
      <trkpt lat="50.428041" lon="7.576947">
        <ele>98.052483</ele>
        <time>2022-10-29T09:16:21.625Z</time>
      </trkpt>
      <trkpt lat="50.428113" lon="7.576868">
        <ele>98.350386</ele>
        <time>2022-10-29T09:16:31.427Z</time>
      </trkpt>
      <trkpt lat="50.428267" lon="7.576705">
        <ele>98.980263</ele>
        <time>2022-10-29T09:16:52.211Z</time>
      </trkpt>
      <trkpt lat="50.428530" lon="7.576424">
        <ele>100.059147</ele>
        <time>2022-10-29T09:17:27.503Z</time>
      </trkpt>
      <trkpt lat="50.429040" lon="7.575922">
        <ele>102.265130</ele>
        <time>2022-10-29T09:18:34.995Z</time>
      </trkpt>
      <trkpt lat="50.429426" lon="7.575780">
        <ele>103.822134</ele>
        <time>2022-10-29T09:19:20.090Z</time>
      </trkpt>
      <trkpt lat="50.430060" lon="7.575619">
        <ele>106.344404</ele>
        <time>2022-10-29T09:20:33.935Z</time>
      </trkpt>
      <trkpt lat="50.430263" lon="7.576543">
        <ele>109.032376</ele>
        <time>2022-10-29T09:21:45.107Z</time>
      </trkpt>
      <trkpt lat="50.430034" lon="7.576680">
        <ele>110.345399</ele>
        <time>2022-10-29T09:22:12.693Z</time>
      </trkpt>
      <trkpt lat="50.430120" lon="7.577078">
        <ele>111.779812</ele>
        <time>2022-10-29T09:22:43.105Z</time>
      </trkpt>
      <trkpt lat="50.429699" lon="7.577326">
        <ele>114.189045</ele>
        <time>2022-10-29T09:23:36.111Z</time>
      </trkpt>
      <trkpt lat="50.429525" lon="7.577429">
        <ele>115.185388</ele>
        <time>2022-10-29T09:23:59.330Z</time>
      </trkpt>
      <trkpt lat="50.428979" lon="7.578456">
        <ele>121.324585</ele>
        <time>2022-10-29T09:25:43.999Z</time>
      </trkpt>
      <trkpt lat="50.429353" lon="7.579390">
        <ele>128.066024</ele>
        <time>2022-10-29T09:27:14.405Z</time>
      </trkpt>
      <trkpt lat="50.429439" lon="7.579736">
        <ele>130.335605</ele>
        <time>2022-10-29T09:27:49.507Z</time>
      </trkpt>
      <trkpt lat="50.429806" lon="7.580237">
        <ele>135.001088</ele>
        <time>2022-10-29T09:28:57.993Z</time>
      </trkpt>
      <trkpt lat="50.429877" lon="7.581138">
        <ele>142.433285</ele>
        <time>2022-10-29T09:30:25.487Z</time>
      </trkpt>
      <trkpt lat="50.429784" lon="7.581636">
        <ele>146.684190</ele>
        <time>2022-10-29T09:31:11.570Z</time>
      </trkpt>
      <trkpt lat="50.429784" lon="7.581649">
        <ele>146.790676</ele>
        <time>2022-10-29T09:31:14.887Z</time>
      </trkpt>
      <trkpt lat="50.429836" lon="7.582939">
        <ele>157.378500</ele>
        <time>2022-10-29T09:33:17.735Z</time>
      </trkpt>
      <trkpt lat="50.429930" lon="7.583547">
        <ele>162.110750</ele>
        <time>2022-10-29T09:34:19.729Z</time>
      </trkpt>
      <trkpt lat="50.430255" lon="7.584549">
        <ele>170.491939</ele>
        <time>2022-10-29T09:36:02.460Z</time>
      </trkpt>
      <trkpt lat="50.430346" lon="7.585010">
        <ele>174.089351</ele>
        <time>2022-10-29T09:36:43.422Z</time>
      </trkpt>
      <trkpt lat="50.430348" lon="7.585035">
        <ele>174.277160</ele>
        <time>2022-10-29T09:36:48.514Z</time>
      </trkpt>
      <trkpt lat="50.430402" lon="7.585658">
        <ele>178.963677</ele>
        <time>2022-10-29T09:37:44.178Z</time>
      </trkpt>
      <trkpt lat="50.430542" lon="7.586055">
        <ele>181.458131</ele>
        <time>2022-10-29T09:38:21.165Z</time>
      </trkpt>
      <trkpt lat="50.431083" lon="7.586551">
        <ele>186.727811</ele>
        <time>2022-10-29T09:39:42.407Z</time>
      </trkpt>
      <trkpt lat="50.432041" lon="7.588005">
        <ele>197.582781</ele>
        <time>2022-10-29T09:42:29.434Z</time>
      </trkpt>
      <trkpt lat="50.433705" lon="7.591223">
        <ele>217.804749</ele>
        <time>2022-10-29T09:48:02.520Z</time>
      </trkpt>
      <trkpt lat="50.434275" lon="7.592486">
        <ele>225.554601</ele>
        <time>2022-10-29T09:50:07.373Z</time>
      </trkpt>
      <trkpt lat="50.434630" lon="7.593103">
        <ele>229.794554</ele>
        <time>2022-10-29T09:51:14.881Z</time>
      </trkpt>
      <trkpt lat="50.434980" lon="7.593196">
        <ele>232.636479</ele>
        <time>2022-10-29T09:51:59.629Z</time>
      </trkpt>
      <trkpt lat="50.435246" lon="7.593529">
        <ele>235.360197</ele>
        <time>2022-10-29T09:52:43.334Z</time>
      </trkpt>
      <trkpt lat="50.435513" lon="7.594298">
        <ele>238.955865</ele>
        <time>2022-10-29T09:53:55.994Z</time>
      </trkpt>
      <trkpt lat="50.436200" lon="7.595103">
        <ele>244.134868</ele>
        <time>2022-10-29T09:55:39.277Z</time>
      </trkpt>
      <trkpt lat="50.436311" lon="7.595365">
        <ele>245.345708</ele>
        <time>2022-10-29T09:56:03.027Z</time>
      </trkpt>
      <trkpt lat="50.436414" lon="7.595908">
        <ele>247.199450</ele>
        <time>2022-10-29T09:56:44.776Z</time>
      </trkpt>
      <trkpt lat="50.436482" lon="7.597203">
        <ele>247.912341</ele>
        <time>2022-10-29T09:58:12.650Z</time>
      </trkpt>
      <trkpt lat="50.436556" lon="7.597440">
        <ele>248.057150</ele>
        <time>2022-10-29T09:58:30.235Z</time>
      </trkpt>
      <trkpt lat="50.437089" lon="7.598124">
        <ele>248.650110</ele>
        <time>2022-10-29T09:59:40.205Z</time>
      </trkpt>
      <trkpt lat="50.437135" lon="7.598942">
        <ele>247.539528</ele>
        <time>2022-10-29T10:00:35.255Z</time>
      </trkpt>
      <trkpt lat="50.437117" lon="7.599235">
        <ele>247.080324</ele>
        <time>2022-10-29T10:00:54.905Z</time>
      </trkpt>
      <trkpt lat="50.437104" lon="7.599454">
        <ele>246.737202</ele>
        <time>2022-10-29T10:01:09.870Z</time>
      </trkpt>
      <trkpt lat="50.437471" lon="7.601005">
        <ele>244.310863</ele>
        <time>2022-10-29T10:03:01.679Z</time>
      </trkpt>
      <trkpt lat="50.437711" lon="7.601291">
        <ele>244.431726</ele>
        <time>2022-10-29T10:03:32.927Z</time>
      </trkpt>
      <trkpt lat="50.438156" lon="7.602059">
        <ele>244.696988</ele>
        <time>2022-10-29T10:04:41.635Z</time>
      </trkpt>
      <trkpt lat="50.438377" lon="7.602321">
        <ele>244.808072</ele>
        <time>2022-10-29T10:05:12.571Z</time>
      </trkpt>
      <trkpt lat="50.438567" lon="7.602277">
        <ele>244.885112</ele>
        <time>2022-10-29T10:05:33.934Z</time>
      </trkpt>
      <trkpt lat="50.438705" lon="7.602138">
        <ele>244.950881</ele>
        <time>2022-10-29T10:05:52.560Z</time>
      </trkpt>
      <trkpt lat="50.439055" lon="7.601029">
        <ele>247.771821</ele>
        <time>2022-10-29T10:07:22.460Z</time>
      </trkpt>
      <trkpt lat="50.439245" lon="7.600816">
        <ele>248.779910</ele>
        <time>2022-10-29T10:07:51.240Z</time>
      </trkpt>
      <trkpt lat="50.439413" lon="7.600748">
        <ele>249.529059</ele>
        <time>2022-10-29T10:08:09.934Z</time>
      </trkpt>
      <trkpt lat="50.439651" lon="7.600850">
        <ele>250.594349</ele>
        <time>2022-10-29T10:08:39.236Z</time>
      </trkpt>
      <trkpt lat="50.439968" lon="7.601270">
        <ele>252.385384</ele>
        <time>2022-10-29T10:09:26.359Z</time>
      </trkpt>
      <trkpt lat="50.440206" lon="7.601432">
        <ele>252.966515</ele>
        <time>2022-10-29T10:09:57.472Z</time>
      </trkpt>
      <trkpt lat="50.440373" lon="7.601446">
        <ele>253.154230</ele>
        <time>2022-10-29T10:10:15.583Z</time>
      </trkpt>
      <trkpt lat="50.440559" lon="7.601194">
        <ele>253.429983</ele>
        <time>2022-10-29T10:10:44.863Z</time>
      </trkpt>
      <trkpt lat="50.440935" lon="7.599478">
        <ele>254.727252</ele>
        <time>2022-10-29T10:12:43.123Z</time>
      </trkpt>
      <trkpt lat="50.441400" lon="7.598782">
        <ele>250.275651</ele>
        <time>2022-10-29T10:13:53.782Z</time>
      </trkpt>
      <trkpt lat="50.441824" lon="7.598377">
        <ele>246.414968</ele>
        <time>2022-10-29T10:14:53.320Z</time>
      </trkpt>
      <trkpt lat="50.441988" lon="7.598343">
        <ele>245.128127</ele>
        <time>2022-10-29T10:15:12.844Z</time>
      </trkpt>
      <trkpt lat="50.442031" lon="7.598088">
        <ele>243.821277</ele>
        <time>2022-10-29T10:15:32.277Z</time>
      </trkpt>
      <trkpt lat="50.442118" lon="7.597978">
        <ele>242.952363</ele>
        <time>2022-10-29T10:15:48.335Z</time>
      </trkpt>
      <trkpt lat="50.442275" lon="7.597985">
        <ele>241.730554</ele>
        <time>2022-10-29T10:16:04.639Z</time>
      </trkpt>
      <trkpt lat="50.442303" lon="7.597856">
        <ele>241.055371</ele>
        <time>2022-10-29T10:16:15.047Z</time>
      </trkpt>
      <trkpt lat="50.442360" lon="7.597728">
        <ele>240.099078</ele>
        <time>2022-10-29T10:16:31.093Z</time>
      </trkpt>
      <trkpt lat="50.442367" lon="7.597505">
        <ele>238.606728</ele>
        <time>2022-10-29T10:16:45.768Z</time>
      </trkpt>
      <trkpt lat="50.442294" lon="7.597161">
        <ele>236.183128</ele>
        <time>2022-10-29T10:17:15.663Z</time>
      </trkpt>
      <trkpt lat="50.441970" lon="7.597236">
        <ele>232.745866</ele>
        <time>2022-10-29T10:17:55.057Z</time>
      </trkpt>
      <trkpt lat="50.442303" lon="7.596769">
        <ele>228.059897</ele>
        <time>2022-10-29T10:18:48.737Z</time>
      </trkpt>
      <trkpt lat="50.442132" lon="7.596774">
        <ele>226.264872</ele>
        <time>2022-10-29T10:19:09.001Z</time>
      </trkpt>
      <trkpt lat="50.441948" lon="7.596871">
        <ele>224.227787</ele>
        <time>2022-10-29T10:19:36.472Z</time>
      </trkpt>
      <trkpt lat="50.442084" lon="7.596645">
        <ele>222.149489</ele>
        <time>2022-10-29T10:19:59.446Z</time>
      </trkpt>
      <trkpt lat="50.442310" lon="7.596447">
        <ele>220.317962</ele>
        <time>2022-10-29T10:20:28.461Z</time>
      </trkpt>
      <trkpt lat="50.442180" lon="7.596430">
        <ele>219.434583</ele>
        <time>2022-10-29T10:20:43.888Z</time>
      </trkpt>
      <trkpt lat="50.441964" lon="7.596532">
        <ele>217.907166</ele>
        <time>2022-10-29T10:21:08.796Z</time>
      </trkpt>
      <trkpt lat="50.442209" lon="7.596233">
        <ele>215.805897</ele>
        <time>2022-10-29T10:21:43.555Z</time>
      </trkpt>
      <trkpt lat="50.441979" lon="7.596109">
        <ele>214.159140</ele>
        <time>2022-10-29T10:22:11.971Z</time>
      </trkpt>
      <trkpt lat="50.441317" lon="7.596650">
        <ele>209.755782</ele>
        <time>2022-10-29T10:23:35.314Z</time>
      </trkpt>
      <trkpt lat="50.441064" lon="7.596923">
        <ele>209.784875</ele>
        <time>2022-10-29T10:24:08.694Z</time>
      </trkpt>
      <trkpt lat="50.440781" lon="7.597227">
        <ele>209.817371</ele>
        <time>2022-10-29T10:24:45.494Z</time>
      </trkpt>
      <trkpt lat="50.440421" lon="7.597444">
        <ele>209.853916</ele>
        <time>2022-10-29T10:25:26.123Z</time>
      </trkpt>
      <trkpt lat="50.440264" lon="7.597406">
        <ele>209.868971</ele>
        <time>2022-10-29T10:25:42.831Z</time>
      </trkpt>
      <trkpt lat="50.440165" lon="7.597441">
        <ele>209.878588</ele>
        <time>2022-10-29T10:25:58.593Z</time>
      </trkpt>
      <trkpt lat="50.439928" lon="7.597816">
        <ele>209.910475</ele>
        <time>2022-10-29T10:26:36.821Z</time>
      </trkpt>
      <trkpt lat="50.439758" lon="7.598576">
        <ele>212.220039</ele>
        <time>2022-10-29T10:27:38.528Z</time>
      </trkpt>
      <trkpt lat="50.439592" lon="7.598755">
        <ele>213.270663</ele>
        <time>2022-10-29T10:28:02.561Z</time>
      </trkpt>
      <trkpt lat="50.439138" lon="7.598653">
        <ele>215.663397</ele>
        <time>2022-10-29T10:28:59.115Z</time>
      </trkpt>
      <trkpt lat="50.438597" lon="7.599151">
        <ele>218.935217</ele>
        <time>2022-10-29T10:30:12.905Z</time>
      </trkpt>
      <trkpt lat="50.438481" lon="7.598990">
        <ele>219.291359</ele>
        <time>2022-10-29T10:30:30.354Z</time>
      </trkpt>
      <trkpt lat="50.438461" lon="7.598580">
        <ele>219.261105</ele>
        <time>2022-10-29T10:30:59.123Z</time>
      </trkpt>
      <trkpt lat="50.438307" lon="7.598257">
        <ele>219.231419</ele>
        <time>2022-10-29T10:31:26.687Z</time>
      </trkpt>
      <trkpt lat="50.438176" lon="7.597442">
        <ele>219.169574</ele>
        <time>2022-10-29T10:32:21.274Z</time>
      </trkpt>
      <trkpt lat="50.437934" lon="7.596913">
        <ele>219.121653</ele>
        <time>2022-10-29T10:33:04.590Z</time>
      </trkpt>
      <trkpt lat="50.437312" lon="7.596223">
        <ele>215.621394</ele>
        <time>2022-10-29T10:34:28.588Z</time>
      </trkpt>
      <trkpt lat="50.437415" lon="7.595200">
        <ele>211.188743</ele>
        <time>2022-10-29T10:35:44.585Z</time>
      </trkpt>
      <trkpt lat="50.437669" lon="7.594564">
        <ele>207.975923</ele>
        <time>2022-10-29T10:36:39.413Z</time>
      </trkpt>
      <trkpt lat="50.437750" lon="7.593807">
        <ele>203.604853</ele>
        <time>2022-10-29T10:37:36.481Z</time>
      </trkpt>
      <trkpt lat="50.437622" lon="7.593159">
        <ele>199.340168</ele>
        <time>2022-10-29T10:38:27.924Z</time>
      </trkpt>
      <trkpt lat="50.437536" lon="7.593060">
        <ele>198.287711</ele>
        <time>2022-10-29T10:38:41.000Z</time>
      </trkpt>
      <trkpt lat="50.437290" lon="7.592377">
        <ele>193.355463</ele>
        <time>2022-10-29T10:39:41.731Z</time>
      </trkpt>
      <trkpt lat="50.437419" lon="7.591960">
        <ele>190.441383</ele>
        <time>2022-10-29T10:40:17.877Z</time>
      </trkpt>
      <trkpt lat="50.438255" lon="7.590439">
        <ele>179.185286</ele>
        <time>2022-10-29T10:42:50.214Z</time>
      </trkpt>
      <trkpt lat="50.438384" lon="7.589874">
        <ele>175.865038</ele>
        <time>2022-10-29T10:43:34.708Z</time>
      </trkpt>
      <trkpt lat="50.438407" lon="7.589470">
        <ele>173.626177</ele>
        <time>2022-10-29T10:44:03.952Z</time>
      </trkpt>
      <trkpt lat="50.438361" lon="7.589286">
        <ele>172.961088</ele>
        <time>2022-10-29T10:44:18.170Z</time>
      </trkpt>
      <trkpt lat="50.438248" lon="7.589149">
        <ele>172.206867</ele>
        <time>2022-10-29T10:44:33.831Z</time>
      </trkpt>
      <trkpt lat="50.437764" lon="7.589014">
        <ele>169.609934</ele>
        <time>2022-10-29T10:45:27.254Z</time>
      </trkpt>
      <trkpt lat="50.437338" lon="7.587539">
        <ele>164.160522</ele>
        <time>2022-10-29T10:47:20.498Z</time>
      </trkpt>
      <trkpt lat="50.437238" lon="7.587192">
        <ele>161.134474</ele>
        <time>2022-10-29T10:47:47.649Z</time>
      </trkpt>
      <trkpt lat="50.437243" lon="7.586918">
        <ele>158.927862</ele>
        <time>2022-10-29T10:48:07.120Z</time>
      </trkpt>
      <trkpt lat="50.437284" lon="7.586701">
        <ele>157.105767</ele>
        <time>2022-10-29T10:48:23.646Z</time>
      </trkpt>
      <trkpt lat="50.437354" lon="7.586903">
        <ele>155.254564</ele>
        <time>2022-10-29T10:48:40.793Z</time>
      </trkpt>
      <trkpt lat="50.437520" lon="7.587156">
        <ele>152.330559</ele>
        <time>2022-10-29T10:49:09.964Z</time>
      </trkpt>
      <trkpt lat="50.437843" lon="7.587297">
        <ele>148.093330</ele>
        <time>2022-10-29T10:49:53.490Z</time>
      </trkpt>
      <trkpt lat="50.438146" lon="7.587825">
        <ele>142.372206</ele>
        <time>2022-10-29T10:50:53.465Z</time>
      </trkpt>
      <trkpt lat="50.438352" lon="7.587997">
        <ele>138.895741</ele>
        <time>2022-10-29T10:51:29.094Z</time>
      </trkpt>
      <trkpt lat="50.438453" lon="7.587935">
        <ele>137.159080</ele>
        <time>2022-10-29T10:51:43.479Z</time>
      </trkpt>
      <trkpt lat="50.438634" lon="7.587581">
        <ele>132.528917</ele>
        <time>2022-10-29T10:52:27.936Z</time>
      </trkpt>
      <trkpt lat="50.438863" lon="7.587358">
        <ele>128.213590</ele>
        <time>2022-10-29T10:53:06.461Z</time>
      </trkpt>
      <trkpt lat="50.439231" lon="7.587349">
        <ele>122.319647</ele>
        <time>2022-10-29T10:53:53.520Z</time>
      </trkpt>
      <trkpt lat="50.439216" lon="7.586490">
        <ele>113.555078</ele>
        <time>2022-10-29T10:55:01.239Z</time>
      </trkpt>
      <trkpt lat="50.439060" lon="7.586158">
        <ele>111.771936</ele>
        <time>2022-10-29T10:55:35.569Z</time>
      </trkpt>
      <trkpt lat="50.438868" lon="7.586052">
        <ele>110.945955</ele>
        <time>2022-10-29T10:55:59.769Z</time>
      </trkpt>
      <trkpt lat="50.438808" lon="7.585907">
        <ele>110.499003</ele>
        <time>2022-10-29T10:56:12.575Z</time>
      </trkpt>
      <trkpt lat="50.438638" lon="7.585853">
        <ele>109.795096</ele>
        <time>2022-10-29T10:56:31.775Z</time>
      </trkpt>
      <trkpt lat="50.438422" lon="7.585850">
        <ele>108.918447</ele>
        <time>2022-10-29T10:56:56.221Z</time>
      </trkpt>
      <trkpt lat="50.438290" lon="7.585792">
        <ele>108.362155</ele>
        <time>2022-10-29T10:57:10.746Z</time>
      </trkpt>
      <trkpt lat="50.438285" lon="7.585572">
        <ele>107.793130</ele>
        <time>2022-10-29T10:57:25.977Z</time>
      </trkpt>
      <trkpt lat="50.438311" lon="7.585435">
        <ele>107.423621</ele>
        <time>2022-10-29T10:57:35.440Z</time>
      </trkpt>
      <trkpt lat="50.438341" lon="7.585371">
        <ele>107.218218</ele>
        <time>2022-10-29T10:57:41.004Z</time>
      </trkpt>
      <trkpt lat="50.438409" lon="7.585188">
        <ele>106.670576</ele>
        <time>2022-10-29T10:57:55.151Z</time>
      </trkpt>
      <trkpt lat="50.438392" lon="7.584505">
        <ele>105.541668</ele>
        <time>2022-10-29T10:58:45.543Z</time>
      </trkpt>
      <trkpt lat="50.438389" lon="7.584502">
        <ele>105.550743</ele>
        <time>2022-10-29T10:58:46.433Z</time>
      </trkpt>
      <trkpt lat="50.438277" lon="7.584361">
        <ele>105.917025</ele>
        <time>2022-10-29T10:59:04.152Z</time>
      </trkpt>
      <trkpt lat="50.438267" lon="7.584063">
        <ele>106.401962</ele>
        <time>2022-10-29T10:59:27.167Z</time>
      </trkpt>
      <trkpt lat="50.438262" lon="7.583850">
        <ele>106.748333</ele>
        <time>2022-10-29T10:59:44.012Z</time>
      </trkpt>
      <trkpt lat="50.438254" lon="7.583599">
        <ele>107.156732</ele>
        <time>2022-10-29T11:00:02.416Z</time>
      </trkpt>
      <trkpt lat="50.438248" lon="7.583365">
        <ele>107.537302</ele>
        <time>2022-10-29T11:00:18.953Z</time>
      </trkpt>
      <trkpt lat="50.437978" lon="7.583375">
        <ele>108.226389</ele>
        <time>2022-10-29T11:00:46.592Z</time>
      </trkpt>
      <trkpt lat="50.437899" lon="7.583225">
        <ele>108.542692</ele>
        <time>2022-10-29T11:00:59.484Z</time>
      </trkpt>
      <trkpt lat="50.437857" lon="7.582919">
        <ele>109.051377</ele>
        <time>2022-10-29T11:01:20.079Z</time>
      </trkpt>
      <trkpt lat="50.437816" lon="7.582550">
        <ele>109.660083</ele>
        <time>2022-10-29T11:01:45.291Z</time>
      </trkpt>
      <trkpt lat="50.437556" lon="7.581588">
        <ele>108.360600</ele>
        <time>2022-10-29T11:02:58.400Z</time>
      </trkpt>
      <trkpt lat="50.437739" lon="7.581194">
        <ele>107.541105</ele>
        <time>2022-10-29T11:03:29.753Z</time>
      </trkpt>
      <trkpt lat="50.437753" lon="7.581165">
        <ele>107.479952</ele>
        <time>2022-10-29T11:03:32.319Z</time>
      </trkpt>
      <trkpt lat="50.437829" lon="7.581051">
        <ele>107.202615</ele>
        <time>2022-10-29T11:03:44.768Z</time>
      </trkpt>
      <trkpt lat="50.437849" lon="7.581023">
        <ele>107.131912</ele>
        <time>2022-10-29T11:03:48.027Z</time>
      </trkpt>
      <trkpt lat="50.437819" lon="7.580977">
        <ele>107.021269</ele>
        <time>2022-10-29T11:03:52.328Z</time>
      </trkpt>
      <trkpt lat="50.437729" lon="7.580795">
        <ele>106.634046</ele>
        <time>2022-10-29T11:04:07.640Z</time>
      </trkpt>
      <trkpt lat="50.437676" lon="7.580521">
        <ele>106.152811</ele>
        <time>2022-10-29T11:04:29.238Z</time>
      </trkpt>
      <trkpt lat="50.437633" lon="7.580215">
        <ele>105.626197</ele>
        <time>2022-10-29T11:04:50.655Z</time>
      </trkpt>
      <trkpt lat="50.437569" lon="7.579803">
        <ele>104.557338</ele>
        <time>2022-10-29T11:05:22.344Z</time>
      </trkpt>
      <trkpt lat="50.437559" lon="7.579677">
        <ele>104.006570</ele>
        <time>2022-10-29T11:05:30.884Z</time>
      </trkpt>
      <trkpt lat="50.437644" lon="7.579279">
        <ele>102.185726</ele>
        <time>2022-10-29T11:06:03.155Z</time>
      </trkpt>
      <trkpt lat="50.437656" lon="7.579229">
        <ele>101.953958</ele>
        <time>2022-10-29T11:06:06.870Z</time>
      </trkpt>
      <trkpt lat="50.437995" lon="7.579275">
        <ele>99.636648</ele>
        <time>2022-10-29T11:06:45.829Z</time>
      </trkpt>
      <trkpt lat="50.438147" lon="7.579042">
        <ele>98.189925</ele>
        <time>2022-10-29T11:07:08.623Z</time>
      </trkpt>
      <trkpt lat="50.438227" lon="7.579052">
        <ele>97.643374</ele>
        <time>2022-10-29T11:07:18.075Z</time>
      </trkpt>
      <trkpt lat="50.438241" lon="7.578866">
        <ele>96.830972</ele>
        <time>2022-10-29T11:07:31.007Z</time>
      </trkpt>
      <trkpt lat="50.438292" lon="7.578423">
        <ele>94.878292</ele>
        <time>2022-10-29T11:08:04.174Z</time>
      </trkpt>
      <trkpt lat="50.438316" lon="7.578181">
        <ele>93.815953</ele>
        <time>2022-10-29T11:08:21.711Z</time>
      </trkpt>
      <trkpt lat="50.438348" lon="7.577656">
        <ele>92.011645</ele>
        <time>2022-10-29T11:09:01.018Z</time>
      </trkpt>
      <trkpt lat="50.438384" lon="7.577454">
        <ele>91.424881</ele>
        <time>2022-10-29T11:09:16.491Z</time>
      </trkpt>
      <trkpt lat="50.438338" lon="7.577027">
        <ele>90.213457</ele>
        <time>2022-10-29T11:09:46.578Z</time>
      </trkpt>
      <trkpt lat="50.438323" lon="7.576936">
        <ele>89.950514</ele>
        <time>2022-10-29T11:09:53.077Z</time>
      </trkpt>
      <trkpt lat="50.438304" lon="7.576867">
        <ele>89.740231</ele>
        <time>2022-10-29T11:09:58.548Z</time>
      </trkpt>
      <trkpt lat="50.438207" lon="7.576750">
        <ele>89.203001</ele>
        <time>2022-10-29T11:10:11.484Z</time>
      </trkpt>
      <trkpt lat="50.438237" lon="7.576727">
        <ele>89.056370</ele>
        <time>2022-10-29T11:10:14.962Z</time>
      </trkpt>
      <trkpt lat="50.438320" lon="7.576726">
        <ele>88.691820</ele>
        <time>2022-10-29T11:10:23.880Z</time>
      </trkpt>
      <trkpt lat="50.438372" lon="7.576626">
        <ele>88.330697</ele>
        <time>2022-10-29T11:10:32.845Z</time>
      </trkpt>
      <trkpt lat="50.438334" lon="7.576475">
        <ele>87.876523</ele>
        <time>2022-10-29T11:10:43.824Z</time>
      </trkpt>
      <trkpt lat="50.438357" lon="7.576421">
        <ele>87.694803</ele>
        <time>2022-10-29T11:10:48.252Z</time>
      </trkpt>
      <trkpt lat="50.438180" lon="7.576184">
        <ele>86.673108</ele>
        <time>2022-10-29T11:11:13.319Z</time>
      </trkpt>
      <trkpt lat="50.437715" lon="7.575073">
        <ele>84.612635</ele>
        <time>2022-10-29T11:12:42.246Z</time>
      </trkpt>
      <trkpt lat="50.437505" lon="7.574711">
        <ele>84.358883</ele>
        <time>2022-10-29T11:13:14.738Z</time>
      </trkpt>
      <trkpt lat="50.436853" lon="7.573865">
        <ele>83.670657</ele>
        <time>2022-10-29T11:14:39.563Z</time>
      </trkpt>
      <trkpt lat="50.436846" lon="7.573853">
        <ele>83.662224</ele>
        <time>2022-10-29T11:14:40.815Z</time>
      </trkpt>
      <trkpt lat="50.436669" lon="7.573512">
        <ele>83.882082</ele>
        <time>2022-10-29T11:15:09.799Z</time>
      </trkpt>
      <trkpt lat="50.436554" lon="7.573543">
        <ele>84.249362</ele>
        <time>2022-10-29T11:15:21.738Z</time>
      </trkpt>
      <trkpt lat="50.436409" lon="7.573471">
        <ele>84.728058</ele>
        <time>2022-10-29T11:15:37.899Z</time>
      </trkpt>
      <trkpt lat="50.435601" lon="7.574859">
        <ele>88.497984</ele>
        <time>2022-10-29T11:17:52.753Z</time>
      </trkpt>
      <trkpt lat="50.435266" lon="7.575589">
        <ele>90.763415</ele>
        <time>2022-10-29T11:19:00.429Z</time>
      </trkpt>
      <trkpt lat="50.435063" lon="7.575644">
        <ele>91.680474</ele>
        <time>2022-10-29T11:19:25.356Z</time>
      </trkpt>
      <trkpt lat="50.434739" lon="7.575583">
        <ele>93.133170</ele>
        <time>2022-10-29T11:20:03.801Z</time>
      </trkpt>
      <trkpt lat="50.434347" lon="7.575269">
        <ele>95.092266</ele>
        <time>2022-10-29T11:20:54.959Z</time>
      </trkpt>
      <trkpt lat="50.433865" lon="7.574639">
        <ele>97.455336</ele>
        <time>2022-10-29T11:22:05.726Z</time>
      </trkpt>
      <trkpt lat="50.433644" lon="7.574108">
        <ele>98.134862</ele>
        <time>2022-10-29T11:22:49.035Z</time>
      </trkpt>
      <trkpt lat="50.433422" lon="7.573780">
        <ele>98.647581</ele>
        <time>2022-10-29T11:23:21.056Z</time>
      </trkpt>
      <trkpt lat="50.433258" lon="7.573606">
        <ele>98.980489</ele>
        <time>2022-10-29T11:23:42.196Z</time>
      </trkpt>
      <trkpt lat="50.432380" lon="7.573531">
        <ele>100.212976</ele>
        <time>2022-10-29T11:25:12.395Z</time>
      </trkpt>
      <trkpt lat="50.431679" lon="7.573550">
        <ele>100.178685</ele>
        <time>2022-10-29T11:26:24.670Z</time>
      </trkpt>
      <trkpt lat="50.431678" lon="7.573550">
        <ele>100.178636</ele>
        <time>2022-10-29T11:26:25.053Z</time>
      </trkpt>
      <trkpt lat="50.431503" lon="7.573121">
        <ele>100.162765</ele>
        <time>2022-10-29T11:26:57.617Z</time>
      </trkpt>
      <trkpt lat="50.431208" lon="7.572955">
        <ele>100.147437</ele>
        <time>2022-10-29T11:27:29.438Z</time>
      </trkpt>
      <trkpt lat="50.431259" lon="7.573632">
        <ele>99.852048</ele>
        <time>2022-10-29T11:28:13.683Z</time>
      </trkpt>
      <trkpt lat="50.430798" lon="7.573782">
        <ele>98.734752</ele>
        <time>2022-10-29T11:29:02.591Z</time>
      </trkpt>
      <trkpt lat="50.429473" lon="7.574343">
        <ele>95.365964</ele>
        <time>2022-10-29T11:31:27.699Z</time>
      </trkpt>
      <trkpt lat="50.429351" lon="7.574215">
        <ele>94.916606</ele>
        <time>2022-10-29T11:31:43.633Z</time>
      </trkpt>
      <trkpt lat="50.429157" lon="7.573523">
        <ele>93.441743</ele>
        <time>2022-10-29T11:32:35.786Z</time>
      </trkpt>
      <trkpt lat="50.429097" lon="7.573475">
        <ele>93.235523</ele>
        <time>2022-10-29T11:32:43.036Z</time>
      </trkpt>
      <trkpt lat="50.428759" lon="7.573528">
        <ele>92.195327</ele>
        <time>2022-10-29T11:33:19.339Z</time>
      </trkpt>
      <trkpt lat="50.428644" lon="7.573496">
        <ele>91.837676</ele>
        <time>2022-10-29T11:33:31.675Z</time>
      </trkpt>
      <trkpt lat="50.428087" lon="7.573883">
        <ele>90.100548</ele>
        <time>2022-10-29T11:34:35.426Z</time>
      </trkpt>
      <trkpt lat="50.427917" lon="7.573987">
        <ele>89.728726</ele>
        <time>2022-10-29T11:34:54.545Z</time>
      </trkpt>
      <trkpt lat="50.426709" lon="7.574797">
        <ele>87.051754</ele>
        <time>2022-10-29T11:37:11.388Z</time>
      </trkpt>
      <trkpt lat="50.426700" lon="7.574418">
        <ele>86.690069</ele>
        <time>2022-10-29T11:37:36.483Z</time>
      </trkpt>
      <trkpt lat="50.426618" lon="7.573976">
        <ele>86.690069</ele>
        <time>2022-10-29T11:38:07.002Z</time>
      </trkpt>
      <trkpt lat="50.426406" lon="7.573397">
        <ele>86.690069</ele>
        <time>2022-10-29T11:38:51.224Z</time>
      </trkpt>
      <trkpt lat="50.426282" lon="7.573078">
        <ele>86.690069</ele>
        <time>2022-10-29T11:39:16.045Z</time>
      </trkpt>
      <trkpt lat="50.426235" lon="7.572973">
        <ele>86.690069</ele>
        <time>2022-10-29T11:39:24.501Z</time>
      </trkpt>
      <trkpt lat="50.425826" lon="7.572125">
        <ele>86.690069</ele>
        <time>2022-10-29T11:40:35.075Z</time>
      </trkpt>
      <trkpt lat="50.426141" lon="7.571954">
        <ele>86.690069</ele>
        <time>2022-10-29T11:41:09.465Z</time>
      </trkpt>
      <trkpt lat="50.426169" lon="7.572074">
        <ele>86.690069</ele>
        <time>2022-10-29T11:41:17.765Z</time>
      </trkpt>
      <trkpt lat="50.426198" lon="7.572166">
        <ele>86.690069</ele>
        <time>2022-10-29T11:41:24.417Z</time>
      </trkpt>
    </trkseg>
  </trk>
</gpx>