<?xml version='1.0' encoding='UTF-8'?>
<gpx version="1.1" creator="https://www.komoot.de" xmlns="http://www.topografix.com/GPX/1/1" xmlns:xsi="http://www.w3.org/2001/XMLSchema-instance" xsi:schemaLocation="http://www.topografix.com/GPX/1/1 http://www.topografix.com/GPX/1/1/gpx.xsd">
  <metadata>
    <name>PW 2 Leistadt</name>
    <author>
      <link href="https://www.komoot.de">
        <text>komoot</text>
        <type>text/html</type>
      </link>
    </author>
  </metadata>
  <trk>
    <name>PW 2 Leistadt</name>
    <trkseg>
      <trkpt lat="49.496283" lon="8.157042">
        <ele>216.725584</ele>
        <time>2023-07-25T11:15:56.278Z</time>
      </trkpt>
      <trkpt lat="49.496332" lon="8.157037">
        <ele>216.725584</ele>
        <time>2023-07-25T11:16:01.331Z</time>
      </trkpt>
      <trkpt lat="49.496316" lon="8.156749">
        <ele>216.725584</ele>
        <time>2023-07-25T11:16:20.854Z</time>
      </trkpt>
      <trkpt lat="49.496314" lon="8.156712">
        <ele>216.725584</ele>
        <time>2023-07-25T11:16:23.368Z</time>
      </trkpt>
      <trkpt lat="49.496282" lon="8.156592">
        <ele>216.725584</ele>
        <time>2023-07-25T11:16:32.249Z</time>
      </trkpt>
      <trkpt lat="49.496213" lon="8.156510">
        <ele>216.725584</ele>
        <time>2023-07-25T11:16:41.420Z</time>
      </trkpt>
      <trkpt lat="49.496192" lon="8.156437">
        <ele>216.725584</ele>
        <time>2023-07-25T11:16:46.883Z</time>
      </trkpt>
      <trkpt lat="49.496198" lon="8.156350">
        <ele>216.725584</ele>
        <time>2023-07-25T11:16:52.851Z</time>
      </trkpt>
      <trkpt lat="49.496206" lon="8.156224">
        <ele>216.725584</ele>
        <time>2023-07-25T11:17:01.514Z</time>
      </trkpt>
      <trkpt lat="49.496209" lon="8.156102">
        <ele>216.725584</ele>
        <time>2023-07-25T11:17:10.015Z</time>
      </trkpt>
      <trkpt lat="49.496200" lon="8.155520">
        <ele>217.378006</ele>
        <time>2023-07-25T11:17:50.541Z</time>
      </trkpt>
      <trkpt lat="49.496375" lon="8.155283">
        <ele>218.216375</ele>
        <time>2023-07-25T11:18:15.774Z</time>
      </trkpt>
      <trkpt lat="49.496480" lon="8.155065">
        <ele>218.850459</ele>
        <time>2023-07-25T11:18:35.127Z</time>
      </trkpt>
      <trkpt lat="49.496574" lon="8.154906">
        <ele>219.352779</ele>
        <time>2023-07-25T11:18:50.544Z</time>
      </trkpt>
      <trkpt lat="49.497317" lon="8.154234">
        <ele>222.452463</ele>
        <time>2023-07-25T11:20:29.287Z</time>
      </trkpt>
      <trkpt lat="49.497749" lon="8.153817">
        <ele>225.096705</ele>
        <time>2023-07-25T11:21:29.256Z</time>
      </trkpt>
      <trkpt lat="49.497784" lon="8.153739">
        <ele>225.482665</ele>
        <time>2023-07-25T11:21:36.631Z</time>
      </trkpt>
      <trkpt lat="49.497902" lon="8.153477">
        <ele>226.780647</ele>
        <time>2023-07-25T11:22:01.257Z</time>
      </trkpt>
      <trkpt lat="49.497903" lon="8.153448">
        <ele>226.898874</ele>
        <time>2023-07-25T11:22:03.519Z</time>
      </trkpt>
      <trkpt lat="49.497908" lon="8.153228">
        <ele>227.795055</ele>
        <time>2023-07-25T11:22:20.728Z</time>
      </trkpt>
      <trkpt lat="49.497912" lon="8.153068">
        <ele>228.446907</ele>
        <time>2023-07-25T11:22:33.286Z</time>
      </trkpt>
      <trkpt lat="49.498100" lon="8.152538">
        <ele>230.905396</ele>
        <time>2023-07-25T11:23:20.961Z</time>
      </trkpt>
      <trkpt lat="49.498307" lon="8.151946">
        <ele>233.642533</ele>
        <time>2023-07-25T11:24:15.010Z</time>
      </trkpt>
      <trkpt lat="49.499292" lon="8.150640">
        <ele>245.536150</ele>
        <time>2023-07-25T11:27:02.163Z</time>
      </trkpt>
      <trkpt lat="49.500438" lon="8.149617">
        <ele>260.352398</ele>
        <time>2023-07-25T11:30:08.953Z</time>
      </trkpt>
      <trkpt lat="49.500834" lon="8.149207">
        <ele>266.431305</ele>
        <time>2023-07-25T11:31:21.320Z</time>
      </trkpt>
      <trkpt lat="49.501096" lon="8.148802">
        <ele>271.160548</ele>
        <time>2023-07-25T11:32:18.213Z</time>
      </trkpt>
      <trkpt lat="49.501143" lon="8.148687">
        <ele>272.284659</ele>
        <time>2023-07-25T11:32:31.777Z</time>
      </trkpt>
      <trkpt lat="49.501305" lon="8.148515">
        <ele>274.760930</ele>
        <time>2023-07-25T11:33:02.252Z</time>
      </trkpt>
      <trkpt lat="49.501563" lon="8.148316">
        <ele>278.131035</ele>
        <time>2023-07-25T11:33:47.229Z</time>
      </trkpt>
      <trkpt lat="49.502156" lon="8.148027">
        <ele>285.395342</ele>
        <time>2023-07-25T11:35:21.843Z</time>
      </trkpt>
      <trkpt lat="49.502121" lon="8.147964">
        <ele>286.024163</ele>
        <time>2023-07-25T11:35:29.744Z</time>
      </trkpt>
      <trkpt lat="49.501779" lon="8.147350">
        <ele>292.159436</ele>
        <time>2023-07-25T11:36:41.102Z</time>
      </trkpt>
      <trkpt lat="49.501557" lon="8.147154">
        <ele>295.148147</ele>
        <time>2023-07-25T11:37:14.691Z</time>
      </trkpt>
      <trkpt lat="49.501432" lon="8.147101">
        <ele>295.966743</ele>
        <time>2023-07-25T11:37:31.274Z</time>
      </trkpt>
      <trkpt lat="49.501004" lon="8.146915">
        <ele>298.224172</ele>
        <time>2023-07-25T11:38:27.412Z</time>
      </trkpt>
      <trkpt lat="49.500897" lon="8.146897">
        <ele>298.770544</ele>
        <time>2023-07-25T11:38:40.811Z</time>
      </trkpt>
      <trkpt lat="49.500576" lon="8.147037">
        <ele>300.464066</ele>
        <time>2023-07-25T11:39:21.159Z</time>
      </trkpt>
      <trkpt lat="49.500332" lon="8.147030">
        <ele>301.702843</ele>
        <time>2023-07-25T11:39:49.352Z</time>
      </trkpt>
      <trkpt lat="49.500057" lon="8.147124">
        <ele>303.132747</ele>
        <time>2023-07-25T11:40:20.454Z</time>
      </trkpt>
      <trkpt lat="49.499856" lon="8.147131">
        <ele>304.153299</ele>
        <time>2023-07-25T11:40:41.779Z</time>
      </trkpt>
      <trkpt lat="49.499673" lon="8.147063">
        <ele>304.325293</ele>
        <time>2023-07-25T11:41:00.814Z</time>
      </trkpt>
      <trkpt lat="49.499317" lon="8.146830">
        <ele>303.475259</ele>
        <time>2023-07-25T11:41:40.297Z</time>
      </trkpt>
      <trkpt lat="49.499099" lon="8.146768">
        <ele>302.988110</ele>
        <time>2023-07-25T11:42:03.454Z</time>
      </trkpt>
      <trkpt lat="49.498856" lon="8.146828">
        <ele>302.447306</ele>
        <time>2023-07-25T11:42:29.388Z</time>
      </trkpt>
      <trkpt lat="49.498696" lon="8.146767">
        <ele>302.085096</ele>
        <time>2023-07-25T11:42:46.918Z</time>
      </trkpt>
      <trkpt lat="49.498219" lon="8.146015">
        <ele>300.586499</ele>
        <time>2023-07-25T11:44:00.480Z</time>
      </trkpt>
      <trkpt lat="49.497979" lon="8.145406">
        <ele>299.635023</ele>
        <time>2023-07-25T11:44:51.265Z</time>
      </trkpt>
      <trkpt lat="49.497806" lon="8.144861">
        <ele>298.824771</ele>
        <time>2023-07-25T11:45:34.337Z</time>
      </trkpt>
      <trkpt lat="49.497659" lon="8.144400">
        <ele>298.138799</ele>
        <time>2023-07-25T11:46:09.727Z</time>
      </trkpt>
      <trkpt lat="49.497418" lon="8.143220">
        <ele>298.108825</ele>
        <time>2023-07-25T11:47:32.474Z</time>
      </trkpt>
      <trkpt lat="49.497397" lon="8.142716">
        <ele>300.015489</ele>
        <time>2023-07-25T11:48:10.361Z</time>
      </trkpt>
      <trkpt lat="49.497449" lon="8.142293">
        <ele>301.640796</ele>
        <time>2023-07-25T11:48:44.314Z</time>
      </trkpt>
      <trkpt lat="49.497548" lon="8.141880">
        <ele>303.302800</ele>
        <time>2023-07-25T11:49:20.035Z</time>
      </trkpt>
      <trkpt lat="49.497882" lon="8.141129">
        <ele>306.739057</ele>
        <time>2023-07-25T11:50:36.234Z</time>
      </trkpt>
      <trkpt lat="49.498009" lon="8.141008">
        <ele>307.447158</ele>
        <time>2023-07-25T11:50:55.528Z</time>
      </trkpt>
      <trkpt lat="49.498489" lon="8.140842">
        <ele>308.412122</ele>
        <time>2023-07-25T11:51:57.134Z</time>
      </trkpt>
      <trkpt lat="49.498724" lon="8.140709">
        <ele>308.903220</ele>
        <time>2023-07-25T11:52:26.477Z</time>
      </trkpt>
      <trkpt lat="49.498824" lon="8.140617">
        <ele>309.131714</ele>
        <time>2023-07-25T11:52:39.502Z</time>
      </trkpt>
      <trkpt lat="49.498892" lon="8.140501">
        <ele>309.330780</ele>
        <time>2023-07-25T11:52:50.443Z</time>
      </trkpt>
      <trkpt lat="49.498935" lon="8.140350">
        <ele>309.540818</ele>
        <time>2023-07-25T11:53:01.734Z</time>
      </trkpt>
      <trkpt lat="49.498926" lon="8.140176">
        <ele>309.763178</ele>
        <time>2023-07-25T11:53:13.056Z</time>
      </trkpt>
      <trkpt lat="49.498838" lon="8.139849">
        <ele>310.214091</ele>
        <time>2023-07-25T11:53:36.714Z</time>
      </trkpt>
      <trkpt lat="49.498586" lon="8.139567">
        <ele>310.825138</ele>
        <time>2023-07-25T11:54:10.505Z</time>
      </trkpt>
      <trkpt lat="49.498494" lon="8.139733">
        <ele>310.149301</ele>
        <time>2023-07-25T11:54:26.464Z</time>
      </trkpt>
      <trkpt lat="49.498303" lon="8.139953">
        <ele>308.486909</ele>
        <time>2023-07-25T11:54:53.740Z</time>
      </trkpt>
      <trkpt lat="49.497975" lon="8.140050">
        <ele>306.159190</ele>
        <time>2023-07-25T11:55:32.555Z</time>
      </trkpt>
      <trkpt lat="49.497027" lon="8.140019">
        <ele>299.550788</ele>
        <time>2023-07-25T11:57:24.106Z</time>
      </trkpt>
      <trkpt lat="49.496964" lon="8.139949">
        <ele>299.009330</ele>
        <time>2023-07-25T11:57:32.943Z</time>
      </trkpt>
      <trkpt lat="49.496628" lon="8.139196">
        <ele>298.622447</ele>
        <time>2023-07-25T11:58:38.122Z</time>
      </trkpt>
      <trkpt lat="49.496220" lon="8.138279">
        <ele>299.003828</ele>
        <time>2023-07-25T11:59:53.889Z</time>
      </trkpt>
      <trkpt lat="49.495875" lon="8.137329">
        <ele>299.898616</ele>
        <time>2023-07-25T12:01:17.931Z</time>
      </trkpt>
      <trkpt lat="49.495788" lon="8.137225">
        <ele>300.397925</ele>
        <time>2023-07-25T12:01:31.195Z</time>
      </trkpt>
      <trkpt lat="49.495718" lon="8.137205">
        <ele>300.720668</ele>
        <time>2023-07-25T12:01:39.684Z</time>
      </trkpt>
      <trkpt lat="49.495300" lon="8.137358">
        <ele>302.668366</ele>
        <time>2023-07-25T12:02:31.057Z</time>
      </trkpt>
      <trkpt lat="49.495210" lon="8.137442">
        <ele>303.145468</ele>
        <time>2023-07-25T12:02:43.634Z</time>
      </trkpt>
      <trkpt lat="49.495156" lon="8.137571">
        <ele>303.597343</ele>
        <time>2023-07-25T12:02:55.546Z</time>
      </trkpt>
      <trkpt lat="49.495171" lon="8.137945">
        <ele>304.700639</ele>
        <time>2023-07-25T12:03:24.342Z</time>
      </trkpt>
      <trkpt lat="49.495062" lon="8.139239">
        <ele>307.472607</ele>
        <time>2023-07-25T12:04:59.252Z</time>
      </trkpt>
      <trkpt lat="49.494883" lon="8.140048">
        <ele>307.496946</ele>
        <time>2023-07-25T12:05:55.549Z</time>
      </trkpt>
      <trkpt lat="49.494726" lon="8.140460">
        <ele>307.510550</ele>
        <time>2023-07-25T12:06:27.255Z</time>
      </trkpt>
      <trkpt lat="49.494513" lon="8.140759">
        <ele>307.523188</ele>
        <time>2023-07-25T12:06:56.948Z</time>
      </trkpt>
      <trkpt lat="49.493925" lon="8.140820">
        <ele>307.165938</ele>
        <time>2023-07-25T12:07:57.566Z</time>
      </trkpt>
      <trkpt lat="49.493011" lon="8.141167">
        <ele>305.232611</ele>
        <time>2023-07-25T12:09:35.147Z</time>
      </trkpt>
      <trkpt lat="49.492325" lon="8.141258">
        <ele>303.796920</ele>
        <time>2023-07-25T12:10:47.820Z</time>
      </trkpt>
      <trkpt lat="49.492328" lon="8.141331">
        <ele>303.625515</ele>
        <time>2023-07-25T12:10:52.875Z</time>
      </trkpt>
      <trkpt lat="49.492333" lon="8.141459">
        <ele>303.325027</ele>
        <time>2023-07-25T12:11:01.768Z</time>
      </trkpt>
      <trkpt lat="49.492341" lon="8.141623">
        <ele>302.939639</ele>
        <time>2023-07-25T12:11:13.112Z</time>
      </trkpt>
      <trkpt lat="49.492400" lon="8.143176">
        <ele>299.294231</ele>
        <time>2023-07-25T12:13:00.371Z</time>
      </trkpt>
      <trkpt lat="49.492633" lon="8.144919">
        <ele>293.504036</ele>
        <time>2023-07-25T12:15:07.909Z</time>
      </trkpt>
      <trkpt lat="49.492635" lon="8.145093">
        <ele>292.800491</ele>
        <time>2023-07-25T12:15:20.629Z</time>
      </trkpt>
      <trkpt lat="49.492546" lon="8.145537">
        <ele>290.921990</ele>
        <time>2023-07-25T12:15:54.677Z</time>
      </trkpt>
      <trkpt lat="49.492468" lon="8.146219">
        <ele>288.122429</ele>
        <time>2023-07-25T12:16:45.832Z</time>
      </trkpt>
      <trkpt lat="49.492531" lon="8.146694">
        <ele>286.162136</ele>
        <time>2023-07-25T12:17:21.920Z</time>
      </trkpt>
      <trkpt lat="49.492719" lon="8.147239">
        <ele>282.874370</ele>
        <time>2023-07-25T12:18:08.249Z</time>
      </trkpt>
      <trkpt lat="49.493049" lon="8.147797">
        <ele>278.853770</ele>
        <time>2023-07-25T12:19:05.544Z</time>
      </trkpt>
      <trkpt lat="49.493161" lon="8.147934">
        <ele>277.680424</ele>
        <time>2023-07-25T12:19:22.458Z</time>
      </trkpt>
      <trkpt lat="49.493287" lon="8.148030">
        <ele>276.527278</ele>
        <time>2023-07-25T12:19:39.051Z</time>
      </trkpt>
      <trkpt lat="49.493984" lon="8.148389">
        <ele>270.626169</ele>
        <time>2023-07-25T12:21:05.136Z</time>
      </trkpt>
      <trkpt lat="49.494205" lon="8.148635">
        <ele>268.702034</ele>
        <time>2023-07-25T12:21:36.366Z</time>
      </trkpt>
      <trkpt lat="49.494408" lon="8.149044">
        <ele>266.343095</ele>
        <time>2023-07-25T12:22:14.566Z</time>
      </trkpt>
      <trkpt lat="49.494552" lon="8.149408">
        <ele>264.389927</ele>
        <time>2023-07-25T12:22:46.175Z</time>
      </trkpt>
      <trkpt lat="49.494510" lon="8.149430">
        <ele>264.076912</ele>
        <time>2023-07-25T12:22:51.071Z</time>
      </trkpt>
      <trkpt lat="49.494117" lon="8.149646">
        <ele>261.132686</ele>
        <time>2023-07-25T12:23:38.210Z</time>
      </trkpt>
      <trkpt lat="49.493947" lon="8.149787">
        <ele>259.770260</ele>
        <time>2023-07-25T12:24:00.122Z</time>
      </trkpt>
      <trkpt lat="49.493609" lon="8.150146">
        <ele>257.122126</ele>
        <time>2023-07-25T12:24:46.970Z</time>
      </trkpt>
      <trkpt lat="49.493249" lon="8.150543">
        <ele>254.419141</ele>
        <time>2023-07-25T12:25:36.316Z</time>
      </trkpt>
      <trkpt lat="49.492774" lon="8.150761">
        <ele>251.393678</ele>
        <time>2023-07-25T12:26:31.363Z</time>
      </trkpt>
      <trkpt lat="49.492383" lon="8.151175">
        <ele>248.497067</ele>
        <time>2023-07-25T12:27:25.136Z</time>
      </trkpt>
      <trkpt lat="49.492307" lon="8.151224">
        <ele>247.994129</ele>
        <time>2023-07-25T12:27:34.360Z</time>
      </trkpt>
      <trkpt lat="49.491869" lon="8.151330">
        <ele>245.484211</ele>
        <time>2023-07-25T12:28:24.327Z</time>
      </trkpt>
      <trkpt lat="49.491822" lon="8.151658">
        <ele>244.259105</ele>
        <time>2023-07-25T12:28:49.038Z</time>
      </trkpt>
      <trkpt lat="49.491822" lon="8.151874">
        <ele>243.471270</ele>
        <time>2023-07-25T12:29:04.717Z</time>
      </trkpt>
      <trkpt lat="49.491876" lon="8.152208">
        <ele>242.215875</ele>
        <time>2023-07-25T12:29:30.017Z</time>
      </trkpt>
      <trkpt lat="49.491881" lon="8.152815">
        <ele>240.001737</ele>
        <time>2023-07-25T12:30:13.962Z</time>
      </trkpt>
      <trkpt lat="49.491992" lon="8.153315">
        <ele>238.074479</ele>
        <time>2023-07-25T12:30:51.728Z</time>
      </trkpt>
      <trkpt lat="49.492038" lon="8.153637">
        <ele>237.276644</ele>
        <time>2023-07-25T12:31:14.977Z</time>
      </trkpt>
      <trkpt lat="49.492049" lon="8.153852">
        <ele>236.903771</ele>
        <time>2023-07-25T12:31:30.197Z</time>
      </trkpt>
      <trkpt lat="49.492070" lon="8.153885">
        <ele>236.823898</ele>
        <time>2023-07-25T12:31:33.475Z</time>
      </trkpt>
      <trkpt lat="49.492274" lon="8.154172">
        <ele>236.088330</ele>
        <time>2023-07-25T12:32:02.771Z</time>
      </trkpt>
      <trkpt lat="49.492224" lon="8.154282">
        <ele>235.856206</ele>
        <time>2023-07-25T12:32:11.762Z</time>
      </trkpt>
      <trkpt lat="49.492175" lon="8.154390">
        <ele>235.628441</ele>
        <time>2023-07-25T12:32:20.423Z</time>
      </trkpt>
      <trkpt lat="49.492067" lon="8.154499">
        <ele>235.284708</ele>
        <time>2023-07-25T12:32:33.693Z</time>
      </trkpt>
      <trkpt lat="49.492299" lon="8.154958">
        <ele>234.279172</ele>
        <time>2023-07-25T12:33:13.036Z</time>
      </trkpt>
      <trkpt lat="49.492410" lon="8.155171">
        <ele>233.807040</ele>
        <time>2023-07-25T12:33:31.661Z</time>
      </trkpt>
      <trkpt lat="49.492415" lon="8.155181">
        <ele>233.785221</ele>
        <time>2023-07-25T12:33:32.480Z</time>
      </trkpt>
      <trkpt lat="49.492255" lon="8.155428">
        <ele>233.182113</ele>
        <time>2023-07-25T12:33:56.307Z</time>
      </trkpt>
      <trkpt lat="49.492255" lon="8.155428">
        <ele>233.182113</ele>
        <time>2023-07-25T12:33:56.358Z</time>
      </trkpt>
      <trkpt lat="49.492503" lon="8.155810">
        <ele>232.463616</ele>
        <time>2023-07-25T12:34:33.342Z</time>
      </trkpt>
      <trkpt lat="49.492345" lon="8.156089">
        <ele>232.051184</ele>
        <time>2023-07-25T12:34:58.280Z</time>
      </trkpt>
      <trkpt lat="49.492529" lon="8.156357">
        <ele>231.616678</ele>
        <time>2023-07-25T12:35:24.986Z</time>
      </trkpt>
      <trkpt lat="49.492649" lon="8.156594">
        <ele>231.281852</ele>
        <time>2023-07-25T12:35:45.000Z</time>
      </trkpt>
      <trkpt lat="49.492721" lon="8.156801">
        <ele>231.020219</ele>
        <time>2023-07-25T12:36:00.771Z</time>
      </trkpt>
      <trkpt lat="49.493072" lon="8.157806">
        <ele>229.752229</ele>
        <time>2023-07-25T12:37:16.390Z</time>
      </trkpt>
      <trkpt lat="49.493473" lon="8.158495">
        <ele>228.900713</ele>
        <time>2023-07-25T12:38:19.054Z</time>
      </trkpt>
      <trkpt lat="49.493603" lon="8.158822">
        <ele>228.547832</ele>
        <time>2023-07-25T12:38:44.732Z</time>
      </trkpt>
      <trkpt lat="49.493955" lon="8.159087">
        <ele>227.992585</ele>
        <time>2023-07-25T12:39:25.226Z</time>
      </trkpt>
      <trkpt lat="49.494327" lon="8.159382">
        <ele>227.399621</ele>
        <time>2023-07-25T12:40:07.993Z</time>
      </trkpt>
      <trkpt lat="49.494472" lon="8.159390">
        <ele>227.159649</ele>
        <time>2023-07-25T12:40:22.614Z</time>
      </trkpt>
      <trkpt lat="49.494556" lon="8.159368">
        <ele>226.877185</ele>
        <time>2023-07-25T12:40:31.178Z</time>
      </trkpt>
      <trkpt lat="49.495015" lon="8.159019">
        <ele>225.180135</ele>
        <time>2023-07-25T12:41:23.775Z</time>
      </trkpt>
      <trkpt lat="49.495208" lon="8.158914">
        <ele>224.501562</ele>
        <time>2023-07-25T12:41:45.727Z</time>
      </trkpt>
      <trkpt lat="49.495528" lon="8.158867">
        <ele>223.435931</ele>
        <time>2023-07-25T12:42:21.504Z</time>
      </trkpt>
      <trkpt lat="49.495678" lon="8.158895">
        <ele>222.935033</ele>
        <time>2023-07-25T12:42:38.006Z</time>
      </trkpt>
      <trkpt lat="49.496259" lon="8.159184">
        <ele>221.257088</ele>
        <time>2023-07-25T12:43:44.850Z</time>
      </trkpt>
      <trkpt lat="49.496328" lon="8.158856">
        <ele>221.257088</ele>
        <time>2023-07-25T12:44:09.342Z</time>
      </trkpt>
      <trkpt lat="49.496345" lon="8.158776">
        <ele>221.257088</ele>
        <time>2023-07-25T12:44:15.339Z</time>
      </trkpt>
      <trkpt lat="49.496447" lon="8.158187">
        <ele>221.257088</ele>
        <time>2023-07-25T12:44:57.576Z</time>
      </trkpt>
      <trkpt lat="49.496451" lon="8.157482">
        <ele>221.257088</ele>
        <time>2023-07-25T12:45:45.860Z</time>
      </trkpt>
      <trkpt lat="49.496358" lon="8.157464">
        <ele>221.257088</ele>
        <time>2023-07-25T12:45:55.961Z</time>
      </trkpt>
      <trkpt lat="49.496349" lon="8.157306">
        <ele>221.257088</ele>
        <time>2023-07-25T12:46:07.111Z</time>
      </trkpt>
      <trkpt lat="49.496337" lon="8.157118">
        <ele>221.257088</ele>
        <time>2023-07-25T12:46:19.944Z</time>
      </trkpt>
    </trkseg>
  </trk>
</gpx>