<?xml version="1.0" standalone="yes" ?>
<gpx version="1.1" creator="EADS Geogrid - Navigation" xmlns="http://www.topografix.com/GPX/1/1" xmlns:xsi="http://www.w3.org/2001/XMLSchema-instance" xsi:schemaLocation="http://www.topografix.com/GPX/1/1 http://www.topografix.com/GPX/1/1/gpx.xsd">
    <metadata>
        <name>Tracks</name>
        <time>2022-03-20T18:48:37Z</time>
    </metadata>
    <trk>
        <name>HEROLDSBERG 16 KM</name>
        <number>0</number>
        <trkseg>
            <trkpt lat="49.527033" lon="11.151542">
                <ele>348.000000</ele>
                <time>1970-01-01T01:00:00Z</time>
                <type>Trackpoint</type>
            </trkpt>
            <trkpt lat="49.527010" lon="11.151439">
                <ele>348.000000</ele>
                <time>1970-01-01T01:00:00Z</time>
                <type>Trackpoint</type>
            </trkpt>
            <trkpt lat="49.525817" lon="11.151253">
                <ele>345.000000</ele>
                <time>1970-01-01T01:00:00Z</time>
                <type>Trackpoint</type>
            </trkpt>
            <trkpt lat="49.525344" lon="11.151157">
                <ele>343.000000</ele>
                <time>1970-01-01T01:00:00Z</time>
                <type>Trackpoint</type>
            </trkpt>
            <trkpt lat="49.524669" lon="11.151031">
                <ele>341.000000</ele>
                <time>1970-01-01T01:00:00Z</time>
                <type>Trackpoint</type>
            </trkpt>
            <trkpt lat="49.523791" lon="11.150908">
                <ele>340.000000</ele>
                <time>1970-01-01T01:00:00Z</time>
                <type>Trackpoint</type>
            </trkpt>
            <trkpt lat="49.522868" lon="11.150717">
                <ele>338.000000</ele>
                <time>1970-01-01T01:00:00Z</time>
                <type>Trackpoint</type>
            </trkpt>
            <trkpt lat="49.522260" lon="11.150485">
                <ele>338.000000</ele>
                <time>1970-01-01T01:00:00Z</time>
                <type>Trackpoint</type>
            </trkpt>
            <trkpt lat="49.521741" lon="11.150253">
                <ele>338.000000</ele>
                <time>1970-01-01T01:00:00Z</time>
                <type>Trackpoint</type>
            </trkpt>
            <trkpt lat="49.521447" lon="11.149982">
                <ele>339.000000</ele>
                <time>1970-01-01T01:00:00Z</time>
                <type>Trackpoint</type>
            </trkpt>
            <trkpt lat="49.521108" lon="11.149746">
                <ele>340.000000</ele>
                <time>1970-01-01T01:00:00Z</time>
                <type>Trackpoint</type>
            </trkpt>
            <trkpt lat="49.520904" lon="11.149611">
                <ele>340.000000</ele>
                <time>1970-01-01T01:00:00Z</time>
                <type>Trackpoint</type>
            </trkpt>
            <trkpt lat="49.520635" lon="11.149616">
                <ele>341.000000</ele>
                <time>1970-01-01T01:00:00Z</time>
                <type>Trackpoint</type>
            </trkpt>
            <trkpt lat="49.520728" lon="11.150063">
                <ele>341.000000</ele>
                <time>1970-01-01T01:00:00Z</time>
                <type>Trackpoint</type>
            </trkpt>
            <trkpt lat="49.520730" lon="11.150374">
                <ele>341.000000</ele>
                <time>1970-01-01T01:00:00Z</time>
                <type>Trackpoint</type>
            </trkpt>
            <trkpt lat="49.520641" lon="11.150479">
                <ele>341.000000</ele>
                <time>1970-01-01T01:00:00Z</time>
                <type>Trackpoint</type>
            </trkpt>
            <trkpt lat="49.520172" lon="11.150901">
                <ele>344.000000</ele>
                <time>1970-01-01T01:00:00Z</time>
                <type>Trackpoint</type>
            </trkpt>
            <trkpt lat="49.520013" lon="11.150593">
                <ele>344.000000</ele>
                <time>1970-01-01T01:00:00Z</time>
                <type>Trackpoint</type>
            </trkpt>
            <trkpt lat="49.519486" lon="11.149325">
                <ele>344.000000</ele>
                <time>1970-01-01T01:00:00Z</time>
                <type>Trackpoint</type>
            </trkpt>
            <trkpt lat="49.518804" lon="11.148301">
                <ele>346.000000</ele>
                <time>1970-01-01T01:00:00Z</time>
                <type>Trackpoint</type>
            </trkpt>
            <trkpt lat="49.517624" lon="11.146802">
                <ele>352.000000</ele>
                <time>1970-01-01T01:00:00Z</time>
                <type>Trackpoint</type>
            </trkpt>
            <trkpt lat="49.517044" lon="11.145811">
                <ele>356.000000</ele>
                <time>1970-01-01T01:00:00Z</time>
                <type>Trackpoint</type>
            </trkpt>
            <trkpt lat="49.516885" lon="11.145538">
                <ele>357.000000</ele>
                <time>1970-01-01T01:00:00Z</time>
                <type>Trackpoint</type>
            </trkpt>
            <trkpt lat="49.516387" lon="11.145098">
                <ele>359.000000</ele>
                <time>1970-01-01T01:00:00Z</time>
                <type>Trackpoint</type>
            </trkpt>
            <trkpt lat="49.514193" lon="11.143306">
                <ele>380.000000</ele>
                <time>1970-01-01T01:00:00Z</time>
                <type>Trackpoint</type>
            </trkpt>
            <trkpt lat="49.512341" lon="11.142061">
                <ele>393.000000</ele>
                <time>1970-01-01T01:00:00Z</time>
                <type>Trackpoint</type>
            </trkpt>
            <trkpt lat="49.512229" lon="11.142132">
                <ele>393.000000</ele>
                <time>1970-01-01T01:00:00Z</time>
                <type>Trackpoint</type>
            </trkpt>
            <trkpt lat="49.512254" lon="11.142442">
                <ele>393.000000</ele>
                <time>1970-01-01T01:00:00Z</time>
                <type>Trackpoint</type>
            </trkpt>
            <trkpt lat="49.512744" lon="11.150995">
                <ele>388.000000</ele>
                <time>1970-01-01T01:00:00Z</time>
                <type>Trackpoint</type>
            </trkpt>
            <trkpt lat="49.512816" lon="11.151616">
                <ele>389.000000</ele>
                <time>1970-01-01T01:00:00Z</time>
                <type>Trackpoint</type>
            </trkpt>
            <trkpt lat="49.512978" lon="11.152269">
                <ele>389.000000</ele>
                <time>1970-01-01T01:00:00Z</time>
                <type>Trackpoint</type>
            </trkpt>
            <trkpt lat="49.513207" lon="11.152921">
                <ele>390.000000</ele>
                <time>1970-01-01T01:00:00Z</time>
                <type>Trackpoint</type>
            </trkpt>
            <trkpt lat="49.513504" lon="11.153468">
                <ele>392.000000</ele>
                <time>1970-01-01T01:00:00Z</time>
                <type>Trackpoint</type>
            </trkpt>
            <trkpt lat="49.513754" lon="11.153947">
                <ele>391.000000</ele>
                <time>1970-01-01T01:00:00Z</time>
                <type>Trackpoint</type>
            </trkpt>
            <trkpt lat="49.513983" lon="11.154461">
                <ele>390.000000</ele>
                <time>1970-01-01T01:00:00Z</time>
                <type>Trackpoint</type>
            </trkpt>
            <trkpt lat="49.514053" lon="11.154839">
                <ele>390.000000</ele>
                <time>1970-01-01T01:00:00Z</time>
                <type>Trackpoint</type>
            </trkpt>
            <trkpt lat="49.514100" lon="11.155149">
                <ele>391.000000</ele>
                <time>1970-01-01T01:00:00Z</time>
                <type>Trackpoint</type>
            </trkpt>
            <trkpt lat="49.514058" lon="11.155564">
                <ele>391.000000</ele>
                <time>1970-01-01T01:00:00Z</time>
                <type>Trackpoint</type>
            </trkpt>
            <trkpt lat="49.513994" lon="11.155980">
                <ele>391.000000</ele>
                <time>1970-01-01T01:00:00Z</time>
                <type>Trackpoint</type>
            </trkpt>
            <trkpt lat="49.513931" lon="11.156568">
                <ele>393.000000</ele>
                <time>1970-01-01T01:00:00Z</time>
                <type>Trackpoint</type>
            </trkpt>
            <trkpt lat="49.513888" lon="11.156914">
                <ele>393.000000</ele>
                <time>1970-01-01T01:00:00Z</time>
                <type>Trackpoint</type>
            </trkpt>
            <trkpt lat="49.513892" lon="11.157397">
                <ele>393.000000</ele>
                <time>1970-01-01T01:00:00Z</time>
                <type>Trackpoint</type>
            </trkpt>
            <trkpt lat="49.513966" lon="11.158328">
                <ele>392.000000</ele>
                <time>1970-01-01T01:00:00Z</time>
                <type>Trackpoint</type>
            </trkpt>
            <trkpt lat="49.514108" lon="11.159257">
                <ele>391.000000</ele>
                <time>1970-01-01T01:00:00Z</time>
                <type>Trackpoint</type>
            </trkpt>
            <trkpt lat="49.514319" lon="11.160462">
                <ele>391.000000</ele>
                <time>1970-01-01T01:00:00Z</time>
                <type>Trackpoint</type>
            </trkpt>
            <trkpt lat="49.514508" lon="11.161702">
                <ele>390.000000</ele>
                <time>1970-01-01T01:00:00Z</time>
                <type>Trackpoint</type>
            </trkpt>
            <trkpt lat="49.514601" lon="11.162149">
                <ele>390.000000</ele>
                <time>1970-01-01T01:00:00Z</time>
                <type>Trackpoint</type>
            </trkpt>
            <trkpt lat="49.514671" lon="11.162528">
                <ele>390.000000</ele>
                <time>1970-01-01T01:00:00Z</time>
                <type>Trackpoint</type>
            </trkpt>
            <trkpt lat="49.514650" lon="11.162701">
                <ele>391.000000</ele>
                <time>1970-01-01T01:00:00Z</time>
                <type>Trackpoint</type>
            </trkpt>
            <trkpt lat="49.514606" lon="11.162908">
                <ele>391.000000</ele>
                <time>1970-01-01T01:00:00Z</time>
                <type>Trackpoint</type>
            </trkpt>
            <trkpt lat="49.514586" lon="11.163220">
                <ele>391.000000</ele>
                <time>1970-01-01T01:00:00Z</time>
                <type>Trackpoint</type>
            </trkpt>
            <trkpt lat="49.514543" lon="11.163427">
                <ele>391.000000</ele>
                <time>1970-01-01T01:00:00Z</time>
                <type>Trackpoint</type>
            </trkpt>
            <trkpt lat="49.514413" lon="11.164189">
                <ele>394.000000</ele>
                <time>1970-01-01T01:00:00Z</time>
                <type>Trackpoint</type>
            </trkpt>
            <trkpt lat="49.514439" lon="11.164638">
                <ele>394.000000</ele>
                <time>1970-01-01T01:00:00Z</time>
                <type>Trackpoint</type>
            </trkpt>
            <trkpt lat="49.514442" lon="11.165086">
                <ele>395.000000</ele>
                <time>1970-01-01T01:00:00Z</time>
                <type>Trackpoint</type>
            </trkpt>
            <trkpt lat="49.514424" lon="11.165639">
                <ele>395.000000</ele>
                <time>1970-01-01T01:00:00Z</time>
                <type>Trackpoint</type>
            </trkpt>
            <trkpt lat="49.513923" lon="11.167926">
                <ele>396.000000</ele>
                <time>1970-01-01T01:00:00Z</time>
                <type>Trackpoint</type>
            </trkpt>
            <trkpt lat="49.513752" lon="11.169172">
                <ele>396.000000</ele>
                <time>1970-01-01T01:00:00Z</time>
                <type>Trackpoint</type>
            </trkpt>
            <trkpt lat="49.513431" lon="11.171421">
                <ele>392.000000</ele>
                <time>1970-01-01T01:00:00Z</time>
                <type>Trackpoint</type>
            </trkpt>
            <trkpt lat="49.513258" lon="11.172322">
                <ele>390.000000</ele>
                <time>1970-01-01T01:00:00Z</time>
                <type>Trackpoint</type>
            </trkpt>
            <trkpt lat="49.513171" lon="11.172668">
                <ele>389.000000</ele>
                <time>1970-01-01T01:00:00Z</time>
                <type>Trackpoint</type>
            </trkpt>
            <trkpt lat="49.513105" lon="11.172980">
                <ele>387.000000</ele>
                <time>1970-01-01T01:00:00Z</time>
                <type>Trackpoint</type>
            </trkpt>
            <trkpt lat="49.513017" lon="11.173189">
                <ele>387.000000</ele>
                <time>1970-01-01T01:00:00Z</time>
                <type>Trackpoint</type>
            </trkpt>
            <trkpt lat="49.512996" lon="11.173431">
                <ele>386.000000</ele>
                <time>1970-01-01T01:00:00Z</time>
                <type>Trackpoint</type>
            </trkpt>
            <trkpt lat="49.512998" lon="11.173672">
                <ele>384.000000</ele>
                <time>1970-01-01T01:00:00Z</time>
                <type>Trackpoint</type>
            </trkpt>
            <trkpt lat="49.513300" lon="11.175083">
                <ele>378.000000</ele>
                <time>1970-01-01T01:00:00Z</time>
                <type>Trackpoint</type>
            </trkpt>
            <trkpt lat="49.514368" lon="11.179795">
                <ele>371.000000</ele>
                <time>1970-01-01T01:00:00Z</time>
                <type>Trackpoint</type>
            </trkpt>
            <trkpt lat="49.514392" lon="11.180070">
                <ele>372.000000</ele>
                <time>1970-01-01T01:00:00Z</time>
                <type>Trackpoint</type>
            </trkpt>
            <trkpt lat="49.524381" lon="11.187638">
                <ele>368.000000</ele>
                <time>1970-01-01T01:00:00Z</time>
                <type>Trackpoint</type>
            </trkpt>
            <trkpt lat="49.524449" lon="11.187706">
                <ele>368.000000</ele>
                <time>1970-01-01T01:00:00Z</time>
                <type>Trackpoint</type>
            </trkpt>
            <trkpt lat="49.523190" lon="11.194184">
                <ele>374.000000</ele>
                <time>1970-01-01T01:00:00Z</time>
                <type>Trackpoint</type>
            </trkpt>
            <trkpt lat="49.526517" lon="11.195595">
                <ele>363.000000</ele>
                <time>1970-01-01T01:00:00Z</time>
                <type>Trackpoint</type>
            </trkpt>
            <trkpt lat="49.527239" lon="11.195928">
                <ele>361.000000</ele>
                <time>1970-01-01T01:00:00Z</time>
                <type>Trackpoint</type>
            </trkpt>
            <trkpt lat="49.527848" lon="11.196264">
                <ele>358.000000</ele>
                <time>1970-01-01T01:00:00Z</time>
                <type>Trackpoint</type>
            </trkpt>
            <trkpt lat="49.528299" lon="11.196463">
                <ele>356.000000</ele>
                <time>1970-01-01T01:00:00Z</time>
                <type>Trackpoint</type>
            </trkpt>
            <trkpt lat="49.528683" lon="11.196699">
                <ele>355.000000</ele>
                <time>1970-01-01T01:00:00Z</time>
                <type>Trackpoint</type>
            </trkpt>
            <trkpt lat="49.529180" lon="11.197071">
                <ele>358.000000</ele>
                <time>1970-01-01T01:00:00Z</time>
                <type>Trackpoint</type>
            </trkpt>
            <trkpt lat="49.529586" lon="11.197340">
                <ele>361.000000</ele>
                <time>1970-01-01T01:00:00Z</time>
                <type>Trackpoint</type>
            </trkpt>
            <trkpt lat="49.529812" lon="11.197406">
                <ele>362.000000</ele>
                <time>1970-01-01T01:00:00Z</time>
                <type>Trackpoint</type>
            </trkpt>
            <trkpt lat="49.530059" lon="11.197402">
                <ele>362.000000</ele>
                <time>1970-01-01T01:00:00Z</time>
                <type>Trackpoint</type>
            </trkpt>
            <trkpt lat="49.530217" lon="11.197503">
                <ele>362.000000</ele>
                <time>1970-01-01T01:00:00Z</time>
                <type>Trackpoint</type>
            </trkpt>
            <trkpt lat="49.530284" lon="11.197432">
                <ele>363.000000</ele>
                <time>1970-01-01T01:00:00Z</time>
                <type>Trackpoint</type>
            </trkpt>
            <trkpt lat="49.530327" lon="11.197121">
                <ele>363.000000</ele>
                <time>1970-01-01T01:00:00Z</time>
                <type>Trackpoint</type>
            </trkpt>
            <trkpt lat="49.530942" lon="11.195177">
                <ele>363.000000</ele>
                <time>1970-01-01T01:00:00Z</time>
                <type>Trackpoint</type>
            </trkpt>
            <trkpt lat="49.530984" lon="11.194727">
                <ele>362.000000</ele>
                <time>1970-01-01T01:00:00Z</time>
                <type>Trackpoint</type>
            </trkpt>
            <trkpt lat="49.531026" lon="11.194243">
                <ele>362.000000</ele>
                <time>1970-01-01T01:00:00Z</time>
                <type>Trackpoint</type>
            </trkpt>
            <trkpt lat="49.531023" lon="11.193898">
                <ele>361.000000</ele>
                <time>1970-01-01T01:00:00Z</time>
                <type>Trackpoint</type>
            </trkpt>
            <trkpt lat="49.531066" lon="11.193586">
                <ele>361.000000</ele>
                <time>1970-01-01T01:00:00Z</time>
                <type>Trackpoint</type>
            </trkpt>
            <trkpt lat="49.531065" lon="11.193414">
                <ele>361.000000</ele>
                <time>1970-01-01T01:00:00Z</time>
                <type>Trackpoint</type>
            </trkpt>
            <trkpt lat="49.531085" lon="11.193068">
                <ele>360.000000</ele>
                <time>1970-01-01T01:00:00Z</time>
                <type>Trackpoint</type>
            </trkpt>
            <trkpt lat="49.531149" lon="11.192618">
                <ele>359.000000</ele>
                <time>1970-01-01T01:00:00Z</time>
                <type>Trackpoint</type>
            </trkpt>
            <trkpt lat="49.531419" lon="11.192579">
                <ele>359.000000</ele>
                <time>1970-01-01T01:00:00Z</time>
                <type>Trackpoint</type>
            </trkpt>
            <trkpt lat="49.532003" lon="11.192569">
                <ele>359.000000</ele>
                <time>1970-01-01T01:00:00Z</time>
                <type>Trackpoint</type>
            </trkpt>
            <trkpt lat="49.532249" lon="11.192393">
                <ele>360.000000</ele>
                <time>1970-01-01T01:00:00Z</time>
                <type>Trackpoint</type>
            </trkpt>
            <trkpt lat="49.532517" lon="11.192146">
                <ele>359.000000</ele>
                <time>1970-01-01T01:00:00Z</time>
                <type>Trackpoint</type>
            </trkpt>
            <trkpt lat="49.532741" lon="11.191935">
                <ele>358.000000</ele>
                <time>1970-01-01T01:00:00Z</time>
                <type>Trackpoint</type>
            </trkpt>
            <trkpt lat="49.532853" lon="11.191865">
                <ele>358.000000</ele>
                <time>1970-01-01T01:00:00Z</time>
                <type>Trackpoint</type>
            </trkpt>
            <trkpt lat="49.533008" lon="11.191655">
                <ele>358.000000</ele>
                <time>1970-01-01T01:00:00Z</time>
                <type>Trackpoint</type>
            </trkpt>
            <trkpt lat="49.533187" lon="11.191445">
                <ele>358.000000</ele>
                <time>1970-01-01T01:00:00Z</time>
                <type>Trackpoint</type>
            </trkpt>
            <trkpt lat="49.533365" lon="11.191200">
                <ele>358.000000</ele>
                <time>1970-01-01T01:00:00Z</time>
                <type>Trackpoint</type>
            </trkpt>
            <trkpt lat="49.533387" lon="11.191165">
                <ele>358.000000</ele>
                <time>1970-01-01T01:00:00Z</time>
                <type>Trackpoint</type>
            </trkpt>
            <trkpt lat="49.533387" lon="11.191165">
                <ele>358.000000</ele>
                <time>1970-01-01T01:00:00Z</time>
                <type>Trackpoint</type>
            </trkpt>
            <trkpt lat="49.533454" lon="11.191095">
                <ele>358.000000</ele>
                <time>1970-01-01T01:00:00Z</time>
                <type>Trackpoint</type>
            </trkpt>
            <trkpt lat="49.533159" lon="11.190685">
                <ele>358.000000</ele>
                <time>1970-01-01T01:00:00Z</time>
                <type>Trackpoint</type>
            </trkpt>
            <trkpt lat="49.533068" lon="11.190514">
                <ele>359.000000</ele>
                <time>1970-01-01T01:00:00Z</time>
                <type>Trackpoint</type>
            </trkpt>
            <trkpt lat="49.532345" lon="11.190008">
                <ele>360.000000</ele>
                <time>1970-01-01T01:00:00Z</time>
                <type>Trackpoint</type>
            </trkpt>
            <trkpt lat="49.531669" lon="11.189743">
                <ele>360.000000</ele>
                <time>1970-01-01T01:00:00Z</time>
                <type>Trackpoint</type>
            </trkpt>
            <trkpt lat="49.531195" lon="11.189440">
                <ele>358.000000</ele>
                <time>1970-01-01T01:00:00Z</time>
                <type>Trackpoint</type>
            </trkpt>
            <trkpt lat="49.530856" lon="11.189204">
                <ele>357.000000</ele>
                <time>1970-01-01T01:00:00Z</time>
                <type>Trackpoint</type>
            </trkpt>
            <trkpt lat="49.530583" lon="11.188828">
                <ele>355.000000</ele>
                <time>1970-01-01T01:00:00Z</time>
                <type>Trackpoint</type>
            </trkpt>
            <trkpt lat="49.530468" lon="11.188381">
                <ele>355.000000</ele>
                <time>1970-01-01T01:00:00Z</time>
                <type>Trackpoint</type>
            </trkpt>
            <trkpt lat="49.530396" lon="11.187692">
                <ele>355.000000</ele>
                <time>1970-01-01T01:00:00Z</time>
                <type>Trackpoint</type>
            </trkpt>
            <trkpt lat="49.530370" lon="11.187174">
                <ele>354.000000</ele>
                <time>1970-01-01T01:00:00Z</time>
                <type>Trackpoint</type>
            </trkpt>
            <trkpt lat="49.530322" lon="11.186830">
                <ele>353.000000</ele>
                <time>1970-01-01T01:00:00Z</time>
                <type>Trackpoint</type>
            </trkpt>
            <trkpt lat="49.530320" lon="11.186519">
                <ele>353.000000</ele>
                <time>1970-01-01T01:00:00Z</time>
                <type>Trackpoint</type>
            </trkpt>
            <trkpt lat="49.530409" lon="11.186414">
                <ele>354.000000</ele>
                <time>1970-01-01T01:00:00Z</time>
                <type>Trackpoint</type>
            </trkpt>
            <trkpt lat="49.532657" lon="11.186480">
                <ele>369.000000</ele>
                <time>1970-01-01T01:00:00Z</time>
                <type>Trackpoint</type>
            </trkpt>
            <trkpt lat="49.533257" lon="11.186470">
                <ele>370.000000</ele>
                <time>1970-01-01T01:00:00Z</time>
                <type>Trackpoint</type>
            </trkpt>
            <trkpt lat="49.534361" lon="11.186763">
                <ele>372.000000</ele>
                <time>1970-01-01T01:00:00Z</time>
                <type>Trackpoint</type>
            </trkpt>
            <trkpt lat="49.535126" lon="11.186923">
                <ele>373.000000</ele>
                <time>1970-01-01T01:00:00Z</time>
                <type>Trackpoint</type>
            </trkpt>
            <trkpt lat="49.535802" lon="11.187084">
                <ele>372.000000</ele>
                <time>1970-01-01T01:00:00Z</time>
                <type>Trackpoint</type>
            </trkpt>
            <trkpt lat="49.536298" lon="11.187283">
                <ele>373.000000</ele>
                <time>1970-01-01T01:00:00Z</time>
                <type>Trackpoint</type>
            </trkpt>
            <trkpt lat="49.536637" lon="11.187657">
                <ele>372.000000</ele>
                <time>1970-01-01T01:00:00Z</time>
                <type>Trackpoint</type>
            </trkpt>
            <trkpt lat="49.537292" lon="11.187992">
                <ele>372.000000</ele>
                <time>1970-01-01T01:00:00Z</time>
                <type>Trackpoint</type>
            </trkpt>
            <trkpt lat="49.537699" lon="11.188365">
                <ele>371.000000</ele>
                <time>1970-01-01T01:00:00Z</time>
                <type>Trackpoint</type>
            </trkpt>
            <trkpt lat="49.538060" lon="11.188532">
                <ele>372.000000</ele>
                <time>1970-01-01T01:00:00Z</time>
                <type>Trackpoint</type>
            </trkpt>
            <trkpt lat="49.538308" lon="11.188631">
                <ele>372.000000</ele>
                <time>1970-01-01T01:00:00Z</time>
                <type>Trackpoint</type>
            </trkpt>
            <trkpt lat="49.538488" lon="11.188767">
                <ele>371.000000</ele>
                <time>1970-01-01T01:00:00Z</time>
                <type>Trackpoint</type>
            </trkpt>
            <trkpt lat="49.538625" lon="11.189006">
                <ele>371.000000</ele>
                <time>1970-01-01T01:00:00Z</time>
                <type>Trackpoint</type>
            </trkpt>
            <trkpt lat="49.538739" lon="11.189281">
                <ele>372.000000</ele>
                <time>1970-01-01T01:00:00Z</time>
                <type>Trackpoint</type>
            </trkpt>
            <trkpt lat="49.538831" lon="11.189590">
                <ele>371.000000</ele>
                <time>1970-01-01T01:00:00Z</time>
                <type>Trackpoint</type>
            </trkpt>
            <trkpt lat="49.538990" lon="11.189829">
                <ele>373.000000</ele>
                <time>1970-01-01T01:00:00Z</time>
                <type>Trackpoint</type>
            </trkpt>
            <trkpt lat="49.539261" lon="11.189894">
                <ele>374.000000</ele>
                <time>1970-01-01T01:00:00Z</time>
                <type>Trackpoint</type>
            </trkpt>
            <trkpt lat="49.539419" lon="11.189995">
                <ele>374.000000</ele>
                <time>1970-01-01T01:00:00Z</time>
                <type>Trackpoint</type>
            </trkpt>
            <trkpt lat="49.539599" lon="11.190095">
                <ele>374.000000</ele>
                <time>1970-01-01T01:00:00Z</time>
                <type>Trackpoint</type>
            </trkpt>
            <trkpt lat="49.539914" lon="11.190159">
                <ele>373.000000</ele>
                <time>1970-01-01T01:00:00Z</time>
                <type>Trackpoint</type>
            </trkpt>
            <trkpt lat="49.540230" lon="11.190292">
                <ele>374.000000</ele>
                <time>1970-01-01T01:00:00Z</time>
                <type>Trackpoint</type>
            </trkpt>
            <trkpt lat="49.540456" lon="11.190427">
                <ele>374.000000</ele>
                <time>1970-01-01T01:00:00Z</time>
                <type>Trackpoint</type>
            </trkpt>
            <trkpt lat="49.540658" lon="11.190492">
                <ele>376.000000</ele>
                <time>1970-01-01T01:00:00Z</time>
                <type>Trackpoint</type>
            </trkpt>
            <trkpt lat="49.540860" lon="11.190420">
                <ele>375.000000</ele>
                <time>1970-01-01T01:00:00Z</time>
                <type>Trackpoint</type>
            </trkpt>
            <trkpt lat="49.541130" lon="11.190484">
                <ele>377.000000</ele>
                <time>1970-01-01T01:00:00Z</time>
                <type>Trackpoint</type>
            </trkpt>
            <trkpt lat="49.541266" lon="11.190655">
                <ele>377.000000</ele>
                <time>1970-01-01T01:00:00Z</time>
                <type>Trackpoint</type>
            </trkpt>
            <trkpt lat="49.541425" lon="11.190825">
                <ele>377.000000</ele>
                <time>1970-01-01T01:00:00Z</time>
                <type>Trackpoint</type>
            </trkpt>
            <trkpt lat="49.541539" lon="11.191099">
                <ele>377.000000</ele>
                <time>1970-01-01T01:00:00Z</time>
                <type>Trackpoint</type>
            </trkpt>
            <trkpt lat="49.541676" lon="11.191305">
                <ele>376.000000</ele>
                <time>1970-01-01T01:00:00Z</time>
                <type>Trackpoint</type>
            </trkpt>
            <trkpt lat="49.541743" lon="11.191372">
                <ele>376.000000</ele>
                <time>1970-01-01T01:00:00Z</time>
                <type>Trackpoint</type>
            </trkpt>
            <trkpt lat="49.541781" lon="11.191372">
                <ele>376.000000</ele>
                <time>1970-01-01T01:00:00Z</time>
                <type>Trackpoint</type>
            </trkpt>
            <trkpt lat="49.541916" lon="11.191301">
                <ele>376.000000</ele>
                <time>1970-01-01T01:00:00Z</time>
                <type>Trackpoint</type>
            </trkpt>
            <trkpt lat="49.542029" lon="11.191368">
                <ele>376.000000</ele>
                <time>1970-01-01T01:00:00Z</time>
                <type>Trackpoint</type>
            </trkpt>
            <trkpt lat="49.542523" lon="11.191394">
                <ele>378.000000</ele>
                <time>1970-01-01T01:00:00Z</time>
                <type>Trackpoint</type>
            </trkpt>
            <trkpt lat="49.542839" lon="11.191596">
                <ele>381.000000</ele>
                <time>1970-01-01T01:00:00Z</time>
                <type>Trackpoint</type>
            </trkpt>
            <trkpt lat="49.543154" lon="11.191522">
                <ele>382.000000</ele>
                <time>1970-01-01T01:00:00Z</time>
                <type>Trackpoint</type>
            </trkpt>
            <trkpt lat="49.543334" lon="11.191657">
                <ele>382.000000</ele>
                <time>1970-01-01T01:00:00Z</time>
                <type>Trackpoint</type>
            </trkpt>
            <trkpt lat="49.543492" lon="11.191724">
                <ele>382.000000</ele>
                <time>1970-01-01T01:00:00Z</time>
                <type>Trackpoint</type>
            </trkpt>
            <trkpt lat="49.543583" lon="11.191791">
                <ele>383.000000</ele>
                <time>1970-01-01T01:00:00Z</time>
                <type>Trackpoint</type>
            </trkpt>
            <trkpt lat="49.543831" lon="11.191891">
                <ele>383.000000</ele>
                <time>1970-01-01T01:00:00Z</time>
                <type>Trackpoint</type>
            </trkpt>
            <trkpt lat="49.544034" lon="11.192095">
                <ele>383.000000</ele>
                <time>1970-01-01T01:00:00Z</time>
                <type>Trackpoint</type>
            </trkpt>
            <trkpt lat="49.544284" lon="11.192436">
                <ele>384.000000</ele>
                <time>1970-01-01T01:00:00Z</time>
                <type>Trackpoint</type>
            </trkpt>
            <trkpt lat="49.544556" lon="11.192708">
                <ele>384.000000</ele>
                <time>1970-01-01T01:00:00Z</time>
                <type>Trackpoint</type>
            </trkpt>
            <trkpt lat="49.544758" lon="11.192670">
                <ele>384.000000</ele>
                <time>1970-01-01T01:00:00Z</time>
                <type>Trackpoint</type>
            </trkpt>
            <trkpt lat="49.545050" lon="11.192665">
                <ele>385.000000</ele>
                <time>1970-01-01T01:00:00Z</time>
                <type>Trackpoint</type>
            </trkpt>
            <trkpt lat="49.545319" lon="11.192626">
                <ele>386.000000</ele>
                <time>1970-01-01T01:00:00Z</time>
                <type>Trackpoint</type>
            </trkpt>
            <trkpt lat="49.545722" lon="11.192412">
                <ele>387.000000</ele>
                <time>1970-01-01T01:00:00Z</time>
                <type>Trackpoint</type>
            </trkpt>
            <trkpt lat="49.545923" lon="11.192202">
                <ele>387.000000</ele>
                <time>1970-01-01T01:00:00Z</time>
                <type>Trackpoint</type>
            </trkpt>
            <trkpt lat="49.546304" lon="11.192023">
                <ele>387.000000</ele>
                <time>1970-01-01T01:00:00Z</time>
                <type>Trackpoint</type>
            </trkpt>
            <trkpt lat="49.546572" lon="11.191742">
                <ele>389.000000</ele>
                <time>1970-01-01T01:00:00Z</time>
                <type>Trackpoint</type>
            </trkpt>
            <trkpt lat="49.546862" lon="11.191461">
                <ele>394.000000</ele>
                <time>1970-01-01T01:00:00Z</time>
                <type>Trackpoint</type>
            </trkpt>
            <trkpt lat="49.547152" lon="11.191180">
                <ele>398.000000</ele>
                <time>1970-01-01T01:00:00Z</time>
                <type>Trackpoint</type>
            </trkpt>
            <trkpt lat="49.547374" lon="11.190796">
                <ele>402.000000</ele>
                <time>1970-01-01T01:00:00Z</time>
                <type>Trackpoint</type>
            </trkpt>
            <trkpt lat="49.547575" lon="11.190551">
                <ele>405.000000</ele>
                <time>1970-01-01T01:00:00Z</time>
                <type>Trackpoint</type>
            </trkpt>
            <trkpt lat="49.547663" lon="11.190273">
                <ele>406.000000</ele>
                <time>1970-01-01T01:00:00Z</time>
                <type>Trackpoint</type>
            </trkpt>
            <trkpt lat="49.547729" lon="11.190134">
                <ele>408.000000</ele>
                <time>1970-01-01T01:00:00Z</time>
                <type>Trackpoint</type>
            </trkpt>
            <trkpt lat="49.547794" lon="11.189649">
                <ele>410.000000</ele>
                <time>1970-01-01T01:00:00Z</time>
                <type>Trackpoint</type>
            </trkpt>
            <trkpt lat="49.547768" lon="11.189269">
                <ele>414.000000</ele>
                <time>1970-01-01T01:00:00Z</time>
                <type>Trackpoint</type>
            </trkpt>
            <trkpt lat="49.547767" lon="11.189027">
                <ele>414.000000</ele>
                <time>1970-01-01T01:00:00Z</time>
                <type>Trackpoint</type>
            </trkpt>
            <trkpt lat="49.547675" lon="11.188718">
                <ele>414.000000</ele>
                <time>1970-01-01T01:00:00Z</time>
                <type>Trackpoint</type>
            </trkpt>
            <trkpt lat="49.547651" lon="11.188546">
                <ele>416.000000</ele>
                <time>1970-01-01T01:00:00Z</time>
                <type>Trackpoint</type>
            </trkpt>
            <trkpt lat="49.547560" lon="11.188409">
                <ele>416.000000</ele>
                <time>1970-01-01T01:00:00Z</time>
                <type>Trackpoint</type>
            </trkpt>
            <trkpt lat="49.545778" lon="11.187506">
                <ele>412.000000</ele>
                <time>1970-01-01T01:00:00Z</time>
                <type>Trackpoint</type>
            </trkpt>
            <trkpt lat="49.543909" lon="11.187019">
                <ele>409.000000</ele>
                <time>1970-01-01T01:00:00Z</time>
                <type>Trackpoint</type>
            </trkpt>
            <trkpt lat="49.543683" lon="11.186884">
                <ele>408.000000</ele>
                <time>1970-01-01T01:00:00Z</time>
                <type>Trackpoint</type>
            </trkpt>
            <trkpt lat="49.543837" lon="11.186364">
                <ele>408.000000</ele>
                <time>1970-01-01T01:00:00Z</time>
                <type>Trackpoint</type>
            </trkpt>
            <trkpt lat="49.543970" lon="11.186085">
                <ele>408.000000</ele>
                <time>1970-01-01T01:00:00Z</time>
                <type>Trackpoint</type>
            </trkpt>
            <trkpt lat="49.544058" lon="11.185876">
                <ele>407.000000</ele>
                <time>1970-01-01T01:00:00Z</time>
                <type>Trackpoint</type>
            </trkpt>
            <trkpt lat="49.544079" lon="11.185703">
                <ele>407.000000</ele>
                <time>1970-01-01T01:00:00Z</time>
                <type>Trackpoint</type>
            </trkpt>
            <trkpt lat="49.544191" lon="11.185529">
                <ele>406.000000</ele>
                <time>1970-01-01T01:00:00Z</time>
                <type>Trackpoint</type>
            </trkpt>
            <trkpt lat="49.544257" lon="11.185424">
                <ele>406.000000</ele>
                <time>1970-01-01T01:00:00Z</time>
                <type>Trackpoint</type>
            </trkpt>
            <trkpt lat="49.544256" lon="11.185286">
                <ele>406.000000</ele>
                <time>1970-01-01T01:00:00Z</time>
                <type>Trackpoint</type>
            </trkpt>
            <trkpt lat="49.544323" lon="11.185146">
                <ele>405.000000</ele>
                <time>1970-01-01T01:00:00Z</time>
                <type>Trackpoint</type>
            </trkpt>
            <trkpt lat="49.544322" lon="11.185008">
                <ele>405.000000</ele>
                <time>1970-01-01T01:00:00Z</time>
                <type>Trackpoint</type>
            </trkpt>
            <trkpt lat="49.544321" lon="11.184836">
                <ele>405.000000</ele>
                <time>1970-01-01T01:00:00Z</time>
                <type>Trackpoint</type>
            </trkpt>
            <trkpt lat="49.544296" lon="11.184490">
                <ele>405.000000</ele>
                <time>1970-01-01T01:00:00Z</time>
                <type>Trackpoint</type>
            </trkpt>
            <trkpt lat="49.544386" lon="11.181345">
                <ele>398.000000</ele>
                <time>1970-01-01T01:00:00Z</time>
                <type>Trackpoint</type>
            </trkpt>
            <trkpt lat="49.544427" lon="11.180827">
                <ele>397.000000</ele>
                <time>1970-01-01T01:00:00Z</time>
                <type>Trackpoint</type>
            </trkpt>
            <trkpt lat="49.544470" lon="11.180549">
                <ele>397.000000</ele>
                <time>1970-01-01T01:00:00Z</time>
                <type>Trackpoint</type>
            </trkpt>
            <trkpt lat="49.544535" lon="11.180168">
                <ele>394.000000</ele>
                <time>1970-01-01T01:00:00Z</time>
                <type>Trackpoint</type>
            </trkpt>
            <trkpt lat="49.544646" lon="11.179959">
                <ele>393.000000</ele>
                <time>1970-01-01T01:00:00Z</time>
                <type>Trackpoint</type>
            </trkpt>
            <trkpt lat="49.544754" lon="11.179405">
                <ele>390.000000</ele>
                <time>1970-01-01T01:00:00Z</time>
                <type>Trackpoint</type>
            </trkpt>
            <trkpt lat="49.545105" lon="11.178190">
                <ele>386.000000</ele>
                <time>1970-01-01T01:00:00Z</time>
                <type>Trackpoint</type>
            </trkpt>
            <trkpt lat="49.545148" lon="11.177878">
                <ele>386.000000</ele>
                <time>1970-01-01T01:00:00Z</time>
                <type>Trackpoint</type>
            </trkpt>
            <trkpt lat="49.545281" lon="11.177600">
                <ele>387.000000</ele>
                <time>1970-01-01T01:00:00Z</time>
                <type>Trackpoint</type>
            </trkpt>
            <trkpt lat="49.545392" lon="11.177425">
                <ele>389.000000</ele>
                <time>1970-01-01T01:00:00Z</time>
                <type>Trackpoint</type>
            </trkpt>
            <trkpt lat="49.545502" lon="11.177078">
                <ele>390.000000</ele>
                <time>1970-01-01T01:00:00Z</time>
                <type>Trackpoint</type>
            </trkpt>
            <trkpt lat="49.545613" lon="11.176834">
                <ele>392.000000</ele>
                <time>1970-01-01T01:00:00Z</time>
                <type>Trackpoint</type>
            </trkpt>
            <trkpt lat="49.545726" lon="11.173758">
                <ele>402.000000</ele>
                <time>1970-01-01T01:00:00Z</time>
                <type>Trackpoint</type>
            </trkpt>
            <trkpt lat="49.542361" lon="11.171673">
                <ele>396.000000</ele>
                <time>1970-01-01T01:00:00Z</time>
                <type>Trackpoint</type>
            </trkpt>
            <trkpt lat="49.542225" lon="11.171468">
                <ele>396.000000</ele>
                <time>1970-01-01T01:00:00Z</time>
                <type>Trackpoint</type>
            </trkpt>
            <trkpt lat="49.542088" lon="11.171194">
                <ele>395.000000</ele>
                <time>1970-01-01T01:00:00Z</time>
                <type>Trackpoint</type>
            </trkpt>
            <trkpt lat="49.541951" lon="11.170920">
                <ele>394.000000</ele>
                <time>1970-01-01T01:00:00Z</time>
                <type>Trackpoint</type>
            </trkpt>
            <trkpt lat="49.541679" lon="11.170613">
                <ele>392.000000</ele>
                <time>1970-01-01T01:00:00Z</time>
                <type>Trackpoint</type>
            </trkpt>
            <trkpt lat="49.541431" lon="11.170445">
                <ele>391.000000</ele>
                <time>1970-01-01T01:00:00Z</time>
                <type>Trackpoint</type>
            </trkpt>
            <trkpt lat="49.541160" lon="11.170242">
                <ele>390.000000</ele>
                <time>1970-01-01T01:00:00Z</time>
                <type>Trackpoint</type>
            </trkpt>
            <trkpt lat="49.541002" lon="11.170176">
                <ele>388.000000</ele>
                <time>1970-01-01T01:00:00Z</time>
                <type>Trackpoint</type>
            </trkpt>
            <trkpt lat="49.540821" lon="11.170041">
                <ele>387.000000</ele>
                <time>1970-01-01T01:00:00Z</time>
                <type>Trackpoint</type>
            </trkpt>
            <trkpt lat="49.540685" lon="11.169801">
                <ele>387.000000</ele>
                <time>1970-01-01T01:00:00Z</time>
                <type>Trackpoint</type>
            </trkpt>
            <trkpt lat="49.540571" lon="11.169630">
                <ele>386.000000</ele>
                <time>1970-01-01T01:00:00Z</time>
                <type>Trackpoint</type>
            </trkpt>
            <trkpt lat="49.540411" lon="11.169253">
                <ele>386.000000</ele>
                <time>1970-01-01T01:00:00Z</time>
                <type>Trackpoint</type>
            </trkpt>
            <trkpt lat="49.540252" lon="11.169083">
                <ele>385.000000</ele>
                <time>1970-01-01T01:00:00Z</time>
                <type>Trackpoint</type>
            </trkpt>
            <trkpt lat="49.540139" lon="11.168912">
                <ele>385.000000</ele>
                <time>1970-01-01T01:00:00Z</time>
                <type>Trackpoint</type>
            </trkpt>
            <trkpt lat="49.539934" lon="11.168639">
                <ele>386.000000</ele>
                <time>1970-01-01T01:00:00Z</time>
                <type>Trackpoint</type>
            </trkpt>
            <trkpt lat="49.539707" lon="11.168332">
                <ele>386.000000</ele>
                <time>1970-01-01T01:00:00Z</time>
                <type>Trackpoint</type>
            </trkpt>
            <trkpt lat="49.539570" lon="11.167955">
                <ele>386.000000</ele>
                <time>1970-01-01T01:00:00Z</time>
                <type>Trackpoint</type>
            </trkpt>
            <trkpt lat="49.539319" lon="11.167475">
                <ele>386.000000</ele>
                <time>1970-01-01T01:00:00Z</time>
                <type>Trackpoint</type>
            </trkpt>
            <trkpt lat="49.539181" lon="11.166994">
                <ele>385.000000</ele>
                <time>1970-01-01T01:00:00Z</time>
                <type>Trackpoint</type>
            </trkpt>
            <trkpt lat="49.539044" lon="11.166789">
                <ele>385.000000</ele>
                <time>1970-01-01T01:00:00Z</time>
                <type>Trackpoint</type>
            </trkpt>
            <trkpt lat="49.538819" lon="11.166724">
                <ele>385.000000</ele>
                <time>1970-01-01T01:00:00Z</time>
                <type>Trackpoint</type>
            </trkpt>
            <trkpt lat="49.538661" lon="11.166658">
                <ele>385.000000</ele>
                <time>1970-01-01T01:00:00Z</time>
                <type>Trackpoint</type>
            </trkpt>
            <trkpt lat="49.538504" lon="11.166695">
                <ele>385.000000</ele>
                <time>1970-01-01T01:00:00Z</time>
                <type>Trackpoint</type>
            </trkpt>
            <trkpt lat="49.538257" lon="11.166630">
                <ele>384.000000</ele>
                <time>1970-01-01T01:00:00Z</time>
                <type>Trackpoint</type>
            </trkpt>
            <trkpt lat="49.538099" lon="11.166633">
                <ele>385.000000</ele>
                <time>1970-01-01T01:00:00Z</time>
                <type>Trackpoint</type>
            </trkpt>
            <trkpt lat="49.537918" lon="11.166428">
                <ele>385.000000</ele>
                <time>1970-01-01T01:00:00Z</time>
                <type>Trackpoint</type>
            </trkpt>
            <trkpt lat="49.537827" lon="11.166223">
                <ele>385.000000</ele>
                <time>1970-01-01T01:00:00Z</time>
                <type>Trackpoint</type>
            </trkpt>
            <trkpt lat="49.537713" lon="11.166087">
                <ele>385.000000</ele>
                <time>1970-01-01T01:00:00Z</time>
                <type>Trackpoint</type>
            </trkpt>
            <trkpt lat="49.537599" lon="11.165847">
                <ele>385.000000</ele>
                <time>1970-01-01T01:00:00Z</time>
                <type>Trackpoint</type>
            </trkpt>
            <trkpt lat="49.537507" lon="11.165537">
                <ele>384.000000</ele>
                <time>1970-01-01T01:00:00Z</time>
                <type>Trackpoint</type>
            </trkpt>
            <trkpt lat="49.537323" lon="11.164988">
                <ele>384.000000</ele>
                <time>1970-01-01T01:00:00Z</time>
                <type>Trackpoint</type>
            </trkpt>
            <trkpt lat="49.536361" lon="11.162518">
                <ele>373.000000</ele>
                <time>1970-01-01T01:00:00Z</time>
                <type>Trackpoint</type>
            </trkpt>
            <trkpt lat="49.536518" lon="11.162377">
                <ele>373.000000</ele>
                <time>1970-01-01T01:00:00Z</time>
                <type>Trackpoint</type>
            </trkpt>
            <trkpt lat="49.536673" lon="11.162132">
                <ele>372.000000</ele>
                <time>1970-01-01T01:00:00Z</time>
                <type>Trackpoint</type>
            </trkpt>
            <trkpt lat="49.536897" lon="11.162059">
                <ele>372.000000</ele>
                <time>1970-01-01T01:00:00Z</time>
                <type>Trackpoint</type>
            </trkpt>
            <trkpt lat="49.537031" lon="11.161884">
                <ele>373.000000</ele>
                <time>1970-01-01T01:00:00Z</time>
                <type>Trackpoint</type>
            </trkpt>
            <trkpt lat="49.537120" lon="11.161779">
                <ele>372.000000</ele>
                <time>1970-01-01T01:00:00Z</time>
                <type>Trackpoint</type>
            </trkpt>
            <trkpt lat="49.537163" lon="11.161537">
                <ele>372.000000</ele>
                <time>1970-01-01T01:00:00Z</time>
                <type>Trackpoint</type>
            </trkpt>
            <trkpt lat="49.537229" lon="11.161363">
                <ele>371.000000</ele>
                <time>1970-01-01T01:00:00Z</time>
                <type>Trackpoint</type>
            </trkpt>
            <trkpt lat="49.537273" lon="11.161120">
                <ele>370.000000</ele>
                <time>1970-01-01T01:00:00Z</time>
                <type>Trackpoint</type>
            </trkpt>
            <trkpt lat="49.537316" lon="11.160947">
                <ele>370.000000</ele>
                <time>1970-01-01T01:00:00Z</time>
                <type>Trackpoint</type>
            </trkpt>
            <trkpt lat="49.537360" lon="11.160808">
                <ele>370.000000</ele>
                <time>1970-01-01T01:00:00Z</time>
                <type>Trackpoint</type>
            </trkpt>
            <trkpt lat="49.537360" lon="11.160704">
                <ele>370.000000</ele>
                <time>1970-01-01T01:00:00Z</time>
                <type>Trackpoint</type>
            </trkpt>
            <trkpt lat="49.537404" lon="11.160600">
                <ele>370.000000</ele>
                <time>1970-01-01T01:00:00Z</time>
                <type>Trackpoint</type>
            </trkpt>
            <trkpt lat="49.536614" lon="11.160130">
                <ele>368.000000</ele>
                <time>1970-01-01T01:00:00Z</time>
                <type>Trackpoint</type>
            </trkpt>
            <trkpt lat="49.535935" lon="11.159485">
                <ele>365.000000</ele>
                <time>1970-01-01T01:00:00Z</time>
                <type>Trackpoint</type>
            </trkpt>
            <trkpt lat="49.535864" lon="11.159107">
                <ele>364.000000</ele>
                <time>1970-01-01T01:00:00Z</time>
                <type>Trackpoint</type>
            </trkpt>
            <trkpt lat="49.535817" lon="11.158762">
                <ele>362.000000</ele>
                <time>1970-01-01T01:00:00Z</time>
                <type>Trackpoint</type>
            </trkpt>
            <trkpt lat="49.535792" lon="11.158383">
                <ele>360.000000</ele>
                <time>1970-01-01T01:00:00Z</time>
                <type>Trackpoint</type>
            </trkpt>
            <trkpt lat="49.535834" lon="11.158036">
                <ele>356.000000</ele>
                <time>1970-01-01T01:00:00Z</time>
                <type>Trackpoint</type>
            </trkpt>
            <trkpt lat="49.535922" lon="11.157759">
                <ele>356.000000</ele>
                <time>1970-01-01T01:00:00Z</time>
                <type>Trackpoint</type>
            </trkpt>
            <trkpt lat="49.535944" lon="11.157655">
                <ele>354.000000</ele>
                <time>1970-01-01T01:00:00Z</time>
                <type>Trackpoint</type>
            </trkpt>
            <trkpt lat="49.535988" lon="11.157585">
                <ele>354.000000</ele>
                <time>1970-01-01T01:00:00Z</time>
                <type>Trackpoint</type>
            </trkpt>
            <trkpt lat="49.535896" lon="11.157310">
                <ele>352.000000</ele>
                <time>1970-01-01T01:00:00Z</time>
                <type>Trackpoint</type>
            </trkpt>
            <trkpt lat="49.535737" lon="11.157002">
                <ele>351.000000</ele>
                <time>1970-01-01T01:00:00Z</time>
                <type>Trackpoint</type>
            </trkpt>
            <trkpt lat="49.535578" lon="11.156832">
                <ele>351.000000</ele>
                <time>1970-01-01T01:00:00Z</time>
                <type>Trackpoint</type>
            </trkpt>
            <trkpt lat="49.535607" lon="11.156713">
                <ele>351.000000</ele>
                <time>1970-01-01T01:00:00Z</time>
                <type>Trackpoint</type>
            </trkpt>
            <trkpt lat="49.535672" lon="11.156470">
                <ele>350.000000</ele>
                <time>1970-01-01T01:00:00Z</time>
                <type>Trackpoint</type>
            </trkpt>
            <trkpt lat="49.535672" lon="11.156401">
                <ele>350.000000</ele>
                <time>1970-01-01T01:00:00Z</time>
                <type>Trackpoint</type>
            </trkpt>
            <trkpt lat="49.535672" lon="11.156401">
                <ele>350.000000</ele>
                <time>1970-01-01T01:00:00Z</time>
                <type>Trackpoint</type>
            </trkpt>
            <trkpt lat="49.535604" lon="11.156298">
                <ele>349.000000</ele>
                <time>1970-01-01T01:00:00Z</time>
                <type>Trackpoint</type>
            </trkpt>
            <trkpt lat="49.535557" lon="11.156126">
                <ele>349.000000</ele>
                <time>1970-01-01T01:00:00Z</time>
                <type>Trackpoint</type>
            </trkpt>
            <trkpt lat="49.535399" lon="11.155957">
                <ele>348.000000</ele>
                <time>1970-01-01T01:00:00Z</time>
                <type>Trackpoint</type>
            </trkpt>
            <trkpt lat="49.535352" lon="11.155750">
                <ele>348.000000</ele>
                <time>1970-01-01T01:00:00Z</time>
                <type>Trackpoint</type>
            </trkpt>
            <trkpt lat="49.535240" lon="11.155752">
                <ele>348.000000</ele>
                <time>1970-01-01T01:00:00Z</time>
                <type>Trackpoint</type>
            </trkpt>
            <trkpt lat="49.535037" lon="11.155583">
                <ele>347.000000</ele>
                <time>1970-01-01T01:00:00Z</time>
                <type>Trackpoint</type>
            </trkpt>
            <trkpt lat="49.534834" lon="11.155552">
                <ele>348.000000</ele>
                <time>1970-01-01T01:00:00Z</time>
                <type>Trackpoint</type>
            </trkpt>
            <trkpt lat="49.534677" lon="11.155589">
                <ele>348.000000</ele>
                <time>1970-01-01T01:00:00Z</time>
                <type>Trackpoint</type>
            </trkpt>
            <trkpt lat="49.534520" lon="11.155695">
                <ele>351.000000</ele>
                <time>1970-01-01T01:00:00Z</time>
                <type>Trackpoint</type>
            </trkpt>
            <trkpt lat="49.534454" lon="11.155835">
                <ele>351.000000</ele>
                <time>1970-01-01T01:00:00Z</time>
                <type>Trackpoint</type>
            </trkpt>
            <trkpt lat="49.534320" lon="11.155906">
                <ele>353.000000</ele>
                <time>1970-01-01T01:00:00Z</time>
                <type>Trackpoint</type>
            </trkpt>
            <trkpt lat="49.534207" lon="11.155839">
                <ele>353.000000</ele>
                <time>1970-01-01T01:00:00Z</time>
                <type>Trackpoint</type>
            </trkpt>
            <trkpt lat="49.534004" lon="11.155773">
                <ele>354.000000</ele>
                <time>1970-01-01T01:00:00Z</time>
                <type>Trackpoint</type>
            </trkpt>
            <trkpt lat="49.533867" lon="11.155534">
                <ele>352.000000</ele>
                <time>1970-01-01T01:00:00Z</time>
                <type>Trackpoint</type>
            </trkpt>
            <trkpt lat="49.533370" lon="11.155128">
                <ele>351.000000</ele>
                <time>1970-01-01T01:00:00Z</time>
                <type>Trackpoint</type>
            </trkpt>
            <trkpt lat="49.533120" lon="11.154787">
                <ele>350.000000</ele>
                <time>1970-01-01T01:00:00Z</time>
                <type>Trackpoint</type>
            </trkpt>
            <trkpt lat="49.532917" lon="11.154687">
                <ele>352.000000</ele>
                <time>1970-01-01T01:00:00Z</time>
                <type>Trackpoint</type>
            </trkpt>
            <trkpt lat="49.532781" lon="11.154551">
                <ele>351.000000</ele>
                <time>1970-01-01T01:00:00Z</time>
                <type>Trackpoint</type>
            </trkpt>
            <trkpt lat="49.532780" lon="11.154413">
                <ele>351.000000</ele>
                <time>1970-01-01T01:00:00Z</time>
                <type>Trackpoint</type>
            </trkpt>
            <trkpt lat="49.532755" lon="11.154033">
                <ele>349.000000</ele>
                <time>1970-01-01T01:00:00Z</time>
                <type>Trackpoint</type>
            </trkpt>
            <trkpt lat="49.532461" lon="11.153831">
                <ele>348.000000</ele>
                <time>1970-01-01T01:00:00Z</time>
                <type>Trackpoint</type>
            </trkpt>
            <trkpt lat="49.532212" lon="11.153594">
                <ele>347.000000</ele>
                <time>1970-01-01T01:00:00Z</time>
                <type>Trackpoint</type>
            </trkpt>
            <trkpt lat="49.532054" lon="11.153493">
                <ele>347.000000</ele>
                <time>1970-01-01T01:00:00Z</time>
                <type>Trackpoint</type>
            </trkpt>
            <trkpt lat="49.531806" lon="11.153359">
                <ele>348.000000</ele>
                <time>1970-01-01T01:00:00Z</time>
                <type>Trackpoint</type>
            </trkpt>
            <trkpt lat="49.531580" lon="11.153259">
                <ele>348.000000</ele>
                <time>1970-01-01T01:00:00Z</time>
                <type>Trackpoint</type>
            </trkpt>
            <trkpt lat="49.531309" lon="11.153091">
                <ele>348.000000</ele>
                <time>1970-01-01T01:00:00Z</time>
                <type>Trackpoint</type>
            </trkpt>
            <trkpt lat="49.530993" lon="11.152855">
                <ele>346.000000</ele>
                <time>1970-01-01T01:00:00Z</time>
                <type>Trackpoint</type>
            </trkpt>
            <trkpt lat="49.530836" lon="11.152961">
                <ele>346.000000</ele>
                <time>1970-01-01T01:00:00Z</time>
                <type>Trackpoint</type>
            </trkpt>
            <trkpt lat="49.530543" lon="11.152828">
                <ele>346.000000</ele>
                <time>1970-01-01T01:00:00Z</time>
                <type>Trackpoint</type>
            </trkpt>
            <trkpt lat="49.530274" lon="11.152902">
                <ele>345.000000</ele>
                <time>1970-01-01T01:00:00Z</time>
                <type>Trackpoint</type>
            </trkpt>
            <trkpt lat="49.530293" lon="11.152487">
                <ele>344.000000</ele>
                <time>1970-01-01T01:00:00Z</time>
                <type>Trackpoint</type>
            </trkpt>
            <trkpt lat="49.530291" lon="11.152177">
                <ele>343.000000</ele>
                <time>1970-01-01T01:00:00Z</time>
                <type>Trackpoint</type>
            </trkpt>
            <trkpt lat="49.530312" lon="11.152004">
                <ele>343.000000</ele>
                <time>1970-01-01T01:00:00Z</time>
                <type>Trackpoint</type>
            </trkpt>
            <trkpt lat="49.530178" lon="11.152006">
                <ele>343.000000</ele>
                <time>1970-01-01T01:00:00Z</time>
                <type>Trackpoint</type>
            </trkpt>
            <trkpt lat="49.529976" lon="11.152078">
                <ele>343.000000</ele>
                <time>1970-01-01T01:00:00Z</time>
                <type>Trackpoint</type>
            </trkpt>
            <trkpt lat="49.529841" lon="11.152081">
                <ele>343.000000</ele>
                <time>1970-01-01T01:00:00Z</time>
                <type>Trackpoint</type>
            </trkpt>
            <trkpt lat="49.529660" lon="11.151911">
                <ele>343.000000</ele>
                <time>1970-01-01T01:00:00Z</time>
                <type>Trackpoint</type>
            </trkpt>
            <trkpt lat="49.529321" lon="11.151744">
                <ele>344.000000</ele>
                <time>1970-01-01T01:00:00Z</time>
                <type>Trackpoint</type>
            </trkpt>
            <trkpt lat="49.529165" lon="11.151885">
                <ele>344.000000</ele>
                <time>1970-01-01T01:00:00Z</time>
                <type>Trackpoint</type>
            </trkpt>
            <trkpt lat="49.528920" lon="11.152131">
                <ele>343.000000</ele>
                <time>1970-01-01T01:00:00Z</time>
                <type>Trackpoint</type>
            </trkpt>
            <trkpt lat="49.528584" lon="11.152310">
                <ele>343.000000</ele>
                <time>1970-01-01T01:00:00Z</time>
                <type>Trackpoint</type>
            </trkpt>
            <trkpt lat="49.528248" lon="11.152454">
                <ele>343.000000</ele>
                <time>1970-01-01T01:00:00Z</time>
                <type>Trackpoint</type>
            </trkpt>
            <trkpt lat="49.528069" lon="11.152664">
                <ele>343.000000</ele>
                <time>1970-01-01T01:00:00Z</time>
                <type>Trackpoint</type>
            </trkpt>
            <trkpt lat="49.527844" lon="11.152633">
                <ele>343.000000</ele>
                <time>1970-01-01T01:00:00Z</time>
                <type>Trackpoint</type>
            </trkpt>
            <trkpt lat="49.527575" lon="11.152742">
                <ele>343.000000</ele>
                <time>1970-01-01T01:00:00Z</time>
                <type>Trackpoint</type>
            </trkpt>
            <trkpt lat="49.527374" lon="11.152849">
                <ele>343.000000</ele>
                <time>1970-01-01T01:00:00Z</time>
                <type>Trackpoint</type>
            </trkpt>
            <trkpt lat="49.527195" lon="11.152921">
                <ele>343.000000</ele>
                <time>1970-01-01T01:00:00Z</time>
                <type>Trackpoint</type>
            </trkpt>
            <trkpt lat="49.527083" lon="11.153026">
                <ele>343.000000</ele>
                <time>1970-01-01T01:00:00Z</time>
                <type>Trackpoint</type>
            </trkpt>
            <trkpt lat="49.526971" lon="11.153063">
                <ele>342.000000</ele>
                <time>1970-01-01T01:00:00Z</time>
                <type>Trackpoint</type>
            </trkpt>
            <trkpt lat="49.526857" lon="11.152927">
                <ele>343.000000</ele>
                <time>1970-01-01T01:00:00Z</time>
                <type>Trackpoint</type>
            </trkpt>
            <trkpt lat="49.526812" lon="11.152824">
                <ele>343.000000</ele>
                <time>1970-01-01T01:00:00Z</time>
                <type>Trackpoint</type>
            </trkpt>
            <trkpt lat="49.527185" lon="11.151574">
                <ele>348.000000</ele>
                <time>1970-01-01T01:00:00Z</time>
                <type>Trackpoint</type>
            </trkpt>
            <trkpt lat="49.527005" lon="11.151577">
                <ele>348.000000</ele>
                <time>1970-01-01T01:00:00Z</time>
                <type>Trackpoint</type>
            </trkpt>
        </trkseg>
    </trk>
</gpx>
