<?xml version="1.0" encoding="UTF-8"?>
<gpx xmlns="http://www.topografix.com/GPX/1/1" xmlns:gpsies="https://www.gpsies.com/GPX/1/0" creator="AllTrails https://www.alltrails.com/ - Gpsies_ivvpw" version="1.1" xmlns:xsi="http://www.w3.org/2001/XMLSchema-instance" xsi:schemaLocation="http://www.topografix.com/GPX/1/1 http://www.topografix.com/GPX/1/1/gpx.xsd https://www.gpsies.com/GPX/1/0 https://www.gpsies.com/gpsies.xsd">
  <metadata>
    <name>Gpsies_ivvpw</name>
    <link href="https://www.gpsies.com/">
      <text>Gpsies_ivvpw on AllTrails</text>
    </link>
    <time>2020-02-19T20:01:52Z</time>
  </metadata>
  <trk>
    <name>DVV Bendorf-Auf den Spuren der Römer</name>
    <link href="https://www.gpsies.com/map.do?fileId=zvlkrmvqmhfpnnkw">
      <type>trackOnWeb</type>
    </link>
    <link href="https://www.gpsies.com/charts/zv/map/zvlkrmvqmhfpnnkw_map.png">
      <type>elevationChartUrlMap</type>
    </link>
    <link href="https://www.gpsies.com/charts/zv/mapThumb/zvlkrmvqmhfpnnkw_mapThumb.png">
      <type>elevationChartUrlMapThumb</type>
    </link>
    <link href="https://www.gpsies.com/charts/zv/tab/zvlkrmvqmhfpnnkw_tab.png">
      <type>elevationChartUrlTab</type>
    </link>
    <trkseg>
      <trkpt lat="50.42617910" lon="7.572219370">
        <ele>80.000000</ele>
      </trkpt>
      <trkpt lat="50.42599970" lon="7.572138900">
        <ele>81.000000</ele>
      </trkpt>
      <trkpt lat="50.42590740" lon="7.572197910">
        <ele>81.000000</ele>
      </trkpt>
      <trkpt lat="50.42590880" lon="7.572270900">
        <ele>81.000000</ele>
      </trkpt>
      <trkpt lat="50.42630410" lon="7.573076900">
        <ele>84.000000</ele>
      </trkpt>
      <trkpt lat="50.42637140" lon="7.573279900">
        <ele>84.000000</ele>
      </trkpt>
      <trkpt lat="50.42641180" lon="7.573416900">
        <ele>85.000000</ele>
      </trkpt>
      <trkpt lat="50.42620980" lon="7.573603300">
        <ele>85.000000</ele>
      </trkpt>
      <trkpt lat="50.42535630" lon="7.574639600">
        <ele>89.000000</ele>
      </trkpt>
      <trkpt lat="50.42525980" lon="7.574676270">
        <ele>90.000000</ele>
      </trkpt>
      <trkpt lat="50.42518630" lon="7.574751370">
        <ele>90.000000</ele>
      </trkpt>
      <trkpt lat="50.42511380" lon="7.574930200">
        <ele>91.000000</ele>
      </trkpt>
      <trkpt lat="50.42501500" lon="7.575094800">
        <ele>91.000000</ele>
      </trkpt>
      <trkpt lat="50.42501940" lon="7.575199000">
        <ele>91.000000</ele>
      </trkpt>
      <trkpt lat="50.42501500" lon="7.575281200">
        <ele>91.000000</ele>
      </trkpt>
      <trkpt lat="50.42497450" lon="7.575363400">
        <ele>91.000000</ele>
      </trkpt>
      <trkpt lat="50.42527550" lon="7.575656900">
        <ele>90.000000</ele>
      </trkpt>
      <trkpt lat="50.42539680" lon="7.575777500">
        <ele>89.000000</ele>
      </trkpt>
      <trkpt lat="50.42552700" lon="7.575963900">
        <ele>88.000000</ele>
      </trkpt>
      <trkpt lat="50.42592230" lon="7.576375200">
        <ele>90.000000</ele>
      </trkpt>
      <trkpt lat="50.42602560" lon="7.576112000">
        <ele>92.000000</ele>
      </trkpt>
      <trkpt lat="50.42629950" lon="7.575371700">
        <ele>91.000000</ele>
      </trkpt>
      <trkpt lat="50.42650890" lon="7.575089330">
        <ele>90.000000</ele>
      </trkpt>
      <trkpt lat="50.42659160" lon="7.575097500">
        <ele>90.000000</ele>
      </trkpt>
      <trkpt lat="50.42683400" lon="7.575464900">
        <ele>90.000000</ele>
      </trkpt>
      <trkpt lat="50.42704520" lon="7.575832300">
        <ele>93.000000</ele>
      </trkpt>
      <trkpt lat="50.42721140" lon="7.576046100">
        <ele>96.000000</ele>
      </trkpt>
      <trkpt lat="50.42735060" lon="7.576358700">
        <ele>97.000000</ele>
      </trkpt>
      <trkpt lat="50.42760220" lon="7.576671300">
        <ele>98.000000</ele>
      </trkpt>
      <trkpt lat="50.42791200" lon="7.577016700">
        <ele>99.000000</ele>
      </trkpt>
      <trkpt lat="50.42798840" lon="7.577011200">
        <ele>99.000000</ele>
      </trkpt>
      <trkpt lat="50.42839730" lon="7.576610700">
        <ele>101.00000</ele>
      </trkpt>
      <trkpt lat="50.42855010" lon="7.576418700">
        <ele>100.00000</ele>
      </trkpt>
      <trkpt lat="50.42891840" lon="7.576051300">
        <ele>101.00000</ele>
      </trkpt>
      <trkpt lat="50.42909800" lon="7.575903300">
        <ele>102.00000</ele>
      </trkpt>
      <trkpt lat="50.42932710" lon="7.575826500">
        <ele>104.00000</ele>
      </trkpt>
      <trkpt lat="50.42978070" lon="7.575733300">
        <ele>105.00000</ele>
      </trkpt>
      <trkpt lat="50.43003050" lon="7.575682100">
        <ele>105.00000</ele>
      </trkpt>
      <trkpt lat="50.43022010" lon="7.576615510">
        <ele>112.00000</ele>
      </trkpt>
      <trkpt lat="50.43001680" lon="7.576730840">
        <ele>113.00000</ele>
      </trkpt>
      <trkpt lat="50.43008860" lon="7.577127810">
        <ele>113.00000</ele>
      </trkpt>
      <trkpt lat="50.43001870" lon="7.577167300">
        <ele>113.00000</ele>
      </trkpt>
      <trkpt lat="50.42969730" lon="7.577326290">
        <ele>113.00000</ele>
      </trkpt>
      <trkpt lat="50.42951790" lon="7.577444310">
        <ele>113.00000</ele>
      </trkpt>
      <trkpt lat="50.42915220" lon="7.578088040">
        <ele>115.00000</ele>
      </trkpt>
      <trkpt lat="50.42894380" lon="7.578485010">
        <ele>117.00000</ele>
      </trkpt>
      <trkpt lat="50.42922400" lon="7.579407690">
        <ele>125.00000</ele>
      </trkpt>
      <trkpt lat="50.42940170" lon="7.579783200">
        <ele>128.00000</ele>
      </trkpt>
      <trkpt lat="50.42979130" lon="7.580244540">
        <ele>138.00000</ele>
      </trkpt>
      <trkpt lat="50.42988700" lon="7.581156490">
        <ele>149.00000</ele>
      </trkpt>
      <trkpt lat="50.42977080" lon="7.581650010">
        <ele>152.00000</ele>
      </trkpt>
      <trkpt lat="50.42985960" lon="7.583130590">
        <ele>164.00000</ele>
      </trkpt>
      <trkpt lat="50.42990750" lon="7.583549020">
        <ele>167.00000</ele>
      </trkpt>
      <trkpt lat="50.42994850" lon="7.583742140">
        <ele>169.00000</ele>
      </trkpt>
      <trkpt lat="50.43027650" lon="7.585051050">
        <ele>183.00000</ele>
      </trkpt>
      <trkpt lat="50.43044060" lon="7.585898630">
        <ele>189.00000</ele>
      </trkpt>
      <trkpt lat="50.43054440" lon="7.586102200">
        <ele>190.00000</ele>
      </trkpt>
      <trkpt lat="50.43070170" lon="7.586258500">
        <ele>192.00000</ele>
      </trkpt>
      <trkpt lat="50.43093520" lon="7.586422900">
        <ele>192.00000</ele>
      </trkpt>
      <trkpt lat="50.43106550" lon="7.586510700">
        <ele>192.00000</ele>
      </trkpt>
      <trkpt lat="50.43124520" lon="7.586719100">
        <ele>192.00000</ele>
      </trkpt>
      <trkpt lat="50.43207400" lon="7.588087320">
        <ele>200.00000</ele>
      </trkpt>
      <trkpt lat="50.43379610" lon="7.591391800">
        <ele>214.00000</ele>
      </trkpt>
      <trkpt lat="50.43425400" lon="7.592421770">
        <ele>221.00000</ele>
      </trkpt>
      <trkpt lat="50.43461620" lon="7.593097680">
        <ele>226.00000</ele>
      </trkpt>
      <trkpt lat="50.43494420" lon="7.593226430">
        <ele>231.00000</ele>
      </trkpt>
      <trkpt lat="50.43510140" lon="7.593301530">
        <ele>232.00000</ele>
      </trkpt>
      <trkpt lat="50.43528590" lon="7.593569750">
        <ele>233.00000</ele>
      </trkpt>
      <trkpt lat="50.43540210" lon="7.593988180">
        <ele>237.00000</ele>
      </trkpt>
      <trkpt lat="50.43553880" lon="7.594277850">
        <ele>238.00000</ele>
      </trkpt>
      <trkpt lat="50.43572330" lon="7.594535350">
        <ele>240.00000</ele>
      </trkpt>
      <trkpt lat="50.43598980" lon="7.594825020">
        <ele>239.00000</ele>
      </trkpt>
      <trkpt lat="50.43629050" lon="7.595350740">
        <ele>238.00000</ele>
      </trkpt>
      <trkpt lat="50.43639740" lon="7.595705500">
        <ele>239.00000</ele>
      </trkpt>
      <trkpt lat="50.43638390" lon="7.595946700">
        <ele>242.00000</ele>
      </trkpt>
      <trkpt lat="50.43646020" lon="7.597054400">
        <ele>247.00000</ele>
      </trkpt>
      <trkpt lat="50.43650520" lon="7.597290200">
        <ele>247.00000</ele>
      </trkpt>
      <trkpt lat="50.43680620" lon="7.597734400">
        <ele>244.00000</ele>
      </trkpt>
      <trkpt lat="50.43699480" lon="7.597970200">
        <ele>241.00000</ele>
      </trkpt>
      <trkpt lat="50.43707560" lon="7.598156600">
        <ele>239.00000</ele>
      </trkpt>
      <trkpt lat="50.43711900" lon="7.598475510">
        <ele>238.00000</ele>
      </trkpt>
      <trkpt lat="50.43713850" lon="7.598776200">
        <ele>236.00000</ele>
      </trkpt>
      <trkpt lat="50.43713780" lon="7.598998540">
        <ele>236.00000</ele>
      </trkpt>
      <trkpt lat="50.43711730" lon="7.599197030">
        <ele>237.00000</ele>
      </trkpt>
      <trkpt lat="50.43710360" lon="7.599390140">
        <ele>239.00000</ele>
      </trkpt>
      <trkpt lat="50.43737020" lon="7.599551080">
        <ele>237.00000</ele>
      </trkpt>
      <trkpt lat="50.43714120" lon="7.599486700">
        <ele>239.00000</ele>
      </trkpt>
      <trkpt lat="50.43710190" lon="7.599505480">
        <ele>239.00000</ele>
      </trkpt>
      <trkpt lat="50.43711560" lon="7.599644950">
        <ele>239.00000</ele>
      </trkpt>
      <trkpt lat="50.43735420" lon="7.600618500">
        <ele>236.00000</ele>
      </trkpt>
      <trkpt lat="50.43747550" lon="7.601062700">
        <ele>236.00000</ele>
      </trkpt>
      <trkpt lat="50.43762820" lon="7.601122900">
        <ele>235.00000</ele>
      </trkpt>
      <trkpt lat="50.43796500" lon="7.601660300">
        <ele>237.00000</ele>
      </trkpt>
      <trkpt lat="50.43819700" lon="7.602002620">
        <ele>236.00000</ele>
      </trkpt>
      <trkpt lat="50.43846350" lon="7.602270840">
        <ele>239.00000</ele>
      </trkpt>
      <trkpt lat="50.43870950" lon="7.602174280">
        <ele>241.00000</ele>
      </trkpt>
      <trkpt lat="50.43884550" lon="7.601808100">
        <ele>243.00000</ele>
      </trkpt>
      <trkpt lat="50.43907000" lon="7.601133600">
        <ele>248.00000</ele>
      </trkpt>
      <trkpt lat="50.43926300" lon="7.600790260">
        <ele>251.00000</ele>
      </trkpt>
      <trkpt lat="50.43942010" lon="7.600758070">
        <ele>253.00000</ele>
      </trkpt>
      <trkpt lat="50.43965930" lon="7.600886820">
        <ele>256.00000</ele>
      </trkpt>
      <trkpt lat="50.44006930" lon="7.601273050">
        <ele>263.00000</ele>
      </trkpt>
      <trkpt lat="50.44021960" lon="7.601369610">
        <ele>266.00000</ele>
      </trkpt>
      <trkpt lat="50.44033580" lon="7.601358890">
        <ele>268.00000</ele>
      </trkpt>
      <trkpt lat="50.44058860" lon="7.601155040">
        <ele>271.00000</ele>
      </trkpt>
      <trkpt lat="50.44095760" lon="7.599685190">
        <ele>262.00000</ele>
      </trkpt>
      <trkpt lat="50.44139150" lon="7.598805420">
        <ele>263.00000</ele>
      </trkpt>
      <trkpt lat="50.44154520" lon="7.598601570">
        <ele>260.00000</ele>
      </trkpt>
      <trkpt lat="50.44177750" lon="7.598387000">
        <ele>258.00000</ele>
      </trkpt>
      <trkpt lat="50.44198590" lon="7.598327990">
        <ele>257.00000</ele>
      </trkpt>
      <trkpt lat="50.44202690" lon="7.598118780">
        <ele>253.00000</ele>
      </trkpt>
      <trkpt lat="50.44213280" lon="7.597968570">
        <ele>249.00000</ele>
      </trkpt>
      <trkpt lat="50.44231050" lon="7.597839830">
        <ele>244.00000</ele>
      </trkpt>
      <trkpt lat="50.44236510" lon="7.597705720">
        <ele>240.00000</ele>
      </trkpt>
      <trkpt lat="50.44232220" lon="7.597301000">
        <ele>234.00000</ele>
      </trkpt>
      <trkpt lat="50.44229080" lon="7.597131100">
        <ele>231.00000</ele>
      </trkpt>
      <trkpt lat="50.44217400" lon="7.597136500">
        <ele>233.00000</ele>
      </trkpt>
      <trkpt lat="50.44203030" lon="7.597169400">
        <ele>235.00000</ele>
      </trkpt>
      <trkpt lat="50.44225930" lon="7.596774700">
        <ele>222.00000</ele>
      </trkpt>
      <trkpt lat="50.44236710" lon="7.596714300">
        <ele>218.00000</ele>
      </trkpt>
      <trkpt lat="50.44229080" lon="7.596670500">
        <ele>218.00000</ele>
      </trkpt>
      <trkpt lat="50.44202580" lon="7.596747300">
        <ele>223.00000</ele>
      </trkpt>
      <trkpt lat="50.44207520" lon="7.596632100">
        <ele>219.00000</ele>
      </trkpt>
      <trkpt lat="50.44223690" lon="7.596467600">
        <ele>213.00000</ele>
      </trkpt>
      <trkpt lat="50.44240310" lon="7.596379900">
        <ele>208.00000</ele>
      </trkpt>
      <trkpt lat="50.44228630" lon="7.596368900">
        <ele>209.00000</ele>
      </trkpt>
      <trkpt lat="50.44202130" lon="7.596379900">
        <ele>210.00000</ele>
      </trkpt>
      <trkpt lat="50.44216050" lon="7.596275700">
        <ele>207.00000</ele>
      </trkpt>
      <trkpt lat="50.44242100" lon="7.596182500">
        <ele>202.00000</ele>
      </trkpt>
      <trkpt lat="50.44228630" lon="7.596171500">
        <ele>203.00000</ele>
      </trkpt>
      <trkpt lat="50.44210220" lon="7.596187900">
        <ele>204.00000</ele>
      </trkpt>
      <trkpt lat="50.44202580" lon="7.596182500">
        <ele>204.00000</ele>
      </trkpt>
      <trkpt lat="50.44176970" lon="7.596308500">
        <ele>205.00000</ele>
      </trkpt>
      <trkpt lat="50.44159900" lon="7.596396100">
        <ele>206.00000</ele>
      </trkpt>
      <trkpt lat="50.44150920" lon="7.596483900">
        <ele>207.00000</ele>
      </trkpt>
      <trkpt lat="50.44138340" lon="7.596664900">
        <ele>211.00000</ele>
      </trkpt>
      <trkpt lat="50.44124860" lon="7.596812900">
        <ele>212.00000</ele>
      </trkpt>
      <trkpt lat="50.44107800" lon="7.596955500">
        <ele>211.00000</ele>
      </trkpt>
      <trkpt lat="50.44088480" lon="7.597081600">
        <ele>207.00000</ele>
      </trkpt>
      <trkpt lat="50.44083990" lon="7.597130900">
        <ele>207.00000</ele>
      </trkpt>
      <trkpt lat="50.44074110" lon="7.597246100">
        <ele>208.00000</ele>
      </trkpt>
      <trkpt lat="50.44060180" lon="7.597438000">
        <ele>210.00000</ele>
      </trkpt>
      <trkpt lat="50.44055700" lon="7.597454400">
        <ele>209.00000</ele>
      </trkpt>
      <trkpt lat="50.44042210" lon="7.597429500">
        <ele>203.00000</ele>
      </trkpt>
      <trkpt lat="50.44029630" lon="7.597446100">
        <ele>199.00000</ele>
      </trkpt>
      <trkpt lat="50.44016160" lon="7.597500900">
        <ele>196.00000</ele>
      </trkpt>
      <trkpt lat="50.44008070" lon="7.597605100">
        <ele>197.00000</ele>
      </trkpt>
      <trkpt lat="50.44000890" lon="7.597769500">
        <ele>200.00000</ele>
      </trkpt>
      <trkpt lat="50.43994150" lon="7.598027300">
        <ele>204.00000</ele>
      </trkpt>
      <trkpt lat="50.43982020" lon="7.598454900">
        <ele>211.00000</ele>
      </trkpt>
      <trkpt lat="50.43973940" lon="7.598674300">
        <ele>214.00000</ele>
      </trkpt>
      <trkpt lat="50.43966300" lon="7.598794900">
        <ele>216.00000</ele>
      </trkpt>
      <trkpt lat="50.43958220" lon="7.598805800">
        <ele>214.00000</ele>
      </trkpt>
      <trkpt lat="50.43944740" lon="7.598789400">
        <ele>211.00000</ele>
      </trkpt>
      <trkpt lat="50.43920030" lon="7.598704300">
        <ele>204.00000</ele>
      </trkpt>
      <trkpt lat="50.43909700" lon="7.598731800">
        <ele>204.00000</ele>
      </trkpt>
      <trkpt lat="50.43898920" lon="7.598814000">
        <ele>205.00000</ele>
      </trkpt>
      <trkpt lat="50.43882750" lon="7.598978400">
        <ele>211.00000</ele>
      </trkpt>
      <trkpt lat="50.43870170" lon="7.599104600">
        <ele>216.00000</ele>
      </trkpt>
      <trkpt lat="50.43861640" lon="7.599164900">
        <ele>218.00000</ele>
      </trkpt>
      <trkpt lat="50.43854000" lon="7.599175800">
        <ele>220.00000</ele>
      </trkpt>
      <trkpt lat="50.43849510" lon="7.598945600">
        <ele>215.00000</ele>
      </trkpt>
      <trkpt lat="50.43845920" lon="7.598539800">
        <ele>209.00000</ele>
      </trkpt>
      <trkpt lat="50.43836490" lon="7.598419200">
        <ele>212.00000</ele>
      </trkpt>
      <trkpt lat="50.43824810" lon="7.598194400">
        <ele>214.00000</ele>
      </trkpt>
      <trkpt lat="50.43823010" lon="7.597986000">
        <ele>212.00000</ele>
      </trkpt>
      <trkpt lat="50.43823010" lon="7.597794100">
        <ele>209.00000</ele>
      </trkpt>
      <trkpt lat="50.43811330" lon="7.597410300">
        <ele>206.00000</ele>
      </trkpt>
      <trkpt lat="50.43802340" lon="7.597168900">
        <ele>205.00000</ele>
      </trkpt>
      <trkpt lat="50.43792460" lon="7.596834300">
        <ele>201.00000</ele>
      </trkpt>
      <trkpt lat="50.43782580" lon="7.596719300">
        <ele>200.00000</ele>
      </trkpt>
      <trkpt lat="50.43767310" lon="7.596615100">
        <ele>201.00000</ele>
      </trkpt>
      <trkpt lat="50.43737210" lon="7.596439600">
        <ele>208.00000</ele>
      </trkpt>
      <trkpt lat="50.43732270" lon="7.596313500">
        <ele>208.00000</ele>
      </trkpt>
      <trkpt lat="50.43732270" lon="7.596181900">
        <ele>206.00000</ele>
      </trkpt>
      <trkpt lat="50.43735870" lon="7.595875000">
        <ele>200.00000</ele>
      </trkpt>
      <trkpt lat="50.43739910" lon="7.595502200">
        <ele>194.00000</ele>
      </trkpt>
      <trkpt lat="50.43739910" lon="7.595266400">
        <ele>196.00000</ele>
      </trkpt>
      <trkpt lat="50.43742160" lon="7.595063500">
        <ele>195.00000</ele>
      </trkpt>
      <trkpt lat="50.43761470" lon="7.594707100">
        <ele>185.00000</ele>
      </trkpt>
      <trkpt lat="50.43765960" lon="7.594559100">
        <ele>183.00000</ele>
      </trkpt>
      <trkpt lat="50.43766400" lon="7.594350700">
        <ele>184.00000</ele>
      </trkpt>
      <trkpt lat="50.43773140" lon="7.594093000">
        <ele>181.00000</ele>
      </trkpt>
      <trkpt lat="50.43774040" lon="7.593988900">
        <ele>181.00000</ele>
      </trkpt>
      <trkpt lat="50.43770450" lon="7.593753200">
        <ele>181.00000</ele>
      </trkpt>
      <trkpt lat="50.43770900" lon="7.593605200">
        <ele>179.00000</ele>
      </trkpt>
      <trkpt lat="50.43774040" lon="7.593353000">
        <ele>177.00000</ele>
      </trkpt>
      <trkpt lat="50.43770450" lon="7.593237800">
        <ele>177.00000</ele>
      </trkpt>
      <trkpt lat="50.43761010" lon="7.593221400">
        <ele>179.00000</ele>
      </trkpt>
      <trkpt lat="50.43747090" lon="7.593226900">
        <ele>183.00000</ele>
      </trkpt>
      <trkpt lat="50.43739910" lon="7.593183000">
        <ele>185.00000</ele>
      </trkpt>
      <trkpt lat="50.43730470" lon="7.593040400">
        <ele>187.00000</ele>
      </trkpt>
      <trkpt lat="50.43723290" lon="7.592875900">
        <ele>189.00000</ele>
      </trkpt>
      <trkpt lat="50.43723290" lon="7.592870500">
        <ele>189.00000</ele>
      </trkpt>
      <trkpt lat="50.43721940" lon="7.592530500">
        <ele>190.00000</ele>
      </trkpt>
      <trkpt lat="50.43725080" lon="7.592228900">
        <ele>190.00000</ele>
      </trkpt>
      <trkpt lat="50.43734070" lon="7.592020500">
        <ele>188.00000</ele>
      </trkpt>
      <trkpt lat="50.43768650" lon="7.591412300">
        <ele>178.00000</ele>
      </trkpt>
      <trkpt lat="50.43786620" lon="7.591022900">
        <ele>174.00000</ele>
      </trkpt>
      <trkpt lat="50.43806830" lon="7.590704900">
        <ele>169.00000</ele>
      </trkpt>
      <trkpt lat="50.43807280" lon="7.590704900">
        <ele>169.00000</ele>
      </trkpt>
      <trkpt lat="50.43821660" lon="7.590518500">
        <ele>163.00000</ele>
      </trkpt>
      <trkpt lat="50.43827490" lon="7.590227900">
        <ele>159.00000</ele>
      </trkpt>
      <trkpt lat="50.43837370" lon="7.590041400">
        <ele>155.00000</ele>
      </trkpt>
      <trkpt lat="50.43840070" lon="7.589860500">
        <ele>153.00000</ele>
      </trkpt>
      <trkpt lat="50.43840070" lon="7.589855000">
        <ele>153.00000</ele>
      </trkpt>
      <trkpt lat="50.43836930" lon="7.589597300">
        <ele>153.00000</ele>
      </trkpt>
      <trkpt lat="50.43829740" lon="7.589438300">
        <ele>154.00000</ele>
      </trkpt>
      <trkpt lat="50.43819410" lon="7.589312200">
        <ele>155.00000</ele>
      </trkpt>
      <trkpt lat="50.43805040" lon="7.589229900">
        <ele>158.00000</ele>
      </trkpt>
      <trkpt lat="50.43783920" lon="7.589158600">
        <ele>164.00000</ele>
      </trkpt>
      <trkpt lat="50.43774040" lon="7.589081800">
        <ele>166.00000</ele>
      </trkpt>
      <trkpt lat="50.43769560" lon="7.588988600">
        <ele>167.00000</ele>
      </trkpt>
      <trkpt lat="50.43759670" lon="7.588506400">
        <ele>164.00000</ele>
      </trkpt>
      <trkpt lat="50.43727780" lon="7.587579800">
        <ele>152.00000</ele>
      </trkpt>
      <trkpt lat="50.43716100" lon="7.587250800">
        <ele>151.00000</ele>
      </trkpt>
      <trkpt lat="50.43714760" lon="7.587157600">
        <ele>150.00000</ele>
      </trkpt>
      <trkpt lat="50.43714300" lon="7.587026000">
        <ele>150.00000</ele>
      </trkpt>
      <trkpt lat="50.43719690" lon="7.586839600">
        <ele>146.00000</ele>
      </trkpt>
      <trkpt lat="50.43725530" lon="7.586724400">
        <ele>142.00000</ele>
      </trkpt>
      <trkpt lat="50.43734960" lon="7.586905400">
        <ele>140.00000</ele>
      </trkpt>
      <trkpt lat="50.43742600" lon="7.587080800">
        <ele>139.00000</ele>
      </trkpt>
      <trkpt lat="50.43756080" lon="7.587234400">
        <ele>137.00000</ele>
      </trkpt>
      <trkpt lat="50.43775390" lon="7.587387900">
        <ele>134.00000</ele>
      </trkpt>
      <trkpt lat="50.43792910" lon="7.587470200">
        <ele>131.00000</ele>
      </trkpt>
      <trkpt lat="50.43811780" lon="7.587749800">
        <ele>131.00000</ele>
      </trkpt>
      <trkpt lat="50.43820750" lon="7.587886800">
        <ele>129.00000</ele>
      </trkpt>
      <trkpt lat="50.43821210" lon="7.587892400">
        <ele>129.00000</ele>
      </trkpt>
      <trkpt lat="50.43834050" lon="7.587974660">
        <ele>125.00000</ele>
      </trkpt>
      <trkpt lat="50.43844980" lon="7.587931750">
        <ele>121.00000</ele>
      </trkpt>
      <trkpt lat="50.43851300" lon="7.587763400">
        <ele>117.00000</ele>
      </trkpt>
      <trkpt lat="50.43865820" lon="7.587556240">
        <ele>111.00000</ele>
      </trkpt>
      <trkpt lat="50.43878470" lon="7.587416760">
        <ele>108.00000</ele>
      </trkpt>
      <trkpt lat="50.43886320" lon="7.587357750">
        <ele>107.00000</ele>
      </trkpt>
      <trkpt lat="50.43924250" lon="7.587341660">
        <ele>101.00000</ele>
      </trkpt>
      <trkpt lat="50.43922200" lon="7.586510180">
        <ele>89.000000</ele>
      </trkpt>
      <trkpt lat="50.43915360" lon="7.586327790">
        <ele>89.000000</ele>
      </trkpt>
      <trkpt lat="50.43903750" lon="7.586161490">
        <ele>89.000000</ele>
      </trkpt>
      <trkpt lat="50.43881540" lon="7.585936180">
        <ele>89.000000</ele>
      </trkpt>
      <trkpt lat="50.43862410" lon="7.585855720">
        <ele>89.000000</ele>
      </trkpt>
      <trkpt lat="50.43844300" lon="7.585861080">
        <ele>89.000000</ele>
      </trkpt>
      <trkpt lat="50.43830630" lon="7.585780620">
        <ele>89.000000</ele>
      </trkpt>
      <trkpt lat="50.43829270" lon="7.585684060">
        <ele>88.000000</ele>
      </trkpt>
      <trkpt lat="50.43827900" lon="7.585351460">
        <ele>87.000000</ele>
      </trkpt>
      <trkpt lat="50.43841570" lon="7.585260270">
        <ele>86.000000</ele>
      </trkpt>
      <trkpt lat="50.43839170" lon="7.584498520">
        <ele>85.000000</ele>
      </trkpt>
      <trkpt lat="50.43828580" lon="7.584342950">
        <ele>85.000000</ele>
      </trkpt>
      <trkpt lat="50.43825170" lon="7.583345170">
        <ele>89.000000</ele>
      </trkpt>
      <trkpt lat="50.43799200" lon="7.583366630">
        <ele>94.000000</ele>
      </trkpt>
      <trkpt lat="50.43787240" lon="7.583329080">
        <ele>98.000000</ele>
      </trkpt>
      <trkpt lat="50.43782460" lon="7.582626340">
        <ele>93.000000</ele>
      </trkpt>
      <trkpt lat="50.43767080" lon="7.582068440">
        <ele>95.000000</ele>
      </trkpt>
      <trkpt lat="50.43754780" lon="7.581569550">
        <ele>94.000000</ele>
      </trkpt>
      <trkpt lat="50.43762300" lon="7.581451530">
        <ele>91.000000</ele>
      </trkpt>
      <trkpt lat="50.43770160" lon="7.581226220">
        <ele>87.000000</ele>
      </trkpt>
      <trkpt lat="50.43777670" lon="7.581118940">
        <ele>86.000000</ele>
      </trkpt>
      <trkpt lat="50.43766060" lon="7.580931180">
        <ele>86.000000</ele>
      </trkpt>
      <trkpt lat="50.43754100" lon="7.580625410">
        <ele>85.000000</ele>
      </trkpt>
      <trkpt lat="50.43766740" lon="7.580563720">
        <ele>84.000000</ele>
      </trkpt>
      <trkpt lat="50.43764180" lon="7.580255270">
        <ele>85.000000</ele>
      </trkpt>
      <trkpt lat="50.43760590" lon="7.579941450">
        <ele>85.000000</ele>
      </trkpt>
      <trkpt lat="50.43758820" lon="7.579671400">
        <ele>86.000000</ele>
      </trkpt>
      <trkpt lat="50.43761100" lon="7.579493520">
        <ele>86.000000</ele>
      </trkpt>
      <trkpt lat="50.43769150" lon="7.579265600">
        <ele>86.000000</ele>
      </trkpt>
      <trkpt lat="50.43798350" lon="7.579293000">
        <ele>89.000000</ele>
      </trkpt>
      <trkpt lat="50.43804630" lon="7.579254600">
        <ele>90.000000</ele>
      </trkpt>
      <trkpt lat="50.43819910" lon="7.579007900">
        <ele>92.000000</ele>
      </trkpt>
      <trkpt lat="50.43824400" lon="7.578936900">
        <ele>93.000000</ele>
      </trkpt>
      <trkpt lat="50.43824400" lon="7.578931300">
        <ele>93.000000</ele>
      </trkpt>
      <trkpt lat="50.43829790" lon="7.578410500">
        <ele>90.000000</ele>
      </trkpt>
      <trkpt lat="50.43833840" lon="7.578147300">
        <ele>88.000000</ele>
      </trkpt>
      <trkpt lat="50.43836980" lon="7.577818300">
        <ele>88.000000</ele>
      </trkpt>
      <trkpt lat="50.43836530" lon="7.577648300">
        <ele>86.000000</ele>
      </trkpt>
      <trkpt lat="50.43828890" lon="7.577275400">
        <ele>82.000000</ele>
      </trkpt>
      <trkpt lat="50.43824850" lon="7.576957400">
        <ele>81.000000</ele>
      </trkpt>
      <trkpt lat="50.43826870" lon="7.576886410">
        <ele>81.000000</ele>
      </trkpt>
      <trkpt lat="50.43815600" lon="7.576671830">
        <ele>81.000000</ele>
      </trkpt>
      <trkpt lat="50.43815770" lon="7.576336560">
        <ele>82.000000</ele>
      </trkpt>
      <trkpt lat="50.43797000" lon="7.575808800">
        <ele>82.000000</ele>
      </trkpt>
      <trkpt lat="50.43796810" lon="7.575808160">
        <ele>82.000000</ele>
      </trkpt>
      <trkpt lat="50.43783970" lon="7.575468800">
        <ele>81.000000</ele>
      </trkpt>
      <trkpt lat="50.43769600" lon="7.575101400">
        <ele>82.000000</ele>
      </trkpt>
      <trkpt lat="50.43756120" lon="7.574799800">
        <ele>83.000000</ele>
      </trkpt>
      <trkpt lat="50.43739050" lon="7.574575000">
        <ele>84.000000</ele>
      </trkpt>
      <trkpt lat="50.43705820" lon="7.574196700">
        <ele>85.000000</ele>
      </trkpt>
      <trkpt lat="50.43680670" lon="7.573900600">
        <ele>84.000000</ele>
      </trkpt>
      <trkpt lat="50.43663580" lon="7.573579800">
        <ele>83.000000</ele>
      </trkpt>
      <trkpt lat="50.43637590" lon="7.573442450">
        <ele>81.000000</ele>
      </trkpt>
      <trkpt lat="50.43569250" lon="7.574660180">
        <ele>83.000000</ele>
      </trkpt>
      <trkpt lat="50.43546350" lon="7.575180900">
        <ele>87.000000</ele>
      </trkpt>
      <trkpt lat="50.43527500" lon="7.575603100">
        <ele>90.000000</ele>
      </trkpt>
      <trkpt lat="50.43527500" lon="7.575608500">
        <ele>90.000000</ele>
      </trkpt>
      <trkpt lat="50.43517320" lon="7.575649910">
        <ele>89.000000</ele>
      </trkpt>
      <trkpt lat="50.43505470" lon="7.575698900">
        <ele>89.000000</ele>
      </trkpt>
      <trkpt lat="50.43489300" lon="7.575687900">
        <ele>88.000000</ele>
      </trkpt>
      <trkpt lat="50.43467300" lon="7.575589100">
        <ele>86.000000</ele>
      </trkpt>
      <trkpt lat="50.43442140" lon="7.575419200">
        <ele>87.000000</ele>
      </trkpt>
      <trkpt lat="50.43426420" lon="7.575238300">
        <ele>87.000000</ele>
      </trkpt>
      <trkpt lat="50.43411150" lon="7.574953100">
        <ele>86.000000</ele>
      </trkpt>
      <trkpt lat="50.43393180" lon="7.574728300">
        <ele>88.000000</ele>
      </trkpt>
      <trkpt lat="50.43379610" lon="7.574504610">
        <ele>89.000000</ele>
      </trkpt>
      <trkpt lat="50.43371610" lon="7.574344300">
        <ele>89.000000</ele>
      </trkpt>
      <trkpt lat="50.43361730" lon="7.574125000">
        <ele>89.000000</ele>
      </trkpt>
      <trkpt lat="50.43350050" lon="7.573933100">
        <ele>90.000000</ele>
      </trkpt>
      <trkpt lat="50.43334330" lon="7.573774000">
        <ele>92.000000</ele>
      </trkpt>
      <trkpt lat="50.43324900" lon="7.573664400">
        <ele>92.000000</ele>
      </trkpt>
      <trkpt lat="50.43312320" lon="7.573620500">
        <ele>94.000000</ele>
      </trkpt>
      <trkpt lat="50.43293000" lon="7.573636900">
        <ele>95.000000</ele>
      </trkpt>
      <trkpt lat="50.43276390" lon="7.573609500">
        <ele>95.000000</ele>
      </trkpt>
      <trkpt lat="50.43247890" lon="7.573541700">
        <ele>95.000000</ele>
      </trkpt>
      <trkpt lat="50.43222040" lon="7.573527300">
        <ele>97.000000</ele>
      </trkpt>
      <trkpt lat="50.43182050" lon="7.573590100">
        <ele>101.00000</ele>
      </trkpt>
      <trkpt lat="50.43168270" lon="7.573608750">
        <ele>101.00000</ele>
      </trkpt>
      <trkpt lat="50.43159560" lon="7.573455870">
        <ele>100.00000</ele>
      </trkpt>
      <trkpt lat="50.43157350" lon="7.573327000">
        <ele>99.000000</ele>
      </trkpt>
      <trkpt lat="50.43149260" lon="7.573168000">
        <ele>98.000000</ele>
      </trkpt>
      <trkpt lat="50.43137130" lon="7.573080300">
        <ele>98.000000</ele>
      </trkpt>
      <trkpt lat="50.43128800" lon="7.573080360">
        <ele>97.000000</ele>
      </trkpt>
      <trkpt lat="50.43123850" lon="7.573096450">
        <ele>97.000000</ele>
      </trkpt>
      <trkpt lat="50.43125010" lon="7.573431100">
        <ele>100.00000</ele>
      </trkpt>
      <trkpt lat="50.43126810" lon="7.573661500">
        <ele>101.00000</ele>
      </trkpt>
      <trkpt lat="50.43096260" lon="7.573765700">
        <ele>102.00000</ele>
      </trkpt>
      <trkpt lat="50.43086830" lon="7.573809500">
        <ele>102.00000</ele>
      </trkpt>
      <trkpt lat="50.43081890" lon="7.573842400">
        <ele>102.00000</ele>
      </trkpt>
      <trkpt lat="50.43062570" lon="7.573880600">
        <ele>102.00000</ele>
      </trkpt>
      <trkpt lat="50.43002830" lon="7.574132800">
        <ele>101.00000</ele>
      </trkpt>
      <trkpt lat="50.42959700" lon="7.574335700">
        <ele>100.00000</ele>
      </trkpt>
      <trkpt lat="50.42948930" lon="7.574346700">
        <ele>99.000000</ele>
      </trkpt>
      <trkpt lat="50.42939490" lon="7.574338310">
        <ele>98.000000</ele>
      </trkpt>
      <trkpt lat="50.42934020" lon="7.574236390">
        <ele>97.000000</ele>
      </trkpt>
      <trkpt lat="50.42927370" lon="7.573913500">
        <ele>97.000000</ele>
      </trkpt>
      <trkpt lat="50.42921530" lon="7.573677700">
        <ele>95.000000</ele>
      </trkpt>
      <trkpt lat="50.42917490" lon="7.573584500">
        <ele>94.000000</ele>
      </trkpt>
      <trkpt lat="50.42910300" lon="7.573524200">
        <ele>93.000000</ele>
      </trkpt>
      <trkpt lat="50.42901770" lon="7.573518700">
        <ele>93.000000</ele>
      </trkpt>
      <trkpt lat="50.42877630" lon="7.573592660">
        <ele>92.000000</ele>
      </trkpt>
      <trkpt lat="50.42865380" lon="7.573543200">
        <ele>92.000000</ele>
      </trkpt>
      <trkpt lat="50.42855490" lon="7.573598000">
        <ele>91.000000</ele>
      </trkpt>
      <trkpt lat="50.42805640" lon="7.573960000">
        <ele>90.000000</ele>
      </trkpt>
      <trkpt lat="50.42764760" lon="7.574195700">
        <ele>88.000000</ele>
      </trkpt>
      <trkpt lat="50.42676690" lon="7.574762100">
        <ele>90.000000</ele>
      </trkpt>
      <trkpt lat="50.42672590" lon="7.574673590">
        <ele>90.000000</ele>
      </trkpt>
      <trkpt lat="50.42663690" lon="7.573981800">
        <ele>88.000000</ele>
      </trkpt>
      <trkpt lat="50.42640340" lon="7.573417000">
        <ele>85.000000</ele>
      </trkpt>
      <trkpt lat="50.42636730" lon="7.573285400">
        <ele>84.000000</ele>
      </trkpt>
      <trkpt lat="50.42630890" lon="7.573082500">
        <ele>84.000000</ele>
      </trkpt>
      <trkpt lat="50.42590470" lon="7.572265500">
        <ele>81.000000</ele>
      </trkpt>
      <trkpt lat="50.42590570" lon="7.572197910">
        <ele>81.000000</ele>
      </trkpt>
      <trkpt lat="50.42599970" lon="7.572141580">
        <ele>81.000000</ele>
      </trkpt>
      <trkpt lat="50.42617740" lon="7.572216680">
        <ele>80.000000</ele>
      </trkpt>
    </trkseg>
  </trk>
</gpx>
