<?xml version="1.0" encoding="UTF-8" standalone="yes"?>
<gpx xmlns:gpxtpx1="http://www.garmin.com/xmlschemas/TrackPointExtension/v1" xmlns="http://www.topografix.com/GPX/1/1" xmlns:trp="http://www.garmin.com/xmlschemas/TripExtensions/v1" xmlns:gpxx="http://www.garmin.com/xmlschemas/GpxExtensions/v3" xmlns:gpxtpx="http://www.garmin.com/xmlschemas/TrackPointExtension/v2" version="1.1" creator="RouteConverter 2.32">
    <metadata>
        <link href="http://www.garmin.com">
            <text>Garmin International</text>
        </link>
    </metadata>
    <trk>
        <name>PW sprendlingen 6km</name>
        <extensions>
            <gpxx:TrackExtension>
                <gpxx:DisplayColor>Cyan</gpxx:DisplayColor>
            </gpxx:TrackExtension>
        </extensions>
        <trkseg>
            <trkpt lat="49.8547722" lon="7.9844964">
                <ele>111.0</ele>
                <name>Position 1</name>
            </trkpt>
            <trkpt lat="49.8548027" lon="7.9844971">
                <ele>112.0</ele>
                <name>Position 2</name>
            </trkpt>
            <trkpt lat="49.8548706" lon="7.9844658">
                <ele>112.0</ele>
                <name>Position 3</name>
            </trkpt>
            <trkpt lat="49.8550022" lon="7.984264">
                <ele>113.0</ele>
                <name>Position 4</name>
            </trkpt>
            <trkpt lat="49.8551154" lon="7.9842883">
                <ele>113.0</ele>
                <name>Position 5</name>
            </trkpt>
            <trkpt lat="49.8555286" lon="7.9845583">
                <ele>113.0</ele>
                <name>Position 6</name>
            </trkpt>
            <trkpt lat="49.855945" lon="7.9848036">
                <ele>113.0</ele>
                <name>Position 7</name>
            </trkpt>
            <trkpt lat="49.8561655" lon="7.9850978">
                <ele>113.0</ele>
                <name>Position 8</name>
            </trkpt>
            <trkpt lat="49.8562865" lon="7.9852356">
                <ele>113.0</ele>
                <name>Position 9</name>
            </trkpt>
            <trkpt lat="49.8567469" lon="7.9854745">
                <ele>114.0</ele>
                <name>Position 10</name>
            </trkpt>
            <trkpt lat="49.857085" lon="7.9856779">
                <ele>113.0</ele>
                <name>Position 11</name>
            </trkpt>
            <trkpt lat="49.8573144" lon="7.9858488">
                <ele>113.0</ele>
                <name>Position 12</name>
            </trkpt>
            <trkpt lat="49.857278" lon="7.9859971">
                <ele>113.0</ele>
                <name>Position 13</name>
            </trkpt>
            <trkpt lat="49.8575163" lon="7.9864265">
                <ele>112.0</ele>
                <name>Position 14</name>
            </trkpt>
            <trkpt lat="49.8574084" lon="7.9869488">
                <ele>111.0</ele>
                <name>Position 15</name>
            </trkpt>
            <trkpt lat="49.857295" lon="7.987451">
                <ele>110.0</ele>
                <name>Position 16</name>
            </trkpt>
            <trkpt lat="49.8572488" lon="7.9879011">
                <ele>111.0</ele>
                <name>Position 17</name>
            </trkpt>
            <trkpt lat="49.8571353" lon="7.9884328">
                <ele>112.0</ele>
                <name>Position 18</name>
            </trkpt>
            <trkpt lat="49.8570904" lon="7.9888972">
                <ele>115.0</ele>
                <name>Position 19</name>
            </trkpt>
            <trkpt lat="49.8570697" lon="7.9889518">
                <ele>115.0</ele>
                <name>Position 20</name>
            </trkpt>
            <trkpt lat="49.8570572" lon="7.9889806">
                <ele>115.0</ele>
                <name>Position 21</name>
            </trkpt>
            <trkpt lat="49.8570434" lon="7.9890113">
                <ele>115.0</ele>
                <name>Position 22</name>
            </trkpt>
            <trkpt lat="49.8570014" lon="7.9894038">
                <ele>116.0</ele>
                <name>Position 23</name>
            </trkpt>
            <trkpt lat="49.8570292" lon="7.9896044">
                <ele>117.0</ele>
                <name>Position 24</name>
            </trkpt>
            <trkpt lat="49.8571916" lon="7.9898976">
                <ele>118.0</ele>
                <name>Position 25</name>
            </trkpt>
            <trkpt lat="49.8573815" lon="7.9902868">
                <ele>118.0</ele>
                <name>Position 26</name>
            </trkpt>
            <trkpt lat="49.8573644" lon="7.9904933">
                <ele>118.0</ele>
                <name>Position 27</name>
            </trkpt>
            <trkpt lat="49.8572803" lon="7.9907311">
                <ele>118.0</ele>
                <name>Position 28</name>
            </trkpt>
            <trkpt lat="49.8572353" lon="7.9910775">
                <ele>118.0</ele>
                <name>Position 29</name>
            </trkpt>
            <trkpt lat="49.8571574" lon="7.9914098">
                <ele>118.0</ele>
                <name>Position 30</name>
            </trkpt>
            <trkpt lat="49.8569448" lon="7.9918281">
                <ele>119.0</ele>
                <name>Position 31</name>
            </trkpt>
            <trkpt lat="49.856751" lon="7.9923999">
                <ele>120.0</ele>
                <name>Position 32</name>
            </trkpt>
            <trkpt lat="49.8566079" lon="7.992871">
                <ele>120.0</ele>
                <name>Position 33</name>
            </trkpt>
            <trkpt lat="49.8565316" lon="7.9931515">
                <ele>120.8</ele>
                <name>Position 34</name>
            </trkpt>
            <trkpt lat="49.8565225" lon="7.9931707">
                <ele>120.8</ele>
                <name>Position 35</name>
            </trkpt>
            <trkpt lat="49.8564643" lon="7.9934502">
                <ele>122.0</ele>
                <name>Position 36</name>
            </trkpt>
            <trkpt lat="49.8564007" lon="7.9937228">
                <ele>123.0</ele>
                <name>Position 37</name>
            </trkpt>
            <trkpt lat="49.8563496" lon="7.9940142">
                <ele>124.0</ele>
                <name>Position 38</name>
            </trkpt>
            <trkpt lat="49.8562651" lon="7.9944017">
                <ele>125.0</ele>
                <name>Position 39</name>
            </trkpt>
            <trkpt lat="49.8561647" lon="7.9949071">
                <ele>127.0</ele>
                <name>Position 40</name>
            </trkpt>
            <trkpt lat="49.8560907" lon="7.9952661">
                <ele>129.0</ele>
                <name>Position 41</name>
            </trkpt>
            <trkpt lat="49.8559927" lon="7.9957933">
                <ele>132.0</ele>
                <name>Position 42</name>
            </trkpt>
            <trkpt lat="49.8558881" lon="7.9961955">
                <ele>134.0</ele>
                <name>Position 43</name>
            </trkpt>
            <trkpt lat="49.8558277" lon="7.9966302">
                <ele>137.0</ele>
                <name>Position 44</name>
            </trkpt>
            <trkpt lat="49.8557731" lon="7.9970576">
                <ele>139.0</ele>
                <name>Position 45</name>
            </trkpt>
            <trkpt lat="49.8557146" lon="7.9974337">
                <ele>140.0</ele>
                <name>Position 46</name>
            </trkpt>
            <trkpt lat="49.8556693" lon="7.99779">
                <ele>139.0</ele>
                <name>Position 47</name>
            </trkpt>
            <trkpt lat="49.8556068" lon="7.9982598">
                <ele>138.1</ele>
                <name>Position 48</name>
            </trkpt>
            <trkpt lat="49.8555721" lon="7.9985547">
                <ele>137.0</ele>
                <name>Position 49</name>
            </trkpt>
            <trkpt lat="49.8555203" lon="7.9988545">
                <ele>136.0</ele>
                <name>Position 50</name>
            </trkpt>
            <trkpt lat="49.8555083" lon="7.9989324">
                <ele>136.0</ele>
                <name>Position 51</name>
            </trkpt>
            <trkpt lat="49.8554509" lon="7.9992289">
                <ele>134.0</ele>
                <name>Position 52</name>
            </trkpt>
            <trkpt lat="49.855442" lon="7.9992694">
                <ele>134.0</ele>
                <name>Position 53</name>
            </trkpt>
            <trkpt lat="49.8553961" lon="7.99968">
                <ele>132.0</ele>
                <name>Position 54</name>
            </trkpt>
            <trkpt lat="49.8553461" lon="8.000072">
                <ele>130.0</ele>
                <name>Position 55</name>
            </trkpt>
            <trkpt lat="49.8553431" lon="8.0006154">
                <ele>130.0</ele>
                <name>Position 56</name>
            </trkpt>
            <trkpt lat="49.8554524" lon="8.0007873">
                <ele>130.4</ele>
                <name>Position 57</name>
            </trkpt>
            <trkpt lat="49.8556555" lon="8.0011112">
                <ele>130.0</ele>
                <name>Position 58</name>
            </trkpt>
            <trkpt lat="49.8557072" lon="8.0012274">
                <ele>130.0</ele>
                <name>Position 59</name>
            </trkpt>
            <trkpt lat="49.8557937" lon="8.0013606">
                <ele>130.0</ele>
                <name>Position 60</name>
            </trkpt>
            <trkpt lat="49.8559699" lon="8.0015954">
                <ele>131.0</ele>
                <name>Position 61</name>
            </trkpt>
            <trkpt lat="49.8561081" lon="8.0018212">
                <ele>132.0</ele>
                <name>Position 62</name>
            </trkpt>
            <trkpt lat="49.856269" lon="8.002074">
                <ele>134.0</ele>
                <name>Position 63</name>
            </trkpt>
            <trkpt lat="49.8564026" lon="8.0022584">
                <ele>134.0</ele>
                <name>Position 64</name>
            </trkpt>
            <trkpt lat="49.8565318" lon="8.002424">
                <ele>134.0</ele>
                <name>Position 65</name>
            </trkpt>
            <trkpt lat="49.8567372" lon="8.0027309">
                <ele>133.0</ele>
                <name>Position 66</name>
            </trkpt>
            <trkpt lat="49.8569071" lon="8.0030168">
                <ele>133.0</ele>
                <name>Position 67</name>
            </trkpt>
            <trkpt lat="49.8569254" lon="8.0030476">
                <ele>133.0</ele>
                <name>Position 68</name>
            </trkpt>
            <trkpt lat="49.856971" lon="8.0031785">
                <ele>132.0</ele>
                <name>Position 69</name>
            </trkpt>
            <trkpt lat="49.8571562" lon="8.0033962">
                <ele>132.0</ele>
                <name>Position 70</name>
            </trkpt>
            <trkpt lat="49.8573002" lon="8.0035809">
                <ele>132.0</ele>
                <name>Position 71</name>
            </trkpt>
            <trkpt lat="49.8574073" lon="8.0037145">
                <ele>133.0</ele>
                <name>Position 72</name>
            </trkpt>
            <trkpt lat="49.8574465" lon="8.0037714">
                <ele>133.0</ele>
                <name>Position 73</name>
            </trkpt>
            <trkpt lat="49.857586" lon="8.0040801">
                <ele>133.0</ele>
                <name>Position 74</name>
            </trkpt>
            <trkpt lat="49.8577076" lon="8.0043469">
                <ele>134.0</ele>
                <name>Position 75</name>
            </trkpt>
            <trkpt lat="49.8579988" lon="8.0047479">
                <ele>135.0</ele>
                <name>Position 76</name>
            </trkpt>
            <trkpt lat="49.8580568" lon="8.0048236">
                <ele>135.0</ele>
                <name>Position 77</name>
            </trkpt>
            <trkpt lat="49.8582911" lon="8.0049919">
                <ele>135.0</ele>
                <name>Position 78</name>
            </trkpt>
            <trkpt lat="49.8583597" lon="8.0052172">
                <ele>135.0</ele>
                <name>Position 79</name>
            </trkpt>
            <trkpt lat="49.8585044" lon="8.0054716">
                <ele>135.0</ele>
                <name>Position 80</name>
            </trkpt>
            <trkpt lat="49.8585138" lon="8.0054882">
                <ele>135.0</ele>
                <name>Position 81</name>
            </trkpt>
            <trkpt lat="49.8586114" lon="8.0056439">
                <ele>135.0</ele>
                <name>Position 82</name>
            </trkpt>
            <trkpt lat="49.8588671" lon="8.0060264">
                <ele>135.0</ele>
                <name>Position 83</name>
            </trkpt>
            <trkpt lat="49.8590293" lon="8.0062629">
                <ele>135.0</ele>
                <name>Position 84</name>
            </trkpt>
            <trkpt lat="49.8591707" lon="8.0065624">
                <ele>135.0</ele>
                <name>Position 85</name>
            </trkpt>
            <trkpt lat="49.8593038" lon="8.0067802">
                <ele>136.0</ele>
                <name>Position 86</name>
            </trkpt>
            <trkpt lat="49.8594694" lon="8.0070617">
                <ele>136.0</ele>
                <name>Position 87</name>
            </trkpt>
            <trkpt lat="49.8595295" lon="8.0071707">
                <ele>136.0</ele>
                <name>Position 88</name>
            </trkpt>
            <trkpt lat="49.8597329" lon="8.0074286">
                <ele>136.0</ele>
                <name>Position 89</name>
            </trkpt>
            <trkpt lat="49.859717" lon="8.0076843">
                <ele>136.0</ele>
                <name>Position 90</name>
            </trkpt>
            <trkpt lat="49.8595182" lon="8.008014">
                <ele>137.0</ele>
                <name>Position 91</name>
            </trkpt>
            <trkpt lat="49.8593908" lon="8.0082194">
                <ele>138.0</ele>
                <name>Position 92</name>
            </trkpt>
            <trkpt lat="49.8592865" lon="8.0083864">
                <ele>138.0</ele>
                <name>Position 93</name>
            </trkpt>
            <trkpt lat="49.8590908" lon="8.0087315">
                <ele>139.0</ele>
                <name>Position 94</name>
            </trkpt>
            <trkpt lat="49.8588942" lon="8.0089996">
                <ele>141.0</ele>
                <name>Position 95</name>
            </trkpt>
            <trkpt lat="49.8587991" lon="8.0092719">
                <ele>143.0</ele>
                <name>Position 96</name>
            </trkpt>
            <trkpt lat="49.8588706" lon="8.0095603">
                <ele>143.0</ele>
                <name>Position 97</name>
            </trkpt>
            <trkpt lat="49.8589964" lon="8.0098668">
                <ele>143.0</ele>
                <name>Position 98</name>
            </trkpt>
            <trkpt lat="49.859038" lon="8.0100104">
                <ele>143.0</ele>
                <name>Position 99</name>
            </trkpt>
            <trkpt lat="49.8590878" lon="8.0101541">
                <ele>143.0</ele>
                <name>Position 100</name>
            </trkpt>
            <trkpt lat="49.8591693" lon="8.0104648">
                <ele>144.3</ele>
                <name>Position 101</name>
            </trkpt>
            <trkpt lat="49.8590647" lon="8.0107143">
                <ele>146.0</ele>
                <name>Position 102</name>
            </trkpt>
            <trkpt lat="49.8589313" lon="8.0109635">
                <ele>148.2</ele>
                <name>Position 103</name>
            </trkpt>
            <trkpt lat="49.8588447" lon="8.0111391">
                <ele>150.0</ele>
                <name>Position 104</name>
            </trkpt>
            <trkpt lat="49.8587273" lon="8.0113645">
                <ele>152.0</ele>
                <name>Position 105</name>
            </trkpt>
            <trkpt lat="49.8586956" lon="8.0114515">
                <ele>153.0</ele>
                <name>Position 106</name>
            </trkpt>
            <trkpt lat="49.8586541" lon="8.0115759">
                <ele>154.0</ele>
                <name>Position 107</name>
            </trkpt>
            <trkpt lat="49.858557" lon="8.0118086">
                <ele>156.0</ele>
                <name>Position 108</name>
            </trkpt>
            <trkpt lat="49.8585296" lon="8.011897">
                <ele>157.0</ele>
                <name>Position 109</name>
            </trkpt>
            <trkpt lat="49.8583696" lon="8.012163">
                <ele>160.0</ele>
                <name>Position 110</name>
            </trkpt>
            <trkpt lat="49.8583348" lon="8.0123112">
                <ele>161.0</ele>
                <name>Position 111</name>
            </trkpt>
            <trkpt lat="49.8583096" lon="8.0125309">
                <ele>163.0</ele>
                <name>Position 112</name>
            </trkpt>
            <trkpt lat="49.8582598" lon="8.0126575">
                <ele>165.0</ele>
                <name>Position 113</name>
            </trkpt>
            <trkpt lat="49.8582123" lon="8.0126603">
                <ele>166.0</ele>
                <name>Position 114</name>
            </trkpt>
            <trkpt lat="49.8581877" lon="8.012696">
                <ele>167.0</ele>
                <name>Position 115</name>
            </trkpt>
            <trkpt lat="49.8581384" lon="8.0131235">
                <ele>171.0</ele>
                <name>Position 116</name>
            </trkpt>
            <trkpt lat="49.8581279" lon="8.0131434">
                <ele>171.0</ele>
                <name>Position 117</name>
            </trkpt>
            <trkpt lat="49.8581139" lon="8.0132384">
                <ele>172.0</ele>
                <name>Position 118</name>
            </trkpt>
            <trkpt lat="49.8580171" lon="8.0133615">
                <ele>174.0</ele>
                <name>Position 119</name>
            </trkpt>
            <trkpt lat="49.8579357" lon="8.0133328">
                <ele>175.0</ele>
                <name>Position 120</name>
            </trkpt>
            <trkpt lat="49.857858" lon="8.0132749">
                <ele>175.0</ele>
                <name>Position 121</name>
            </trkpt>
            <trkpt lat="49.8577903" lon="8.013116">
                <ele>175.0</ele>
                <name>Position 122</name>
            </trkpt>
            <trkpt lat="49.8576211" lon="8.0128561">
                <ele>176.0</ele>
                <name>Position 123</name>
            </trkpt>
            <trkpt lat="49.8574466" lon="8.0126588">
                <ele>177.0</ele>
                <name>Position 124</name>
            </trkpt>
            <trkpt lat="49.8572406" lon="8.0124728">
                <ele>178.0</ele>
                <name>Position 125</name>
            </trkpt>
            <trkpt lat="49.8570211" lon="8.0122576">
                <ele>179.0</ele>
                <name>Position 126</name>
            </trkpt>
            <trkpt lat="49.8569427" lon="8.0121182">
                <ele>179.4</ele>
                <name>Position 127</name>
            </trkpt>
            <trkpt lat="49.8568376" lon="8.011925">
                <ele>178.0</ele>
                <name>Position 128</name>
            </trkpt>
            <trkpt lat="49.8568147" lon="8.0118841">
                <ele>178.0</ele>
                <name>Position 129</name>
            </trkpt>
            <trkpt lat="49.8566887" lon="8.0115595">
                <ele>175.6</ele>
                <name>Position 130</name>
            </trkpt>
            <trkpt lat="49.8564483" lon="8.0110412">
                <ele>174.0</ele>
                <name>Position 131</name>
            </trkpt>
            <trkpt lat="49.8561535" lon="8.0105911">
                <ele>174.0</ele>
                <name>Position 132</name>
            </trkpt>
            <trkpt lat="49.8559281" lon="8.0102809">
                <ele>174.0</ele>
                <name>Position 133</name>
            </trkpt>
            <trkpt lat="49.8558106" lon="8.0099706">
                <ele>173.0</ele>
                <name>Position 134</name>
            </trkpt>
            <trkpt lat="49.8556621" lon="8.0096957">
                <ele>175.0</ele>
                <name>Position 135</name>
            </trkpt>
            <trkpt lat="49.8555502" lon="8.0094236">
                <ele>176.0</ele>
                <name>Position 136</name>
            </trkpt>
            <trkpt lat="49.8554503" lon="8.0091624">
                <ele>177.0</ele>
                <name>Position 137</name>
            </trkpt>
            <trkpt lat="49.8553261" lon="8.0089049">
                <ele>178.0</ele>
                <name>Position 138</name>
            </trkpt>
            <trkpt lat="49.8551807" lon="8.0085775">
                <ele>179.0</ele>
                <name>Position 139</name>
            </trkpt>
            <trkpt lat="49.8550965" lon="8.0083435">
                <ele>179.0</ele>
                <name>Position 140</name>
            </trkpt>
            <trkpt lat="49.8550437" lon="8.0079847">
                <ele>178.0</ele>
                <name>Position 141</name>
            </trkpt>
            <trkpt lat="49.8549938" lon="8.0076768">
                <ele>177.0</ele>
                <name>Position 142</name>
            </trkpt>
            <trkpt lat="49.8548981" lon="8.0075085">
                <ele>176.1</ele>
                <name>Position 143</name>
            </trkpt>
            <trkpt lat="49.8546454" lon="8.0074291">
                <ele>174.6</ele>
                <name>Position 144</name>
            </trkpt>
            <trkpt lat="49.8542532" lon="8.0072748">
                <ele>172.0</ele>
                <name>Position 145</name>
            </trkpt>
            <trkpt lat="49.8539518" lon="8.0070524">
                <ele>169.0</ele>
                <name>Position 146</name>
            </trkpt>
            <trkpt lat="49.8537197" lon="8.0069469">
                <ele>168.0</ele>
                <name>Position 147</name>
            </trkpt>
            <trkpt lat="49.8535897" lon="8.0068723">
                <ele>167.0</ele>
                <name>Position 148</name>
            </trkpt>
            <trkpt lat="49.8533935" lon="8.0068629">
                <ele>167.0</ele>
                <name>Position 149</name>
            </trkpt>
            <trkpt lat="49.8533409" lon="8.0068806">
                <ele>167.0</ele>
                <name>Position 150</name>
            </trkpt>
            <trkpt lat="49.8532303" lon="8.0068708">
                <ele>168.0</ele>
                <name>Position 151</name>
            </trkpt>
            <trkpt lat="49.853169" lon="8.0068941">
                <ele>169.0</ele>
                <name>Position 152</name>
            </trkpt>
            <trkpt lat="49.8528849" lon="8.006926">
                <ele>171.0</ele>
                <name>Position 153</name>
            </trkpt>
            <trkpt lat="49.8527712" lon="8.0069275">
                <ele>172.0</ele>
                <name>Position 154</name>
            </trkpt>
            <trkpt lat="49.8527371" lon="8.0069308">
                <ele>172.0</ele>
                <name>Position 155</name>
            </trkpt>
            <trkpt lat="49.8526815" lon="8.0068563">
                <ele>172.0</ele>
                <name>Position 156</name>
            </trkpt>
            <trkpt lat="49.852694" lon="8.0067559">
                <ele>171.0</ele>
                <name>Position 157</name>
            </trkpt>
            <trkpt lat="49.8526767" lon="8.0062447">
                <ele>165.0</ele>
                <name>Position 158</name>
            </trkpt>
            <trkpt lat="49.8528304" lon="8.0056581">
                <ele>158.0</ele>
                <name>Position 159</name>
            </trkpt>
            <trkpt lat="49.8528682" lon="8.0055231">
                <ele>156.0</ele>
                <name>Position 160</name>
            </trkpt>
            <trkpt lat="49.8529804" lon="8.0048407">
                <ele>151.1</ele>
                <name>Position 161</name>
            </trkpt>
            <trkpt lat="49.8530342" lon="8.0042873">
                <ele>147.0</ele>
                <name>Position 162</name>
            </trkpt>
            <trkpt lat="49.8528443" lon="8.0039931">
                <ele>147.0</ele>
                <name>Position 163</name>
            </trkpt>
            <trkpt lat="49.8524655" lon="8.0041037">
                <ele>149.0</ele>
                <name>Position 164</name>
            </trkpt>
            <trkpt lat="49.8520985" lon="8.00406">
                <ele>148.2</ele>
                <name>Position 165</name>
            </trkpt>
            <trkpt lat="49.8517684" lon="8.0038534">
                <ele>147.0</ele>
                <name>Position 166</name>
            </trkpt>
            <trkpt lat="49.8513421" lon="8.0036327">
                <ele>146.0</ele>
                <name>Position 167</name>
            </trkpt>
            <trkpt lat="49.8510951" lon="8.003276">
                <ele>143.0</ele>
                <name>Position 168</name>
            </trkpt>
            <trkpt lat="49.8509503" lon="8.0026801">
                <ele>140.0</ele>
                <name>Position 169</name>
            </trkpt>
            <trkpt lat="49.8507986" lon="8.0019842">
                <ele>135.0</ele>
                <name>Position 170</name>
            </trkpt>
            <trkpt lat="49.8506276" lon="8.0012215">
                <ele>131.0</ele>
                <name>Position 171</name>
            </trkpt>
            <trkpt lat="49.8504575" lon="8.0006467">
                <ele>128.0</ele>
                <name>Position 172</name>
            </trkpt>
            <trkpt lat="49.8501627" lon="8.0002767">
                <ele>127.0</ele>
                <name>Position 173</name>
            </trkpt>
            <trkpt lat="49.8498136" lon="7.9998817">
                <ele>126.0</ele>
                <name>Position 174</name>
            </trkpt>
            <trkpt lat="49.8494663" lon="7.9994818">
                <ele>126.0</ele>
                <name>Position 175</name>
            </trkpt>
            <trkpt lat="49.8491627" lon="7.9991249">
                <ele>125.0</ele>
                <name>Position 176</name>
            </trkpt>
            <trkpt lat="49.8488921" lon="7.9987931">
                <ele>124.0</ele>
                <name>Position 177</name>
            </trkpt>
            <trkpt lat="49.8486301" lon="7.9985137">
                <ele>124.0</ele>
                <name>Position 178</name>
            </trkpt>
            <trkpt lat="49.8483512" lon="7.9981893">
                <ele>124.0</ele>
                <name>Position 179</name>
            </trkpt>
            <trkpt lat="49.8479947" lon="7.997787">
                <ele>122.0</ele>
                <name>Position 180</name>
            </trkpt>
            <trkpt lat="49.8477" lon="7.9974403">
                <ele>122.0</ele>
                <name>Position 181</name>
            </trkpt>
            <trkpt lat="49.8476176" lon="7.9972218">
                <ele>121.0</ele>
                <name>Position 182</name>
            </trkpt>
            <trkpt lat="49.8478955" lon="7.9968714">
                <ele>119.0</ele>
                <name>Position 183</name>
            </trkpt>
            <trkpt lat="49.8482726" lon="7.9964908">
                <ele>116.0</ele>
                <name>Position 184</name>
            </trkpt>
            <trkpt lat="49.848496" lon="7.9962612">
                <ele>116.0</ele>
                <name>Position 185</name>
            </trkpt>
            <trkpt lat="49.8487864" lon="7.9959608">
                <ele>116.0</ele>
                <name>Position 186</name>
            </trkpt>
            <trkpt lat="49.8491411" lon="7.9956196">
                <ele>117.0</ele>
                <name>Position 187</name>
            </trkpt>
            <trkpt lat="49.8494632" lon="7.9952592">
                <ele>118.9</ele>
                <name>Position 188</name>
            </trkpt>
            <trkpt lat="49.8497587" lon="7.9949023">
                <ele>120.0</ele>
                <name>Position 189</name>
            </trkpt>
            <trkpt lat="49.8500501" lon="7.9945531">
                <ele>121.0</ele>
                <name>Position 190</name>
            </trkpt>
            <trkpt lat="49.8502156" lon="7.994378">
                <ele>121.0</ele>
                <name>Position 191</name>
            </trkpt>
            <trkpt lat="49.8505185" lon="7.9940942">
                <ele>121.0</ele>
                <name>Position 192</name>
            </trkpt>
            <trkpt lat="49.850754" lon="7.9938265">
                <ele>122.0</ele>
                <name>Position 193</name>
            </trkpt>
            <trkpt lat="49.8510734" lon="7.9934711">
                <ele>123.0</ele>
                <name>Position 194</name>
            </trkpt>
            <trkpt lat="49.8512793" lon="7.993248">
                <ele>123.0</ele>
                <name>Position 195</name>
            </trkpt>
            <trkpt lat="49.8513232" lon="7.9931938">
                <ele>123.0</ele>
                <name>Position 196</name>
            </trkpt>
            <trkpt lat="49.8516534" lon="7.9928788">
                <ele>123.0</ele>
                <name>Position 197</name>
            </trkpt>
            <trkpt lat="49.8520196" lon="7.9925223">
                <ele>122.0</ele>
                <name>Position 198</name>
            </trkpt>
            <trkpt lat="49.8524241" lon="7.9921647">
                <ele>121.0</ele>
                <name>Position 199</name>
            </trkpt>
            <trkpt lat="49.8528061" lon="7.9918401">
                <ele>119.0</ele>
                <name>Position 200</name>
            </trkpt>
            <trkpt lat="49.8531481" lon="7.9915213">
                <ele>118.0</ele>
                <name>Position 201</name>
            </trkpt>
            <trkpt lat="49.8534881" lon="7.9912382">
                <ele>116.0</ele>
                <name>Position 202</name>
            </trkpt>
            <trkpt lat="49.8537948" lon="7.9909737">
                <ele>115.0</ele>
                <name>Position 203</name>
            </trkpt>
            <trkpt lat="49.8541016" lon="7.9906338">
                <ele>115.0</ele>
                <name>Position 204</name>
            </trkpt>
            <trkpt lat="49.8543831" lon="7.9903533">
                <ele>115.0</ele>
                <name>Position 205</name>
            </trkpt>
            <trkpt lat="49.8547692" lon="7.9900271">
                <ele>115.0</ele>
                <name>Position 206</name>
            </trkpt>
            <trkpt lat="49.8551379" lon="7.9896675">
                <ele>114.0</ele>
                <name>Position 207</name>
            </trkpt>
            <trkpt lat="49.8554429" lon="7.9894097">
                <ele>115.0</ele>
                <name>Position 208</name>
            </trkpt>
            <trkpt lat="49.8557695" lon="7.9891118">
                <ele>116.0</ele>
                <name>Position 209</name>
            </trkpt>
            <trkpt lat="49.8557816" lon="7.9890865">
                <ele>116.0</ele>
                <name>Position 210</name>
            </trkpt>
            <trkpt lat="49.8557611" lon="7.9889871">
                <ele>116.0</ele>
                <name>Position 211</name>
            </trkpt>
            <trkpt lat="49.8558404" lon="7.988483">
                <ele>115.0</ele>
                <name>Position 212</name>
            </trkpt>
            <trkpt lat="49.8559797" lon="7.9879852">
                <ele>112.0</ele>
                <name>Position 213</name>
            </trkpt>
            <trkpt lat="49.8559874" lon="7.9879005">
                <ele>112.0</ele>
                <name>Position 214</name>
            </trkpt>
            <trkpt lat="49.855916" lon="7.9878144">
                <ele>111.0</ele>
                <name>Position 215</name>
            </trkpt>
            <trkpt lat="49.8555126" lon="7.9876147">
                <ele>110.0</ele>
                <name>Position 216</name>
            </trkpt>
            <trkpt lat="49.8551581" lon="7.987563">
                <ele>110.0</ele>
                <name>Position 217</name>
            </trkpt>
            <trkpt lat="49.8548964" lon="7.9874713">
                <ele>110.0</ele>
                <name>Position 218</name>
            </trkpt>
            <trkpt lat="49.8548709" lon="7.9873109">
                <ele>110.0</ele>
                <name>Position 219</name>
            </trkpt>
            <trkpt lat="49.855075" lon="7.9869831">
                <ele>111.0</ele>
                <name>Position 220</name>
            </trkpt>
            <trkpt lat="49.8551022" lon="7.9869469">
                <ele>111.0</ele>
                <name>Position 221</name>
            </trkpt>
            <trkpt lat="49.8550505" lon="7.9867814">
                <ele>111.0</ele>
                <name>Position 222</name>
            </trkpt>
            <trkpt lat="49.8550318" lon="7.9867352">
                <ele>111.0</ele>
                <name>Position 223</name>
            </trkpt>
            <trkpt lat="49.8550247" lon="7.9867228">
                <ele>111.0</ele>
                <name>Position 224</name>
            </trkpt>
            <trkpt lat="49.8550105" lon="7.9867055">
                <ele>111.0</ele>
                <name>Position 225</name>
            </trkpt>
            <trkpt lat="49.8548711" lon="7.9865102">
                <ele>111.0</ele>
                <name>Position 226</name>
            </trkpt>
            <trkpt lat="49.8547859" lon="7.9860676">
                <ele>110.0</ele>
                <name>Position 227</name>
            </trkpt>
            <trkpt lat="49.8544782" lon="7.9859601">
                <ele>109.0</ele>
                <name>Position 228</name>
            </trkpt>
            <trkpt lat="49.8543392" lon="7.9859437">
                <ele>108.0</ele>
                <name>Position 229</name>
            </trkpt>
            <trkpt lat="49.8543574" lon="7.9857682">
                <ele>108.0</ele>
                <name>Position 230</name>
            </trkpt>
            <trkpt lat="49.8546405" lon="7.9852513">
                <ele>109.0</ele>
                <name>Position 231</name>
            </trkpt>
            <trkpt lat="49.8547729" lon="7.9849751">
                <ele>110.0</ele>
                <name>Position 232</name>
            </trkpt>
            <trkpt lat="49.8548025" lon="7.9846889">
                <ele>111.0</ele>
                <name>Position 233</name>
            </trkpt>
            <trkpt lat="49.8548013" lon="7.9846531">
                <ele>111.0</ele>
                <name>Position 234</name>
            </trkpt>
        </trkseg>
    </trk>
</gpx>
