<?xml version="1.0" encoding="UTF-8" standalone="yes"?>
<gpx version="1.1" creator="outdooractive - http://www.outdooractive.com" xmlns="http://www.topografix.com/GPX/1/1" xmlns:xsi="http://www.w3.org/2001/XMLSchema-instance" xsi:schemaLocation="http://www.topografix.com/GPX/1/1 http://www.topografix.com/GPX/1/1/gpx.xsd" xmlns:oa="http://www.outdooractive.com/GPX/Extensions/1">
  <metadata>
    <name>Druidensteinschleife</name>
    <author>
      <name>Sven Wolff (TI Kirchen (Sieg)) - Westerwald Touristik-Service</name>
    </author>
    <link href="https://www.outdooractive.com/r/61971673"/>
    <time>2021-10-21T02:27:24.921</time>
    <extensions>
      <oa:oaCategory>hikingTourTrail</oa:oaCategory>
    </extensions>
  </metadata>
  <trk>
    <name>Druidensteinschleife</name>
    <type>hikingTourTrail</type>
    <trkseg>
      <trkpt lat="50.806531" lon="7.879585">
        <ele>192.3</ele>
        <name>50.806531,7.879585</name>
        <extensions>
          <oa:mapZoom>17</oa:mapZoom>
        </extensions>
      </trkpt>
      <trkpt lat="50.806556" lon="7.879527">
        <ele>192.3</ele>
      </trkpt>
      <trkpt lat="50.806726" lon="7.879144">
        <ele>192.3</ele>
      </trkpt>
      <trkpt lat="50.806896" lon="7.87876">
        <ele>192.0</ele>
      </trkpt>
      <trkpt lat="50.80699" lon="7.878584">
        <ele>191.9</ele>
      </trkpt>
      <trkpt lat="50.807168" lon="7.878318">
        <ele>191.8</ele>
      </trkpt>
      <trkpt lat="50.807407" lon="7.878183">
        <ele>191.2</ele>
      </trkpt>
      <trkpt lat="50.807519" lon="7.878108">
        <ele>190.3</ele>
      </trkpt>
      <trkpt lat="50.807646" lon="7.87807">
        <ele>189.4</ele>
      </trkpt>
      <trkpt lat="50.808057" lon="7.878029">
        <ele>186.7</ele>
      </trkpt>
      <trkpt lat="50.808199" lon="7.878056">
        <ele>186.5</ele>
      </trkpt>
      <trkpt lat="50.80829" lon="7.878082">
        <ele>186.5</ele>
      </trkpt>
      <trkpt lat="50.808409" lon="7.87814">
        <ele>186.6</ele>
      </trkpt>
      <trkpt lat="50.808474" lon="7.878218">
        <ele>186.9</ele>
      </trkpt>
      <trkpt lat="50.808515" lon="7.878266">
        <ele>187.1</ele>
      </trkpt>
      <trkpt lat="50.808633" lon="7.878497">
        <ele>190.0</ele>
      </trkpt>
      <trkpt lat="50.808704" lon="7.878643">
        <ele>191.4</ele>
      </trkpt>
      <trkpt lat="50.808739" lon="7.878716">
        <ele>191.4</ele>
      </trkpt>
      <trkpt lat="50.808758" lon="7.878773">
        <ele>191.2</ele>
      </trkpt>
      <trkpt lat="50.808844" lon="7.879018">
        <ele>190.8</ele>
      </trkpt>
      <trkpt lat="50.808976" lon="7.879577">
        <ele>195.7</ele>
      </trkpt>
      <trkpt lat="50.809036" lon="7.879761">
        <ele>196.4</ele>
      </trkpt>
      <trkpt lat="50.809113" lon="7.879952">
        <ele>196.4</ele>
      </trkpt>
      <trkpt lat="50.8092" lon="7.880119">
        <ele>195.4</ele>
      </trkpt>
      <trkpt lat="50.809292" lon="7.88023">
        <ele>193.0</ele>
      </trkpt>
      <trkpt lat="50.809386" lon="7.880338">
        <ele>189.6</ele>
      </trkpt>
      <trkpt lat="50.809469" lon="7.880241">
        <ele>187.2</ele>
      </trkpt>
      <trkpt lat="50.80953" lon="7.880181">
        <ele>187.1</ele>
      </trkpt>
      <trkpt lat="50.809607" lon="7.880106">
        <ele>187.1</ele>
      </trkpt>
      <trkpt lat="50.809692" lon="7.880013">
        <ele>187.1</ele>
      </trkpt>
      <trkpt lat="50.80976" lon="7.879938">
        <ele>187.0</ele>
      </trkpt>
      <trkpt lat="50.809818" lon="7.879894">
        <ele>187.5</ele>
      </trkpt>
      <trkpt lat="50.809996" lon="7.880275">
        <ele>187.8</ele>
      </trkpt>
      <trkpt lat="50.810174" lon="7.880655">
        <ele>187.9</ele>
      </trkpt>
      <trkpt lat="50.810121" lon="7.880784">
        <ele>187.5</ele>
      </trkpt>
      <trkpt lat="50.810269" lon="7.881228">
        <ele>187.2</ele>
      </trkpt>
      <trkpt lat="50.810401" lon="7.881529">
        <ele>187.2</ele>
      </trkpt>
      <trkpt lat="50.810534" lon="7.88183">
        <ele>187.2</ele>
      </trkpt>
      <trkpt lat="50.810583" lon="7.881912">
        <ele>187.2</ele>
      </trkpt>
      <trkpt lat="50.81069" lon="7.882093">
        <ele>187.3</ele>
      </trkpt>
      <trkpt lat="50.810911" lon="7.882402">
        <ele>187.5</ele>
      </trkpt>
      <trkpt lat="50.811047" lon="7.882543">
        <ele>187.6</ele>
      </trkpt>
      <trkpt lat="50.811205" lon="7.882687">
        <ele>187.7</ele>
      </trkpt>
      <trkpt lat="50.811319" lon="7.882814">
        <ele>187.7</ele>
      </trkpt>
      <trkpt lat="50.811438" lon="7.882939">
        <ele>187.7</ele>
      </trkpt>
      <trkpt lat="50.811642" lon="7.883128">
        <ele>187.8</ele>
      </trkpt>
      <trkpt lat="50.811846" lon="7.883317">
        <ele>187.8</ele>
      </trkpt>
      <trkpt lat="50.81212" lon="7.883548">
        <ele>187.9</ele>
      </trkpt>
      <trkpt lat="50.812394" lon="7.883779">
        <ele>187.8</ele>
      </trkpt>
      <trkpt lat="50.812643" lon="7.883963">
        <ele>187.8</ele>
      </trkpt>
      <trkpt lat="50.812814" lon="7.884047">
        <ele>187.8</ele>
      </trkpt>
      <trkpt lat="50.812869" lon="7.884066">
        <ele>187.9</ele>
      </trkpt>
      <trkpt lat="50.812961" lon="7.884085">
        <ele>187.9</ele>
      </trkpt>
      <trkpt lat="50.812995" lon="7.884039">
        <ele>187.9</ele>
      </trkpt>
      <trkpt lat="50.812995" lon="7.884039">
        <ele>187.9</ele>
        <name>50.812995,7.884039</name>
        <extensions>
          <oa:mapZoom>17</oa:mapZoom>
        </extensions>
      </trkpt>
      <trkpt lat="50.813085" lon="7.883914">
        <ele>187.9</ele>
      </trkpt>
      <trkpt lat="50.813275" lon="7.883458">
        <ele>188.0</ele>
      </trkpt>
      <trkpt lat="50.813465" lon="7.883001">
        <ele>188.1</ele>
      </trkpt>
      <trkpt lat="50.813749" lon="7.883319">
        <ele>188.1</ele>
      </trkpt>
      <trkpt lat="50.813809" lon="7.883372">
        <ele>188.1</ele>
      </trkpt>
      <trkpt lat="50.813869" lon="7.883399">
        <ele>188.0</ele>
      </trkpt>
      <trkpt lat="50.813911" lon="7.883396">
        <ele>188.0</ele>
      </trkpt>
      <trkpt lat="50.813957" lon="7.883343">
        <ele>188.0</ele>
      </trkpt>
      <trkpt lat="50.813996" lon="7.883426">
        <ele>188.0</ele>
      </trkpt>
      <trkpt lat="50.814008" lon="7.883452">
        <ele>188.0</ele>
      </trkpt>
      <trkpt lat="50.814091" lon="7.883683">
        <ele>188.0</ele>
      </trkpt>
      <trkpt lat="50.814131" lon="7.883799">
        <ele>188.0</ele>
      </trkpt>
      <trkpt lat="50.81416" lon="7.883878">
        <ele>188.0</ele>
      </trkpt>
      <trkpt lat="50.814239" lon="7.884091">
        <ele>188.0</ele>
      </trkpt>
      <trkpt lat="50.814326" lon="7.884433">
        <ele>188.4</ele>
      </trkpt>
      <trkpt lat="50.814434" lon="7.884894">
        <ele>189.1</ele>
      </trkpt>
      <trkpt lat="50.814542" lon="7.885355">
        <ele>193.3</ele>
      </trkpt>
      <trkpt lat="50.81465" lon="7.88542">
        <ele>194.5</ele>
      </trkpt>
      <trkpt lat="50.814901" lon="7.885517">
        <ele>195.9</ele>
      </trkpt>
      <trkpt lat="50.815254" lon="7.885629">
        <ele>197.5</ele>
      </trkpt>
      <trkpt lat="50.81529" lon="7.885642">
        <ele>197.7</ele>
      </trkpt>
      <trkpt lat="50.815575" lon="7.885651">
        <ele>197.5</ele>
      </trkpt>
      <trkpt lat="50.815771" lon="7.885636">
        <ele>196.6</ele>
      </trkpt>
      <trkpt lat="50.815938" lon="7.885615">
        <ele>195.7</ele>
      </trkpt>
      <trkpt lat="50.816147" lon="7.88556">
        <ele>194.7</ele>
      </trkpt>
      <trkpt lat="50.816394" lon="7.885472">
        <ele>193.9</ele>
      </trkpt>
      <trkpt lat="50.816463" lon="7.885445">
        <ele>193.7</ele>
      </trkpt>
      <trkpt lat="50.816757" lon="7.885216">
        <ele>191.8</ele>
      </trkpt>
      <trkpt lat="50.816854" lon="7.885129">
        <ele>191.5</ele>
      </trkpt>
      <trkpt lat="50.816896" lon="7.885091">
        <ele>191.4</ele>
      </trkpt>
      <trkpt lat="50.816981" lon="7.884998">
        <ele>191.2</ele>
      </trkpt>
      <trkpt lat="50.817047" lon="7.885068">
        <ele>191.8</ele>
      </trkpt>
      <trkpt lat="50.817047" lon="7.885068">
        <ele>191.8</ele>
        <name>50.817047,7.885068</name>
        <extensions>
          <oa:mapZoom>17</oa:mapZoom>
        </extensions>
      </trkpt>
      <trkpt lat="50.817057" lon="7.885078">
        <ele>191.9</ele>
      </trkpt>
      <trkpt lat="50.817111" lon="7.885081">
        <ele>192.3</ele>
      </trkpt>
      <trkpt lat="50.817343" lon="7.884922">
        <ele>192.8</ele>
      </trkpt>
      <trkpt lat="50.817472" lon="7.884817">
        <ele>193.0</ele>
      </trkpt>
      <trkpt lat="50.81752" lon="7.884775">
        <ele>193.0</ele>
      </trkpt>
      <trkpt lat="50.817606" lon="7.884707">
        <ele>193.1</ele>
      </trkpt>
      <trkpt lat="50.817983" lon="7.884383">
        <ele>193.2</ele>
      </trkpt>
      <trkpt lat="50.818231" lon="7.884131">
        <ele>192.8</ele>
      </trkpt>
      <trkpt lat="50.818405" lon="7.883988">
        <ele>193.0</ele>
      </trkpt>
      <trkpt lat="50.818783" lon="7.883611">
        <ele>192.5</ele>
      </trkpt>
      <trkpt lat="50.819161" lon="7.883235">
        <ele>193.1</ele>
      </trkpt>
      <trkpt lat="50.819538" lon="7.882858">
        <ele>194.5</ele>
      </trkpt>
      <trkpt lat="50.819916" lon="7.882481">
        <ele>196.3</ele>
      </trkpt>
      <trkpt lat="50.820109" lon="7.88219">
        <ele>195.6</ele>
      </trkpt>
      <trkpt lat="50.820301" lon="7.881899">
        <ele>195.1</ele>
      </trkpt>
      <trkpt lat="50.820443" lon="7.881683">
        <ele>194.7</ele>
      </trkpt>
      <trkpt lat="50.820457" lon="7.881583">
        <ele>193.7</ele>
      </trkpt>
      <trkpt lat="50.820493" lon="7.881452">
        <ele>192.9</ele>
      </trkpt>
      <trkpt lat="50.82056" lon="7.881346">
        <ele>192.8</ele>
      </trkpt>
      <trkpt lat="50.82076" lon="7.881156">
        <ele>193.0</ele>
      </trkpt>
      <trkpt lat="50.820847" lon="7.881097">
        <ele>193.3</ele>
      </trkpt>
      <trkpt lat="50.820876" lon="7.881064">
        <ele>193.3</ele>
      </trkpt>
      <trkpt lat="50.820895" lon="7.880994">
        <ele>192.7</ele>
      </trkpt>
      <trkpt lat="50.8209" lon="7.880905">
        <ele>191.9</ele>
      </trkpt>
      <trkpt lat="50.820923" lon="7.880756">
        <ele>191.2</ele>
      </trkpt>
      <trkpt lat="50.820964" lon="7.880641">
        <ele>191.0</ele>
      </trkpt>
      <trkpt lat="50.821037" lon="7.880645">
        <ele>191.2</ele>
      </trkpt>
      <trkpt lat="50.821089" lon="7.880632">
        <ele>191.3</ele>
      </trkpt>
      <trkpt lat="50.821139" lon="7.880603">
        <ele>191.4</ele>
      </trkpt>
      <trkpt lat="50.821281" lon="7.880483">
        <ele>191.4</ele>
      </trkpt>
      <trkpt lat="50.821342" lon="7.880448">
        <ele>191.5</ele>
      </trkpt>
      <trkpt lat="50.821569" lon="7.880315">
        <ele>191.9</ele>
      </trkpt>
      <trkpt lat="50.821796" lon="7.880182">
        <ele>192.2</ele>
      </trkpt>
      <trkpt lat="50.822108" lon="7.87993">
        <ele>191.4</ele>
      </trkpt>
      <trkpt lat="50.822108" lon="7.87993">
        <ele>191.4</ele>
        <name>50.822108,7.879930</name>
        <extensions>
          <oa:mapZoom>17</oa:mapZoom>
        </extensions>
      </trkpt>
      <trkpt lat="50.822119" lon="7.879921">
        <ele>191.4</ele>
      </trkpt>
      <trkpt lat="50.822138" lon="7.880007">
        <ele>191.8</ele>
      </trkpt>
      <trkpt lat="50.822154" lon="7.880084">
        <ele>192.4</ele>
      </trkpt>
      <trkpt lat="50.822159" lon="7.880123">
        <ele>192.8</ele>
      </trkpt>
      <trkpt lat="50.822167" lon="7.880183">
        <ele>193.4</ele>
      </trkpt>
      <trkpt lat="50.82215" lon="7.880268">
        <ele>194.4</ele>
      </trkpt>
      <trkpt lat="50.82209" lon="7.880373">
        <ele>195.6</ele>
      </trkpt>
      <trkpt lat="50.822057" lon="7.880416">
        <ele>196.0</ele>
      </trkpt>
      <trkpt lat="50.821826" lon="7.880709">
        <ele>199.0</ele>
      </trkpt>
      <trkpt lat="50.821684" lon="7.880858">
        <ele>200.2</ele>
      </trkpt>
      <trkpt lat="50.821527" lon="7.881049">
        <ele>201.0</ele>
      </trkpt>
      <trkpt lat="50.821359" lon="7.88121">
        <ele>201.0</ele>
      </trkpt>
      <trkpt lat="50.821343" lon="7.881447">
        <ele>202.6</ele>
      </trkpt>
      <trkpt lat="50.821341" lon="7.881977">
        <ele>208.3</ele>
      </trkpt>
      <trkpt lat="50.821295" lon="7.882093">
        <ele>209.9</ele>
      </trkpt>
      <trkpt lat="50.821133" lon="7.882358">
        <ele>213.6</ele>
      </trkpt>
      <trkpt lat="50.821042" lon="7.882499">
        <ele>215.6</ele>
      </trkpt>
      <trkpt lat="50.820896" lon="7.882728">
        <ele>218.8</ele>
      </trkpt>
      <trkpt lat="50.820656" lon="7.883052">
        <ele>223.3</ele>
      </trkpt>
      <trkpt lat="50.820432" lon="7.883298">
        <ele>225.4</ele>
      </trkpt>
      <trkpt lat="50.820209" lon="7.883543">
        <ele>226.0</ele>
      </trkpt>
      <trkpt lat="50.819919" lon="7.883894">
        <ele>227.2</ele>
      </trkpt>
      <trkpt lat="50.819653" lon="7.884219">
        <ele>228.2</ele>
      </trkpt>
      <trkpt lat="50.819386" lon="7.884544">
        <ele>229.1</ele>
      </trkpt>
      <trkpt lat="50.819157" lon="7.884802">
        <ele>229.8</ele>
      </trkpt>
      <trkpt lat="50.818929" lon="7.885061">
        <ele>230.1</ele>
      </trkpt>
      <trkpt lat="50.818722" lon="7.885294">
        <ele>230.4</ele>
      </trkpt>
      <trkpt lat="50.818443" lon="7.885569">
        <ele>230.6</ele>
      </trkpt>
      <trkpt lat="50.818163" lon="7.885844">
        <ele>230.7</ele>
      </trkpt>
      <trkpt lat="50.817927" lon="7.886003">
        <ele>230.6</ele>
      </trkpt>
      <trkpt lat="50.81769" lon="7.886161">
        <ele>231.1</ele>
      </trkpt>
      <trkpt lat="50.817443" lon="7.88631">
        <ele>232.8</ele>
      </trkpt>
      <trkpt lat="50.817199" lon="7.886495">
        <ele>234.9</ele>
      </trkpt>
      <trkpt lat="50.81719" lon="7.886502">
        <ele>234.9</ele>
      </trkpt>
      <trkpt lat="50.816991" lon="7.886663">
        <ele>236.6</ele>
      </trkpt>
      <trkpt lat="50.81685" lon="7.886815">
        <ele>237.9</ele>
      </trkpt>
      <trkpt lat="50.816649" lon="7.887006">
        <ele>239.9</ele>
      </trkpt>
      <trkpt lat="50.816342" lon="7.887149">
        <ele>243.1</ele>
      </trkpt>
      <trkpt lat="50.815954" lon="7.887364">
        <ele>247.5</ele>
      </trkpt>
      <trkpt lat="50.815565" lon="7.887579">
        <ele>251.5</ele>
      </trkpt>
      <trkpt lat="50.815287" lon="7.887743">
        <ele>253.5</ele>
      </trkpt>
      <trkpt lat="50.815097" lon="7.887848">
        <ele>254.8</ele>
      </trkpt>
      <trkpt lat="50.814833" lon="7.888006">
        <ele>259.0</ele>
      </trkpt>
      <trkpt lat="50.814568" lon="7.888164">
        <ele>262.9</ele>
      </trkpt>
      <trkpt lat="50.814439" lon="7.888219">
        <ele>264.3</ele>
      </trkpt>
      <trkpt lat="50.814183" lon="7.888276">
        <ele>266.1</ele>
      </trkpt>
      <trkpt lat="50.814273" lon="7.888576">
        <ele>266.1</ele>
      </trkpt>
      <trkpt lat="50.81437" lon="7.888946">
        <ele>265.9</ele>
      </trkpt>
      <trkpt lat="50.814463" lon="7.889399">
        <ele>264.4</ele>
      </trkpt>
      <trkpt lat="50.814471" lon="7.889423">
        <ele>264.2</ele>
      </trkpt>
      <trkpt lat="50.814471" lon="7.889423">
        <ele>264.2</ele>
        <name>50.814471,7.889423</name>
        <extensions>
          <oa:mapZoom>17</oa:mapZoom>
        </extensions>
      </trkpt>
      <trkpt lat="50.814463" lon="7.889399">
        <ele>264.4</ele>
      </trkpt>
      <trkpt lat="50.814251" lon="7.889986">
        <ele>264.2</ele>
      </trkpt>
      <trkpt lat="50.814039" lon="7.890574">
        <ele>264.0</ele>
      </trkpt>
      <trkpt lat="50.813976" lon="7.890772">
        <ele>263.7</ele>
      </trkpt>
      <trkpt lat="50.813789" lon="7.891353">
        <ele>263.0</ele>
      </trkpt>
      <trkpt lat="50.813687" lon="7.89165">
        <ele>263.0</ele>
      </trkpt>
      <trkpt lat="50.813599" lon="7.892205">
        <ele>262.0</ele>
      </trkpt>
      <trkpt lat="50.813511" lon="7.89276">
        <ele>262.2</ele>
      </trkpt>
      <trkpt lat="50.813464" lon="7.893326">
        <ele>261.2</ele>
      </trkpt>
      <trkpt lat="50.813417" lon="7.893892">
        <ele>259.5</ele>
      </trkpt>
      <trkpt lat="50.813377" lon="7.894299">
        <ele>258.2</ele>
      </trkpt>
      <trkpt lat="50.813337" lon="7.894705">
        <ele>256.4</ele>
      </trkpt>
      <trkpt lat="50.813201" lon="7.895167">
        <ele>255.5</ele>
      </trkpt>
      <trkpt lat="50.813165" lon="7.895275">
        <ele>255.3</ele>
      </trkpt>
      <trkpt lat="50.813025" lon="7.895591">
        <ele>255.0</ele>
      </trkpt>
      <trkpt lat="50.812886" lon="7.895908">
        <ele>255.3</ele>
      </trkpt>
      <trkpt lat="50.812802" lon="7.896217">
        <ele>254.3</ele>
      </trkpt>
      <trkpt lat="50.812736" lon="7.896737">
        <ele>251.1</ele>
      </trkpt>
      <trkpt lat="50.812638" lon="7.896919">
        <ele>251.5</ele>
      </trkpt>
      <trkpt lat="50.812307" lon="7.897213">
        <ele>255.8</ele>
      </trkpt>
      <trkpt lat="50.812226" lon="7.897234">
        <ele>257.8</ele>
      </trkpt>
      <trkpt lat="50.812158" lon="7.897239">
        <ele>259.7</ele>
      </trkpt>
      <trkpt lat="50.812222" lon="7.897066">
        <ele>260.0</ele>
      </trkpt>
      <trkpt lat="50.812243" lon="7.896901">
        <ele>261.7</ele>
      </trkpt>
      <trkpt lat="50.812237" lon="7.896734">
        <ele>264.0</ele>
      </trkpt>
      <trkpt lat="50.812191" lon="7.896575">
        <ele>266.3</ele>
      </trkpt>
      <trkpt lat="50.812143" lon="7.896463">
        <ele>267.8</ele>
      </trkpt>
      <trkpt lat="50.811951" lon="7.896038">
        <ele>273.4</ele>
      </trkpt>
      <trkpt lat="50.811861" lon="7.895885">
        <ele>275.3</ele>
      </trkpt>
      <trkpt lat="50.811746" lon="7.895698">
        <ele>277.5</ele>
      </trkpt>
      <trkpt lat="50.811664" lon="7.895608">
        <ele>278.8</ele>
      </trkpt>
      <trkpt lat="50.811378" lon="7.895945">
        <ele>281.7</ele>
      </trkpt>
      <trkpt lat="50.811092" lon="7.896283">
        <ele>285.4</ele>
      </trkpt>
      <trkpt lat="50.810806" lon="7.89662">
        <ele>288.8</ele>
      </trkpt>
      <trkpt lat="50.81072" lon="7.896717">
        <ele>289.8</ele>
      </trkpt>
      <trkpt lat="50.810566" lon="7.896899">
        <ele>292.4</ele>
      </trkpt>
      <trkpt lat="50.810542" lon="7.897021">
        <ele>293.1</ele>
      </trkpt>
      <trkpt lat="50.810529" lon="7.897115">
        <ele>293.5</ele>
      </trkpt>
      <trkpt lat="50.81053" lon="7.897483">
        <ele>294.1</ele>
      </trkpt>
      <trkpt lat="50.810381" lon="7.897113">
        <ele>296.7</ele>
      </trkpt>
      <trkpt lat="50.810381" lon="7.897113">
        <ele>296.7</ele>
        <name>50.810381,7.897113</name>
        <extensions>
          <oa:mapZoom>17</oa:mapZoom>
        </extensions>
      </trkpt>
      <trkpt lat="50.810377" lon="7.897102">
        <ele>296.7</ele>
      </trkpt>
      <trkpt lat="50.810193" lon="7.896622">
        <ele>298.2</ele>
      </trkpt>
      <trkpt lat="50.81001" lon="7.896141">
        <ele>298.2</ele>
      </trkpt>
      <trkpt lat="50.809827" lon="7.895661">
        <ele>296.8</ele>
      </trkpt>
      <trkpt lat="50.809632" lon="7.895969">
        <ele>301.8</ele>
      </trkpt>
      <trkpt lat="50.809639" lon="7.896371">
        <ele>305.0</ele>
      </trkpt>
      <trkpt lat="50.80961" lon="7.896894">
        <ele>309.7</ele>
      </trkpt>
      <trkpt lat="50.809557" lon="7.897358">
        <ele>313.8</ele>
      </trkpt>
      <trkpt lat="50.809505" lon="7.897821">
        <ele>317.2</ele>
      </trkpt>
      <trkpt lat="50.809436" lon="7.898335">
        <ele>320.1</ele>
      </trkpt>
      <trkpt lat="50.809367" lon="7.898848">
        <ele>321.9</ele>
      </trkpt>
      <trkpt lat="50.809343" lon="7.898855">
        <ele>322.4</ele>
      </trkpt>
      <trkpt lat="50.809316" lon="7.899218">
        <ele>322.7</ele>
      </trkpt>
      <trkpt lat="50.809289" lon="7.89958">
        <ele>322.4</ele>
      </trkpt>
      <trkpt lat="50.809225" lon="7.900137">
        <ele>321.6</ele>
      </trkpt>
      <trkpt lat="50.809185" lon="7.900405">
        <ele>321.4</ele>
      </trkpt>
      <trkpt lat="50.809117" lon="7.900659">
        <ele>322.1</ele>
      </trkpt>
      <trkpt lat="50.808994" lon="7.900991">
        <ele>323.8</ele>
      </trkpt>
      <trkpt lat="50.808873" lon="7.901319">
        <ele>325.3</ele>
      </trkpt>
      <trkpt lat="50.808773" lon="7.901694">
        <ele>325.7</ele>
      </trkpt>
      <trkpt lat="50.808639" lon="7.902357">
        <ele>324.7</ele>
      </trkpt>
      <trkpt lat="50.80859" lon="7.902621">
        <ele>323.9</ele>
      </trkpt>
      <trkpt lat="50.808518" lon="7.902844">
        <ele>324.0</ele>
      </trkpt>
      <trkpt lat="50.808413" lon="7.903017">
        <ele>325.5</ele>
      </trkpt>
      <trkpt lat="50.80827" lon="7.903181">
        <ele>328.2</ele>
      </trkpt>
      <trkpt lat="50.808153" lon="7.903256">
        <ele>330.9</ele>
      </trkpt>
      <trkpt lat="50.808026" lon="7.90326">
        <ele>334.5</ele>
      </trkpt>
      <trkpt lat="50.807888" lon="7.903221">
        <ele>338.9</ele>
      </trkpt>
      <trkpt lat="50.807757" lon="7.903261">
        <ele>342.5</ele>
      </trkpt>
      <trkpt lat="50.807699" lon="7.903248">
        <ele>344.3</ele>
      </trkpt>
      <trkpt lat="50.807546" lon="7.903161">
        <ele>349.4</ele>
      </trkpt>
      <trkpt lat="50.807386" lon="7.903043">
        <ele>354.9</ele>
      </trkpt>
      <trkpt lat="50.807262" lon="7.902989">
        <ele>358.8</ele>
      </trkpt>
      <trkpt lat="50.807262" lon="7.902989">
        <ele>358.8</ele>
        <name>50.807262,7.902989</name>
        <extensions>
          <oa:mapZoom>17</oa:mapZoom>
        </extensions>
      </trkpt>
      <trkpt lat="50.807257" lon="7.902987">
        <ele>359.0</ele>
      </trkpt>
      <trkpt lat="50.807251" lon="7.902885">
        <ele>359.7</ele>
      </trkpt>
      <trkpt lat="50.807202" lon="7.902447">
        <ele>362.3</ele>
      </trkpt>
      <trkpt lat="50.807153" lon="7.90201">
        <ele>363.6</ele>
      </trkpt>
      <trkpt lat="50.807034" lon="7.901535">
        <ele>365.7</ele>
      </trkpt>
      <trkpt lat="50.806916" lon="7.90106">
        <ele>366.9</ele>
      </trkpt>
      <trkpt lat="50.806751" lon="7.900646">
        <ele>368.4</ele>
      </trkpt>
      <trkpt lat="50.806586" lon="7.900232">
        <ele>369.3</ele>
      </trkpt>
      <trkpt lat="50.806552" lon="7.900147">
        <ele>369.5</ele>
      </trkpt>
      <trkpt lat="50.806346" lon="7.899708">
        <ele>370.5</ele>
      </trkpt>
      <trkpt lat="50.806139" lon="7.89927">
        <ele>371.2</ele>
      </trkpt>
      <trkpt lat="50.805932" lon="7.898831">
        <ele>371.6</ele>
      </trkpt>
      <trkpt lat="50.805759" lon="7.899025">
        <ele>375.5</ele>
      </trkpt>
      <trkpt lat="50.805582" lon="7.899276">
        <ele>379.3</ele>
      </trkpt>
      <trkpt lat="50.805582" lon="7.899276">
        <ele>379.3</ele>
        <name>50.805582,7.899276</name>
        <extensions>
          <oa:mapZoom>17</oa:mapZoom>
        </extensions>
      </trkpt>
      <trkpt lat="50.805464" lon="7.899444">
        <ele>381.9</ele>
      </trkpt>
      <trkpt lat="50.805168" lon="7.899864">
        <ele>387.4</ele>
      </trkpt>
      <trkpt lat="50.80513" lon="7.899908">
        <ele>387.9</ele>
      </trkpt>
      <trkpt lat="50.805019" lon="7.900135">
        <ele>389.2</ele>
      </trkpt>
      <trkpt lat="50.805028" lon="7.900241">
        <ele>389.8</ele>
      </trkpt>
      <trkpt lat="50.805113" lon="7.900359">
        <ele>390.5</ele>
      </trkpt>
      <trkpt lat="50.805197" lon="7.900585">
        <ele>391.4</ele>
      </trkpt>
      <trkpt lat="50.805293" lon="7.900912">
        <ele>392.4</ele>
      </trkpt>
      <trkpt lat="50.805363" lon="7.901109">
        <ele>392.7</ele>
      </trkpt>
      <trkpt lat="50.80545" lon="7.901326">
        <ele>392.7</ele>
      </trkpt>
      <trkpt lat="50.805517" lon="7.901521">
        <ele>393.0</ele>
      </trkpt>
      <trkpt lat="50.805587" lon="7.901702">
        <ele>393.2</ele>
      </trkpt>
      <trkpt lat="50.805501" lon="7.901989">
        <ele>396.2</ele>
      </trkpt>
      <trkpt lat="50.805393" lon="7.902131">
        <ele>398.5</ele>
      </trkpt>
      <trkpt lat="50.805359" lon="7.902156">
        <ele>399.0</ele>
      </trkpt>
      <trkpt lat="50.805309" lon="7.902191">
        <ele>399.8</ele>
      </trkpt>
      <trkpt lat="50.805323" lon="7.902222">
        <ele>399.8</ele>
      </trkpt>
      <trkpt lat="50.805325" lon="7.902301">
        <ele>400.3</ele>
      </trkpt>
      <trkpt lat="50.805307" lon="7.902381">
        <ele>401.0</ele>
      </trkpt>
      <trkpt lat="50.805259" lon="7.902496">
        <ele>402.1</ele>
      </trkpt>
      <trkpt lat="50.805144" lon="7.902689">
        <ele>403.5</ele>
      </trkpt>
      <trkpt lat="50.804968" lon="7.902852">
        <ele>403.3</ele>
      </trkpt>
      <trkpt lat="50.804928" lon="7.90332">
        <ele>404.4</ele>
      </trkpt>
      <trkpt lat="50.804866" lon="7.903866">
        <ele>404.5</ele>
      </trkpt>
      <trkpt lat="50.804852" lon="7.904276">
        <ele>404.7</ele>
      </trkpt>
      <trkpt lat="50.804838" lon="7.904686">
        <ele>404.7</ele>
      </trkpt>
      <trkpt lat="50.804877" lon="7.905016">
        <ele>404.8</ele>
      </trkpt>
      <trkpt lat="50.804883" lon="7.905243">
        <ele>404.7</ele>
      </trkpt>
      <trkpt lat="50.804845" lon="7.905753">
        <ele>404.2</ele>
      </trkpt>
      <trkpt lat="50.804787" lon="7.906314">
        <ele>403.7</ele>
      </trkpt>
      <trkpt lat="50.804729" lon="7.906874">
        <ele>403.4</ele>
      </trkpt>
      <trkpt lat="50.804671" lon="7.907435">
        <ele>403.2</ele>
      </trkpt>
      <trkpt lat="50.804643" lon="7.907732">
        <ele>403.1</ele>
      </trkpt>
      <trkpt lat="50.804814" lon="7.908265">
        <ele>400.5</ele>
      </trkpt>
      <trkpt lat="50.804775" lon="7.908501">
        <ele>400.8</ele>
      </trkpt>
      <trkpt lat="50.804692" lon="7.908778">
        <ele>402.1</ele>
      </trkpt>
      <trkpt lat="50.80453" lon="7.909272">
        <ele>404.7</ele>
      </trkpt>
      <trkpt lat="50.804453" lon="7.909564">
        <ele>407.0</ele>
      </trkpt>
      <trkpt lat="50.804433" lon="7.909715">
        <ele>408.3</ele>
      </trkpt>
      <trkpt lat="50.804374" lon="7.909785">
        <ele>410.0</ele>
      </trkpt>
      <trkpt lat="50.804259" lon="7.909838">
        <ele>412.3</ele>
      </trkpt>
      <trkpt lat="50.804107" lon="7.909838">
        <ele>413.7</ele>
      </trkpt>
      <trkpt lat="50.80389" lon="7.909799">
        <ele>413.2</ele>
      </trkpt>
      <trkpt lat="50.803712" lon="7.909792">
        <ele>411.3</ele>
      </trkpt>
      <trkpt lat="50.803559" lon="7.909825">
        <ele>409.7</ele>
      </trkpt>
      <trkpt lat="50.803402" lon="7.909913">
        <ele>409.1</ele>
      </trkpt>
      <trkpt lat="50.803247" lon="7.910143">
        <ele>410.1</ele>
      </trkpt>
      <trkpt lat="50.803048" lon="7.910543">
        <ele>410.6</ele>
      </trkpt>
      <trkpt lat="50.802914" lon="7.910929">
        <ele>410.9</ele>
      </trkpt>
      <trkpt lat="50.802833" lon="7.911295">
        <ele>411.6</ele>
      </trkpt>
      <trkpt lat="50.802753" lon="7.911661">
        <ele>411.5</ele>
      </trkpt>
      <trkpt lat="50.802688" lon="7.91208">
        <ele>411.9</ele>
      </trkpt>
      <trkpt lat="50.802676" lon="7.912624">
        <ele>414.6</ele>
      </trkpt>
      <trkpt lat="50.802681" lon="7.913028">
        <ele>416.3</ele>
      </trkpt>
      <trkpt lat="50.802681" lon="7.913028">
        <ele>416.3</ele>
        <name>50.802681,7.913028</name>
        <extensions>
          <oa:mapZoom>17</oa:mapZoom>
        </extensions>
      </trkpt>
      <trkpt lat="50.802683" lon="7.913125">
        <ele>416.7</ele>
      </trkpt>
      <trkpt lat="50.80269" lon="7.913626">
        <ele>416.9</ele>
      </trkpt>
      <trkpt lat="50.80279" lon="7.914038">
        <ele>419.0</ele>
      </trkpt>
      <trkpt lat="50.802788" lon="7.914708">
        <ele>416.9</ele>
      </trkpt>
      <trkpt lat="50.802787" lon="7.915379">
        <ele>416.1</ele>
      </trkpt>
      <trkpt lat="50.802775" lon="7.915846">
        <ele>417.0</ele>
      </trkpt>
      <trkpt lat="50.802764" lon="7.916314">
        <ele>419.1</ele>
      </trkpt>
      <trkpt lat="50.802734" lon="7.917012">
        <ele>419.8</ele>
      </trkpt>
      <trkpt lat="50.802704" lon="7.917711">
        <ele>418.5</ele>
      </trkpt>
      <trkpt lat="50.802715" lon="7.918158">
        <ele>418.7</ele>
      </trkpt>
      <trkpt lat="50.802692" lon="7.918522">
        <ele>418.3</ele>
      </trkpt>
      <trkpt lat="50.802669" lon="7.918886">
        <ele>418.5</ele>
      </trkpt>
      <trkpt lat="50.802582" lon="7.919291">
        <ele>417.6</ele>
      </trkpt>
      <trkpt lat="50.802391" lon="7.919838">
        <ele>415.6</ele>
      </trkpt>
      <trkpt lat="50.802199" lon="7.920386">
        <ele>414.3</ele>
      </trkpt>
      <trkpt lat="50.802008" lon="7.920934">
        <ele>412.5</ele>
      </trkpt>
      <trkpt lat="50.801892" lon="7.921213">
        <ele>411.1</ele>
      </trkpt>
      <trkpt lat="50.801892" lon="7.921213">
        <ele>411.1</ele>
        <name>50.801892,7.921213</name>
        <extensions>
          <oa:mapZoom>17</oa:mapZoom>
        </extensions>
      </trkpt>
      <trkpt lat="50.801891" lon="7.921216">
        <ele>411.1</ele>
      </trkpt>
      <trkpt lat="50.801794" lon="7.921635">
        <ele>410.6</ele>
      </trkpt>
      <trkpt lat="50.801668" lon="7.922212">
        <ele>409.8</ele>
      </trkpt>
      <trkpt lat="50.801622" lon="7.922336">
        <ele>409.2</ele>
      </trkpt>
      <trkpt lat="50.801596" lon="7.922388">
        <ele>408.8</ele>
      </trkpt>
      <trkpt lat="50.801733" lon="7.92273">
        <ele>413.2</ele>
      </trkpt>
      <trkpt lat="50.801869" lon="7.923072">
        <ele>418.0</ele>
      </trkpt>
      <trkpt lat="50.801951" lon="7.923222">
        <ele>420.3</ele>
      </trkpt>
      <trkpt lat="50.801951" lon="7.923222">
        <ele>420.3</ele>
        <name>50.801951,7.923222</name>
        <extensions>
          <oa:mapZoom>17</oa:mapZoom>
        </extensions>
      </trkpt>
      <trkpt lat="50.802003" lon="7.923317">
        <ele>421.7</ele>
      </trkpt>
      <trkpt lat="50.802125" lon="7.923562">
        <ele>424.7</ele>
      </trkpt>
      <trkpt lat="50.802378" lon="7.92386">
        <ele>428.2</ele>
      </trkpt>
      <trkpt lat="50.802685" lon="7.924283">
        <ele>430.3</ele>
      </trkpt>
      <trkpt lat="50.802882" lon="7.924574">
        <ele>430.0</ele>
      </trkpt>
      <trkpt lat="50.802964" lon="7.924699">
        <ele>429.6</ele>
      </trkpt>
      <trkpt lat="50.802726" lon="7.924977">
        <ele>429.1</ele>
      </trkpt>
      <trkpt lat="50.802489" lon="7.925255">
        <ele>429.4</ele>
      </trkpt>
      <trkpt lat="50.802245" lon="7.925519">
        <ele>430.0</ele>
      </trkpt>
      <trkpt lat="50.802" lon="7.925783">
        <ele>430.8</ele>
      </trkpt>
      <trkpt lat="50.801725" lon="7.926043">
        <ele>431.8</ele>
      </trkpt>
      <trkpt lat="50.80145" lon="7.926304">
        <ele>433.0</ele>
      </trkpt>
      <trkpt lat="50.80115" lon="7.926693">
        <ele>434.4</ele>
      </trkpt>
      <trkpt lat="50.800851" lon="7.927082">
        <ele>436.5</ele>
      </trkpt>
      <trkpt lat="50.800791" lon="7.927457">
        <ele>435.5</ele>
      </trkpt>
      <trkpt lat="50.800788" lon="7.927665">
        <ele>433.9</ele>
      </trkpt>
      <trkpt lat="50.800786" lon="7.927895">
        <ele>431.3</ele>
      </trkpt>
      <trkpt lat="50.800665" lon="7.927958">
        <ele>432.7</ele>
      </trkpt>
      <trkpt lat="50.800663" lon="7.92796">
        <ele>432.8</ele>
      </trkpt>
      <trkpt lat="50.800663" lon="7.92796">
        <ele>432.8</ele>
        <name>50.800663,7.927960</name>
        <extensions>
          <oa:mapZoom>17</oa:mapZoom>
        </extensions>
      </trkpt>
      <trkpt lat="50.800665" lon="7.927958">
        <ele>432.7</ele>
      </trkpt>
      <trkpt lat="50.800506" lon="7.927791">
        <ele>437.3</ele>
      </trkpt>
      <trkpt lat="50.80012" lon="7.927435">
        <ele>443.6</ele>
      </trkpt>
      <trkpt lat="50.799976" lon="7.927927">
        <ele>444.4</ele>
      </trkpt>
      <trkpt lat="50.799871" lon="7.928414">
        <ele>443.6</ele>
      </trkpt>
      <trkpt lat="50.799813" lon="7.928952">
        <ele>441.9</ele>
      </trkpt>
      <trkpt lat="50.799755" lon="7.92949">
        <ele>442.4</ele>
      </trkpt>
      <trkpt lat="50.799686" lon="7.929722">
        <ele>444.7</ele>
      </trkpt>
      <trkpt lat="50.799529" lon="7.930116">
        <ele>451.3</ele>
      </trkpt>
      <trkpt lat="50.799467" lon="7.930337">
        <ele>454.8</ele>
      </trkpt>
      <trkpt lat="50.799445" lon="7.930868">
        <ele>460.6</ele>
      </trkpt>
      <trkpt lat="50.79946" lon="7.931229">
        <ele>464.8</ele>
      </trkpt>
      <trkpt lat="50.799476" lon="7.93159">
        <ele>469.7</ele>
      </trkpt>
      <trkpt lat="50.799536" lon="7.932051">
        <ele>474.8</ele>
      </trkpt>
      <trkpt lat="50.799584" lon="7.932421">
        <ele>478.6</ele>
      </trkpt>
      <trkpt lat="50.799584" lon="7.932421">
        <ele>478.6</ele>
        <name>50.799584,7.932421</name>
        <extensions>
          <oa:mapZoom>17</oa:mapZoom>
        </extensions>
      </trkpt>
      <trkpt lat="50.799596" lon="7.932512">
        <ele>479.5</ele>
      </trkpt>
      <trkpt lat="50.799728" lon="7.933055">
        <ele>483.7</ele>
      </trkpt>
      <trkpt lat="50.79978" lon="7.933238">
        <ele>485.1</ele>
      </trkpt>
      <trkpt lat="50.799909" lon="7.933577">
        <ele>486.8</ele>
      </trkpt>
      <trkpt lat="50.800093" lon="7.934195">
        <ele>488.5</ele>
      </trkpt>
      <trkpt lat="50.800227" lon="7.934538">
        <ele>488.3</ele>
      </trkpt>
      <trkpt lat="50.800272" lon="7.934711">
        <ele>488.4</ele>
      </trkpt>
      <trkpt lat="50.800252" lon="7.934891">
        <ele>489.3</ele>
      </trkpt>
      <trkpt lat="50.800231" lon="7.934974">
        <ele>489.7</ele>
      </trkpt>
      <trkpt lat="50.800023" lon="7.935022">
        <ele>492.4</ele>
      </trkpt>
      <trkpt lat="50.799832" lon="7.935155">
        <ele>494.3</ele>
      </trkpt>
      <trkpt lat="50.799553" lon="7.935362">
        <ele>496.8</ele>
      </trkpt>
      <trkpt lat="50.799247" lon="7.935348">
        <ele>500.4</ele>
      </trkpt>
      <trkpt lat="50.79894" lon="7.935333">
        <ele>503.8</ele>
      </trkpt>
      <trkpt lat="50.798868" lon="7.935311">
        <ele>504.6</ele>
      </trkpt>
      <trkpt lat="50.798868" lon="7.935311">
        <ele>504.6</ele>
        <name>50.798868,7.935311</name>
        <extensions>
          <oa:mapZoom>17</oa:mapZoom>
        </extensions>
      </trkpt>
      <trkpt lat="50.798864" lon="7.93531">
        <ele>504.6</ele>
      </trkpt>
      <trkpt lat="50.798832" lon="7.935152">
        <ele>505.2</ele>
      </trkpt>
      <trkpt lat="50.798692" lon="7.934637">
        <ele>508.7</ele>
      </trkpt>
      <trkpt lat="50.798552" lon="7.934123">
        <ele>509.6</ele>
      </trkpt>
      <trkpt lat="50.798412" lon="7.933608">
        <ele>508.3</ele>
      </trkpt>
      <trkpt lat="50.798255" lon="7.933145">
        <ele>506.9</ele>
      </trkpt>
      <trkpt lat="50.797974" lon="7.932899">
        <ele>507.4</ele>
      </trkpt>
      <trkpt lat="50.797694" lon="7.932652">
        <ele>507.0</ele>
      </trkpt>
      <trkpt lat="50.797413" lon="7.932406">
        <ele>506.2</ele>
      </trkpt>
      <trkpt lat="50.797033" lon="7.932086">
        <ele>504.7</ele>
      </trkpt>
      <trkpt lat="50.796833" lon="7.931877">
        <ele>503.4</ele>
      </trkpt>
      <trkpt lat="50.796581" lon="7.931545">
        <ele>501.2</ele>
      </trkpt>
      <trkpt lat="50.796358" lon="7.931132">
        <ele>498.2</ele>
      </trkpt>
      <trkpt lat="50.796156" lon="7.930728">
        <ele>495.2</ele>
      </trkpt>
      <trkpt lat="50.796024" lon="7.930495">
        <ele>493.5</ele>
      </trkpt>
      <trkpt lat="50.796024" lon="7.930495">
        <ele>493.5</ele>
        <name>50.796024,7.930495</name>
        <extensions>
          <oa:mapZoom>17</oa:mapZoom>
        </extensions>
      </trkpt>
      <trkpt lat="50.795964" lon="7.93039">
        <ele>492.8</ele>
      </trkpt>
      <trkpt lat="50.795776" lon="7.930104">
        <ele>490.8</ele>
      </trkpt>
      <trkpt lat="50.795589" lon="7.929818">
        <ele>488.7</ele>
      </trkpt>
      <trkpt lat="50.795489" lon="7.929458">
        <ele>485.8</ele>
      </trkpt>
      <trkpt lat="50.795312" lon="7.928983">
        <ele>482.0</ele>
      </trkpt>
      <trkpt lat="50.795127" lon="7.928613">
        <ele>479.0</ele>
      </trkpt>
      <trkpt lat="50.794955" lon="7.928374">
        <ele>477.2</ele>
      </trkpt>
      <trkpt lat="50.794783" lon="7.928136">
        <ele>475.5</ele>
      </trkpt>
      <trkpt lat="50.794594" lon="7.927909">
        <ele>473.9</ele>
      </trkpt>
      <trkpt lat="50.794405" lon="7.927682">
        <ele>472.4</ele>
      </trkpt>
      <trkpt lat="50.79436" lon="7.927592">
        <ele>471.8</ele>
      </trkpt>
      <trkpt lat="50.79425" lon="7.927372">
        <ele>470.4</ele>
      </trkpt>
      <trkpt lat="50.794125" lon="7.926868">
        <ele>467.1</ele>
      </trkpt>
      <trkpt lat="50.794031" lon="7.926254">
        <ele>463.0</ele>
      </trkpt>
      <trkpt lat="50.793928" lon="7.925908">
        <ele>460.8</ele>
      </trkpt>
      <trkpt lat="50.793825" lon="7.925563">
        <ele>458.7</ele>
      </trkpt>
      <trkpt lat="50.793782" lon="7.925344">
        <ele>457.3</ele>
      </trkpt>
      <trkpt lat="50.793689" lon="7.925045">
        <ele>455.5</ele>
      </trkpt>
      <trkpt lat="50.793873" lon="7.92485">
        <ele>454.0</ele>
      </trkpt>
      <trkpt lat="50.79407" lon="7.924746">
        <ele>452.5</ele>
      </trkpt>
      <trkpt lat="50.794004" lon="7.924531">
        <ele>451.8</ele>
      </trkpt>
      <trkpt lat="50.793965" lon="7.924334">
        <ele>451.4</ele>
      </trkpt>
      <trkpt lat="50.793972" lon="7.924108">
        <ele>451.0</ele>
      </trkpt>
      <trkpt lat="50.794019" lon="7.923606">
        <ele>450.7</ele>
      </trkpt>
      <trkpt lat="50.794049" lon="7.923158">
        <ele>450.9</ele>
      </trkpt>
      <trkpt lat="50.794046" lon="7.922794">
        <ele>451.1</ele>
      </trkpt>
      <trkpt lat="50.793996" lon="7.922406">
        <ele>451.1</ele>
      </trkpt>
      <trkpt lat="50.793965" lon="7.92203">
        <ele>451.0</ele>
      </trkpt>
      <trkpt lat="50.793934" lon="7.921654">
        <ele>450.7</ele>
      </trkpt>
      <trkpt lat="50.793901" lon="7.921042">
        <ele>449.8</ele>
      </trkpt>
      <trkpt lat="50.793919" lon="7.920716">
        <ele>449.2</ele>
      </trkpt>
      <trkpt lat="50.793971" lon="7.920226">
        <ele>448.1</ele>
      </trkpt>
      <trkpt lat="50.79403" lon="7.919888">
        <ele>447.2</ele>
      </trkpt>
      <trkpt lat="50.794126" lon="7.91956">
        <ele>446.2</ele>
      </trkpt>
      <trkpt lat="50.794268" lon="7.919203">
        <ele>445.0</ele>
      </trkpt>
      <trkpt lat="50.794409" lon="7.918847">
        <ele>443.1</ele>
      </trkpt>
      <trkpt lat="50.794452" lon="7.9187">
        <ele>442.0</ele>
      </trkpt>
      <trkpt lat="50.794518" lon="7.9184">
        <ele>439.6</ele>
      </trkpt>
      <trkpt lat="50.794585" lon="7.917836">
        <ele>436.2</ele>
      </trkpt>
      <trkpt lat="50.794668" lon="7.917317">
        <ele>436.0</ele>
      </trkpt>
      <trkpt lat="50.794751" lon="7.916799">
        <ele>435.9</ele>
      </trkpt>
      <trkpt lat="50.794834" lon="7.91628">
        <ele>435.1</ele>
      </trkpt>
      <trkpt lat="50.794858" lon="7.916288">
        <ele>435.2</ele>
      </trkpt>
      <trkpt lat="50.795005" lon="7.916173">
        <ele>434.1</ele>
      </trkpt>
      <trkpt lat="50.795071" lon="7.916101">
        <ele>433.1</ele>
      </trkpt>
      <trkpt lat="50.795103" lon="7.916021">
        <ele>432.2</ele>
      </trkpt>
      <trkpt lat="50.795128" lon="7.915923">
        <ele>431.3</ele>
      </trkpt>
      <trkpt lat="50.795147" lon="7.915815">
        <ele>430.6</ele>
      </trkpt>
      <trkpt lat="50.79515" lon="7.91566">
        <ele>430.1</ele>
      </trkpt>
      <trkpt lat="50.795144" lon="7.915106">
        <ele>429.8</ele>
      </trkpt>
      <trkpt lat="50.795121" lon="7.914485">
        <ele>430.2</ele>
      </trkpt>
      <trkpt lat="50.795097" lon="7.913864">
        <ele>430.8</ele>
      </trkpt>
      <trkpt lat="50.795074" lon="7.913244">
        <ele>431.4</ele>
      </trkpt>
      <trkpt lat="50.795051" lon="7.912623">
        <ele>432.2</ele>
      </trkpt>
      <trkpt lat="50.795027" lon="7.911958">
        <ele>433.3</ele>
      </trkpt>
      <trkpt lat="50.795004" lon="7.911293">
        <ele>434.0</ele>
      </trkpt>
      <trkpt lat="50.795013" lon="7.911191">
        <ele>434.1</ele>
      </trkpt>
      <trkpt lat="50.794972" lon="7.910933">
        <ele>434.2</ele>
      </trkpt>
      <trkpt lat="50.795051" lon="7.910909">
        <ele>434.1</ele>
      </trkpt>
      <trkpt lat="50.79519" lon="7.910792">
        <ele>433.8</ele>
      </trkpt>
      <trkpt lat="50.795231" lon="7.9107">
        <ele>433.7</ele>
      </trkpt>
      <trkpt lat="50.795243" lon="7.910569">
        <ele>433.5</ele>
      </trkpt>
      <trkpt lat="50.79524" lon="7.910432">
        <ele>433.4</ele>
      </trkpt>
      <trkpt lat="50.795208" lon="7.910324">
        <ele>433.4</ele>
      </trkpt>
      <trkpt lat="50.795095" lon="7.910069">
        <ele>433.2</ele>
      </trkpt>
      <trkpt lat="50.794998" lon="7.909982">
        <ele>433.1</ele>
      </trkpt>
      <trkpt lat="50.794999" lon="7.909975">
        <ele>433.0</ele>
      </trkpt>
      <trkpt lat="50.794999" lon="7.909975">
        <ele>433.0</ele>
        <name>50.794999,7.909975</name>
        <extensions>
          <oa:mapZoom>17</oa:mapZoom>
        </extensions>
      </trkpt>
      <trkpt lat="50.795064" lon="7.90961">
        <ele>431.7</ele>
      </trkpt>
      <trkpt lat="50.795129" lon="7.909239">
        <ele>429.9</ele>
      </trkpt>
      <trkpt lat="50.795194" lon="7.908973">
        <ele>428.2</ele>
      </trkpt>
      <trkpt lat="50.795248" lon="7.908766">
        <ele>426.7</ele>
      </trkpt>
      <trkpt lat="50.795299" lon="7.908631">
        <ele>425.6</ele>
      </trkpt>
      <trkpt lat="50.79537" lon="7.908572">
        <ele>424.8</ele>
      </trkpt>
      <trkpt lat="50.79547" lon="7.908537">
        <ele>423.9</ele>
      </trkpt>
      <trkpt lat="50.795667" lon="7.90853">
        <ele>422.3</ele>
      </trkpt>
      <trkpt lat="50.795653" lon="7.907893">
        <ele>417.7</ele>
      </trkpt>
      <trkpt lat="50.795654" lon="7.907851">
        <ele>417.3</ele>
      </trkpt>
      <trkpt lat="50.795765" lon="7.907782">
        <ele>415.6</ele>
      </trkpt>
      <trkpt lat="50.796016" lon="7.907799">
        <ele>412.8</ele>
      </trkpt>
      <trkpt lat="50.795999" lon="7.907149">
        <ele>407.4</ele>
      </trkpt>
      <trkpt lat="50.796361" lon="7.907102">
        <ele>401.7</ele>
      </trkpt>
      <trkpt lat="50.796399" lon="7.906981">
        <ele>400.0</ele>
      </trkpt>
      <trkpt lat="50.796483" lon="7.906741">
        <ele>396.6</ele>
      </trkpt>
      <trkpt lat="50.796511" lon="7.906681">
        <ele>395.7</ele>
      </trkpt>
      <trkpt lat="50.796587" lon="7.906594">
        <ele>393.9</ele>
      </trkpt>
      <trkpt lat="50.796618" lon="7.906512">
        <ele>392.7</ele>
      </trkpt>
      <trkpt lat="50.796671" lon="7.906311">
        <ele>390.2</ele>
      </trkpt>
      <trkpt lat="50.796709" lon="7.906141">
        <ele>388.2</ele>
      </trkpt>
      <trkpt lat="50.796765" lon="7.906055">
        <ele>386.7</ele>
      </trkpt>
      <trkpt lat="50.796823" lon="7.906006">
        <ele>385.5</ele>
      </trkpt>
      <trkpt lat="50.796896" lon="7.905975">
        <ele>384.2</ele>
      </trkpt>
      <trkpt lat="50.797083" lon="7.905806">
        <ele>380.2</ele>
      </trkpt>
      <trkpt lat="50.797208" lon="7.905623">
        <ele>376.8</ele>
      </trkpt>
      <trkpt lat="50.797264" lon="7.905521">
        <ele>375.1</ele>
      </trkpt>
      <trkpt lat="50.797358" lon="7.905258">
        <ele>371.9</ele>
      </trkpt>
      <trkpt lat="50.79739" lon="7.905052">
        <ele>369.6</ele>
      </trkpt>
      <trkpt lat="50.797425" lon="7.904911">
        <ele>367.8</ele>
      </trkpt>
      <trkpt lat="50.797463" lon="7.904826">
        <ele>366.5</ele>
      </trkpt>
      <trkpt lat="50.797532" lon="7.904727">
        <ele>364.7</ele>
      </trkpt>
      <trkpt lat="50.797659" lon="7.904606">
        <ele>361.6</ele>
      </trkpt>
      <trkpt lat="50.797697" lon="7.904613">
        <ele>360.9</ele>
      </trkpt>
      <trkpt lat="50.797741" lon="7.904647">
        <ele>360.2</ele>
      </trkpt>
      <trkpt lat="50.79776" lon="7.904709">
        <ele>360.3</ele>
      </trkpt>
      <trkpt lat="50.79778" lon="7.904748">
        <ele>360.2</ele>
      </trkpt>
      <trkpt lat="50.797834" lon="7.904797">
        <ele>359.6</ele>
      </trkpt>
      <trkpt lat="50.797911" lon="7.904795">
        <ele>358.1</ele>
      </trkpt>
      <trkpt lat="50.797872" lon="7.904744">
        <ele>358.4</ele>
      </trkpt>
      <trkpt lat="50.797821" lon="7.904609">
        <ele>358.4</ele>
      </trkpt>
      <trkpt lat="50.797784" lon="7.904456">
        <ele>358.2</ele>
      </trkpt>
      <trkpt lat="50.797669" lon="7.903895">
        <ele>359.5</ele>
      </trkpt>
      <trkpt lat="50.79759" lon="7.903473">
        <ele>359.7</ele>
      </trkpt>
      <trkpt lat="50.797583" lon="7.903425">
        <ele>359.7</ele>
      </trkpt>
      <trkpt lat="50.797583" lon="7.903425">
        <ele>359.7</ele>
        <name>50.797583,7.903425</name>
        <extensions>
          <oa:mapZoom>17</oa:mapZoom>
        </extensions>
      </trkpt>
      <trkpt lat="50.797556" lon="7.903256">
        <ele>359.5</ele>
      </trkpt>
      <trkpt lat="50.797497" lon="7.902874">
        <ele>359.6</ele>
      </trkpt>
      <trkpt lat="50.797438" lon="7.902492">
        <ele>359.2</ele>
      </trkpt>
      <trkpt lat="50.797378" lon="7.902167">
        <ele>358.4</ele>
      </trkpt>
      <trkpt lat="50.797297" lon="7.90185">
        <ele>356.9</ele>
      </trkpt>
      <trkpt lat="50.797256" lon="7.901754">
        <ele>356.7</ele>
      </trkpt>
      <trkpt lat="50.797169" lon="7.901615">
        <ele>357.0</ele>
      </trkpt>
      <trkpt lat="50.796896" lon="7.901446">
        <ele>358.8</ele>
      </trkpt>
      <trkpt lat="50.796677" lon="7.901328">
        <ele>359.2</ele>
      </trkpt>
      <trkpt lat="50.796477" lon="7.901234">
        <ele>359.4</ele>
      </trkpt>
      <trkpt lat="50.796396" lon="7.901188">
        <ele>359.3</ele>
      </trkpt>
      <trkpt lat="50.796153" lon="7.901078">
        <ele>358.9</ele>
      </trkpt>
      <trkpt lat="50.79591" lon="7.900968">
        <ele>357.9</ele>
      </trkpt>
      <trkpt lat="50.795742" lon="7.900879">
        <ele>356.6</ele>
      </trkpt>
      <trkpt lat="50.795444" lon="7.900631">
        <ele>352.9</ele>
      </trkpt>
      <trkpt lat="50.795357" lon="7.900579">
        <ele>352.1</ele>
      </trkpt>
      <trkpt lat="50.795175" lon="7.900495">
        <ele>350.6</ele>
      </trkpt>
      <trkpt lat="50.79495" lon="7.900502">
        <ele>350.1</ele>
      </trkpt>
      <trkpt lat="50.794812" lon="7.900538">
        <ele>350.1</ele>
      </trkpt>
      <trkpt lat="50.794682" lon="7.900591">
        <ele>350.3</ele>
      </trkpt>
      <trkpt lat="50.794493" lon="7.900691">
        <ele>350.7</ele>
      </trkpt>
      <trkpt lat="50.794417" lon="7.900761">
        <ele>351.3</ele>
      </trkpt>
      <trkpt lat="50.794186" lon="7.901149">
        <ele>354.8</ele>
      </trkpt>
      <trkpt lat="50.794182" lon="7.901055">
        <ele>353.6</ele>
      </trkpt>
      <trkpt lat="50.794204" lon="7.900947">
        <ele>352.4</ele>
      </trkpt>
      <trkpt lat="50.794253" lon="7.900809">
        <ele>350.9</ele>
      </trkpt>
      <trkpt lat="50.794372" lon="7.900545">
        <ele>348.0</ele>
      </trkpt>
      <trkpt lat="50.79444" lon="7.900425">
        <ele>346.7</ele>
      </trkpt>
      <trkpt lat="50.794509" lon="7.900332">
        <ele>345.8</ele>
      </trkpt>
      <trkpt lat="50.794623" lon="7.90011">
        <ele>343.2</ele>
      </trkpt>
      <trkpt lat="50.794699" lon="7.899986">
        <ele>341.8</ele>
      </trkpt>
      <trkpt lat="50.794858" lon="7.899798">
        <ele>339.8</ele>
      </trkpt>
      <trkpt lat="50.795039" lon="7.899653">
        <ele>338.3</ele>
      </trkpt>
      <trkpt lat="50.795131" lon="7.899608">
        <ele>337.9</ele>
      </trkpt>
      <trkpt lat="50.79532" lon="7.899578">
        <ele>337.9</ele>
      </trkpt>
      <trkpt lat="50.795425" lon="7.899584">
        <ele>338.1</ele>
      </trkpt>
      <trkpt lat="50.79561" lon="7.89959">
        <ele>338.3</ele>
      </trkpt>
      <trkpt lat="50.795678" lon="7.899573">
        <ele>338.1</ele>
      </trkpt>
      <trkpt lat="50.795988" lon="7.899362">
        <ele>337.2</ele>
      </trkpt>
      <trkpt lat="50.796169" lon="7.899161">
        <ele>336.6</ele>
      </trkpt>
      <trkpt lat="50.796231" lon="7.899072">
        <ele>336.2</ele>
      </trkpt>
      <trkpt lat="50.796269" lon="7.899003">
        <ele>335.8</ele>
      </trkpt>
      <trkpt lat="50.796269" lon="7.899003">
        <ele>335.8</ele>
        <name>50.796269,7.899003</name>
        <extensions>
          <oa:mapZoom>17</oa:mapZoom>
        </extensions>
      </trkpt>
      <trkpt lat="50.79628" lon="7.898982">
        <ele>335.7</ele>
      </trkpt>
      <trkpt lat="50.796361" lon="7.898675">
        <ele>332.7</ele>
      </trkpt>
      <trkpt lat="50.796474" lon="7.898373">
        <ele>329.6</ele>
      </trkpt>
      <trkpt lat="50.796645" lon="7.898035">
        <ele>325.6</ele>
      </trkpt>
      <trkpt lat="50.79681" lon="7.897788">
        <ele>322.5</ele>
      </trkpt>
      <trkpt lat="50.796975" lon="7.897541">
        <ele>319.2</ele>
      </trkpt>
      <trkpt lat="50.79701" lon="7.897501">
        <ele>318.8</ele>
      </trkpt>
      <trkpt lat="50.797234" lon="7.897252">
        <ele>316.2</ele>
      </trkpt>
      <trkpt lat="50.797519" lon="7.896988">
        <ele>314.6</ele>
      </trkpt>
      <trkpt lat="50.797644" lon="7.896891">
        <ele>314.3</ele>
      </trkpt>
      <trkpt lat="50.79739" lon="7.89695">
        <ele>312.6</ele>
      </trkpt>
      <trkpt lat="50.797449" lon="7.896893">
        <ele>312.4</ele>
      </trkpt>
      <trkpt lat="50.797675" lon="7.896688">
        <ele>312.0</ele>
      </trkpt>
      <trkpt lat="50.797783" lon="7.89662">
        <ele>312.0</ele>
      </trkpt>
      <trkpt lat="50.797883" lon="7.896517">
        <ele>311.1</ele>
      </trkpt>
      <trkpt lat="50.79794" lon="7.896415">
        <ele>309.9</ele>
      </trkpt>
      <trkpt lat="50.798042" lon="7.896143">
        <ele>306.5</ele>
      </trkpt>
      <trkpt lat="50.798062" lon="7.895989">
        <ele>304.9</ele>
      </trkpt>
      <trkpt lat="50.798069" lon="7.895778">
        <ele>302.8</ele>
      </trkpt>
      <trkpt lat="50.798057" lon="7.895548">
        <ele>298.0</ele>
      </trkpt>
      <trkpt lat="50.79806" lon="7.895497">
        <ele>296.6</ele>
      </trkpt>
      <trkpt lat="50.798094" lon="7.895455">
        <ele>295.2</ele>
      </trkpt>
      <trkpt lat="50.798127" lon="7.895467">
        <ele>295.1</ele>
      </trkpt>
      <trkpt lat="50.798216" lon="7.895543">
        <ele>294.7</ele>
      </trkpt>
      <trkpt lat="50.798467" lon="7.89583">
        <ele>291.5</ele>
      </trkpt>
      <trkpt lat="50.798564" lon="7.8959">
        <ele>289.6</ele>
      </trkpt>
      <trkpt lat="50.798603" lon="7.895901">
        <ele>288.7</ele>
      </trkpt>
      <trkpt lat="50.798623" lon="7.895881">
        <ele>287.9</ele>
      </trkpt>
      <trkpt lat="50.798574" lon="7.895745">
        <ele>287.6</ele>
      </trkpt>
      <trkpt lat="50.798389" lon="7.89532">
        <ele>286.1</ele>
      </trkpt>
      <trkpt lat="50.798204" lon="7.894896">
        <ele>280.9</ele>
      </trkpt>
      <trkpt lat="50.798129" lon="7.894785">
        <ele>279.3</ele>
      </trkpt>
      <trkpt lat="50.798086" lon="7.89475">
        <ele>278.8</ele>
      </trkpt>
      <trkpt lat="50.797994" lon="7.894722">
        <ele>277.9</ele>
      </trkpt>
      <trkpt lat="50.797942" lon="7.894698">
        <ele>277.1</ele>
      </trkpt>
      <trkpt lat="50.797876" lon="7.894614">
        <ele>275.3</ele>
      </trkpt>
      <trkpt lat="50.797856" lon="7.894586">
        <ele>274.8</ele>
      </trkpt>
      <trkpt lat="50.797832" lon="7.894518">
        <ele>273.9</ele>
      </trkpt>
      <trkpt lat="50.797824" lon="7.894426">
        <ele>273.3</ele>
      </trkpt>
      <trkpt lat="50.797835" lon="7.894337">
        <ele>274.8</ele>
      </trkpt>
      <trkpt lat="50.797856" lon="7.894248">
        <ele>276.4</ele>
      </trkpt>
      <trkpt lat="50.797916" lon="7.894034">
        <ele>279.0</ele>
      </trkpt>
      <trkpt lat="50.797945" lon="7.893854">
        <ele>280.6</ele>
      </trkpt>
      <trkpt lat="50.797943" lon="7.893713">
        <ele>282.2</ele>
      </trkpt>
      <trkpt lat="50.797936" lon="7.893596">
        <ele>283.5</ele>
      </trkpt>
      <trkpt lat="50.797896" lon="7.893232">
        <ele>286.7</ele>
      </trkpt>
      <trkpt lat="50.797856" lon="7.892868">
        <ele>290.8</ele>
      </trkpt>
      <trkpt lat="50.79783" lon="7.892572">
        <ele>294.7</ele>
      </trkpt>
      <trkpt lat="50.797826" lon="7.89246">
        <ele>296.0</ele>
      </trkpt>
      <trkpt lat="50.797841" lon="7.891925">
        <ele>303.7</ele>
      </trkpt>
      <trkpt lat="50.797895" lon="7.891452">
        <ele>309.3</ele>
      </trkpt>
      <trkpt lat="50.798003" lon="7.890987">
        <ele>316.2</ele>
      </trkpt>
      <trkpt lat="50.798169" lon="7.890358">
        <ele>324.6</ele>
      </trkpt>
      <trkpt lat="50.798334" lon="7.889729">
        <ele>333.2</ele>
      </trkpt>
      <trkpt lat="50.798375" lon="7.889532">
        <ele>335.0</ele>
      </trkpt>
      <trkpt lat="50.798391" lon="7.889352">
        <ele>336.2</ele>
      </trkpt>
      <trkpt lat="50.798392" lon="7.889197">
        <ele>337.1</ele>
      </trkpt>
      <trkpt lat="50.798595" lon="7.889026">
        <ele>339.1</ele>
      </trkpt>
      <trkpt lat="50.798799" lon="7.888855">
        <ele>340.7</ele>
      </trkpt>
      <trkpt lat="50.798889" lon="7.888817">
        <ele>341.2</ele>
      </trkpt>
      <trkpt lat="50.79927" lon="7.888719">
        <ele>342.0</ele>
      </trkpt>
      <trkpt lat="50.79927" lon="7.888719">
        <ele>342.0</ele>
        <name>50.799270,7.888719</name>
        <extensions>
          <oa:mapZoom>17</oa:mapZoom>
        </extensions>
      </trkpt>
      <trkpt lat="50.799316" lon="7.888708">
        <ele>342.1</ele>
      </trkpt>
      <trkpt lat="50.799686" lon="7.888664">
        <ele>341.5</ele>
      </trkpt>
      <trkpt lat="50.800056" lon="7.88862">
        <ele>339.9</ele>
      </trkpt>
      <trkpt lat="50.800045" lon="7.888393">
        <ele>337.5</ele>
      </trkpt>
      <trkpt lat="50.800011" lon="7.888008">
        <ele>332.8</ele>
      </trkpt>
      <trkpt lat="50.799977" lon="7.887623">
        <ele>327.4</ele>
      </trkpt>
      <trkpt lat="50.799924" lon="7.887444">
        <ele>324.9</ele>
      </trkpt>
      <trkpt lat="50.799849" lon="7.887275">
        <ele>322.4</ele>
      </trkpt>
      <trkpt lat="50.799667" lon="7.887057">
        <ele>319.3</ele>
      </trkpt>
      <trkpt lat="50.799539" lon="7.886921">
        <ele>317.2</ele>
      </trkpt>
      <trkpt lat="50.799375" lon="7.886672">
        <ele>313.1</ele>
      </trkpt>
      <trkpt lat="50.799263" lon="7.886434">
        <ele>308.8</ele>
      </trkpt>
      <trkpt lat="50.799322" lon="7.88645">
        <ele>309.0</ele>
      </trkpt>
      <trkpt lat="50.799609" lon="7.886464">
        <ele>308.6</ele>
      </trkpt>
      <trkpt lat="50.799857" lon="7.886442">
        <ele>307.4</ele>
      </trkpt>
      <trkpt lat="50.800116" lon="7.886346">
        <ele>304.5</ele>
      </trkpt>
      <trkpt lat="50.800236" lon="7.886304">
        <ele>303.2</ele>
      </trkpt>
      <trkpt lat="50.800406" lon="7.886277">
        <ele>301.8</ele>
      </trkpt>
      <trkpt lat="50.800575" lon="7.88632">
        <ele>301.8</ele>
      </trkpt>
      <trkpt lat="50.800722" lon="7.886408">
        <ele>302.9</ele>
      </trkpt>
      <trkpt lat="50.800826" lon="7.886495">
        <ele>304.1</ele>
      </trkpt>
      <trkpt lat="50.80107" lon="7.886618">
        <ele>305.4</ele>
      </trkpt>
      <trkpt lat="50.801304" lon="7.886678">
        <ele>305.5</ele>
      </trkpt>
      <trkpt lat="50.801537" lon="7.886738">
        <ele>305.4</ele>
      </trkpt>
      <trkpt lat="50.801687" lon="7.88673">
        <ele>304.4</ele>
      </trkpt>
      <trkpt lat="50.801948" lon="7.886689">
        <ele>301.8</ele>
      </trkpt>
      <trkpt lat="50.802293" lon="7.886616">
        <ele>297.3</ele>
      </trkpt>
      <trkpt lat="50.802445" lon="7.886609">
        <ele>295.6</ele>
      </trkpt>
      <trkpt lat="50.802543" lon="7.886654">
        <ele>295.5</ele>
      </trkpt>
      <trkpt lat="50.802611" lon="7.886695">
        <ele>295.7</ele>
      </trkpt>
      <trkpt lat="50.802685" lon="7.886748">
        <ele>295.9</ele>
      </trkpt>
      <trkpt lat="50.802685" lon="7.886748">
        <ele>295.9</ele>
        <name>50.802685,7.886748</name>
        <extensions>
          <oa:mapZoom>17</oa:mapZoom>
        </extensions>
      </trkpt>
      <trkpt lat="50.802963" lon="7.886945">
        <ele>296.6</ele>
      </trkpt>
      <trkpt lat="50.803314" lon="7.887196">
        <ele>295.9</ele>
      </trkpt>
      <trkpt lat="50.8035" lon="7.887294">
        <ele>294.8</ele>
      </trkpt>
      <trkpt lat="50.803805" lon="7.887299">
        <ele>291.2</ele>
      </trkpt>
      <trkpt lat="50.804169" lon="7.887298">
        <ele>286.0</ele>
      </trkpt>
      <trkpt lat="50.804372" lon="7.887162">
        <ele>282.5</ele>
      </trkpt>
      <trkpt lat="50.804199" lon="7.886975">
        <ele>283.3</ele>
      </trkpt>
      <trkpt lat="50.803929" lon="7.886673">
        <ele>282.7</ele>
      </trkpt>
      <trkpt lat="50.803748" lon="7.886516">
        <ele>281.6</ele>
      </trkpt>
      <trkpt lat="50.803553" lon="7.886368">
        <ele>279.3</ele>
      </trkpt>
      <trkpt lat="50.803785" lon="7.886174">
        <ele>272.1</ele>
      </trkpt>
      <trkpt lat="50.804026" lon="7.886021">
        <ele>265.9</ele>
      </trkpt>
      <trkpt lat="50.80406" lon="7.886016">
        <ele>265.6</ele>
      </trkpt>
      <trkpt lat="50.80406" lon="7.886016">
        <ele>265.6</ele>
        <name>50.804060,7.886016</name>
        <extensions>
          <oa:mapZoom>17</oa:mapZoom>
        </extensions>
      </trkpt>
      <trkpt lat="50.804158" lon="7.886001">
        <ele>264.9</ele>
      </trkpt>
      <trkpt lat="50.804333" lon="7.885985">
        <ele>264.2</ele>
      </trkpt>
      <trkpt lat="50.804586" lon="7.885973">
        <ele>264.1</ele>
      </trkpt>
      <trkpt lat="50.804839" lon="7.885962">
        <ele>264.0</ele>
      </trkpt>
      <trkpt lat="50.805062" lon="7.885905">
        <ele>261.6</ele>
      </trkpt>
      <trkpt lat="50.805285" lon="7.885848">
        <ele>259.6</ele>
      </trkpt>
      <trkpt lat="50.805654" lon="7.88583">
        <ele>258.1</ele>
      </trkpt>
      <trkpt lat="50.806023" lon="7.885813">
        <ele>256.2</ele>
      </trkpt>
      <trkpt lat="50.806229" lon="7.88578">
        <ele>254.0</ele>
      </trkpt>
      <trkpt lat="50.806521" lon="7.885693">
        <ele>251.1</ele>
      </trkpt>
      <trkpt lat="50.806697" lon="7.885392">
        <ele>249.1</ele>
      </trkpt>
      <trkpt lat="50.806796" lon="7.885266">
        <ele>248.1</ele>
      </trkpt>
      <trkpt lat="50.807083" lon="7.884924">
        <ele>245.8</ele>
      </trkpt>
      <trkpt lat="50.807265" lon="7.884657">
        <ele>245.1</ele>
      </trkpt>
      <trkpt lat="50.807541" lon="7.884159">
        <ele>244.0</ele>
      </trkpt>
      <trkpt lat="50.807671" lon="7.88394">
        <ele>243.0</ele>
      </trkpt>
      <trkpt lat="50.807903" lon="7.883449">
        <ele>240.7</ele>
      </trkpt>
      <trkpt lat="50.808023" lon="7.883191">
        <ele>239.1</ele>
      </trkpt>
      <trkpt lat="50.808077" lon="7.883012">
        <ele>238.1</ele>
      </trkpt>
      <trkpt lat="50.808112" lon="7.882898">
        <ele>237.4</ele>
      </trkpt>
      <trkpt lat="50.808089" lon="7.882747">
        <ele>236.4</ele>
      </trkpt>
      <trkpt lat="50.808017" lon="7.88273">
        <ele>235.9</ele>
      </trkpt>
      <trkpt lat="50.807937" lon="7.882668">
        <ele>234.8</ele>
      </trkpt>
      <trkpt lat="50.807912" lon="7.882575">
        <ele>233.6</ele>
      </trkpt>
      <trkpt lat="50.8079" lon="7.88245">
        <ele>232.2</ele>
      </trkpt>
      <trkpt lat="50.807893" lon="7.882287">
        <ele>230.2</ele>
      </trkpt>
      <trkpt lat="50.807897" lon="7.882038">
        <ele>227.3</ele>
      </trkpt>
      <trkpt lat="50.807927" lon="7.881839">
        <ele>225.5</ele>
      </trkpt>
      <trkpt lat="50.808058" lon="7.881409">
        <ele>222.4</ele>
      </trkpt>
      <trkpt lat="50.808131" lon="7.881204">
        <ele>220.4</ele>
      </trkpt>
      <trkpt lat="50.808131" lon="7.881204">
        <ele>220.4</ele>
        <name>50.808131,7.881204</name>
        <extensions>
          <oa:mapZoom>17</oa:mapZoom>
        </extensions>
      </trkpt>
      <trkpt lat="50.808178" lon="7.881072">
        <ele>219.2</ele>
      </trkpt>
      <trkpt lat="50.808051" lon="7.880908">
        <ele>216.9</ele>
      </trkpt>
      <trkpt lat="50.807915" lon="7.880616">
        <ele>213.5</ele>
      </trkpt>
      <trkpt lat="50.807834" lon="7.880347">
        <ele>210.7</ele>
      </trkpt>
      <trkpt lat="50.807692" lon="7.880048">
        <ele>206.5</ele>
      </trkpt>
      <trkpt lat="50.80755" lon="7.879749">
        <ele>201.5</ele>
      </trkpt>
      <trkpt lat="50.807533" lon="7.879715">
        <ele>201.0</ele>
      </trkpt>
      <trkpt lat="50.80749" lon="7.879629">
        <ele>199.6</ele>
      </trkpt>
      <trkpt lat="50.807356" lon="7.879345">
        <ele>195.1</ele>
      </trkpt>
      <trkpt lat="50.807214" lon="7.879021">
        <ele>193.6</ele>
      </trkpt>
      <trkpt lat="50.80699" lon="7.878584">
        <ele>191.9</ele>
      </trkpt>
      <trkpt lat="50.806896" lon="7.87876">
        <ele>192.0</ele>
      </trkpt>
      <trkpt lat="50.806726" lon="7.879144">
        <ele>192.3</ele>
      </trkpt>
      <trkpt lat="50.806556" lon="7.879527">
        <ele>192.3</ele>
      </trkpt>
      <trkpt lat="50.80653" lon="7.879588">
        <ele>192.3</ele>
        <name>50.806530,7.879588</name>
        <extensions>
          <oa:mapZoom>17</oa:mapZoom>
        </extensions>
      </trkpt>
    </trkseg>
  </trk>
</gpx>