<?xml version="1.0" encoding="UTF-8"?>
<gpx xmlns="http://www.topografix.com/GPX/1/1" xmlns:gpsies="https://www.gpsies.com/GPX/1/0" creator="AllTrails https://www.alltrails.com/ - Gpsies_ivvpw" version="1.1" xmlns:xsi="http://www.w3.org/2001/XMLSchema-instance" xsi:schemaLocation="http://www.topografix.com/GPX/1/1 http://www.topografix.com/GPX/1/1/gpx.xsd https://www.gpsies.com/GPX/1/0 https://www.gpsies.com/gpsies.xsd">
  <metadata>
    <name>Gpsies_ivvpw</name>
    <link href="https://www.gpsies.com/">
      <text>Gpsies_ivvpw on AllTrails</text>
    </link>
    <time>2020-02-19T20:01:52Z</time>
  </metadata>
  <trk>
    <name>DVV Boden-Tonweg rot</name>
    <link href="https://www.gpsies.com/map.do?fileId=fierojchegjvfmat">
      <type>trackOnWeb</type>
    </link>
    <link href="https://www.gpsies.com/charts/fi/map/fierojchegjvfmat_map.png">
      <type>elevationChartUrlMap</type>
    </link>
    <link href="https://www.gpsies.com/charts/fi/mapThumb/fierojchegjvfmat_mapThumb.png">
      <type>elevationChartUrlMapThumb</type>
    </link>
    <link href="https://www.gpsies.com/charts/fi/tab/fierojchegjvfmat_tab.png">
      <type>elevationChartUrlTab</type>
    </link>
    <trkseg>
      <trkpt lat="50.47215320" lon="7.859387390">
        <ele>262.00000</ele>
      </trkpt>
      <trkpt lat="50.47210540" lon="7.859956020">
        <ele>259.00000</ele>
      </trkpt>
      <trkpt lat="50.47256970" lon="7.860224240">
        <ele>260.00000</ele>
      </trkpt>
      <trkpt lat="50.47270970" lon="7.860272520">
        <ele>261.00000</ele>
      </trkpt>
      <trkpt lat="50.47301350" lon="7.860460280">
        <ele>261.00000</ele>
      </trkpt>
      <trkpt lat="50.47317740" lon="7.860476370">
        <ele>260.00000</ele>
      </trkpt>
      <trkpt lat="50.47327300" lon="7.860524650">
        <ele>260.00000</ele>
      </trkpt>
      <trkpt lat="50.47331400" lon="7.860395900">
        <ele>260.00000</ele>
      </trkpt>
      <trkpt lat="50.47357340" lon="7.860782140">
        <ele>260.00000</ele>
      </trkpt>
      <trkpt lat="50.47371000" lon="7.860707040">
        <ele>260.00000</ele>
      </trkpt>
      <trkpt lat="50.47377150" lon="7.860503190">
        <ele>260.00000</ele>
      </trkpt>
      <trkpt lat="50.47402910" lon="7.860720450">
        <ele>261.00000</ele>
      </trkpt>
      <trkpt lat="50.47436540" lon="7.861270300">
        <ele>261.00000</ele>
      </trkpt>
      <trkpt lat="50.47459770" lon="7.862139340">
        <ele>261.00000</ele>
      </trkpt>
      <trkpt lat="50.47546450" lon="7.863660490">
        <ele>264.00000</ele>
      </trkpt>
      <trkpt lat="50.47603480" lon="7.864644520">
        <ele>264.00000</ele>
      </trkpt>
      <trkpt lat="50.47608260" lon="7.864767900">
        <ele>263.00000</ele>
      </trkpt>
      <trkpt lat="50.47605710" lon="7.864899330">
        <ele>263.00000</ele>
      </trkpt>
      <trkpt lat="50.47607930" lon="7.865044170">
        <ele>263.00000</ele>
      </trkpt>
      <trkpt lat="50.47611000" lon="7.865180960">
        <ele>263.00000</ele>
      </trkpt>
      <trkpt lat="50.47617480" lon="7.865331170">
        <ele>264.00000</ele>
      </trkpt>
      <trkpt lat="50.47636960" lon="7.865325470">
        <ele>266.00000</ele>
      </trkpt>
      <trkpt lat="50.47643780" lon="7.865384810">
        <ele>267.00000</ele>
      </trkpt>
      <trkpt lat="50.47653330" lon="7.865706680">
        <ele>270.00000</ele>
      </trkpt>
      <trkpt lat="50.47666640" lon="7.865856880">
        <ele>272.00000</ele>
      </trkpt>
      <trkpt lat="50.47680350" lon="7.865897110">
        <ele>273.00000</ele>
      </trkpt>
      <trkpt lat="50.47706250" lon="7.865910530">
        <ele>275.00000</ele>
      </trkpt>
      <trkpt lat="50.47768720" lon="7.865840790">
        <ele>276.00000</ele>
      </trkpt>
      <trkpt lat="50.47780330" lon="7.865819330">
        <ele>276.00000</ele>
      </trkpt>
      <trkpt lat="50.47790910" lon="7.865760320">
        <ele>276.00000</ele>
      </trkpt>
      <trkpt lat="50.47812430" lon="7.865475920">
        <ele>274.00000</ele>
      </trkpt>
      <trkpt lat="50.47821970" lon="7.865422360">
        <ele>274.00000</ele>
      </trkpt>
      <trkpt lat="50.47972190" lon="7.865506010">
        <ele>289.00000</ele>
      </trkpt>
      <trkpt lat="50.48046260" lon="7.865577930">
        <ele>285.00000</ele>
      </trkpt>
      <trkpt lat="50.48109070" lon="7.865567200">
        <ele>286.00000</ele>
      </trkpt>
      <trkpt lat="50.48141160" lon="7.865620850">
        <ele>287.00000</ele>
      </trkpt>
      <trkpt lat="50.48181440" lon="7.865819330">
        <ele>287.00000</ele>
      </trkpt>
      <trkpt lat="50.48220690" lon="7.866130470">
        <ele>287.00000</ele>
      </trkpt>
      <trkpt lat="50.48247320" lon="7.866355770">
        <ele>282.00000</ele>
      </trkpt>
      <trkpt lat="50.48262680" lon="7.866377230">
        <ele>279.00000</ele>
      </trkpt>
      <trkpt lat="50.48267100" lon="7.866259210">
        <ele>278.00000</ele>
      </trkpt>
      <trkpt lat="50.48266430" lon="7.865679860">
        <ele>277.00000</ele>
      </trkpt>
      <trkpt lat="50.48277350" lon="7.865304350">
        <ele>276.00000</ele>
      </trkpt>
      <trkpt lat="50.48298180" lon="7.865009300">
        <ele>276.00000</ele>
      </trkpt>
      <trkpt lat="50.48339470" lon="7.864746450">
        <ele>277.00000</ele>
      </trkpt>
      <trkpt lat="50.48368480" lon="7.864724990">
        <ele>277.00000</ele>
      </trkpt>
      <trkpt lat="50.48420020" lon="7.864370940">
        <ele>277.00000</ele>
      </trkpt>
      <trkpt lat="50.48443590" lon="7.864295840">
        <ele>276.00000</ele>
      </trkpt>
      <trkpt lat="50.48494440" lon="7.864269010">
        <ele>278.00000</ele>
      </trkpt>
      <trkpt lat="50.48515950" lon="7.864295840">
        <ele>280.00000</ele>
      </trkpt>
      <trkpt lat="50.48523120" lon="7.864231460">
        <ele>281.00000</ele>
      </trkpt>
      <trkpt lat="50.48523460" lon="7.863952510">
        <ele>281.00000</ele>
      </trkpt>
      <trkpt lat="50.48524140" lon="7.863668200">
        <ele>283.00000</ele>
      </trkpt>
      <trkpt lat="50.48550760" lon="7.863796940">
        <ele>283.00000</ele>
      </trkpt>
      <trkpt lat="50.48605720" lon="7.864172450">
        <ele>285.00000</ele>
      </trkpt>
      <trkpt lat="50.48640870" lon="7.864558690">
        <ele>287.00000</ele>
      </trkpt>
      <trkpt lat="50.48675340" lon="7.865073680">
        <ele>292.00000</ele>
      </trkpt>
      <trkpt lat="50.48685930" lon="7.865341900">
        <ele>296.00000</ele>
      </trkpt>
      <trkpt lat="50.48704360" lon="7.865631580">
        <ele>299.00000</ele>
      </trkpt>
      <trkpt lat="50.48713230" lon="7.865669130">
        <ele>299.00000</ele>
      </trkpt>
      <trkpt lat="50.48716640" lon="7.865009300">
        <ele>295.00000</ele>
      </trkpt>
      <trkpt lat="50.48721080" lon="7.864794730">
        <ele>294.00000</ele>
      </trkpt>
      <trkpt lat="50.48733370" lon="7.864923470">
        <ele>295.00000</ele>
      </trkpt>
      <trkpt lat="50.48761010" lon="7.865706680">
        <ele>299.00000</ele>
      </trkpt>
      <trkpt lat="50.48770910" lon="7.865830060">
        <ele>299.00000</ele>
      </trkpt>
      <trkpt lat="50.48784560" lon="7.865738860">
        <ele>300.00000</ele>
      </trkpt>
      <trkpt lat="50.48796850" lon="7.865229240">
        <ele>300.00000</ele>
      </trkpt>
      <trkpt lat="50.48820400" lon="7.864848370">
        <ele>300.00000</ele>
      </trkpt>
      <trkpt lat="50.48862040" lon="7.864311930">
        <ele>300.00000</ele>
      </trkpt>
      <trkpt lat="50.48871600" lon="7.864210000">
        <ele>300.00000</ele>
      </trkpt>
      <trkpt lat="50.48879790" lon="7.864151000">
        <ele>300.00000</ele>
      </trkpt>
      <trkpt lat="50.48906410" lon="7.864075890">
        <ele>300.00000</ele>
      </trkpt>
      <trkpt lat="50.48930300" lon="7.863893500">
        <ele>299.00000</ele>
      </trkpt>
      <trkpt lat="50.48943950" lon="7.863689660">
        <ele>298.00000</ele>
      </trkpt>
      <trkpt lat="50.48959650" lon="7.863480440">
        <ele>297.00000</ele>
      </trkpt>
      <trkpt lat="50.49015280" lon="7.863062020">
        <ele>298.00000</ele>
      </trkpt>
      <trkpt lat="50.49053850" lon="7.862568490">
        <ele>297.00000</ele>
      </trkpt>
      <trkpt lat="50.49067500" lon="7.862284180">
        <ele>297.00000</ele>
      </trkpt>
      <trkpt lat="50.49072620" lon="7.862042780">
        <ele>297.00000</ele>
      </trkpt>
      <trkpt lat="50.49069890" lon="7.861796020">
        <ele>297.00000</ele>
      </trkpt>
      <trkpt lat="50.49055210" lon="7.860605120">
        <ele>302.00000</ele>
      </trkpt>
      <trkpt lat="50.48914260" lon="7.859457130">
        <ele>304.00000</ele>
      </trkpt>
      <trkpt lat="50.48928930" lon="7.858716840">
        <ele>308.00000</ele>
      </trkpt>
      <trkpt lat="50.48973990" lon="7.856850020">
        <ele>306.00000</ele>
      </trkpt>
      <trkpt lat="50.48964090" lon="7.856957310">
        <ele>306.00000</ele>
      </trkpt>
      <trkpt lat="50.48945320" lon="7.857155790">
        <ele>306.00000</ele>
      </trkpt>
      <trkpt lat="50.48924840" lon="7.857155790">
        <ele>306.00000</ele>
      </trkpt>
      <trkpt lat="50.48738830" lon="7.855616210">
        <ele>303.00000</ele>
      </trkpt>
      <trkpt lat="50.48728250" lon="7.855369440">
        <ele>303.00000</ele>
      </trkpt>
      <trkpt lat="50.48735070" lon="7.854677430">
        <ele>301.00000</ele>
      </trkpt>
      <trkpt lat="50.48730300" lon="7.854280470">
        <ele>300.00000</ele>
      </trkpt>
      <trkpt lat="50.48708450" lon="7.854194640">
        <ele>301.00000</ele>
      </trkpt>
      <trkpt lat="50.48700250" lon="7.853827930">
        <ele>299.00000</ele>
      </trkpt>
      <trkpt lat="50.48661250" lon="7.852132690">
        <ele>292.00000</ele>
      </trkpt>
      <trkpt lat="50.48640190" lon="7.851426600">
        <ele>292.00000</ele>
      </trkpt>
      <trkpt lat="50.48628580" lon="7.851077910">
        <ele>292.00000</ele>
      </trkpt>
      <trkpt lat="50.48573210" lon="7.849114030">
        <ele>293.00000</ele>
      </trkpt>
      <trkpt lat="50.48543940" lon="7.848883860">
        <ele>294.00000</ele>
      </trkpt>
      <trkpt lat="50.48514580" lon="7.848626370">
        <ele>295.00000</ele>
      </trkpt>
      <trkpt lat="50.48302960" lon="7.845836870">
        <ele>283.00000</ele>
      </trkpt>
      <trkpt lat="50.48282820" lon="7.845654480">
        <ele>282.00000</ele>
      </trkpt>
      <trkpt lat="50.48256530" lon="7.845568650">
        <ele>283.00000</ele>
      </trkpt>
      <trkpt lat="50.48155490" lon="7.845697400">
        <ele>284.00000</ele>
      </trkpt>
      <trkpt lat="50.48125450" lon="7.845718860">
        <ele>285.00000</ele>
      </trkpt>
      <trkpt lat="50.48084490" lon="7.845525740">
        <ele>283.00000</ele>
      </trkpt>
      <trkpt lat="50.48040800" lon="7.845139500">
        <ele>279.00000</ele>
      </trkpt>
      <trkpt lat="50.47995740" lon="7.844882010">
        <ele>278.00000</ele>
      </trkpt>
      <trkpt lat="50.47904930" lon="7.844892740">
        <ele>279.00000</ele>
      </trkpt>
      <trkpt lat="50.47799110" lon="7.844624510">
        <ele>278.00000</ele>
      </trkpt>
      <trkpt lat="50.47759510" lon="7.844367020">
        <ele>278.00000</ele>
      </trkpt>
      <trkpt lat="50.47749270" lon="7.844259730">
        <ele>278.00000</ele>
      </trkpt>
      <trkpt lat="50.47750630" lon="7.844109530">
        <ele>278.00000</ele>
      </trkpt>
      <trkpt lat="50.47759510" lon="7.843782300">
        <ele>278.00000</ele>
      </trkpt>
      <trkpt lat="50.47747560" lon="7.843717930">
        <ele>279.00000</ele>
      </trkpt>
      <trkpt lat="50.47687820" lon="7.843803760">
        <ele>281.00000</ele>
      </trkpt>
      <trkpt lat="50.47724000" lon="7.844082710">
        <ele>280.00000</ele>
      </trkpt>
      <trkpt lat="50.47719220" lon="7.844227550">
        <ele>281.00000</ele>
      </trkpt>
      <trkpt lat="50.47620900" lon="7.844683520">
        <ele>291.00000</ele>
      </trkpt>
      <trkpt lat="50.47594620" lon="7.844747900">
        <ele>292.00000</ele>
      </trkpt>
      <trkpt lat="50.47560480" lon="7.844860550">
        <ele>293.00000</ele>
      </trkpt>
      <trkpt lat="50.47545460" lon="7.844812270">
        <ele>293.00000</ele>
      </trkpt>
      <trkpt lat="50.47536240" lon="7.842897170">
        <ele>288.00000</ele>
      </trkpt>
      <trkpt lat="50.47483660" lon="7.842950820">
        <ele>288.00000</ele>
      </trkpt>
      <trkpt lat="50.47403420" lon="7.842940090">
        <ele>286.00000</ele>
      </trkpt>
      <trkpt lat="50.47399680" lon="7.842607490">
        <ele>284.00000</ele>
      </trkpt>
      <trkpt lat="50.47340950" lon="7.842655770">
        <ele>281.00000</ele>
      </trkpt>
      <trkpt lat="50.47349140" lon="7.844029060">
        <ele>285.00000</ele>
      </trkpt>
      <trkpt lat="50.47334470" lon="7.844823000">
        <ele>288.00000</ele>
      </trkpt>
      <trkpt lat="50.47330370" lon="7.845042940">
        <ele>289.00000</ele>
      </trkpt>
      <trkpt lat="50.47308690" lon="7.845627330">
        <ele>292.00000</ele>
      </trkpt>
      <trkpt lat="50.47312280" lon="7.846244570">
        <ele>296.00000</ele>
      </trkpt>
      <trkpt lat="50.47306820" lon="7.846523520">
        <ele>297.00000</ele>
      </trkpt>
      <trkpt lat="50.47298620" lon="7.846598620">
        <ele>299.00000</ele>
      </trkpt>
      <trkpt lat="50.47213950" lon="7.846148010">
        <ele>288.00000</ele>
      </trkpt>
      <trkpt lat="50.47168200" lon="7.845761770">
        <ele>283.00000</ele>
      </trkpt>
      <trkpt lat="50.47139520" lon="7.845761770">
        <ele>282.00000</ele>
      </trkpt>
      <trkpt lat="50.47116990" lon="7.845858330">
        <ele>281.00000</ele>
      </trkpt>
      <trkpt lat="50.47091040" lon="7.846126550">
        <ele>281.00000</ele>
      </trkpt>
      <trkpt lat="50.47058940" lon="7.846169470">
        <ele>282.00000</ele>
      </trkpt>
      <trkpt lat="50.47147710" lon="7.849355930">
        <ele>291.00000</ele>
      </trkpt>
      <trkpt lat="50.47263800" lon="7.849795810">
        <ele>295.00000</ele>
      </trkpt>
      <trkpt lat="50.47304770" lon="7.849709980">
        <ele>296.00000</ele>
      </trkpt>
      <trkpt lat="50.47294230" lon="7.851013370">
        <ele>290.00000</ele>
      </trkpt>
      <trkpt lat="50.47291730" lon="7.854653880">
        <ele>273.00000</ele>
      </trkpt>
      <trkpt lat="50.47292470" lon="7.855771780">
        <ele>272.00000</ele>
      </trkpt>
      <trkpt lat="50.47298950" lon="7.856651540">
        <ele>269.00000</ele>
      </trkpt>
      <trkpt lat="50.47294170" lon="7.856930490">
        <ele>269.00000</ele>
      </trkpt>
      <trkpt lat="50.47284960" lon="7.857560810">
        <ele>268.00000</ele>
      </trkpt>
      <trkpt lat="50.47290430" lon="7.858405700">
        <ele>267.00000</ele>
      </trkpt>
      <trkpt lat="50.47291110" lon="7.858990430">
        <ele>266.00000</ele>
      </trkpt>
      <trkpt lat="50.47275750" lon="7.859022610">
        <ele>265.00000</ele>
      </trkpt>
      <trkpt lat="50.47261750" lon="7.859001150">
        <ele>265.00000</ele>
      </trkpt>
      <trkpt lat="50.47229310" lon="7.858845590">
        <ele>265.00000</ele>
      </trkpt>
      <trkpt lat="50.47216000" lon="7.859387390">
        <ele>262.00000</ele>
      </trkpt>
    </trkseg>
  </trk>
</gpx>
