<?xml version="1.0" encoding="UTF-8" standalone="yes"?>
<gpx version="1.1" creator="outdooractive - http://www.outdooractive.com" xmlns="http://www.topografix.com/GPX/1/1" xmlns:xsi="http://www.w3.org/2001/XMLSchema-instance" xsi:schemaLocation="http://www.topografix.com/GPX/1/1 http://www.topografix.com/GPX/1/1/gpx.xsd" xmlns:oa="http://www.outdooractive.com/GPX/Extensions/1">
  <metadata>
    <name>Kirchen (Sieg): Ottoturm-Rundwanderweg - Tour mit Rundum-Blick</name>
    <author>
      <name>Sven Wolff (TI Kirchen (Sieg)) - Westerwald Touristik-Service</name>
    </author>
    <link href="https://www.outdooractive.com/r/45007826"/>
    <time>2021-10-22T03:21:25.18</time>
    <extensions>
      <oa:oaCategory>hikingTourTrail</oa:oaCategory>
    </extensions>
  </metadata>
  <trk>
    <name>Kirchen (Sieg): Ottoturm-Rundwanderweg - Tour mit Rundum-Blick</name>
    <desc>Gemütliche Wanderung zum 19 Meter hohen Ottoturm mit hervorragender Fernsicht ins Siegtal, zur Freusburg und zum Westerwald. Erklimm die 102 Stufen des Turms - es lohnt sich!</desc>
    <type>hikingTourTrail</type>
    <trkseg>
      <trkpt lat="50.806511" lon="7.879632">
        <ele>192.3</ele>
        <name>50.806511,7.879632</name>
        <extensions>
          <oa:mapZoom>14</oa:mapZoom>
        </extensions>
      </trkpt>
      <trkpt lat="50.806556" lon="7.879527">
        <ele>192.3</ele>
      </trkpt>
      <trkpt lat="50.806726" lon="7.879144">
        <ele>192.3</ele>
      </trkpt>
      <trkpt lat="50.806896" lon="7.87876">
        <ele>192.0</ele>
      </trkpt>
      <trkpt lat="50.80699" lon="7.878584">
        <ele>191.9</ele>
      </trkpt>
      <trkpt lat="50.807168" lon="7.878318">
        <ele>191.8</ele>
      </trkpt>
      <trkpt lat="50.807407" lon="7.878183">
        <ele>191.2</ele>
      </trkpt>
      <trkpt lat="50.807519" lon="7.878108">
        <ele>190.3</ele>
      </trkpt>
      <trkpt lat="50.807646" lon="7.87807">
        <ele>189.4</ele>
      </trkpt>
      <trkpt lat="50.808057" lon="7.878029">
        <ele>186.7</ele>
      </trkpt>
      <trkpt lat="50.808199" lon="7.878056">
        <ele>186.5</ele>
      </trkpt>
      <trkpt lat="50.80829" lon="7.878082">
        <ele>186.5</ele>
      </trkpt>
      <trkpt lat="50.808409" lon="7.87814">
        <ele>186.6</ele>
      </trkpt>
      <trkpt lat="50.808474" lon="7.878218">
        <ele>186.9</ele>
      </trkpt>
      <trkpt lat="50.808515" lon="7.878266">
        <ele>187.1</ele>
      </trkpt>
      <trkpt lat="50.808633" lon="7.878497">
        <ele>190.0</ele>
      </trkpt>
      <trkpt lat="50.808704" lon="7.878643">
        <ele>191.4</ele>
      </trkpt>
      <trkpt lat="50.808739" lon="7.878716">
        <ele>191.4</ele>
      </trkpt>
      <trkpt lat="50.808758" lon="7.878773">
        <ele>191.2</ele>
      </trkpt>
      <trkpt lat="50.808844" lon="7.879018">
        <ele>190.8</ele>
      </trkpt>
      <trkpt lat="50.808976" lon="7.879577">
        <ele>195.7</ele>
      </trkpt>
      <trkpt lat="50.809036" lon="7.879761">
        <ele>196.4</ele>
      </trkpt>
      <trkpt lat="50.809113" lon="7.879952">
        <ele>196.4</ele>
      </trkpt>
      <trkpt lat="50.8092" lon="7.880119">
        <ele>195.4</ele>
      </trkpt>
      <trkpt lat="50.809292" lon="7.88023">
        <ele>193.0</ele>
      </trkpt>
      <trkpt lat="50.809386" lon="7.880338">
        <ele>189.6</ele>
      </trkpt>
      <trkpt lat="50.809469" lon="7.880241">
        <ele>187.2</ele>
      </trkpt>
      <trkpt lat="50.80953" lon="7.880181">
        <ele>187.1</ele>
      </trkpt>
      <trkpt lat="50.809607" lon="7.880106">
        <ele>187.1</ele>
      </trkpt>
      <trkpt lat="50.809692" lon="7.880013">
        <ele>187.1</ele>
      </trkpt>
      <trkpt lat="50.80976" lon="7.879938">
        <ele>187.0</ele>
      </trkpt>
      <trkpt lat="50.809818" lon="7.879894">
        <ele>187.5</ele>
      </trkpt>
      <trkpt lat="50.809996" lon="7.880275">
        <ele>187.8</ele>
      </trkpt>
      <trkpt lat="50.810174" lon="7.880655">
        <ele>187.9</ele>
      </trkpt>
      <trkpt lat="50.810121" lon="7.880784">
        <ele>187.5</ele>
      </trkpt>
      <trkpt lat="50.810269" lon="7.881228">
        <ele>187.2</ele>
      </trkpt>
      <trkpt lat="50.810401" lon="7.881529">
        <ele>187.2</ele>
      </trkpt>
      <trkpt lat="50.810534" lon="7.88183">
        <ele>187.2</ele>
      </trkpt>
      <trkpt lat="50.810583" lon="7.881912">
        <ele>187.2</ele>
      </trkpt>
      <trkpt lat="50.81069" lon="7.882093">
        <ele>187.3</ele>
      </trkpt>
      <trkpt lat="50.810911" lon="7.882402">
        <ele>187.5</ele>
      </trkpt>
      <trkpt lat="50.811047" lon="7.882543">
        <ele>187.6</ele>
      </trkpt>
      <trkpt lat="50.811205" lon="7.882687">
        <ele>187.7</ele>
      </trkpt>
      <trkpt lat="50.811319" lon="7.882814">
        <ele>187.7</ele>
      </trkpt>
      <trkpt lat="50.811438" lon="7.882939">
        <ele>187.7</ele>
      </trkpt>
      <trkpt lat="50.811642" lon="7.883128">
        <ele>187.8</ele>
      </trkpt>
      <trkpt lat="50.811846" lon="7.883317">
        <ele>187.8</ele>
      </trkpt>
      <trkpt lat="50.81212" lon="7.883548">
        <ele>187.9</ele>
      </trkpt>
      <trkpt lat="50.812394" lon="7.883779">
        <ele>187.8</ele>
      </trkpt>
      <trkpt lat="50.812643" lon="7.883963">
        <ele>187.8</ele>
      </trkpt>
      <trkpt lat="50.812814" lon="7.884047">
        <ele>187.8</ele>
      </trkpt>
      <trkpt lat="50.812869" lon="7.884066">
        <ele>187.9</ele>
      </trkpt>
      <trkpt lat="50.812961" lon="7.884085">
        <ele>187.9</ele>
      </trkpt>
      <trkpt lat="50.813085" lon="7.883914">
        <ele>187.9</ele>
      </trkpt>
      <trkpt lat="50.813085" lon="7.883914">
        <ele>187.9</ele>
        <name>50.813085,7.883914</name>
        <extensions>
          <oa:mapZoom>14</oa:mapZoom>
        </extensions>
      </trkpt>
      <trkpt lat="50.813275" lon="7.883458">
        <ele>188.0</ele>
      </trkpt>
      <trkpt lat="50.813465" lon="7.883001">
        <ele>188.1</ele>
      </trkpt>
      <trkpt lat="50.813749" lon="7.883319">
        <ele>188.1</ele>
      </trkpt>
      <trkpt lat="50.813809" lon="7.883372">
        <ele>188.1</ele>
      </trkpt>
      <trkpt lat="50.813869" lon="7.883399">
        <ele>188.0</ele>
      </trkpt>
      <trkpt lat="50.813911" lon="7.883396">
        <ele>188.0</ele>
      </trkpt>
      <trkpt lat="50.813957" lon="7.883343">
        <ele>188.0</ele>
      </trkpt>
      <trkpt lat="50.813996" lon="7.883426">
        <ele>188.0</ele>
      </trkpt>
      <trkpt lat="50.814008" lon="7.883452">
        <ele>188.0</ele>
      </trkpt>
      <trkpt lat="50.814091" lon="7.883683">
        <ele>188.0</ele>
      </trkpt>
      <trkpt lat="50.814131" lon="7.883799">
        <ele>188.0</ele>
      </trkpt>
      <trkpt lat="50.81416" lon="7.883878">
        <ele>188.0</ele>
      </trkpt>
      <trkpt lat="50.814239" lon="7.884091">
        <ele>188.0</ele>
      </trkpt>
      <trkpt lat="50.814326" lon="7.884433">
        <ele>188.4</ele>
      </trkpt>
      <trkpt lat="50.814434" lon="7.884894">
        <ele>189.1</ele>
      </trkpt>
      <trkpt lat="50.814542" lon="7.885355">
        <ele>193.3</ele>
      </trkpt>
      <trkpt lat="50.81465" lon="7.88542">
        <ele>194.5</ele>
      </trkpt>
      <trkpt lat="50.814901" lon="7.885517">
        <ele>195.9</ele>
      </trkpt>
      <trkpt lat="50.815254" lon="7.885629">
        <ele>197.5</ele>
      </trkpt>
      <trkpt lat="50.81529" lon="7.885642">
        <ele>197.7</ele>
      </trkpt>
      <trkpt lat="50.815575" lon="7.885651">
        <ele>197.5</ele>
      </trkpt>
      <trkpt lat="50.815771" lon="7.885636">
        <ele>196.6</ele>
      </trkpt>
      <trkpt lat="50.815938" lon="7.885615">
        <ele>195.7</ele>
      </trkpt>
      <trkpt lat="50.816147" lon="7.88556">
        <ele>194.7</ele>
      </trkpt>
      <trkpt lat="50.816394" lon="7.885472">
        <ele>193.9</ele>
      </trkpt>
      <trkpt lat="50.816463" lon="7.885445">
        <ele>193.7</ele>
      </trkpt>
      <trkpt lat="50.816757" lon="7.885216">
        <ele>191.8</ele>
      </trkpt>
      <trkpt lat="50.816854" lon="7.885129">
        <ele>191.5</ele>
      </trkpt>
      <trkpt lat="50.816896" lon="7.885091">
        <ele>191.4</ele>
      </trkpt>
      <trkpt lat="50.816981" lon="7.884998">
        <ele>191.2</ele>
      </trkpt>
      <trkpt lat="50.817057" lon="7.885078">
        <ele>191.9</ele>
      </trkpt>
      <trkpt lat="50.817111" lon="7.885081">
        <ele>192.3</ele>
      </trkpt>
      <trkpt lat="50.817343" lon="7.884922">
        <ele>192.8</ele>
      </trkpt>
      <trkpt lat="50.817472" lon="7.884817">
        <ele>193.0</ele>
      </trkpt>
      <trkpt lat="50.81752" lon="7.884775">
        <ele>193.0</ele>
      </trkpt>
      <trkpt lat="50.817606" lon="7.884708">
        <ele>193.1</ele>
      </trkpt>
      <trkpt lat="50.817606" lon="7.884708">
        <ele>193.1</ele>
        <name>50.817606,7.884708</name>
        <extensions>
          <oa:mapZoom>14</oa:mapZoom>
        </extensions>
      </trkpt>
      <trkpt lat="50.817606" lon="7.884707">
        <ele>193.1</ele>
      </trkpt>
      <trkpt lat="50.817983" lon="7.884383">
        <ele>193.2</ele>
      </trkpt>
      <trkpt lat="50.818231" lon="7.884131">
        <ele>192.8</ele>
      </trkpt>
      <trkpt lat="50.818405" lon="7.883988">
        <ele>193.0</ele>
      </trkpt>
      <trkpt lat="50.818783" lon="7.883611">
        <ele>192.5</ele>
      </trkpt>
      <trkpt lat="50.819161" lon="7.883235">
        <ele>193.1</ele>
      </trkpt>
      <trkpt lat="50.819538" lon="7.882858">
        <ele>194.5</ele>
      </trkpt>
      <trkpt lat="50.819916" lon="7.882481">
        <ele>196.3</ele>
      </trkpt>
      <trkpt lat="50.820109" lon="7.88219">
        <ele>195.6</ele>
      </trkpt>
      <trkpt lat="50.820301" lon="7.881899">
        <ele>195.1</ele>
      </trkpt>
      <trkpt lat="50.820443" lon="7.881683">
        <ele>194.7</ele>
      </trkpt>
      <trkpt lat="50.820457" lon="7.881583">
        <ele>193.7</ele>
      </trkpt>
      <trkpt lat="50.820493" lon="7.881452">
        <ele>192.9</ele>
      </trkpt>
      <trkpt lat="50.82056" lon="7.881346">
        <ele>192.8</ele>
      </trkpt>
      <trkpt lat="50.82076" lon="7.881156">
        <ele>193.0</ele>
      </trkpt>
      <trkpt lat="50.820847" lon="7.881097">
        <ele>193.3</ele>
      </trkpt>
      <trkpt lat="50.820876" lon="7.881064">
        <ele>193.3</ele>
      </trkpt>
      <trkpt lat="50.820895" lon="7.880994">
        <ele>192.7</ele>
      </trkpt>
      <trkpt lat="50.8209" lon="7.880905">
        <ele>191.9</ele>
      </trkpt>
      <trkpt lat="50.820923" lon="7.880756">
        <ele>191.2</ele>
      </trkpt>
      <trkpt lat="50.820964" lon="7.880641">
        <ele>191.0</ele>
      </trkpt>
      <trkpt lat="50.821037" lon="7.880645">
        <ele>191.2</ele>
      </trkpt>
      <trkpt lat="50.821089" lon="7.880632">
        <ele>191.3</ele>
      </trkpt>
      <trkpt lat="50.821139" lon="7.880603">
        <ele>191.4</ele>
      </trkpt>
      <trkpt lat="50.821281" lon="7.880483">
        <ele>191.4</ele>
      </trkpt>
      <trkpt lat="50.821342" lon="7.880448">
        <ele>191.5</ele>
      </trkpt>
      <trkpt lat="50.821569" lon="7.880315">
        <ele>191.9</ele>
      </trkpt>
      <trkpt lat="50.821796" lon="7.880182">
        <ele>192.2</ele>
      </trkpt>
      <trkpt lat="50.822119" lon="7.879922">
        <ele>191.4</ele>
      </trkpt>
      <trkpt lat="50.822119" lon="7.879922">
        <ele>191.4</ele>
        <name>50.822119,7.879922</name>
        <extensions>
          <oa:mapZoom>14</oa:mapZoom>
        </extensions>
      </trkpt>
      <trkpt lat="50.822119" lon="7.879921">
        <ele>191.4</ele>
      </trkpt>
      <trkpt lat="50.822138" lon="7.880007">
        <ele>191.8</ele>
      </trkpt>
      <trkpt lat="50.822154" lon="7.880084">
        <ele>192.4</ele>
      </trkpt>
      <trkpt lat="50.822159" lon="7.880123">
        <ele>192.8</ele>
      </trkpt>
      <trkpt lat="50.822167" lon="7.880183">
        <ele>193.4</ele>
      </trkpt>
      <trkpt lat="50.82215" lon="7.880268">
        <ele>194.4</ele>
      </trkpt>
      <trkpt lat="50.82209" lon="7.880373">
        <ele>195.6</ele>
      </trkpt>
      <trkpt lat="50.822057" lon="7.880416">
        <ele>196.0</ele>
      </trkpt>
      <trkpt lat="50.821826" lon="7.880709">
        <ele>199.0</ele>
      </trkpt>
      <trkpt lat="50.821684" lon="7.880858">
        <ele>200.2</ele>
      </trkpt>
      <trkpt lat="50.821527" lon="7.881049">
        <ele>201.0</ele>
      </trkpt>
      <trkpt lat="50.821359" lon="7.88121">
        <ele>201.0</ele>
      </trkpt>
      <trkpt lat="50.821343" lon="7.881447">
        <ele>202.6</ele>
      </trkpt>
      <trkpt lat="50.821341" lon="7.881977">
        <ele>208.3</ele>
      </trkpt>
      <trkpt lat="50.821295" lon="7.882093">
        <ele>209.9</ele>
      </trkpt>
      <trkpt lat="50.821133" lon="7.882358">
        <ele>213.6</ele>
      </trkpt>
      <trkpt lat="50.821042" lon="7.882499">
        <ele>215.6</ele>
      </trkpt>
      <trkpt lat="50.820896" lon="7.882728">
        <ele>218.8</ele>
      </trkpt>
      <trkpt lat="50.820656" lon="7.883052">
        <ele>223.3</ele>
      </trkpt>
      <trkpt lat="50.820432" lon="7.883298">
        <ele>225.4</ele>
      </trkpt>
      <trkpt lat="50.820209" lon="7.883543">
        <ele>226.0</ele>
      </trkpt>
      <trkpt lat="50.819919" lon="7.883894">
        <ele>227.2</ele>
      </trkpt>
      <trkpt lat="50.819653" lon="7.884219">
        <ele>228.2</ele>
      </trkpt>
      <trkpt lat="50.819386" lon="7.884544">
        <ele>229.1</ele>
      </trkpt>
      <trkpt lat="50.819157" lon="7.884802">
        <ele>229.8</ele>
      </trkpt>
      <trkpt lat="50.818929" lon="7.885061">
        <ele>230.1</ele>
      </trkpt>
      <trkpt lat="50.818722" lon="7.885294">
        <ele>230.4</ele>
      </trkpt>
      <trkpt lat="50.818443" lon="7.885569">
        <ele>230.6</ele>
      </trkpt>
      <trkpt lat="50.818163" lon="7.885844">
        <ele>230.7</ele>
      </trkpt>
      <trkpt lat="50.817927" lon="7.886003">
        <ele>230.6</ele>
      </trkpt>
      <trkpt lat="50.81769" lon="7.886161">
        <ele>231.1</ele>
      </trkpt>
      <trkpt lat="50.817443" lon="7.88631">
        <ele>232.8</ele>
      </trkpt>
      <trkpt lat="50.817199" lon="7.886495">
        <ele>234.9</ele>
      </trkpt>
      <trkpt lat="50.81719" lon="7.886502">
        <ele>234.9</ele>
      </trkpt>
      <trkpt lat="50.816991" lon="7.886663">
        <ele>236.6</ele>
      </trkpt>
      <trkpt lat="50.81685" lon="7.886815">
        <ele>237.9</ele>
      </trkpt>
      <trkpt lat="50.816649" lon="7.887006">
        <ele>239.9</ele>
      </trkpt>
      <trkpt lat="50.816342" lon="7.887149">
        <ele>243.1</ele>
      </trkpt>
      <trkpt lat="50.815954" lon="7.887364">
        <ele>247.5</ele>
      </trkpt>
      <trkpt lat="50.815565" lon="7.887579">
        <ele>251.5</ele>
      </trkpt>
      <trkpt lat="50.815287" lon="7.887743">
        <ele>253.5</ele>
      </trkpt>
      <trkpt lat="50.815097" lon="7.887848">
        <ele>254.8</ele>
      </trkpt>
      <trkpt lat="50.814833" lon="7.888006">
        <ele>259.0</ele>
      </trkpt>
      <trkpt lat="50.814568" lon="7.888164">
        <ele>262.9</ele>
      </trkpt>
      <trkpt lat="50.814439" lon="7.888219">
        <ele>264.3</ele>
      </trkpt>
      <trkpt lat="50.814183" lon="7.888276">
        <ele>266.1</ele>
      </trkpt>
      <trkpt lat="50.814273" lon="7.888576">
        <ele>266.1</ele>
      </trkpt>
      <trkpt lat="50.81437" lon="7.888946">
        <ele>265.9</ele>
      </trkpt>
      <trkpt lat="50.814463" lon="7.889399">
        <ele>264.4</ele>
      </trkpt>
      <trkpt lat="50.814251" lon="7.889986">
        <ele>264.2</ele>
      </trkpt>
      <trkpt lat="50.814039" lon="7.890574">
        <ele>264.0</ele>
      </trkpt>
      <trkpt lat="50.813976" lon="7.890772">
        <ele>263.7</ele>
      </trkpt>
      <trkpt lat="50.813789" lon="7.891353">
        <ele>263.0</ele>
      </trkpt>
      <trkpt lat="50.813687" lon="7.89165">
        <ele>263.0</ele>
      </trkpt>
      <trkpt lat="50.813599" lon="7.892205">
        <ele>262.0</ele>
      </trkpt>
      <trkpt lat="50.813511" lon="7.89276">
        <ele>262.2</ele>
      </trkpt>
      <trkpt lat="50.813464" lon="7.893326">
        <ele>261.2</ele>
      </trkpt>
      <trkpt lat="50.813417" lon="7.893892">
        <ele>259.5</ele>
      </trkpt>
      <trkpt lat="50.813377" lon="7.894299">
        <ele>258.2</ele>
      </trkpt>
      <trkpt lat="50.813337" lon="7.894705">
        <ele>256.4</ele>
      </trkpt>
      <trkpt lat="50.813201" lon="7.895167">
        <ele>255.5</ele>
      </trkpt>
      <trkpt lat="50.813165" lon="7.895275">
        <ele>255.3</ele>
      </trkpt>
      <trkpt lat="50.813025" lon="7.895591">
        <ele>255.0</ele>
      </trkpt>
      <trkpt lat="50.812886" lon="7.895908">
        <ele>255.3</ele>
      </trkpt>
      <trkpt lat="50.812802" lon="7.896217">
        <ele>254.3</ele>
      </trkpt>
      <trkpt lat="50.812736" lon="7.896737">
        <ele>251.1</ele>
      </trkpt>
      <trkpt lat="50.812638" lon="7.896919">
        <ele>251.5</ele>
      </trkpt>
      <trkpt lat="50.812307" lon="7.897213">
        <ele>255.8</ele>
      </trkpt>
      <trkpt lat="50.812226" lon="7.897234">
        <ele>257.8</ele>
      </trkpt>
      <trkpt lat="50.812158" lon="7.897239">
        <ele>259.7</ele>
      </trkpt>
      <trkpt lat="50.812222" lon="7.897066">
        <ele>260.0</ele>
      </trkpt>
      <trkpt lat="50.812243" lon="7.896901">
        <ele>261.7</ele>
      </trkpt>
      <trkpt lat="50.812237" lon="7.896734">
        <ele>264.0</ele>
      </trkpt>
      <trkpt lat="50.812191" lon="7.896575">
        <ele>266.3</ele>
      </trkpt>
      <trkpt lat="50.812143" lon="7.896463">
        <ele>267.8</ele>
      </trkpt>
      <trkpt lat="50.811951" lon="7.896038">
        <ele>273.4</ele>
      </trkpt>
      <trkpt lat="50.811861" lon="7.895885">
        <ele>275.3</ele>
      </trkpt>
      <trkpt lat="50.811746" lon="7.895698">
        <ele>277.5</ele>
      </trkpt>
      <trkpt lat="50.811664" lon="7.895608">
        <ele>278.8</ele>
      </trkpt>
      <trkpt lat="50.811378" lon="7.895945">
        <ele>281.7</ele>
      </trkpt>
      <trkpt lat="50.811092" lon="7.896283">
        <ele>285.4</ele>
      </trkpt>
      <trkpt lat="50.810806" lon="7.89662">
        <ele>288.8</ele>
      </trkpt>
      <trkpt lat="50.81072" lon="7.896717">
        <ele>289.8</ele>
      </trkpt>
      <trkpt lat="50.810566" lon="7.896899">
        <ele>292.4</ele>
      </trkpt>
      <trkpt lat="50.810542" lon="7.897021">
        <ele>293.1</ele>
      </trkpt>
      <trkpt lat="50.810529" lon="7.897115">
        <ele>293.5</ele>
      </trkpt>
      <trkpt lat="50.81053" lon="7.897483">
        <ele>294.1</ele>
      </trkpt>
      <trkpt lat="50.81053" lon="7.897483">
        <ele>294.1</ele>
        <name>50.810530,7.897483</name>
        <extensions>
          <oa:mapZoom>14</oa:mapZoom>
        </extensions>
      </trkpt>
      <trkpt lat="50.810377" lon="7.897102">
        <ele>296.7</ele>
      </trkpt>
      <trkpt lat="50.810193" lon="7.896622">
        <ele>298.2</ele>
      </trkpt>
      <trkpt lat="50.81001" lon="7.896141">
        <ele>298.2</ele>
      </trkpt>
      <trkpt lat="50.809827" lon="7.895661">
        <ele>296.8</ele>
      </trkpt>
      <trkpt lat="50.809632" lon="7.895969">
        <ele>301.8</ele>
      </trkpt>
      <trkpt lat="50.809639" lon="7.896371">
        <ele>305.0</ele>
      </trkpt>
      <trkpt lat="50.80961" lon="7.896894">
        <ele>309.7</ele>
      </trkpt>
      <trkpt lat="50.809557" lon="7.897358">
        <ele>313.8</ele>
      </trkpt>
      <trkpt lat="50.809505" lon="7.897821">
        <ele>317.2</ele>
      </trkpt>
      <trkpt lat="50.809436" lon="7.898335">
        <ele>320.1</ele>
      </trkpt>
      <trkpt lat="50.809367" lon="7.898848">
        <ele>321.9</ele>
      </trkpt>
      <trkpt lat="50.809343" lon="7.898855">
        <ele>322.4</ele>
      </trkpt>
      <trkpt lat="50.809316" lon="7.899218">
        <ele>322.7</ele>
      </trkpt>
      <trkpt lat="50.809289" lon="7.89958">
        <ele>322.4</ele>
      </trkpt>
      <trkpt lat="50.809289" lon="7.89958">
        <ele>322.4</ele>
        <name>50.809289,7.899580</name>
        <extensions>
          <oa:mapZoom>14</oa:mapZoom>
        </extensions>
      </trkpt>
      <trkpt lat="50.809225" lon="7.900137">
        <ele>321.6</ele>
      </trkpt>
      <trkpt lat="50.809185" lon="7.900405">
        <ele>321.4</ele>
      </trkpt>
      <trkpt lat="50.809117" lon="7.900659">
        <ele>322.1</ele>
      </trkpt>
      <trkpt lat="50.808994" lon="7.900991">
        <ele>323.8</ele>
      </trkpt>
      <trkpt lat="50.808873" lon="7.901319">
        <ele>325.3</ele>
      </trkpt>
      <trkpt lat="50.808773" lon="7.901694">
        <ele>325.7</ele>
      </trkpt>
      <trkpt lat="50.808639" lon="7.902357">
        <ele>324.7</ele>
      </trkpt>
      <trkpt lat="50.80859" lon="7.902621">
        <ele>323.9</ele>
      </trkpt>
      <trkpt lat="50.808518" lon="7.902844">
        <ele>324.0</ele>
      </trkpt>
      <trkpt lat="50.808413" lon="7.903017">
        <ele>325.5</ele>
      </trkpt>
      <trkpt lat="50.80827" lon="7.903181">
        <ele>328.2</ele>
      </trkpt>
      <trkpt lat="50.808153" lon="7.903256">
        <ele>330.9</ele>
      </trkpt>
      <trkpt lat="50.808026" lon="7.90326">
        <ele>334.5</ele>
      </trkpt>
      <trkpt lat="50.807888" lon="7.903221">
        <ele>338.9</ele>
      </trkpt>
      <trkpt lat="50.807757" lon="7.903261">
        <ele>342.5</ele>
      </trkpt>
      <trkpt lat="50.807699" lon="7.903248">
        <ele>344.3</ele>
      </trkpt>
      <trkpt lat="50.807546" lon="7.903161">
        <ele>349.4</ele>
      </trkpt>
      <trkpt lat="50.807386" lon="7.903043">
        <ele>354.9</ele>
      </trkpt>
      <trkpt lat="50.807257" lon="7.902987">
        <ele>359.0</ele>
      </trkpt>
      <trkpt lat="50.807251" lon="7.902885">
        <ele>359.7</ele>
      </trkpt>
      <trkpt lat="50.807202" lon="7.902447">
        <ele>362.3</ele>
      </trkpt>
      <trkpt lat="50.807153" lon="7.90201">
        <ele>363.6</ele>
      </trkpt>
      <trkpt lat="50.807153" lon="7.90201">
        <ele>363.6</ele>
        <name>50.807153,7.902010</name>
        <extensions>
          <oa:mapZoom>14</oa:mapZoom>
        </extensions>
      </trkpt>
      <trkpt lat="50.807034" lon="7.901535">
        <ele>365.7</ele>
      </trkpt>
      <trkpt lat="50.806916" lon="7.90106">
        <ele>366.9</ele>
      </trkpt>
      <trkpt lat="50.806751" lon="7.900646">
        <ele>368.4</ele>
      </trkpt>
      <trkpt lat="50.806586" lon="7.900232">
        <ele>369.3</ele>
      </trkpt>
      <trkpt lat="50.806552" lon="7.900147">
        <ele>369.5</ele>
      </trkpt>
      <trkpt lat="50.806346" lon="7.899708">
        <ele>370.5</ele>
      </trkpt>
      <trkpt lat="50.806139" lon="7.89927">
        <ele>371.2</ele>
      </trkpt>
      <trkpt lat="50.805932" lon="7.898831">
        <ele>371.6</ele>
      </trkpt>
      <trkpt lat="50.805759" lon="7.899025">
        <ele>375.5</ele>
      </trkpt>
      <trkpt lat="50.805759" lon="7.899025">
        <ele>375.5</ele>
        <name>50.805759,7.899025</name>
        <extensions>
          <oa:mapZoom>16</oa:mapZoom>
        </extensions>
      </trkpt>
      <trkpt lat="50.805464" lon="7.899444">
        <ele>381.9</ele>
      </trkpt>
      <trkpt lat="50.805168" lon="7.899864">
        <ele>387.4</ele>
      </trkpt>
      <trkpt lat="50.80513" lon="7.899908">
        <ele>387.9</ele>
      </trkpt>
      <trkpt lat="50.805019" lon="7.900135">
        <ele>389.2</ele>
      </trkpt>
      <trkpt lat="50.805028" lon="7.900241">
        <ele>389.8</ele>
      </trkpt>
      <trkpt lat="50.805113" lon="7.900359">
        <ele>390.5</ele>
      </trkpt>
      <trkpt lat="50.805197" lon="7.900585">
        <ele>391.4</ele>
      </trkpt>
      <trkpt lat="50.805293" lon="7.900912">
        <ele>392.4</ele>
      </trkpt>
      <trkpt lat="50.805363" lon="7.901109">
        <ele>392.7</ele>
      </trkpt>
      <trkpt lat="50.80545" lon="7.901326">
        <ele>392.7</ele>
      </trkpt>
      <trkpt lat="50.805517" lon="7.901521">
        <ele>393.0</ele>
      </trkpt>
      <trkpt lat="50.805587" lon="7.901702">
        <ele>393.2</ele>
      </trkpt>
      <trkpt lat="50.805501" lon="7.901989">
        <ele>396.2</ele>
      </trkpt>
      <trkpt lat="50.805393" lon="7.902131">
        <ele>398.5</ele>
      </trkpt>
      <trkpt lat="50.805359" lon="7.902156">
        <ele>399.0</ele>
      </trkpt>
      <trkpt lat="50.805309" lon="7.902191">
        <ele>399.8</ele>
      </trkpt>
      <trkpt lat="50.805323" lon="7.902222">
        <ele>399.8</ele>
      </trkpt>
      <trkpt lat="50.805325" lon="7.902301">
        <ele>400.3</ele>
      </trkpt>
      <trkpt lat="50.805307" lon="7.902381">
        <ele>401.0</ele>
      </trkpt>
      <trkpt lat="50.805259" lon="7.902496">
        <ele>402.1</ele>
      </trkpt>
      <trkpt lat="50.805144" lon="7.902689">
        <ele>403.5</ele>
      </trkpt>
      <trkpt lat="50.804968" lon="7.902852">
        <ele>403.3</ele>
      </trkpt>
      <trkpt lat="50.804928" lon="7.90332">
        <ele>404.4</ele>
      </trkpt>
      <trkpt lat="50.804866" lon="7.903866">
        <ele>404.5</ele>
      </trkpt>
      <trkpt lat="50.804852" lon="7.904276">
        <ele>404.7</ele>
      </trkpt>
      <trkpt lat="50.804838" lon="7.904686">
        <ele>404.7</ele>
      </trkpt>
      <trkpt lat="50.804877" lon="7.905016">
        <ele>404.8</ele>
      </trkpt>
      <trkpt lat="50.804883" lon="7.905243">
        <ele>404.7</ele>
      </trkpt>
      <trkpt lat="50.804845" lon="7.905753">
        <ele>404.2</ele>
      </trkpt>
      <trkpt lat="50.804787" lon="7.906314">
        <ele>403.7</ele>
      </trkpt>
      <trkpt lat="50.804729" lon="7.906874">
        <ele>403.4</ele>
      </trkpt>
      <trkpt lat="50.804671" lon="7.907435">
        <ele>403.2</ele>
      </trkpt>
      <trkpt lat="50.804643" lon="7.907732">
        <ele>403.1</ele>
      </trkpt>
      <trkpt lat="50.804579" lon="7.907458">
        <ele>402.9</ele>
      </trkpt>
      <trkpt lat="50.804403" lon="7.906844">
        <ele>400.8</ele>
      </trkpt>
      <trkpt lat="50.804223" lon="7.906345">
        <ele>397.7</ele>
      </trkpt>
      <trkpt lat="50.803994" lon="7.905898">
        <ele>393.2</ele>
      </trkpt>
      <trkpt lat="50.803815" lon="7.905627">
        <ele>389.3</ele>
      </trkpt>
      <trkpt lat="50.803789" lon="7.905587">
        <ele>388.6</ele>
      </trkpt>
      <trkpt lat="50.803789" lon="7.905587">
        <ele>388.6</ele>
        <name>50.803789,7.905587</name>
        <extensions>
          <oa:mapZoom>16</oa:mapZoom>
        </extensions>
      </trkpt>
      <trkpt lat="50.803775" lon="7.905566">
        <ele>388.3</ele>
      </trkpt>
      <trkpt lat="50.803854" lon="7.905014">
        <ele>389.2</ele>
      </trkpt>
      <trkpt lat="50.803921" lon="7.904579">
        <ele>390.1</ele>
      </trkpt>
      <trkpt lat="50.804063" lon="7.904124">
        <ele>392.3</ele>
      </trkpt>
      <trkpt lat="50.804205" lon="7.903669">
        <ele>393.9</ele>
      </trkpt>
      <trkpt lat="50.804347" lon="7.903215">
        <ele>395.1</ele>
      </trkpt>
      <trkpt lat="50.80435" lon="7.903198">
        <ele>395.1</ele>
      </trkpt>
      <trkpt lat="50.80435" lon="7.903198">
        <ele>395.1</ele>
        <name>50.804350,7.903198</name>
        <extensions>
          <oa:mapZoom>16</oa:mapZoom>
        </extensions>
      </trkpt>
      <trkpt lat="50.804422" lon="7.902821">
        <ele>394.9</ele>
      </trkpt>
      <trkpt lat="50.804435" lon="7.902417">
        <ele>393.1</ele>
      </trkpt>
      <trkpt lat="50.804425" lon="7.90206">
        <ele>391.1</ele>
      </trkpt>
      <trkpt lat="50.804415" lon="7.901728">
        <ele>389.4</ele>
      </trkpt>
      <trkpt lat="50.804415" lon="7.901728">
        <ele>389.4</ele>
        <name>50.804420,7.901728</name>
        <extensions>
          <oa:mapZoom>16</oa:mapZoom>
        </extensions>
      </trkpt>
      <trkpt lat="50.804414" lon="7.901703">
        <ele>389.3</ele>
      </trkpt>
      <trkpt lat="50.804386" lon="7.901124">
        <ele>386.2</ele>
      </trkpt>
      <trkpt lat="50.804426" lon="7.900691">
        <ele>385.0</ele>
      </trkpt>
      <trkpt lat="50.804492" lon="7.900249">
        <ele>384.1</ele>
      </trkpt>
      <trkpt lat="50.804553" lon="7.899735">
        <ele>382.8</ele>
      </trkpt>
      <trkpt lat="50.804568" lon="7.899396">
        <ele>381.5</ele>
      </trkpt>
      <trkpt lat="50.804564" lon="7.898952">
        <ele>379.6</ele>
      </trkpt>
      <trkpt lat="50.804561" lon="7.898507">
        <ele>377.7</ele>
      </trkpt>
      <trkpt lat="50.804591" lon="7.897957">
        <ele>375.6</ele>
      </trkpt>
      <trkpt lat="50.804601" lon="7.897975">
        <ele>375.8</ele>
      </trkpt>
      <trkpt lat="50.804601" lon="7.897975">
        <ele>375.8</ele>
        <name>50.804615,7.897955</name>
        <extensions>
          <oa:mapZoom>16</oa:mapZoom>
        </extensions>
      </trkpt>
      <trkpt lat="50.804591" lon="7.897957">
        <ele>375.6</ele>
      </trkpt>
      <trkpt lat="50.804443" lon="7.897657">
        <ele>372.5</ele>
      </trkpt>
      <trkpt lat="50.804295" lon="7.897357">
        <ele>368.6</ele>
      </trkpt>
      <trkpt lat="50.804115" lon="7.897031">
        <ele>364.2</ele>
      </trkpt>
      <trkpt lat="50.803934" lon="7.896705">
        <ele>359.3</ele>
      </trkpt>
      <trkpt lat="50.803771" lon="7.896396">
        <ele>354.7</ele>
      </trkpt>
      <trkpt lat="50.803645" lon="7.896208">
        <ele>351.7</ele>
      </trkpt>
      <trkpt lat="50.803452" lon="7.896007">
        <ele>348.1</ele>
      </trkpt>
      <trkpt lat="50.803251" lon="7.895895">
        <ele>345.1</ele>
      </trkpt>
      <trkpt lat="50.803032" lon="7.895845">
        <ele>342.7</ele>
      </trkpt>
      <trkpt lat="50.803032" lon="7.895845">
        <ele>342.7</ele>
        <name>50.803032,7.895845</name>
        <extensions>
          <oa:mapZoom>14</oa:mapZoom>
        </extensions>
      </trkpt>
      <trkpt lat="50.802557" lon="7.895778">
        <ele>340.6</ele>
      </trkpt>
      <trkpt lat="50.802557" lon="7.895778">
        <ele>340.6</ele>
        <name>50.802557,7.895778</name>
        <extensions>
          <oa:mapZoom>14</oa:mapZoom>
        </extensions>
      </trkpt>
      <trkpt lat="50.802506" lon="7.895761">
        <ele>340.4</ele>
      </trkpt>
      <trkpt lat="50.802367" lon="7.895643">
        <ele>340.5</ele>
      </trkpt>
      <trkpt lat="50.802554" lon="7.895169">
        <ele>341.6</ele>
      </trkpt>
      <trkpt lat="50.802446" lon="7.894892">
        <ele>342.1</ele>
      </trkpt>
      <trkpt lat="50.802309" lon="7.894533">
        <ele>342.9</ele>
      </trkpt>
      <trkpt lat="50.802171" lon="7.894174">
        <ele>343.8</ele>
      </trkpt>
      <trkpt lat="50.802194" lon="7.894063">
        <ele>344.0</ele>
      </trkpt>
      <trkpt lat="50.802183" lon="7.893967">
        <ele>344.2</ele>
      </trkpt>
      <trkpt lat="50.80215" lon="7.893872">
        <ele>344.5</ele>
      </trkpt>
      <trkpt lat="50.801974" lon="7.893406">
        <ele>346.1</ele>
      </trkpt>
      <trkpt lat="50.801921" lon="7.893299">
        <ele>346.6</ele>
      </trkpt>
      <trkpt lat="50.80187" lon="7.893236">
        <ele>346.9</ele>
      </trkpt>
      <trkpt lat="50.801808" lon="7.893154">
        <ele>347.3</ele>
      </trkpt>
      <trkpt lat="50.801772" lon="7.893081">
        <ele>347.5</ele>
      </trkpt>
      <trkpt lat="50.801772" lon="7.893081">
        <ele>347.5</ele>
        <name>50.801772,7.893081</name>
        <extensions>
          <oa:mapZoom>14</oa:mapZoom>
        </extensions>
      </trkpt>
      <trkpt lat="50.801624" lon="7.892694">
        <ele>348.8</ele>
      </trkpt>
      <trkpt lat="50.801424" lon="7.892159">
        <ele>350.5</ele>
      </trkpt>
      <trkpt lat="50.801218" lon="7.891608">
        <ele>352.1</ele>
      </trkpt>
      <trkpt lat="50.801012" lon="7.891057">
        <ele>352.8</ele>
      </trkpt>
      <trkpt lat="50.800842" lon="7.890683">
        <ele>352.2</ele>
      </trkpt>
      <trkpt lat="50.800685" lon="7.890369">
        <ele>351.8</ele>
      </trkpt>
      <trkpt lat="50.800506" lon="7.890089">
        <ele>350.8</ele>
      </trkpt>
      <trkpt lat="50.800393" lon="7.88995">
        <ele>349.8</ele>
      </trkpt>
      <trkpt lat="50.800291" lon="7.889854">
        <ele>348.9</ele>
      </trkpt>
      <trkpt lat="50.800228" lon="7.889719">
        <ele>348.0</ele>
      </trkpt>
      <trkpt lat="50.800173" lon="7.889597">
        <ele>347.2</ele>
      </trkpt>
      <trkpt lat="50.800114" lon="7.88922">
        <ele>344.6</ele>
      </trkpt>
      <trkpt lat="50.800056" lon="7.88862">
        <ele>339.9</ele>
      </trkpt>
      <trkpt lat="50.800045" lon="7.888393">
        <ele>337.5</ele>
      </trkpt>
      <trkpt lat="50.800011" lon="7.888008">
        <ele>332.8</ele>
      </trkpt>
      <trkpt lat="50.799977" lon="7.887623">
        <ele>327.4</ele>
      </trkpt>
      <trkpt lat="50.799924" lon="7.887444">
        <ele>324.9</ele>
      </trkpt>
      <trkpt lat="50.799849" lon="7.887275">
        <ele>322.4</ele>
      </trkpt>
      <trkpt lat="50.799667" lon="7.887057">
        <ele>319.3</ele>
      </trkpt>
      <trkpt lat="50.799539" lon="7.886921">
        <ele>317.2</ele>
      </trkpt>
      <trkpt lat="50.799375" lon="7.886672">
        <ele>313.1</ele>
      </trkpt>
      <trkpt lat="50.799263" lon="7.886434">
        <ele>308.8</ele>
      </trkpt>
      <trkpt lat="50.799322" lon="7.88645">
        <ele>309.0</ele>
      </trkpt>
      <trkpt lat="50.799609" lon="7.886464">
        <ele>308.6</ele>
      </trkpt>
      <trkpt lat="50.799857" lon="7.886442">
        <ele>307.4</ele>
      </trkpt>
      <trkpt lat="50.800116" lon="7.886346">
        <ele>304.5</ele>
      </trkpt>
      <trkpt lat="50.800236" lon="7.886304">
        <ele>303.2</ele>
      </trkpt>
      <trkpt lat="50.800406" lon="7.886277">
        <ele>301.8</ele>
      </trkpt>
      <trkpt lat="50.800575" lon="7.88632">
        <ele>301.8</ele>
      </trkpt>
      <trkpt lat="50.800722" lon="7.886408">
        <ele>302.9</ele>
      </trkpt>
      <trkpt lat="50.800826" lon="7.886495">
        <ele>304.1</ele>
      </trkpt>
      <trkpt lat="50.80107" lon="7.886618">
        <ele>305.4</ele>
      </trkpt>
      <trkpt lat="50.801304" lon="7.886678">
        <ele>305.5</ele>
      </trkpt>
      <trkpt lat="50.801537" lon="7.886738">
        <ele>305.4</ele>
      </trkpt>
      <trkpt lat="50.801687" lon="7.88673">
        <ele>304.4</ele>
      </trkpt>
      <trkpt lat="50.801948" lon="7.886689">
        <ele>301.8</ele>
      </trkpt>
      <trkpt lat="50.802293" lon="7.886616">
        <ele>297.3</ele>
      </trkpt>
      <trkpt lat="50.802445" lon="7.886609">
        <ele>295.6</ele>
      </trkpt>
      <trkpt lat="50.802445" lon="7.886609">
        <ele>295.6</ele>
        <name>50.802445,7.886609</name>
        <extensions>
          <oa:mapZoom>14</oa:mapZoom>
        </extensions>
      </trkpt>
      <trkpt lat="50.802543" lon="7.886654">
        <ele>295.5</ele>
      </trkpt>
      <trkpt lat="50.802611" lon="7.886695">
        <ele>295.7</ele>
      </trkpt>
      <trkpt lat="50.802963" lon="7.886945">
        <ele>296.6</ele>
      </trkpt>
      <trkpt lat="50.803314" lon="7.887196">
        <ele>295.9</ele>
      </trkpt>
      <trkpt lat="50.8035" lon="7.887294">
        <ele>294.8</ele>
      </trkpt>
      <trkpt lat="50.803805" lon="7.887299">
        <ele>291.2</ele>
      </trkpt>
      <trkpt lat="50.804169" lon="7.887298">
        <ele>286.0</ele>
      </trkpt>
      <trkpt lat="50.804372" lon="7.887162">
        <ele>282.5</ele>
      </trkpt>
      <trkpt lat="50.804199" lon="7.886975">
        <ele>283.3</ele>
      </trkpt>
      <trkpt lat="50.803929" lon="7.886673">
        <ele>282.7</ele>
      </trkpt>
      <trkpt lat="50.803748" lon="7.886516">
        <ele>281.6</ele>
      </trkpt>
      <trkpt lat="50.803553" lon="7.886368">
        <ele>279.3</ele>
      </trkpt>
      <trkpt lat="50.803785" lon="7.886174">
        <ele>272.1</ele>
      </trkpt>
      <trkpt lat="50.804026" lon="7.886021">
        <ele>265.9</ele>
      </trkpt>
      <trkpt lat="50.804158" lon="7.886001">
        <ele>264.9</ele>
      </trkpt>
      <trkpt lat="50.804333" lon="7.885985">
        <ele>264.2</ele>
      </trkpt>
      <trkpt lat="50.804586" lon="7.885973">
        <ele>264.1</ele>
      </trkpt>
      <trkpt lat="50.804839" lon="7.885962">
        <ele>264.0</ele>
      </trkpt>
      <trkpt lat="50.805062" lon="7.885905">
        <ele>261.6</ele>
      </trkpt>
      <trkpt lat="50.805285" lon="7.885848">
        <ele>259.6</ele>
      </trkpt>
      <trkpt lat="50.805285" lon="7.885848">
        <ele>259.6</ele>
        <name>50.805285,7.885848</name>
        <extensions>
          <oa:mapZoom>14</oa:mapZoom>
        </extensions>
      </trkpt>
      <trkpt lat="50.805654" lon="7.88583">
        <ele>258.1</ele>
      </trkpt>
      <trkpt lat="50.806023" lon="7.885813">
        <ele>256.2</ele>
      </trkpt>
      <trkpt lat="50.806229" lon="7.88578">
        <ele>254.0</ele>
      </trkpt>
      <trkpt lat="50.806521" lon="7.885693">
        <ele>251.1</ele>
      </trkpt>
      <trkpt lat="50.806697" lon="7.885392">
        <ele>249.1</ele>
      </trkpt>
      <trkpt lat="50.806796" lon="7.885266">
        <ele>248.1</ele>
      </trkpt>
      <trkpt lat="50.807083" lon="7.884924">
        <ele>245.8</ele>
      </trkpt>
      <trkpt lat="50.807265" lon="7.884657">
        <ele>245.1</ele>
      </trkpt>
      <trkpt lat="50.807541" lon="7.884159">
        <ele>244.0</ele>
      </trkpt>
      <trkpt lat="50.807671" lon="7.88394">
        <ele>243.0</ele>
      </trkpt>
      <trkpt lat="50.807903" lon="7.883449">
        <ele>240.7</ele>
      </trkpt>
      <trkpt lat="50.808023" lon="7.883191">
        <ele>239.1</ele>
      </trkpt>
      <trkpt lat="50.808077" lon="7.883012">
        <ele>238.1</ele>
      </trkpt>
      <trkpt lat="50.808112" lon="7.882898">
        <ele>237.4</ele>
      </trkpt>
      <trkpt lat="50.808089" lon="7.882747">
        <ele>236.4</ele>
      </trkpt>
      <trkpt lat="50.808017" lon="7.88273">
        <ele>235.9</ele>
      </trkpt>
      <trkpt lat="50.807937" lon="7.882668">
        <ele>234.8</ele>
      </trkpt>
      <trkpt lat="50.807912" lon="7.882575">
        <ele>233.6</ele>
      </trkpt>
      <trkpt lat="50.8079" lon="7.88245">
        <ele>232.2</ele>
      </trkpt>
      <trkpt lat="50.807893" lon="7.882287">
        <ele>230.2</ele>
      </trkpt>
      <trkpt lat="50.807897" lon="7.882038">
        <ele>227.3</ele>
      </trkpt>
      <trkpt lat="50.807927" lon="7.881839">
        <ele>225.5</ele>
      </trkpt>
      <trkpt lat="50.807927" lon="7.881839">
        <ele>225.5</ele>
        <name>50.807927,7.881839</name>
        <extensions>
          <oa:mapZoom>14</oa:mapZoom>
        </extensions>
      </trkpt>
      <trkpt lat="50.808058" lon="7.881409">
        <ele>222.4</ele>
      </trkpt>
      <trkpt lat="50.808178" lon="7.881072">
        <ele>219.2</ele>
      </trkpt>
      <trkpt lat="50.808051" lon="7.880908">
        <ele>216.9</ele>
      </trkpt>
      <trkpt lat="50.807915" lon="7.880616">
        <ele>213.5</ele>
      </trkpt>
      <trkpt lat="50.807834" lon="7.880347">
        <ele>210.7</ele>
      </trkpt>
      <trkpt lat="50.807692" lon="7.880048">
        <ele>206.5</ele>
      </trkpt>
      <trkpt lat="50.80755" lon="7.879749">
        <ele>201.5</ele>
      </trkpt>
      <trkpt lat="50.807533" lon="7.879715">
        <ele>201.0</ele>
      </trkpt>
      <trkpt lat="50.80749" lon="7.879629">
        <ele>199.6</ele>
      </trkpt>
      <trkpt lat="50.807356" lon="7.879345">
        <ele>195.1</ele>
      </trkpt>
      <trkpt lat="50.807214" lon="7.879021">
        <ele>193.6</ele>
      </trkpt>
      <trkpt lat="50.80699" lon="7.878584">
        <ele>191.9</ele>
      </trkpt>
      <trkpt lat="50.806896" lon="7.87876">
        <ele>192.0</ele>
      </trkpt>
      <trkpt lat="50.806726" lon="7.879144">
        <ele>192.3</ele>
      </trkpt>
      <trkpt lat="50.806556" lon="7.879527">
        <ele>192.3</ele>
      </trkpt>
      <trkpt lat="50.806511" lon="7.879632">
        <ele>192.3</ele>
        <name>50.806511,7.879632</name>
        <extensions>
          <oa:mapZoom>14</oa:mapZoom>
        </extensions>
      </trkpt>
    </trkseg>
  </trk>
</gpx>