<?xml version="1.0" encoding="UTF-8"?>
<gpx xmlns="http://www.topografix.com/GPX/1/1" xmlns:gpsies="https://www.gpsies.com/GPX/1/0" creator="AllTrails https://www.alltrails.com/ - Gpsies_ivvpw" version="1.1" xmlns:xsi="http://www.w3.org/2001/XMLSchema-instance" xsi:schemaLocation="http://www.topografix.com/GPX/1/1 http://www.topografix.com/GPX/1/1/gpx.xsd https://www.gpsies.com/GPX/1/0 https://www.gpsies.com/gpsies.xsd">
  <metadata>
    <name>Gpsies_ivvpw</name>
    <link href="https://www.gpsies.com/">
      <text>Gpsies_ivvpw on AllTrails</text>
    </link>
    <time>2020-02-19T20:01:52Z</time>
  </metadata>
  <trk>
    <name>DVV Ransbach-Baumbach-Eulerweg</name>
    <link href="https://www.gpsies.com/map.do?fileId=wewfhauplpnaiket">
      <type>trackOnWeb</type>
    </link>
    <link href="https://www.gpsies.com/charts/we/map/wewfhauplpnaiket_map.png">
      <type>elevationChartUrlMap</type>
    </link>
    <link href="https://www.gpsies.com/charts/we/mapThumb/wewfhauplpnaiket_mapThumb.png">
      <type>elevationChartUrlMapThumb</type>
    </link>
    <link href="https://www.gpsies.com/charts/we/tab/wewfhauplpnaiket_tab.png">
      <type>elevationChartUrlTab</type>
    </link>
    <trkseg>
      <trkpt lat="50.47277970" lon="7.735700010">
        <ele>324.00000</ele>
      </trkpt>
      <trkpt lat="50.47270630" lon="7.735887760">
        <ele>323.00000</ele>
      </trkpt>
      <trkpt lat="50.47332760" lon="7.736290090">
        <ele>324.00000</ele>
      </trkpt>
      <trkpt lat="50.47347440" lon="7.736413470">
        <ele>325.00000</ele>
      </trkpt>
      <trkpt lat="50.47321500" lon="7.737177900">
        <ele>323.00000</ele>
      </trkpt>
      <trkpt lat="50.47313470" lon="7.737432710">
        <ele>322.00000</ele>
      </trkpt>
      <trkpt lat="50.47314840" lon="7.738057670">
        <ele>323.00000</ele>
      </trkpt>
      <trkpt lat="50.47161710" lon="7.738513640">
        <ele>314.00000</ele>
      </trkpt>
      <trkpt lat="50.47119210" lon="7.738661170">
        <ele>312.00000</ele>
      </trkpt>
      <trkpt lat="50.47110160" lon="7.738395630">
        <ele>311.00000</ele>
      </trkpt>
      <trkpt lat="50.47001170" lon="7.738894800">
        <ele>307.00000</ele>
      </trkpt>
      <trkpt lat="50.46926640" lon="7.739270030">
        <ele>302.00000</ele>
      </trkpt>
      <trkpt lat="50.46837520" lon="7.739546290">
        <ele>299.00000</ele>
      </trkpt>
      <trkpt lat="50.46830010" lon="7.741193170">
        <ele>300.00000</ele>
      </trkpt>
      <trkpt lat="50.46586210" lon="7.741820810">
        <ele>303.00000</ele>
      </trkpt>
      <trkpt lat="50.46395500" lon="7.742298240">
        <ele>304.00000</ele>
      </trkpt>
      <trkpt lat="50.46387400" lon="7.741589300">
        <ele>303.00000</ele>
      </trkpt>
      <trkpt lat="50.46367320" lon="7.741590140">
        <ele>305.00000</ele>
      </trkpt>
      <trkpt lat="50.46341500" lon="7.741696800">
        <ele>306.00000</ele>
      </trkpt>
      <trkpt lat="50.46317300" lon="7.741858360">
        <ele>306.00000</ele>
      </trkpt>
      <trkpt lat="50.46305690" lon="7.741869090">
        <ele>306.00000</ele>
      </trkpt>
      <trkpt lat="50.46295270" lon="7.741828850">
        <ele>305.00000</ele>
      </trkpt>
      <trkpt lat="50.46264150" lon="7.741550900">
        <ele>305.00000</ele>
      </trkpt>
      <trkpt lat="50.46227680" lon="7.741320700">
        <ele>304.00000</ele>
      </trkpt>
      <trkpt lat="50.46195610" lon="7.740829300">
        <ele>306.00000</ele>
      </trkpt>
      <trkpt lat="50.46186180" lon="7.740606700">
        <ele>308.00000</ele>
      </trkpt>
      <trkpt lat="50.46184120" lon="7.740479700">
        <ele>308.00000</ele>
      </trkpt>
      <trkpt lat="50.46186510" lon="7.740289270">
        <ele>307.00000</ele>
      </trkpt>
      <trkpt lat="50.46184120" lon="7.740171250">
        <ele>308.00000</ele>
      </trkpt>
      <trkpt lat="50.46180870" lon="7.739996910">
        <ele>308.00000</ele>
      </trkpt>
      <trkpt lat="50.46185650" lon="7.739841340">
        <ele>307.00000</ele>
      </trkpt>
      <trkpt lat="50.46194980" lon="7.739662500">
        <ele>305.00000</ele>
      </trkpt>
      <trkpt lat="50.46208360" lon="7.739473870">
        <ele>305.00000</ele>
      </trkpt>
      <trkpt lat="50.46224580" lon="7.739329040">
        <ele>305.00000</ele>
      </trkpt>
      <trkpt lat="50.46229530" lon="7.739181510">
        <ele>305.00000</ele>
      </trkpt>
      <trkpt lat="50.46230220" lon="7.739001810">
        <ele>305.00000</ele>
      </trkpt>
      <trkpt lat="50.46232610" lon="7.738913290">
        <ele>305.00000</ele>
      </trkpt>
      <trkpt lat="50.46244660" lon="7.738810500">
        <ele>304.00000</ele>
      </trkpt>
      <trkpt lat="50.46253470" lon="7.738649200">
        <ele>304.00000</ele>
      </trkpt>
      <trkpt lat="50.46253470" lon="7.738526400">
        <ele>303.00000</ele>
      </trkpt>
      <trkpt lat="50.46243880" lon="7.738336620">
        <ele>303.00000</ele>
      </trkpt>
      <trkpt lat="50.46241490" lon="7.738229330">
        <ele>303.00000</ele>
      </trkpt>
      <trkpt lat="50.46242510" lon="7.738156910">
        <ele>304.00000</ele>
      </trkpt>
      <trkpt lat="50.46245290" lon="7.737927600">
        <ele>304.00000</ele>
      </trkpt>
      <trkpt lat="50.46253610" lon="7.737684840">
        <ele>304.00000</ele>
      </trkpt>
      <trkpt lat="50.46298110" lon="7.737029500">
        <ele>305.00000</ele>
      </trkpt>
      <trkpt lat="50.46313030" lon="7.737287870">
        <ele>306.00000</ele>
      </trkpt>
      <trkpt lat="50.46327030" lon="7.737275100">
        <ele>307.00000</ele>
      </trkpt>
      <trkpt lat="50.46343250" lon="7.737196680">
        <ele>308.00000</ele>
      </trkpt>
      <trkpt lat="50.46379230" lon="7.737444000">
        <ele>307.00000</ele>
      </trkpt>
      <trkpt lat="50.46409330" lon="7.737703620">
        <ele>306.00000</ele>
      </trkpt>
      <trkpt lat="50.46430160" lon="7.737743400">
        <ele>306.00000</ele>
      </trkpt>
      <trkpt lat="50.46439590" lon="7.737904600">
        <ele>306.00000</ele>
      </trkpt>
      <trkpt lat="50.46442620" lon="7.737818950">
        <ele>306.00000</ele>
      </trkpt>
      <trkpt lat="50.46446380" lon="7.737784080">
        <ele>305.00000</ele>
      </trkpt>
      <trkpt lat="50.46467890" lon="7.737827800">
        <ele>305.00000</ele>
      </trkpt>
      <trkpt lat="50.46484960" lon="7.737727760">
        <ele>304.00000</ele>
      </trkpt>
      <trkpt lat="50.46491110" lon="7.737711660">
        <ele>304.00000</ele>
      </trkpt>
      <trkpt lat="50.46498280" lon="7.737735800">
        <ele>303.00000</ele>
      </trkpt>
      <trkpt lat="50.46514330" lon="7.737590960">
        <ele>303.00000</ele>
      </trkpt>
      <trkpt lat="50.46511940" lon="7.737464900">
        <ele>303.00000</ele>
      </trkpt>
      <trkpt lat="50.46513300" lon="7.737354930">
        <ele>303.00000</ele>
      </trkpt>
      <trkpt lat="50.46527130" lon="7.737408570">
        <ele>303.00000</ele>
      </trkpt>
      <trkpt lat="50.46538400" lon="7.737451490">
        <ele>303.00000</ele>
      </trkpt>
      <trkpt lat="50.46547280" lon="7.737411260">
        <ele>303.00000</ele>
      </trkpt>
      <trkpt lat="50.46557520" lon="7.737338840">
        <ele>302.00000</ele>
      </trkpt>
      <trkpt lat="50.46560430" lon="7.737145720">
        <ele>302.00000</ele>
      </trkpt>
      <trkpt lat="50.46561450" lon="7.736754110">
        <ele>302.00000</ele>
      </trkpt>
      <trkpt lat="50.46563500" lon="7.736370560">
        <ele>302.00000</ele>
      </trkpt>
      <trkpt lat="50.46570670" lon="7.736096970">
        <ele>302.00000</ele>
      </trkpt>
      <trkpt lat="50.46569820" lon="7.735927990">
        <ele>302.00000</ele>
      </trkpt>
      <trkpt lat="50.46568620" lon="7.735839480">
        <ele>302.00000</ele>
      </trkpt>
      <trkpt lat="50.46576990" lon="7.735675870">
        <ele>302.00000</ele>
      </trkpt>
      <trkpt lat="50.46580230" lon="7.735458610">
        <ele>302.00000</ele>
      </trkpt>
      <trkpt lat="50.46581430" lon="7.734991900">
        <ele>302.00000</ele>
      </trkpt>
      <trkpt lat="50.46580920" lon="7.734868520">
        <ele>302.00000</ele>
      </trkpt>
      <trkpt lat="50.46582110" lon="7.734812200">
        <ele>302.00000</ele>
      </trkpt>
      <trkpt lat="50.46586720" lon="7.734774640">
        <ele>302.00000</ele>
      </trkpt>
      <trkpt lat="50.46641460" lon="7.734879600">
        <ele>302.00000</ele>
      </trkpt>
      <trkpt lat="50.46687990" lon="7.734987000">
        <ele>301.00000</ele>
      </trkpt>
      <trkpt lat="50.46699320" lon="7.734987000">
        <ele>300.00000</ele>
      </trkpt>
      <trkpt lat="50.46707490" lon="7.734964000">
        <ele>300.00000</ele>
      </trkpt>
      <trkpt lat="50.46760320" lon="7.734726000">
        <ele>299.00000</ele>
      </trkpt>
      <trkpt lat="50.46743340" lon="7.732937400">
        <ele>299.00000</ele>
      </trkpt>
      <trkpt lat="50.46733280" lon="7.731670800">
        <ele>298.00000</ele>
      </trkpt>
      <trkpt lat="50.46765640" lon="7.731564040">
        <ele>299.00000</ele>
      </trkpt>
      <trkpt lat="50.46791590" lon="7.731505030">
        <ele>301.00000</ele>
      </trkpt>
      <trkpt lat="50.46796720" lon="7.731429930">
        <ele>302.00000</ele>
      </trkpt>
      <trkpt lat="50.46802180" lon="7.731285090">
        <ele>302.00000</ele>
      </trkpt>
      <trkpt lat="50.46804570" lon="7.731193900">
        <ele>302.00000</ele>
      </trkpt>
      <trkpt lat="50.46794270" lon="7.730811100">
        <ele>302.00000</ele>
      </trkpt>
      <trkpt lat="50.46765350" lon="7.730219600">
        <ele>299.00000</ele>
      </trkpt>
      <trkpt lat="50.46750250" lon="7.729866500">
        <ele>298.00000</ele>
      </trkpt>
      <trkpt lat="50.46749000" lon="7.729705300">
        <ele>298.00000</ele>
      </trkpt>
      <trkpt lat="50.46755910" lon="7.729398200">
        <ele>299.00000</ele>
      </trkpt>
      <trkpt lat="50.46757800" lon="7.729206300">
        <ele>298.00000</ele>
      </trkpt>
      <trkpt lat="50.46741450" lon="7.728738100">
        <ele>296.00000</ele>
      </trkpt>
      <trkpt lat="50.46723650" lon="7.728361480">
        <ele>295.00000</ele>
      </trkpt>
      <trkpt lat="50.46701960" lon="7.728036940">
        <ele>297.00000</ele>
      </trkpt>
      <trkpt lat="50.46701110" lon="7.727808950">
        <ele>297.00000</ele>
      </trkpt>
      <trkpt lat="50.46712380" lon="7.727631920">
        <ele>297.00000</ele>
      </trkpt>
      <trkpt lat="50.46716300" lon="7.727446850">
        <ele>298.00000</ele>
      </trkpt>
      <trkpt lat="50.46723300" lon="7.726827260">
        <ele>299.00000</ele>
      </trkpt>
      <trkpt lat="50.46760690" lon="7.726969420">
        <ele>299.00000</ele>
      </trkpt>
      <trkpt lat="50.46782380" lon="7.727071340">
        <ele>300.00000</ele>
      </trkpt>
      <trkpt lat="50.46796550" lon="7.727197400">
        <ele>300.00000</ele>
      </trkpt>
      <trkpt lat="50.46807810" lon="7.727366380">
        <ele>301.00000</ele>
      </trkpt>
      <trkpt lat="50.46816290" lon="7.727440700">
        <ele>302.00000</ele>
      </trkpt>
      <trkpt lat="50.46821470" lon="7.727420030">
        <ele>302.00000</ele>
      </trkpt>
      <trkpt lat="50.46828300" lon="7.727366380">
        <ele>303.00000</ele>
      </trkpt>
      <trkpt lat="50.46832740" lon="7.727202770">
        <ele>302.00000</ele>
      </trkpt>
      <trkpt lat="50.46837690" lon="7.726717290">
        <ele>302.00000</ele>
      </trkpt>
      <trkpt lat="50.46852030" lon="7.725952860">
        <ele>302.00000</ele>
      </trkpt>
      <trkpt lat="50.46876100" lon="7.724654670">
        <ele>300.00000</ele>
      </trkpt>
      <trkpt lat="50.46883960" lon="7.724354260">
        <ele>301.00000</ele>
      </trkpt>
      <trkpt lat="50.46888740" lon="7.724287210">
        <ele>301.00000</ele>
      </trkpt>
      <trkpt lat="50.46896590" lon="7.723836600">
        <ele>301.00000</ele>
      </trkpt>
      <trkpt lat="50.46917590" lon="7.722761030">
        <ele>306.00000</ele>
      </trkpt>
      <trkpt lat="50.46968800" lon="7.722562550">
        <ele>312.00000</ele>
      </trkpt>
      <trkpt lat="50.46988270" lon="7.722455260">
        <ele>315.00000</ele>
      </trkpt>
      <trkpt lat="50.47097520" lon="7.721999280">
        <ele>337.00000</ele>
      </trkpt>
      <trkpt lat="50.47114250" lon="7.721929550">
        <ele>341.00000</ele>
      </trkpt>
      <trkpt lat="50.47120910" lon="7.722128030">
        <ele>341.00000</ele>
      </trkpt>
      <trkpt lat="50.47197380" lon="7.723947200">
        <ele>350.00000</ele>
      </trkpt>
      <trkpt lat="50.47386190" lon="7.728484860">
        <ele>350.00000</ele>
      </trkpt>
      <trkpt lat="50.47391310" lon="7.728592150">
        <ele>349.00000</ele>
      </trkpt>
      <trkpt lat="50.47620740" lon="7.729488010">
        <ele>359.00000</ele>
      </trkpt>
      <trkpt lat="50.47709670" lon="7.729471920">
        <ele>358.00000</ele>
      </trkpt>
      <trkpt lat="50.47757640" lon="7.727033600">
        <ele>366.00000</ele>
      </trkpt>
      <trkpt lat="50.47712980" lon="7.727156500">
        <ele>362.00000</ele>
      </trkpt>
      <trkpt lat="50.47648560" lon="7.727336880">
        <ele>368.00000</ele>
      </trkpt>
      <trkpt lat="50.47620560" lon="7.727328830">
        <ele>375.00000</ele>
      </trkpt>
      <trkpt lat="50.47580920" lon="7.727217900">
        <ele>382.00000</ele>
      </trkpt>
      <trkpt lat="50.47548020" lon="7.726972100">
        <ele>384.00000</ele>
      </trkpt>
      <trkpt lat="50.47510980" lon="7.726575130">
        <ele>386.00000</ele>
      </trkpt>
      <trkpt lat="50.47489470" lon="7.726293500">
        <ele>386.00000</ele>
      </trkpt>
      <trkpt lat="50.47476540" lon="7.726089400">
        <ele>385.00000</ele>
      </trkpt>
      <trkpt lat="50.47430060" lon="7.724957760">
        <ele>386.00000</ele>
      </trkpt>
      <trkpt lat="50.47391310" lon="7.723879510">
        <ele>390.00000</ele>
      </trkpt>
      <trkpt lat="50.47348870" lon="7.722412000">
        <ele>389.00000</ele>
      </trkpt>
      <trkpt lat="50.47326790" lon="7.721580860">
        <ele>381.00000</ele>
      </trkpt>
      <trkpt lat="50.47322860" lon="7.721044420">
        <ele>374.00000</ele>
      </trkpt>
      <trkpt lat="50.47318250" lon="7.720486520">
        <ele>370.00000</ele>
      </trkpt>
      <trkpt lat="50.47318060" lon="7.720017000">
        <ele>371.00000</ele>
      </trkpt>
      <trkpt lat="50.47736290" lon="7.719397540">
        <ele>386.00000</ele>
      </trkpt>
      <trkpt lat="50.47728100" lon="7.720191470">
        <ele>389.00000</ele>
      </trkpt>
      <trkpt lat="50.47736290" lon="7.720663540">
        <ele>391.00000</ele>
      </trkpt>
      <trkpt lat="50.48227860" lon="7.732272140">
        <ele>362.00000</ele>
      </trkpt>
      <trkpt lat="50.48223760" lon="7.732722750">
        <ele>360.00000</ele>
      </trkpt>
      <trkpt lat="50.48186900" lon="7.735126010">
        <ele>352.00000</ele>
      </trkpt>
      <trkpt lat="50.48062640" lon="7.734761230">
        <ele>357.00000</ele>
      </trkpt>
      <trkpt lat="50.47934290" lon="7.735340590">
        <ele>351.00000</ele>
      </trkpt>
      <trkpt lat="50.47797230" lon="7.732124620">
        <ele>338.00000</ele>
      </trkpt>
      <trkpt lat="50.47772070" lon="7.732238200">
        <ele>334.00000</ele>
      </trkpt>
      <trkpt lat="50.47721130" lon="7.732453100">
        <ele>328.00000</ele>
      </trkpt>
      <trkpt lat="50.47676380" lon="7.732634240">
        <ele>326.00000</ele>
      </trkpt>
      <trkpt lat="50.47628690" lon="7.733190100">
        <ele>323.00000</ele>
      </trkpt>
      <trkpt lat="50.47585570" lon="7.733586430">
        <ele>322.00000</ele>
      </trkpt>
      <trkpt lat="50.47561390" lon="7.733259300">
        <ele>320.00000</ele>
      </trkpt>
      <trkpt lat="50.47532480" lon="7.732891730">
        <ele>320.00000</ele>
      </trkpt>
      <trkpt lat="50.47516120" lon="7.733136400">
        <ele>320.00000</ele>
      </trkpt>
      <trkpt lat="50.47516740" lon="7.733297700">
        <ele>320.00000</ele>
      </trkpt>
      <trkpt lat="50.47516120" lon="7.733428100">
        <ele>320.00000</ele>
      </trkpt>
      <trkpt lat="50.47510120" lon="7.733589110">
        <ele>321.00000</ele>
      </trkpt>
      <trkpt lat="50.47501030" lon="7.733727500">
        <ele>322.00000</ele>
      </trkpt>
      <trkpt lat="50.47487820" lon="7.733765900">
        <ele>322.00000</ele>
      </trkpt>
      <trkpt lat="50.47471370" lon="7.733868060">
        <ele>321.00000</ele>
      </trkpt>
      <trkpt lat="50.47474110" lon="7.734026310">
        <ele>322.00000</ele>
      </trkpt>
      <trkpt lat="50.47469670" lon="7.734149690">
        <ele>322.00000</ele>
      </trkpt>
      <trkpt lat="50.47458570" lon="7.734302580">
        <ele>323.00000</ele>
      </trkpt>
      <trkpt lat="50.47452940" lon="7.734366950">
        <ele>323.00000</ele>
      </trkpt>
      <trkpt lat="50.47437750" lon="7.734380360">
        <ele>324.00000</ele>
      </trkpt>
      <trkpt lat="50.47415900" lon="7.734297210">
        <ele>324.00000</ele>
      </trkpt>
      <trkpt lat="50.47385320" lon="7.734948100">
        <ele>326.00000</ele>
      </trkpt>
      <trkpt lat="50.47335840" lon="7.735769740">
        <ele>326.00000</ele>
      </trkpt>
      <trkpt lat="50.47331740" lon="7.735887760">
        <ele>325.00000</ele>
      </trkpt>
      <trkpt lat="50.47295210" lon="7.735793880">
        <ele>324.00000</ele>
      </trkpt>
      <trkpt lat="50.47278140" lon="7.735697320">
        <ele>324.00000</ele>
      </trkpt>
    </trkseg>
  </trk>
</gpx>
