<?xml version="1.0" encoding="UTF-8" standalone="yes"?>
<gpx version="1.1" creator="outdooractive - http://www.outdooractive.com" xmlns="http://www.topografix.com/GPX/1/1" xmlns:xsi="http://www.w3.org/2001/XMLSchema-instance" xsi:schemaLocation="http://www.topografix.com/GPX/1/1 http://www.topografix.com/GPX/1/1/gpx.xsd" xmlns:oa="http://www.outdooractive.com/GPX/Extensions/1">
  <metadata>
    <name>Traumschleife Hahnenbachtaltour</name>
    <author>
      <name>Naheland-Touristik GmbH, EdelSteinLand - Urlaubsregion Naheland</name>
    </author>
    <link href="https://www.outdooractive.com/r/1483400"/>
    <time>2022-04-12T11:46:15.421</time>
    <extensions>
      <oa:oaCategory>hikingTourTrail</oa:oaCategory>
    </extensions>
  </metadata>
  <trk>
    <name>Traumschleife Hahnenbachtaltour</name>
    <desc><![CDATA[Willkommen im Tal der Jahrtausende: / Auf teils schmalen Pfaden und Wiesenwegen führt die sehr abwechslungsreiche Tour, oftmals vom Hahnenbach begleitet, durch Wald, Wiesen und offene weiträumige Flächen. Dazwischen liegen kulturelle Höhepunkte: ein Fossilienmuseum, das Besucherbergwerk Herrenberg, die rekonstruierte Keltensiedlung Altburg, die Ruine Hellkirch sowie die alles überragende, weitläufige Burganlage Schmidtburg. 2012 wurde die Traumschleife von den Lesern des WANDERMAGAZIN  zu "Deutschlands schönstem Wanderweg" gekürt. Außerdem gehört sie zu den TOP 10 Deutschlands höchstbewerteter Premium-Rundwanderwege. /]]></desc>
    <type>hikingTourTrail</type>
    <trkseg>
      <trkpt lat="49.846963" lon="7.385259">
        <ele>339.99068</ele>
        <name>Traumschleife Hahnenbachtaltour</name>
        <extensions>
          <oa:mapZoom>12</oa:mapZoom>
        </extensions>
      </trkpt>
      <trkpt lat="49.847032" lon="7.385645">
        <ele>332.88214</ele>
      </trkpt>
      <trkpt lat="49.847337" lon="7.385495">
        <ele>332.09663</ele>
      </trkpt>
      <trkpt lat="49.847669" lon="7.385538">
        <ele>330.20042</ele>
      </trkpt>
      <trkpt lat="49.847987" lon="7.385731">
        <ele>321.74821</ele>
      </trkpt>
      <trkpt lat="49.848222" lon="7.385945">
        <ele>312.07022</ele>
      </trkpt>
      <trkpt lat="49.848499" lon="7.386289">
        <ele>303.4656</ele>
      </trkpt>
      <trkpt lat="49.848873" lon="7.38631">
        <ele>319.47966</ele>
      </trkpt>
      <trkpt lat="49.848997" lon="7.386975">
        <ele>316.4166</ele>
      </trkpt>
      <trkpt lat="49.849039" lon="7.387919">
        <ele>312.45624</ele>
      </trkpt>
      <trkpt lat="49.848873" lon="7.389464">
        <ele>309.86273</ele>
      </trkpt>
      <trkpt lat="49.848914" lon="7.390323">
        <ele>322.74756</ele>
      </trkpt>
      <trkpt lat="49.849094" lon="7.391288">
        <ele>337.38107</ele>
      </trkpt>
      <trkpt lat="49.84926" lon="7.391031">
        <ele>339.81595</ele>
      </trkpt>
      <trkpt lat="49.849551" lon="7.391267">
        <ele>339.50749</ele>
      </trkpt>
      <trkpt lat="49.84991" lon="7.391224">
        <ele>336.9854</ele>
      </trkpt>
      <trkpt lat="49.850159" lon="7.390859">
        <ele>343.00818</ele>
      </trkpt>
      <trkpt lat="49.850201" lon="7.390387">
        <ele>351.90236</ele>
      </trkpt>
      <trkpt lat="49.850505" lon="7.390001">
        <ele>358.98404</ele>
      </trkpt>
      <trkpt lat="49.850879" lon="7.389958">
        <ele>360.65169</ele>
      </trkpt>
      <trkpt lat="49.85128" lon="7.390001">
        <ele>360.73653</ele>
      </trkpt>
      <trkpt lat="49.851488" lon="7.389872">
        <ele>363.61448</ele>
      </trkpt>
      <trkpt lat="49.851626" lon="7.389572">
        <ele>367.06912</ele>
      </trkpt>
      <trkpt lat="49.851266" lon="7.389443">
        <ele>370.77487</ele>
      </trkpt>
      <trkpt lat="49.851266" lon="7.389443">
        <ele>370.77487</ele>
        <name>49.851266,7.389443</name>
        <extensions>
          <oa:mapZoom>12</oa:mapZoom>
        </extensions>
      </trkpt>
      <trkpt lat="49.850976" lon="7.389314">
        <ele>372.18376</ele>
      </trkpt>
      <trkpt lat="49.850727" lon="7.388885">
        <ele>375.84439</ele>
      </trkpt>
      <trkpt lat="49.850533" lon="7.388113">
        <ele>380.30144</ele>
      </trkpt>
      <trkpt lat="49.850395" lon="7.387233">
        <ele>385.08196</ele>
      </trkpt>
      <trkpt lat="49.851695" lon="7.385108">
        <ele>384.72313</ele>
      </trkpt>
      <trkpt lat="49.853079" lon="7.385645">
        <ele>377.47997</ele>
      </trkpt>
      <trkpt lat="49.853438" lon="7.38616">
        <ele>373.43463</ele>
      </trkpt>
      <trkpt lat="49.853798" lon="7.386439">
        <ele>371.6464</ele>
      </trkpt>
      <trkpt lat="49.854089" lon="7.386611">
        <ele>370.37557</ele>
      </trkpt>
      <trkpt lat="49.854241" lon="7.386482">
        <ele>366.38923</ele>
      </trkpt>
      <trkpt lat="49.853674" lon="7.385581">
        <ele>361.84732</ele>
      </trkpt>
      <trkpt lat="49.853438" lon="7.385023">
        <ele>359.10326</ele>
      </trkpt>
      <trkpt lat="49.853355" lon="7.384615">
        <ele>353.31632</ele>
      </trkpt>
      <trkpt lat="49.853355" lon="7.384207">
        <ele>345.6766</ele>
      </trkpt>
      <trkpt lat="49.853355" lon="7.384207">
        <ele>345.6766</ele>
        <name>49.853355,7.384207</name>
        <extensions>
          <oa:mapZoom>12</oa:mapZoom>
        </extensions>
      </trkpt>
      <trkpt lat="49.853715" lon="7.384872">
        <ele>344.6122</ele>
      </trkpt>
      <trkpt lat="49.854019" lon="7.385516">
        <ele>349.16854</ele>
      </trkpt>
      <trkpt lat="49.854393" lon="7.385795">
        <ele>345.84532</ele>
      </trkpt>
      <trkpt lat="49.854822" lon="7.385731">
        <ele>334.4316</ele>
      </trkpt>
      <trkpt lat="49.855375" lon="7.385924">
        <ele>330.18205</ele>
      </trkpt>
      <trkpt lat="49.855832" lon="7.386203">
        <ele>327.55813</ele>
      </trkpt>
      <trkpt lat="49.856164" lon="7.386868">
        <ele>325.69404</ele>
      </trkpt>
      <trkpt lat="49.856468" lon="7.387619">
        <ele>320.64017</ele>
      </trkpt>
      <trkpt lat="49.856883" lon="7.388134">
        <ele>309.82883</ele>
      </trkpt>
      <trkpt lat="49.857326" lon="7.388778">
        <ele>305.01018</ele>
      </trkpt>
      <trkpt lat="49.857838" lon="7.38925">
        <ele>296.33675</ele>
      </trkpt>
      <trkpt lat="49.858031" lon="7.389786">
        <ele>295.02784</ele>
      </trkpt>
      <trkpt lat="49.858059" lon="7.390709">
        <ele>296.29651</ele>
      </trkpt>
      <trkpt lat="49.857851" lon="7.392554">
        <ele>282.15498</ele>
      </trkpt>
      <trkpt lat="49.857672" lon="7.392941">
        <ele>281.68803</ele>
      </trkpt>
      <trkpt lat="49.857353" lon="7.393091">
        <ele>283.33111</ele>
      </trkpt>
      <trkpt lat="49.857561" lon="7.393241">
        <ele>279.71895</ele>
      </trkpt>
      <trkpt lat="49.857838" lon="7.393262">
        <ele>277.87751</ele>
      </trkpt>
      <trkpt lat="49.857838" lon="7.393262">
        <ele>277.87751</ele>
        <name>49.857838,7.393262</name>
        <extensions>
          <oa:mapZoom>12</oa:mapZoom>
        </extensions>
      </trkpt>
      <trkpt lat="49.858073" lon="7.392941">
        <ele>277.27348</ele>
      </trkpt>
      <trkpt lat="49.858419" lon="7.39352">
        <ele>283.64207</ele>
      </trkpt>
      <trkpt lat="49.858474" lon="7.393091">
        <ele>279.72682</ele>
      </trkpt>
      <trkpt lat="49.858875" lon="7.392275">
        <ele>280.38794</ele>
      </trkpt>
      <trkpt lat="49.85911" lon="7.39131">
        <ele>279.30706</ele>
      </trkpt>
      <trkpt lat="49.85929" lon="7.390881">
        <ele>280.6672</ele>
      </trkpt>
      <trkpt lat="49.859456" lon="7.390065">
        <ele>281.76669</ele>
      </trkpt>
      <trkpt lat="49.859498" lon="7.389121">
        <ele>280.67179</ele>
      </trkpt>
      <trkpt lat="49.859498" lon="7.389121">
        <ele>280.67179</ele>
        <name>49.859498,7.389121</name>
        <extensions>
          <oa:mapZoom>17</oa:mapZoom>
        </extensions>
      </trkpt>
      <trkpt lat="49.859567" lon="7.388606">
        <ele>279.53095</ele>
      </trkpt>
      <trkpt lat="49.859878" lon="7.388188">
        <ele>280.76452</ele>
      </trkpt>
      <trkpt lat="49.859885" lon="7.388713">
        <ele>285.74203</ele>
      </trkpt>
      <trkpt lat="49.85983" lon="7.388971">
        <ele>287.45038</ele>
      </trkpt>
      <trkpt lat="49.859767" lon="7.389422">
        <ele>289.99629</ele>
      </trkpt>
      <trkpt lat="49.859816" lon="7.389851">
        <ele>294.63204</ele>
      </trkpt>
      <trkpt lat="49.859781" lon="7.390205">
        <ele>294.91725</ele>
      </trkpt>
      <trkpt lat="49.859657" lon="7.39102">
        <ele>294.80303</ele>
      </trkpt>
      <trkpt lat="49.85994" lon="7.391717">
        <ele>315.69</ele>
      </trkpt>
      <trkpt lat="49.860079" lon="7.392297">
        <ele>327.42829</ele>
      </trkpt>
      <trkpt lat="49.860016" lon="7.392715">
        <ele>328.87091</ele>
      </trkpt>
      <trkpt lat="49.859843" lon="7.393466">
        <ele>328.9403</ele>
      </trkpt>
      <trkpt lat="49.860272" lon="7.394056">
        <ele>316.29478</ele>
      </trkpt>
      <trkpt lat="49.860355" lon="7.394722">
        <ele>301.07077</ele>
      </trkpt>
      <trkpt lat="49.860535" lon="7.395215">
        <ele>290.92545</ele>
      </trkpt>
      <trkpt lat="49.860673" lon="7.395752">
        <ele>289.25813</ele>
      </trkpt>
      <trkpt lat="49.860632" lon="7.396116">
        <ele>291.83798</ele>
      </trkpt>
      <trkpt lat="49.860632" lon="7.396116">
        <ele>291.83798</ele>
        <name>49.860632,7.396116</name>
        <extensions>
          <oa:mapZoom>17</oa:mapZoom>
        </extensions>
      </trkpt>
      <trkpt lat="49.860494" lon="7.396202">
        <ele>293.13725</ele>
      </trkpt>
      <trkpt lat="49.860272" lon="7.39588">
        <ele>291.4882</ele>
      </trkpt>
      <trkpt lat="49.860016" lon="7.39544">
        <ele>290.90815</ele>
      </trkpt>
      <trkpt lat="49.859539" lon="7.395043">
        <ele>291.17582</ele>
      </trkpt>
      <trkpt lat="49.859186" lon="7.394882">
        <ele>289.59717</ele>
      </trkpt>
      <trkpt lat="49.858764" lon="7.394689">
        <ele>285.58888</ele>
      </trkpt>
      <trkpt lat="49.85846" lon="7.39455">
        <ele>280.42645</ele>
      </trkpt>
      <trkpt lat="49.858142" lon="7.394786">
        <ele>277.54638</ele>
      </trkpt>
      <trkpt lat="49.857741" lon="7.395515">
        <ele>286.82426</ele>
      </trkpt>
      <trkpt lat="49.857367" lon="7.396481">
        <ele>292.17089</ele>
      </trkpt>
      <trkpt lat="49.856205" lon="7.397511">
        <ele>286.3543</ele>
      </trkpt>
      <trkpt lat="49.855998" lon="7.397876">
        <ele>284.38152</ele>
      </trkpt>
      <trkpt lat="49.855721" lon="7.398112">
        <ele>281.0922</ele>
      </trkpt>
      <trkpt lat="49.855527" lon="7.398498">
        <ele>280.40075</ele>
      </trkpt>
      <trkpt lat="49.855527" lon="7.398498">
        <ele>280.40075</ele>
        <name>49.855527,7.398498</name>
        <extensions>
          <oa:mapZoom>12</oa:mapZoom>
        </extensions>
      </trkpt>
      <trkpt lat="49.855154" lon="7.398348">
        <ele>278.33668</ele>
      </trkpt>
      <trkpt lat="49.854476" lon="7.398219">
        <ele>277.60556</ele>
      </trkpt>
      <trkpt lat="49.853563" lon="7.39867">
        <ele>273.57639</ele>
      </trkpt>
      <trkpt lat="49.852968" lon="7.399013">
        <ele>275.44328</ele>
      </trkpt>
      <trkpt lat="49.852691" lon="7.399013">
        <ele>275.33314</ele>
      </trkpt>
      <trkpt lat="49.852179" lon="7.39852">
        <ele>273.94375</ele>
      </trkpt>
      <trkpt lat="49.851875" lon="7.397919">
        <ele>272.84599</ele>
      </trkpt>
      <trkpt lat="49.851564" lon="7.396921">
        <ele>271.66534</ele>
      </trkpt>
      <trkpt lat="49.851681" lon="7.395247">
        <ele>273.05664</ele>
      </trkpt>
      <trkpt lat="49.851391" lon="7.394603">
        <ele>274.82866</ele>
      </trkpt>
      <trkpt lat="49.85119" lon="7.394271">
        <ele>275.43994</ele>
      </trkpt>
      <trkpt lat="49.850554" lon="7.394689">
        <ele>286.05679</ele>
      </trkpt>
      <trkpt lat="49.850554" lon="7.394689">
        <ele>286.05679</ele>
        <name>49.850554,7.394689</name>
        <extensions>
          <oa:mapZoom>12</oa:mapZoom>
        </extensions>
      </trkpt>
      <trkpt lat="49.850485" lon="7.395247">
        <ele>294.53257</ele>
      </trkpt>
      <trkpt lat="49.850367" lon="7.395483">
        <ele>296.40446</ele>
      </trkpt>
      <trkpt lat="49.850194" lon="7.395955">
        <ele>295.21864</ele>
      </trkpt>
      <trkpt lat="49.849896" lon="7.395854">
        <ele>283.82302</ele>
      </trkpt>
      <trkpt lat="49.849919" lon="7.396386">
        <ele>280.93114</ele>
      </trkpt>
      <trkpt lat="49.849634" lon="7.397146">
        <ele>279.47215</ele>
      </trkpt>
      <trkpt lat="49.849468" lon="7.397747">
        <ele>281.2185</ele>
      </trkpt>
      <trkpt lat="49.849094" lon="7.398176">
        <ele>280.44071</ele>
      </trkpt>
      <trkpt lat="49.848651" lon="7.398391">
        <ele>280.99351</ele>
      </trkpt>
      <trkpt lat="49.848292" lon="7.398326">
        <ele>277.92727</ele>
      </trkpt>
      <trkpt lat="49.848292" lon="7.398326">
        <ele>277.92727</ele>
        <name>49.848292,7.398326</name>
        <extensions>
          <oa:mapZoom>12</oa:mapZoom>
        </extensions>
      </trkpt>
      <trkpt lat="49.847904" lon="7.397747">
        <ele>273.50383</ele>
      </trkpt>
      <trkpt lat="49.847198" lon="7.395988">
        <ele>276.26085</ele>
      </trkpt>
      <trkpt lat="49.846839" lon="7.395473">
        <ele>271.78568</ele>
      </trkpt>
      <trkpt lat="49.84659" lon="7.394936">
        <ele>277.1296</ele>
      </trkpt>
      <trkpt lat="49.846396" lon="7.394657">
        <ele>287.9966</ele>
      </trkpt>
      <trkpt lat="49.845884" lon="7.393305">
        <ele>288.83497</ele>
      </trkpt>
      <trkpt lat="49.845794" lon="7.392683">
        <ele>297.22727</ele>
      </trkpt>
      <trkpt lat="49.845919" lon="7.392018">
        <ele>297.54596</ele>
      </trkpt>
      <trkpt lat="49.845773" lon="7.391181">
        <ele>298.78235</ele>
      </trkpt>
      <trkpt lat="49.84688" lon="7.389625">
        <ele>291.73494</ele>
      </trkpt>
      <trkpt lat="49.846851" lon="7.389278">
        <ele>293.36725</ele>
      </trkpt>
      <trkpt lat="49.846851" lon="7.389278">
        <ele>293.36725</ele>
        <name>49.846851,7.389278</name>
        <extensions>
          <oa:mapZoom>12</oa:mapZoom>
        </extensions>
      </trkpt>
      <trkpt lat="49.846714" lon="7.389121">
        <ele>290.95205</ele>
      </trkpt>
      <trkpt lat="49.846444" lon="7.389143">
        <ele>284.60912</ele>
      </trkpt>
      <trkpt lat="49.845995" lon="7.389604">
        <ele>276.94506</ele>
      </trkpt>
      <trkpt lat="49.845358" lon="7.390451">
        <ele>268.45627</ele>
      </trkpt>
      <trkpt lat="49.845081" lon="7.391074">
        <ele>268.65327</ele>
      </trkpt>
      <trkpt lat="49.844652" lon="7.391438">
        <ele>269.55012</ele>
      </trkpt>
      <trkpt lat="49.844182" lon="7.391481">
        <ele>272.61985</ele>
      </trkpt>
      <trkpt lat="49.84331" lon="7.390623">
        <ele>266.89009</ele>
      </trkpt>
      <trkpt lat="49.842909" lon="7.39028">
        <ele>261.7108</ele>
      </trkpt>
      <trkpt lat="49.842148" lon="7.390215">
        <ele>257.26682</ele>
      </trkpt>
      <trkpt lat="49.841913" lon="7.39043">
        <ele>256.29608</ele>
      </trkpt>
      <trkpt lat="49.841857" lon="7.390945">
        <ele>259.70798</ele>
      </trkpt>
      <trkpt lat="49.841221" lon="7.394013">
        <ele>258.20227</ele>
      </trkpt>
      <trkpt lat="49.840999" lon="7.3944">
        <ele>259.08575</ele>
      </trkpt>
      <trkpt lat="49.840169" lon="7.395322">
        <ele>260.29078</ele>
      </trkpt>
      <trkpt lat="49.839103" lon="7.394571">
        <ele>255.31493</ele>
      </trkpt>
      <trkpt lat="49.839103" lon="7.394571">
        <ele>255.31493</ele>
        <name>49.839103,7.394571</name>
        <extensions>
          <oa:mapZoom>12</oa:mapZoom>
        </extensions>
      </trkpt>
      <trkpt lat="49.838951" lon="7.393734">
        <ele>257.47144</ele>
      </trkpt>
      <trkpt lat="49.839408" lon="7.394292">
        <ele>263.77025</ele>
      </trkpt>
      <trkpt lat="49.839643" lon="7.394507">
        <ele>264.80871</ele>
      </trkpt>
      <trkpt lat="49.839712" lon="7.394292">
        <ele>271.45324</ele>
      </trkpt>
      <trkpt lat="49.839961" lon="7.394357">
        <ele>265.45572</ele>
      </trkpt>
      <trkpt lat="49.840169" lon="7.393842">
        <ele>268.92468</ele>
      </trkpt>
      <trkpt lat="49.840473" lon="7.393327">
        <ele>268.88952</ele>
      </trkpt>
      <trkpt lat="49.840875" lon="7.392168">
        <ele>263.17489</ele>
      </trkpt>
      <trkpt lat="49.841345" lon="7.39013">
        <ele>276.70477</ele>
      </trkpt>
      <trkpt lat="49.841843" lon="7.3894">
        <ele>273.06922</ele>
      </trkpt>
      <trkpt lat="49.841843" lon="7.388799">
        <ele>277.92436</ele>
      </trkpt>
      <trkpt lat="49.841954" lon="7.388563">
        <ele>277.69044</ele>
      </trkpt>
      <trkpt lat="49.841774" lon="7.38837">
        <ele>283.75643</ele>
      </trkpt>
      <trkpt lat="49.841816" lon="7.388091">
        <ele>286.94068</ele>
      </trkpt>
      <trkpt lat="49.842079" lon="7.388263">
        <ele>285.19313</ele>
      </trkpt>
      <trkpt lat="49.842563" lon="7.388885">
        <ele>263.79075</ele>
      </trkpt>
      <trkpt lat="49.843047" lon="7.389035">
        <ele>263.16014</ele>
      </trkpt>
      <trkpt lat="49.843712" lon="7.388992">
        <ele>286.87597</ele>
      </trkpt>
      <trkpt lat="49.8445" lon="7.389765">
        <ele>274.78556</ele>
      </trkpt>
      <trkpt lat="49.844915" lon="7.3894">
        <ele>277.35347</ele>
      </trkpt>
      <trkpt lat="49.844985" lon="7.388864">
        <ele>291.32057</ele>
      </trkpt>
      <trkpt lat="49.844998" lon="7.388456">
        <ele>299.89261</ele>
      </trkpt>
      <trkpt lat="49.845469" lon="7.387662">
        <ele>295.28272</ele>
      </trkpt>
      <trkpt lat="49.845607" lon="7.386975">
        <ele>309.27836</ele>
      </trkpt>
      <trkpt lat="49.84564" lon="7.38645">
        <ele>322.97123</ele>
      </trkpt>
      <trkpt lat="49.84572" lon="7.38628">
        <ele>325.69574</ele>
      </trkpt>
      <trkpt lat="49.84579" lon="7.3862">
        <ele>326.7257</ele>
      </trkpt>
      <trkpt lat="49.84622" lon="7.38608">
        <ele>331.25668</ele>
      </trkpt>
      <trkpt lat="49.84631" lon="7.38602">
        <ele>334.20248</ele>
      </trkpt>
      <trkpt lat="49.84675" lon="7.38551">
        <ele>340.65657</ele>
      </trkpt>
      <trkpt lat="49.84683" lon="7.38546">
        <ele>339.93137</ele>
        <name>49.846830,7.385460</name>
        <extensions>
          <oa:mapZoom>12</oa:mapZoom>
        </extensions>
      </trkpt>
    </trkseg>
  </trk>
</gpx>