<?xml version='1.0' encoding='UTF-8'?>
<gpx version="1.1" creator="https://www.komoot.de" xmlns="http://www.topografix.com/GPX/1/1" xmlns:xsi="http://www.w3.org/2001/XMLSchema-instance" xsi:schemaLocation="http://www.topografix.com/GPX/1/1 http://www.topografix.com/GPX/1/1/gpx.xsd">
  <metadata>
    <name>DVV Weiler bei Bingen-Binger Wald Römervilla Rheinblick on GPSies.com</name>
    <author>
      <link href="https://www.komoot.de">
        <text>komoot</text>
        <type>text/html</type>
      </link>
    </author>
  </metadata>
  <trk>
    <name>DVV Weiler bei Bingen-Binger Wald Römervilla Rheinblick on GPSies.com</name>
    <trkseg>
      <trkpt lat="49.954514" lon="7.860121">
        <ele>260.344586</ele>
        <time>2022-10-29T08:38:33.197Z</time>
      </trkpt>
      <trkpt lat="49.954712" lon="7.860059">
        <ele>260.344586</ele>
        <time>2022-10-29T08:38:54.504Z</time>
      </trkpt>
      <trkpt lat="49.954861" lon="7.859995">
        <ele>260.344586</ele>
        <time>2022-10-29T08:39:10.567Z</time>
      </trkpt>
      <trkpt lat="49.955160" lon="7.859910">
        <ele>260.344586</ele>
        <time>2022-10-29T08:39:41.793Z</time>
      </trkpt>
      <trkpt lat="49.955431" lon="7.859865">
        <ele>260.316491</ele>
        <time>2022-10-29T08:40:09.407Z</time>
      </trkpt>
      <trkpt lat="49.955581" lon="7.861224">
        <ele>259.577875</ele>
        <time>2022-10-29T08:41:38.957Z</time>
      </trkpt>
      <trkpt lat="49.955596" lon="7.861366">
        <ele>259.500791</ele>
        <time>2022-10-29T08:41:48.472Z</time>
      </trkpt>
      <trkpt lat="49.955633" lon="7.861736">
        <ele>259.300212</ele>
        <time>2022-10-29T08:42:13.352Z</time>
      </trkpt>
      <trkpt lat="49.955703" lon="7.862443">
        <ele>258.917034</ele>
        <time>2022-10-29T08:43:01.083Z</time>
      </trkpt>
      <trkpt lat="49.955751" lon="7.862926">
        <ele>258.660829</ele>
        <time>2022-10-29T08:43:33.639Z</time>
      </trkpt>
      <trkpt lat="49.955884" lon="7.864015">
        <ele>258.084380</ele>
        <time>2022-10-29T08:44:46.636Z</time>
      </trkpt>
      <trkpt lat="49.956984" lon="7.863438">
        <ele>257.586294</ele>
        <time>2022-10-29T08:46:43.706Z</time>
      </trkpt>
      <trkpt lat="49.957503" lon="7.863157">
        <ele>257.933301</ele>
        <time>2022-10-29T08:47:39.598Z</time>
      </trkpt>
      <trkpt lat="49.957489" lon="7.863647">
        <ele>258.132541</ele>
        <time>2022-10-29T08:48:12.307Z</time>
      </trkpt>
      <trkpt lat="49.957811" lon="7.864118">
        <ele>258.411719</ele>
        <time>2022-10-29T08:48:58.221Z</time>
      </trkpt>
      <trkpt lat="49.958325" lon="7.863829">
        <ele>260.100057</ele>
        <time>2022-10-29T08:49:54.881Z</time>
      </trkpt>
      <trkpt lat="49.958631" lon="7.863630">
        <ele>261.543381</ele>
        <time>2022-10-29T08:50:30.570Z</time>
      </trkpt>
      <trkpt lat="49.958778" lon="7.863428">
        <ele>262.397129</ele>
        <time>2022-10-29T08:50:52.505Z</time>
      </trkpt>
      <trkpt lat="49.958858" lon="7.863444">
        <ele>262.748099</ele>
        <time>2022-10-29T08:51:01.648Z</time>
      </trkpt>
      <trkpt lat="49.959674" lon="7.863604">
        <ele>266.326865</ele>
        <time>2022-10-29T08:52:41.899Z</time>
      </trkpt>
      <trkpt lat="49.960456" lon="7.863784">
        <ele>273.774745</ele>
        <time>2022-10-29T08:54:24.888Z</time>
      </trkpt>
      <trkpt lat="49.961026" lon="7.864001">
        <ele>279.328378</ele>
        <time>2022-10-29T08:55:43.260Z</time>
      </trkpt>
      <trkpt lat="49.961404" lon="7.864014">
        <ele>282.906469</ele>
        <time>2022-10-29T08:56:35.706Z</time>
      </trkpt>
      <trkpt lat="49.962438" lon="7.863850">
        <ele>293.311165</ele>
        <time>2022-10-29T08:58:55.518Z</time>
      </trkpt>
      <trkpt lat="49.962775" lon="7.863730">
        <ele>296.781607</ele>
        <time>2022-10-29T08:59:40.901Z</time>
      </trkpt>
      <trkpt lat="49.963605" lon="7.863279">
        <ele>305.726576</ele>
        <time>2022-10-29T09:01:37.428Z</time>
      </trkpt>
      <trkpt lat="49.964240" lon="7.862960">
        <ele>312.616310</ele>
        <time>2022-10-29T09:03:07.057Z</time>
      </trkpt>
      <trkpt lat="49.964924" lon="7.862630">
        <ele>320.011322</ele>
        <time>2022-10-29T09:04:45.028Z</time>
      </trkpt>
      <trkpt lat="49.965210" lon="7.862993">
        <ele>324.220685</ele>
        <time>2022-10-29T09:05:35.141Z</time>
      </trkpt>
      <trkpt lat="49.965396" lon="7.863423">
        <ele>328.020830</ele>
        <time>2022-10-29T09:06:19.159Z</time>
      </trkpt>
      <trkpt lat="49.965527" lon="7.863583">
        <ele>329.920146</ele>
        <time>2022-10-29T09:06:41.893Z</time>
      </trkpt>
      <trkpt lat="49.965685" lon="7.863299">
        <ele>332.673802</ele>
        <time>2022-10-29T09:07:16.092Z</time>
      </trkpt>
      <trkpt lat="49.965787" lon="7.862657">
        <ele>337.523438</ele>
        <time>2022-10-29T09:08:16.991Z</time>
      </trkpt>
      <trkpt lat="49.965733" lon="7.861615">
        <ele>345.140589</ele>
        <time>2022-10-29T09:09:57.118Z</time>
      </trkpt>
      <trkpt lat="49.965748" lon="7.861100">
        <ele>348.881535</ele>
        <time>2022-10-29T09:10:46.111Z</time>
      </trkpt>
      <trkpt lat="49.965800" lon="7.860850">
        <ele>350.788155</ele>
        <time>2022-10-29T09:11:08.272Z</time>
      </trkpt>
      <trkpt lat="49.965999" lon="7.860253">
        <ele>355.667417</ele>
        <time>2022-10-29T09:12:06.223Z</time>
      </trkpt>
      <trkpt lat="49.966285" lon="7.859648">
        <ele>361.015927</ele>
        <time>2022-10-29T09:13:11.718Z</time>
      </trkpt>
      <trkpt lat="49.966169" lon="7.859216">
        <ele>363.345885</ele>
        <time>2022-10-29T09:13:54.434Z</time>
      </trkpt>
      <trkpt lat="49.966042" lon="7.859115">
        <ele>364.449681</ele>
        <time>2022-10-29T09:14:13.061Z</time>
      </trkpt>
      <trkpt lat="49.965983" lon="7.859068">
        <ele>364.962647</ele>
        <time>2022-10-29T09:14:22.073Z</time>
      </trkpt>
      <trkpt lat="49.965905" lon="7.858634">
        <ele>367.205478</ele>
        <time>2022-10-29T09:14:59.798Z</time>
      </trkpt>
      <trkpt lat="49.965932" lon="7.858236">
        <ele>369.197388</ele>
        <time>2022-10-29T09:15:32.774Z</time>
      </trkpt>
      <trkpt lat="49.965632" lon="7.856785">
        <ele>375.792132</ele>
        <time>2022-10-29T09:17:27.537Z</time>
      </trkpt>
      <trkpt lat="49.965269" lon="7.855636">
        <ele>379.109719</ele>
        <time>2022-10-29T09:19:02.712Z</time>
      </trkpt>
      <trkpt lat="49.964875" lon="7.854369">
        <ele>382.360831</ele>
        <time>2022-10-29T09:20:43.577Z</time>
      </trkpt>
      <trkpt lat="49.964413" lon="7.853295">
        <ele>384.040379</ele>
        <time>2022-10-29T09:22:14.094Z</time>
      </trkpt>
      <trkpt lat="49.963955" lon="7.851966">
        <ele>385.075584</ele>
        <time>2022-10-29T09:23:56.897Z</time>
      </trkpt>
      <trkpt lat="49.963681" lon="7.850835">
        <ele>383.044418</ele>
        <time>2022-10-29T09:25:17.672Z</time>
      </trkpt>
      <trkpt lat="49.963591" lon="7.850463">
        <ele>382.376453</ele>
        <time>2022-10-29T09:25:45.482Z</time>
      </trkpt>
      <trkpt lat="49.962812" lon="7.849546">
        <ele>379.181695</ele>
        <time>2022-10-29T09:27:33.533Z</time>
      </trkpt>
      <trkpt lat="49.962358" lon="7.849064">
        <ele>376.887138</ele>
        <time>2022-10-29T09:28:34.574Z</time>
      </trkpt>
      <trkpt lat="49.962081" lon="7.847795">
        <ele>373.391656</ele>
        <time>2022-10-29T09:30:07.332Z</time>
      </trkpt>
      <trkpt lat="49.962018" lon="7.847284">
        <ele>373.402022</ele>
        <time>2022-10-29T09:30:41.742Z</time>
      </trkpt>
      <trkpt lat="49.961849" lon="7.846781">
        <ele>373.413328</ele>
        <time>2022-10-29T09:31:18.574Z</time>
      </trkpt>
      <trkpt lat="49.961769" lon="7.846176">
        <ele>373.425634</ele>
        <time>2022-10-29T09:32:00.295Z</time>
      </trkpt>
      <trkpt lat="49.961750" lon="7.845186">
        <ele>373.445366</ele>
        <time>2022-10-29T09:33:07.414Z</time>
      </trkpt>
      <trkpt lat="49.961385" lon="7.843434">
        <ele>372.307572</ele>
        <time>2022-10-29T09:35:06.566Z</time>
      </trkpt>
      <trkpt lat="49.961375" lon="7.842587">
        <ele>371.765272</ele>
        <time>2022-10-29T09:36:03.363Z</time>
      </trkpt>
      <trkpt lat="49.961346" lon="7.842350">
        <ele>371.416119</ele>
        <time>2022-10-29T09:36:20.427Z</time>
      </trkpt>
      <trkpt lat="49.961226" lon="7.842008">
        <ele>370.109746</ele>
        <time>2022-10-29T09:36:46.783Z</time>
      </trkpt>
      <trkpt lat="49.960913" lon="7.841381">
        <ele>367.448336</ele>
        <time>2022-10-29T09:37:42.730Z</time>
      </trkpt>
      <trkpt lat="49.960875" lon="7.840830">
        <ele>365.589996</ele>
        <time>2022-10-29T09:38:22.973Z</time>
      </trkpt>
      <trkpt lat="49.960826" lon="7.839388">
        <ele>361.188132</ele>
        <time>2022-10-29T09:40:08.309Z</time>
      </trkpt>
      <trkpt lat="49.960783" lon="7.839198">
        <ele>360.706778</ele>
        <time>2022-10-29T09:40:22.948Z</time>
      </trkpt>
      <trkpt lat="49.960704" lon="7.838960">
        <ele>360.066738</ele>
        <time>2022-10-29T09:40:42.179Z</time>
      </trkpt>
      <trkpt lat="49.960607" lon="7.838713">
        <ele>359.375142</ele>
        <time>2022-10-29T09:41:02.824Z</time>
      </trkpt>
      <trkpt lat="49.960576" lon="7.838633">
        <ele>359.151946</ele>
        <time>2022-10-29T09:41:09.773Z</time>
      </trkpt>
      <trkpt lat="49.959994" lon="7.837565">
        <ele>355.806883</ele>
        <time>2022-10-29T09:42:44.154Z</time>
      </trkpt>
      <trkpt lat="49.960649" lon="7.837759">
        <ele>357.262867</ele>
        <time>2022-10-29T09:43:52.323Z</time>
      </trkpt>
      <trkpt lat="49.961634" lon="7.838307">
        <ele>360.112837</ele>
        <time>2022-10-29T09:45:52.498Z</time>
      </trkpt>
      <trkpt lat="49.962466" lon="7.838708">
        <ele>363.734374</ele>
        <time>2022-10-29T09:47:33.815Z</time>
      </trkpt>
      <trkpt lat="49.963241" lon="7.839728">
        <ele>368.238870</ele>
        <time>2022-10-29T09:49:32.414Z</time>
      </trkpt>
      <trkpt lat="49.963656" lon="7.839423">
        <ele>368.537282</ele>
        <time>2022-10-29T09:50:24.000Z</time>
      </trkpt>
      <trkpt lat="49.963723" lon="7.839437">
        <ele>368.547279</ele>
        <time>2022-10-29T09:50:31.643Z</time>
      </trkpt>
      <trkpt lat="49.964148" lon="7.840163">
        <ele>368.640654</ele>
        <time>2022-10-29T09:51:35.518Z</time>
      </trkpt>
      <trkpt lat="49.964499" lon="7.840721">
        <ele>368.714893</ele>
        <time>2022-10-29T09:52:27.182Z</time>
      </trkpt>
      <trkpt lat="49.964875" lon="7.840752">
        <ele>367.622280</ele>
        <time>2022-10-29T09:53:07.627Z</time>
      </trkpt>
      <trkpt lat="49.965230" lon="7.840470">
        <ele>365.196709</ele>
        <time>2022-10-29T09:53:52.033Z</time>
      </trkpt>
      <trkpt lat="49.965666" lon="7.840059">
        <ele>362.094369</ele>
        <time>2022-10-29T09:54:50.326Z</time>
      </trkpt>
      <trkpt lat="49.965782" lon="7.839992">
        <ele>361.341453</ele>
        <time>2022-10-29T09:55:04.596Z</time>
      </trkpt>
      <trkpt lat="49.965895" lon="7.839928">
        <ele>360.609722</ele>
        <time>2022-10-29T09:55:18.741Z</time>
      </trkpt>
      <trkpt lat="49.966269" lon="7.839713">
        <ele>358.183603</ele>
        <time>2022-10-29T09:56:05.259Z</time>
      </trkpt>
      <trkpt lat="49.967355" lon="7.838213">
        <ele>351.452875</ele>
        <time>2022-10-29T09:58:45.876Z</time>
      </trkpt>
      <trkpt lat="49.967573" lon="7.837936">
        <ele>350.166930</ele>
        <time>2022-10-29T09:59:15.336Z</time>
      </trkpt>
      <trkpt lat="49.967842" lon="7.837309">
        <ele>349.506502</ele>
        <time>2022-10-29T10:00:05.651Z</time>
      </trkpt>
      <trkpt lat="49.968673" lon="7.835356">
        <ele>349.282950</ele>
        <time>2022-10-29T10:02:37.686Z</time>
      </trkpt>
      <trkpt lat="49.969041" lon="7.834638">
        <ele>350.120027</ele>
        <time>2022-10-29T10:03:40.926Z</time>
      </trkpt>
      <trkpt lat="49.969368" lon="7.834174">
        <ele>350.747599</ele>
        <time>2022-10-29T10:04:28.101Z</time>
      </trkpt>
      <trkpt lat="49.969869" lon="7.833215">
        <ele>351.739549</ele>
        <time>2022-10-29T10:05:51.659Z</time>
      </trkpt>
      <trkpt lat="49.970243" lon="7.833906">
        <ele>351.732470</ele>
        <time>2022-10-29T10:06:51.862Z</time>
      </trkpt>
      <trkpt lat="49.970377" lon="7.834062">
        <ele>351.730429</ele>
        <time>2022-10-29T10:07:09.087Z</time>
      </trkpt>
      <trkpt lat="49.970855" lon="7.834383">
        <ele>351.724083</ele>
        <time>2022-10-29T10:08:01.705Z</time>
      </trkpt>
      <trkpt lat="49.971058" lon="7.834644">
        <ele>351.720873</ele>
        <time>2022-10-29T10:08:28.646Z</time>
      </trkpt>
      <trkpt lat="49.971361" lon="7.835032">
        <ele>351.157186</ele>
        <time>2022-10-29T10:09:09.169Z</time>
      </trkpt>
      <trkpt lat="49.971216" lon="7.835215">
        <ele>350.681191</ele>
        <time>2022-10-29T10:09:28.350Z</time>
      </trkpt>
      <trkpt lat="49.970719" lon="7.835338">
        <ele>349.398522</ele>
        <time>2022-10-29T10:10:21.526Z</time>
      </trkpt>
      <trkpt lat="49.970587" lon="7.835478">
        <ele>348.991265</ele>
        <time>2022-10-29T10:10:38.493Z</time>
      </trkpt>
      <trkpt lat="49.970475" lon="7.835718">
        <ele>348.505184</ele>
        <time>2022-10-29T10:10:58.607Z</time>
      </trkpt>
      <trkpt lat="49.970269" lon="7.836611">
        <ele>346.860012</ele>
        <time>2022-10-29T10:12:03.561Z</time>
      </trkpt>
      <trkpt lat="49.970266" lon="7.836968">
        <ele>345.989383</ele>
        <time>2022-10-29T10:12:28.474Z</time>
      </trkpt>
      <trkpt lat="49.970084" lon="7.837613">
        <ele>344.271828</ele>
        <time>2022-10-29T10:13:17.312Z</time>
      </trkpt>
      <trkpt lat="49.969969" lon="7.838263">
        <ele>342.627904</ele>
        <time>2022-10-29T10:14:04.213Z</time>
      </trkpt>
      <trkpt lat="49.969712" lon="7.838787">
        <ele>341.020990</ele>
        <time>2022-10-29T10:14:50.279Z</time>
      </trkpt>
      <trkpt lat="49.969446" lon="7.839698">
        <ele>338.855885</ele>
        <time>2022-10-29T10:15:59.627Z</time>
      </trkpt>
      <trkpt lat="49.969351" lon="7.841128">
        <ele>335.905391</ele>
        <time>2022-10-29T10:17:37.650Z</time>
      </trkpt>
      <trkpt lat="49.969299" lon="7.841358">
        <ele>335.405033</ele>
        <time>2022-10-29T10:17:54.560Z</time>
      </trkpt>
      <trkpt lat="49.969081" lon="7.841596">
        <ele>334.560648</ele>
        <time>2022-10-29T10:18:22.868Z</time>
      </trkpt>
      <trkpt lat="49.968933" lon="7.841928">
        <ele>333.953175</ele>
        <time>2022-10-29T10:18:50.295Z</time>
      </trkpt>
      <trkpt lat="49.968897" lon="7.842913">
        <ele>332.469481</ele>
        <time>2022-10-29T10:19:57.571Z</time>
      </trkpt>
      <trkpt lat="49.968886" lon="7.843476">
        <ele>331.622416</ele>
        <time>2022-10-29T10:20:35.489Z</time>
      </trkpt>
      <trkpt lat="49.968806" lon="7.844187">
        <ele>330.536931</ele>
        <time>2022-10-29T10:21:23.499Z</time>
      </trkpt>
      <trkpt lat="49.968672" lon="7.844820">
        <ele>329.774520</ele>
        <time>2022-10-29T10:22:07.723Z</time>
      </trkpt>
      <trkpt lat="49.968424" lon="7.845660">
        <ele>328.783259</ele>
        <time>2022-10-29T10:23:08.987Z</time>
      </trkpt>
      <trkpt lat="49.968403" lon="7.845968">
        <ele>328.451081</ele>
        <time>2022-10-29T10:23:29.714Z</time>
      </trkpt>
      <trkpt lat="49.968448" lon="7.846104">
        <ele>328.287054</ele>
        <time>2022-10-29T10:23:39.836Z</time>
      </trkpt>
      <trkpt lat="49.968636" lon="7.846355">
        <ele>327.873859</ele>
        <time>2022-10-29T10:24:05.675Z</time>
      </trkpt>
      <trkpt lat="49.969012" lon="7.847074">
        <ele>326.651281</ele>
        <time>2022-10-29T10:25:07.431Z</time>
      </trkpt>
      <trkpt lat="49.969180" lon="7.847625">
        <ele>325.692948</ele>
        <time>2022-10-29T10:25:48.273Z</time>
      </trkpt>
      <trkpt lat="49.969327" lon="7.848268">
        <ele>324.620463</ele>
        <time>2022-10-29T10:26:34.199Z</time>
      </trkpt>
      <trkpt lat="49.969383" lon="7.848781">
        <ele>323.802696</ele>
        <time>2022-10-29T10:27:09.510Z</time>
      </trkpt>
      <trkpt lat="49.969396" lon="7.849948">
        <ele>320.877098</ele>
        <time>2022-10-29T10:28:29.830Z</time>
      </trkpt>
      <trkpt lat="49.969642" lon="7.850800">
        <ele>317.820922</ele>
        <time>2022-10-29T10:29:35.278Z</time>
      </trkpt>
      <trkpt lat="49.969754" lon="7.851560">
        <ele>315.269416</ele>
        <time>2022-10-29T10:30:32.279Z</time>
      </trkpt>
      <trkpt lat="49.970193" lon="7.852410">
        <ele>311.307014</ele>
        <time>2022-10-29T10:31:51.681Z</time>
      </trkpt>
      <trkpt lat="49.970388" lon="7.853033">
        <ele>308.617875</ele>
        <time>2022-10-29T10:32:42.569Z</time>
      </trkpt>
      <trkpt lat="49.970470" lon="7.853112">
        <ele>308.035755</ele>
        <time>2022-10-29T10:32:54.068Z</time>
      </trkpt>
      <trkpt lat="49.970515" lon="7.852880">
        <ele>307.095254</ele>
        <time>2022-10-29T10:33:10.811Z</time>
      </trkpt>
      <trkpt lat="49.970682" lon="7.853108">
        <ele>305.754120</ele>
        <time>2022-10-29T10:33:36.775Z</time>
      </trkpt>
      <trkpt lat="49.970515" lon="7.852880">
        <ele>304.412986</ele>
        <time>2022-10-29T10:34:00.834Z</time>
      </trkpt>
      <trkpt lat="49.970470" lon="7.853112">
        <ele>303.472485</ele>
        <time>2022-10-29T10:34:18.442Z</time>
      </trkpt>
      <trkpt lat="49.970388" lon="7.853033">
        <ele>302.928097</ele>
        <time>2022-10-29T10:34:28.182Z</time>
      </trkpt>
      <trkpt lat="49.970425" lon="7.853540">
        <ele>301.866054</ele>
        <time>2022-10-29T10:35:04.416Z</time>
      </trkpt>
      <trkpt lat="49.970380" lon="7.854108">
        <ele>300.674882</ele>
        <time>2022-10-29T10:35:43.202Z</time>
      </trkpt>
      <trkpt lat="49.970233" lon="7.854662">
        <ele>299.427510</ele>
        <time>2022-10-29T10:36:23.609Z</time>
      </trkpt>
      <trkpt lat="49.969982" lon="7.855284">
        <ele>297.899157</ele>
        <time>2022-10-29T10:37:13.332Z</time>
      </trkpt>
      <trkpt lat="49.970067" lon="7.855487">
        <ele>297.394982</ele>
        <time>2022-10-29T10:37:30.639Z</time>
      </trkpt>
      <trkpt lat="49.970081" lon="7.856015">
        <ele>296.462495</ele>
        <time>2022-10-29T10:38:06.784Z</time>
      </trkpt>
      <trkpt lat="49.970204" lon="7.856714">
        <ele>295.249130</ele>
        <time>2022-10-29T10:38:56.349Z</time>
      </trkpt>
      <trkpt lat="49.970221" lon="7.856870">
        <ele>294.984213</ele>
        <time>2022-10-29T10:39:06.692Z</time>
      </trkpt>
      <trkpt lat="49.970352" lon="7.857464">
        <ele>293.932824</ele>
        <time>2022-10-29T10:39:49.674Z</time>
      </trkpt>
      <trkpt lat="49.970956" lon="7.859562">
        <ele>289.529296</ele>
        <time>2022-10-29T10:42:23.347Z</time>
      </trkpt>
      <trkpt lat="49.971170" lon="7.860218">
        <ele>288.011143</ele>
        <time>2022-10-29T10:43:13.253Z</time>
      </trkpt>
      <trkpt lat="49.971381" lon="7.860663">
        <ele>286.870079</ele>
        <time>2022-10-29T10:43:53.398Z</time>
      </trkpt>
      <trkpt lat="49.971590" lon="7.861008">
        <ele>285.204320</ele>
        <time>2022-10-29T10:44:27.839Z</time>
      </trkpt>
      <trkpt lat="49.971896" lon="7.861344">
        <ele>282.975638</ele>
        <time>2022-10-29T10:45:09.679Z</time>
      </trkpt>
      <trkpt lat="49.972554" lon="7.861501">
        <ele>279.015203</ele>
        <time>2022-10-29T10:46:23.782Z</time>
      </trkpt>
      <trkpt lat="49.972691" lon="7.861527">
        <ele>278.194106</ele>
        <time>2022-10-29T10:46:39.544Z</time>
      </trkpt>
      <trkpt lat="49.972718" lon="7.861667">
        <ele>277.634862</ele>
        <time>2022-10-29T10:46:50.066Z</time>
      </trkpt>
      <trkpt lat="49.972695" lon="7.861725">
        <ele>277.374145</ele>
        <time>2022-10-29T10:46:54.851Z</time>
      </trkpt>
      <trkpt lat="49.972629" lon="7.861890">
        <ele>276.630666</ele>
        <time>2022-10-29T10:47:08.633Z</time>
      </trkpt>
      <trkpt lat="49.972234" lon="7.862359">
        <ele>273.565752</ele>
        <time>2022-10-29T10:48:05.807Z</time>
      </trkpt>
      <trkpt lat="49.972126" lon="7.862573">
        <ele>272.476477</ele>
        <time>2022-10-29T10:48:25.788Z</time>
      </trkpt>
      <trkpt lat="49.971879" lon="7.863670">
        <ele>267.822186</ele>
        <time>2022-10-29T10:49:49.010Z</time>
      </trkpt>
      <trkpt lat="49.971696" lon="7.864748">
        <ele>262.968808</ele>
        <time>2022-10-29T10:51:09.058Z</time>
      </trkpt>
      <trkpt lat="49.971456" lon="7.865568">
        <ele>258.387410</ele>
        <time>2022-10-29T10:52:16.669Z</time>
      </trkpt>
      <trkpt lat="49.971425" lon="7.866044">
        <ele>255.954430</ele>
        <time>2022-10-29T10:52:53.031Z</time>
      </trkpt>
      <trkpt lat="49.970966" lon="7.866873">
        <ele>250.390727</ele>
        <time>2022-10-29T10:54:15.232Z</time>
      </trkpt>
      <trkpt lat="49.970862" lon="7.867269">
        <ele>248.203145</ele>
        <time>2022-10-29T10:54:47.125Z</time>
      </trkpt>
      <trkpt lat="49.970612" lon="7.867865">
        <ele>244.564085</ele>
        <time>2022-10-29T10:55:40.019Z</time>
      </trkpt>
      <trkpt lat="49.970473" lon="7.868623">
        <ele>240.532953</ele>
        <time>2022-10-29T10:56:38.345Z</time>
      </trkpt>
      <trkpt lat="49.970371" lon="7.869797">
        <ele>234.593532</ele>
        <time>2022-10-29T10:58:06.145Z</time>
      </trkpt>
      <trkpt lat="49.969974" lon="7.870966">
        <ele>228.280744</ele>
        <time>2022-10-29T10:59:48.464Z</time>
      </trkpt>
      <trkpt lat="49.969847" lon="7.871781">
        <ele>224.276204</ele>
        <time>2022-10-29T11:00:50.160Z</time>
      </trkpt>
      <trkpt lat="49.969892" lon="7.872263">
        <ele>223.078575</ele>
        <time>2022-10-29T11:01:22.875Z</time>
      </trkpt>
      <trkpt lat="49.969833" lon="7.872700">
        <ele>223.426188</ele>
        <time>2022-10-29T11:01:52.321Z</time>
      </trkpt>
      <trkpt lat="49.969724" lon="7.873020">
        <ele>223.708082</ele>
        <time>2022-10-29T11:02:16.023Z</time>
      </trkpt>
      <trkpt lat="49.969833" lon="7.872700">
        <ele>223.989976</ele>
        <time>2022-10-29T11:02:40.897Z</time>
      </trkpt>
      <trkpt lat="49.969608" lon="7.872539">
        <ele>224.289763</ele>
        <time>2022-10-29T11:03:08.077Z</time>
      </trkpt>
      <trkpt lat="49.969628" lon="7.872338">
        <ele>224.448101</ele>
        <time>2022-10-29T11:03:23.831Z</time>
      </trkpt>
      <trkpt lat="49.969199" lon="7.872316">
        <ele>224.967625</ele>
        <time>2022-10-29T11:04:10.335Z</time>
      </trkpt>
      <trkpt lat="49.968426" lon="7.872532">
        <ele>224.756561</ele>
        <time>2022-10-29T11:05:41.761Z</time>
      </trkpt>
      <trkpt lat="49.968086" lon="7.872712">
        <ele>224.576027</ele>
        <time>2022-10-29T11:06:20.490Z</time>
      </trkpt>
      <trkpt lat="49.968049" lon="7.872856">
        <ele>224.525894</ele>
        <time>2022-10-29T11:06:31.431Z</time>
      </trkpt>
      <trkpt lat="49.968086" lon="7.873108">
        <ele>224.442325</ele>
        <time>2022-10-29T11:06:50.500Z</time>
      </trkpt>
      <trkpt lat="49.968079" lon="7.874130">
        <ele>222.878473</ele>
        <time>2022-10-29T11:08:05.097Z</time>
      </trkpt>
      <trkpt lat="49.967929" lon="7.875074">
        <ele>217.804368</ele>
        <time>2022-10-29T11:09:17.413Z</time>
      </trkpt>
      <trkpt lat="49.967763" lon="7.875377">
        <ele>215.727443</ele>
        <time>2022-10-29T11:09:49.667Z</time>
      </trkpt>
      <trkpt lat="49.967879" lon="7.875592">
        <ele>214.263084</ele>
        <time>2022-10-29T11:10:10.504Z</time>
      </trkpt>
      <trkpt lat="49.967831" lon="7.875706">
        <ele>213.552081</ele>
        <time>2022-10-29T11:10:20.746Z</time>
      </trkpt>
      <trkpt lat="49.967780" lon="7.875852">
        <ele>212.685115</ele>
        <time>2022-10-29T11:10:33.186Z</time>
      </trkpt>
      <trkpt lat="49.967432" lon="7.876265">
        <ele>209.247397</ele>
        <time>2022-10-29T11:11:23.630Z</time>
      </trkpt>
      <trkpt lat="49.966003" lon="7.877930">
        <ele>198.430470</ele>
        <time>2022-10-29T11:14:44.095Z</time>
      </trkpt>
      <trkpt lat="49.965680" lon="7.878183">
        <ele>197.339041</ele>
        <time>2022-10-29T11:15:24.247Z</time>
      </trkpt>
      <trkpt lat="49.964873" lon="7.878439">
        <ele>194.853614</ele>
        <time>2022-10-29T11:16:52.212Z</time>
      </trkpt>
      <trkpt lat="49.964643" lon="7.878448">
        <ele>194.159335</ele>
        <time>2022-10-29T11:17:16.690Z</time>
      </trkpt>
      <trkpt lat="49.964390" lon="7.878247">
        <ele>193.301948</ele>
        <time>2022-10-29T11:17:45.412Z</time>
      </trkpt>
      <trkpt lat="49.963990" lon="7.877770">
        <ele>194.514668</ele>
        <time>2022-10-29T11:18:36.334Z</time>
      </trkpt>
      <trkpt lat="49.962965" lon="7.876548">
        <ele>198.467389</ele>
        <time>2022-10-29T11:21:02.535Z</time>
      </trkpt>
      <trkpt lat="49.962633" lon="7.876408">
        <ele>200.401381</ele>
        <time>2022-10-29T11:21:46.006Z</time>
      </trkpt>
      <trkpt lat="49.962021" lon="7.876461">
        <ele>204.159824</ele>
        <time>2022-10-29T11:23:01.576Z</time>
      </trkpt>
      <trkpt lat="49.961759" lon="7.876492">
        <ele>205.770986</ele>
        <time>2022-10-29T11:23:33.242Z</time>
      </trkpt>
      <trkpt lat="49.961510" lon="7.876622">
        <ele>207.381602</ele>
        <time>2022-10-29T11:24:05.032Z</time>
      </trkpt>
      <trkpt lat="49.961406" lon="7.876802">
        <ele>208.335956</ele>
        <time>2022-10-29T11:24:23.544Z</time>
      </trkpt>
      <trkpt lat="49.961338" lon="7.876868">
        <ele>208.827517</ele>
        <time>2022-10-29T11:24:33.474Z</time>
      </trkpt>
      <trkpt lat="49.961257" lon="7.877100">
        <ele>209.855396</ele>
        <time>2022-10-29T11:24:53.673Z</time>
      </trkpt>
      <trkpt lat="49.961381" lon="7.878338">
        <ele>214.464115</ele>
        <time>2022-10-29T11:26:31.244Z</time>
      </trkpt>
      <trkpt lat="49.961366" lon="7.878435">
        <ele>214.831083</ele>
        <time>2022-10-29T11:26:39.204Z</time>
      </trkpt>
      <trkpt lat="49.961250" lon="7.878493">
        <ele>215.527835</ele>
        <time>2022-10-29T11:26:53.500Z</time>
      </trkpt>
      <trkpt lat="49.960897" lon="7.878640">
        <ele>217.617451</ele>
        <time>2022-10-29T11:27:36.462Z</time>
      </trkpt>
      <trkpt lat="49.960834" lon="7.878659">
        <ele>217.984400</ele>
        <time>2022-10-29T11:27:43.885Z</time>
      </trkpt>
      <trkpt lat="49.960630" lon="7.878708">
        <ele>219.164709</ele>
        <time>2022-10-29T11:28:08.126Z</time>
      </trkpt>
      <trkpt lat="49.960529" lon="7.878806">
        <ele>219.845499</ele>
        <time>2022-10-29T11:28:21.890Z</time>
      </trkpt>
      <trkpt lat="49.960000" lon="7.877304">
        <ele>226.287497</ele>
        <time>2022-10-29T11:30:36.128Z</time>
      </trkpt>
      <trkpt lat="49.959974" lon="7.877146">
        <ele>226.901286</ele>
        <time>2022-10-29T11:30:49.161Z</time>
      </trkpt>
      <trkpt lat="49.959711" lon="7.875138">
        <ele>232.818968</ele>
        <time>2022-10-29T11:33:25.876Z</time>
      </trkpt>
      <trkpt lat="49.959385" lon="7.872876">
        <ele>237.008406</ele>
        <time>2022-10-29T11:36:05.406Z</time>
      </trkpt>
      <trkpt lat="49.959375" lon="7.872817">
        <ele>237.064804</ele>
        <time>2022-10-29T11:36:09.344Z</time>
      </trkpt>
      <trkpt lat="49.959209" lon="7.871659">
        <ele>238.161455</ele>
        <time>2022-10-29T11:37:27.685Z</time>
      </trkpt>
      <trkpt lat="49.959031" lon="7.870414">
        <ele>239.631604</ele>
        <time>2022-10-29T11:38:54.525Z</time>
      </trkpt>
      <trkpt lat="49.959034" lon="7.869189">
        <ele>241.789008</ele>
        <time>2022-10-29T11:40:21.177Z</time>
      </trkpt>
      <trkpt lat="49.958971" lon="7.867959">
        <ele>243.959497</ele>
        <time>2022-10-29T11:41:50.529Z</time>
      </trkpt>
      <trkpt lat="49.958976" lon="7.866257">
        <ele>246.566378</ele>
        <time>2022-10-29T11:43:49.557Z</time>
      </trkpt>
      <trkpt lat="49.958854" lon="7.865814">
        <ele>247.304450</ele>
        <time>2022-10-29T11:44:22.677Z</time>
      </trkpt>
      <trkpt lat="49.958691" lon="7.865554">
        <ele>247.860492</ele>
        <time>2022-10-29T11:44:47.817Z</time>
      </trkpt>
      <trkpt lat="49.958065" lon="7.865861">
        <ele>248.715978</ele>
        <time>2022-10-29T11:45:57.828Z</time>
      </trkpt>
      <trkpt lat="49.957915" lon="7.865873">
        <ele>248.862568</ele>
        <time>2022-10-29T11:46:13.887Z</time>
      </trkpt>
      <trkpt lat="49.957284" lon="7.865872">
        <ele>249.478409</ele>
        <time>2022-10-29T11:47:18.383Z</time>
      </trkpt>
      <trkpt lat="49.957174" lon="7.865807">
        <ele>249.593262</ele>
        <time>2022-10-29T11:47:30.405Z</time>
      </trkpt>
      <trkpt lat="49.956687" lon="7.865676">
        <ele>250.026721</ele>
        <time>2022-10-29T11:48:20.177Z</time>
      </trkpt>
      <trkpt lat="49.956592" lon="7.865597">
        <ele>250.078087</ele>
        <time>2022-10-29T11:48:30.893Z</time>
      </trkpt>
      <trkpt lat="49.956579" lon="7.865490">
        <ele>250.111487</ele>
        <time>2022-10-29T11:48:38.252Z</time>
      </trkpt>
      <trkpt lat="49.956460" lon="7.865507">
        <ele>250.168459</ele>
        <time>2022-10-29T11:48:50.470Z</time>
      </trkpt>
      <trkpt lat="49.956181" lon="7.865547">
        <ele>250.302036</ele>
        <time>2022-10-29T11:49:19.384Z</time>
      </trkpt>
      <trkpt lat="49.955512" lon="7.865611">
        <ele>250.621585</ele>
        <time>2022-10-29T11:50:27.156Z</time>
      </trkpt>
      <trkpt lat="49.955152" lon="7.864312">
        <ele>251.785502</ele>
        <time>2022-10-29T11:52:00.378Z</time>
      </trkpt>
      <trkpt lat="49.954498" lon="7.861986">
        <ele>254.568036</ele>
        <time>2022-10-29T11:54:59.189Z</time>
      </trkpt>
      <trkpt lat="49.954414" lon="7.860885">
        <ele>254.568036</ele>
        <time>2022-10-29T11:56:16.358Z</time>
      </trkpt>
      <trkpt lat="49.954372" lon="7.860200">
        <ele>254.568036</ele>
        <time>2022-10-29T11:57:02.854Z</time>
      </trkpt>
      <trkpt lat="49.954370" lon="7.860166">
        <ele>254.568036</ele>
        <time>2022-10-29T11:57:05.097Z</time>
      </trkpt>
      <trkpt lat="49.954512" lon="7.860121">
        <ele>254.568036</ele>
        <time>2022-10-29T11:57:20.268Z</time>
      </trkpt>
    </trkseg>
  </trk>
</gpx>