<?xml version="1.0" encoding="utf-8" standalone="yes"?>
<gpx version="1.1" creator="Locus Map, Android"
 xmlns="http://www.topografix.com/GPX/1/1"
 xmlns:xsi="http://www.w3.org/2001/XMLSchema-instance"
 xsi:schemaLocation="http://www.topografix.com/GPX/1/1 http://www.topografix.com/GPX/1/1/gpx.xsd"
 xmlns:gpxx="http://www.garmin.com/xmlschemas/GpxExtensions/v3"
 xmlns:gpxtrkx="http://www.garmin.com/xmlschemas/TrackStatsExtension/v1"
 xmlns:gpxtpx="http://www.garmin.com/xmlschemas/TrackPointExtension/v2"
 xmlns:locus="http://www.locusmap.eu">
	<metadata>
		<desc>File with points/tracks from Locus Map Pro/3.55.1</desc>
		<time>2021-10-16T11:39:50.209Z</time>
	</metadata>
<trk>
<name>Durch den Schlunk 7 km</name>
	<extensions>
		<line xmlns="http://www.topografix.com/GPX/gpx_style/0/2">
			<color>0000FF</color>
			<opacity>0.59</opacity>
			<width>6.0</width>
			<extensions>
				<locus:lsColorBase>#960000FF</locus:lsColorBase>
				<locus:lsWidth>6.0</locus:lsWidth>
				<locus:lsUnits>PIXELS</locus:lsUnits>
			</extensions>
		</line>
		<locus:activity>cycling</locus:activity>
	</extensions>
<trkseg>
<trkpt lat="49.8742120" lon="7.6389736">
	<ele>350.42</ele>
	<time>2021-10-16T09:17:29.000Z</time>
	<hdop>6.46</hdop>
	<extensions>
		<gpxtpx:TrackPointExtension>
			<gpxtpx:course>146.44583</gpxtpx:course>
		</gpxtpx:TrackPointExtension>
	</extensions>
</trkpt>
<trkpt lat="49.8743270" lon="7.6389142">
	<ele>351.23</ele>
	<time>2021-10-16T09:18:38.000Z</time>
	<hdop>25.04</hdop>
	<extensions>
		<gpxtpx:TrackPointExtension>
			<gpxtpx:course>354.17136</gpxtpx:course>
		</gpxtpx:TrackPointExtension>
	</extensions>
</trkpt>
<trkpt lat="49.8744597" lon="7.6389027">
	<ele>351.68</ele>
	<time>2021-10-16T09:18:44.410Z</time>
	<hdop>31.93</hdop>
	<extensions>
		<gpxtpx:TrackPointExtension>
			<gpxtpx:course>33.819363</gpxtpx:course>
		</gpxtpx:TrackPointExtension>
	</extensions>
</trkpt>
<trkpt lat="49.8745125" lon="7.6390574">
	<ele>352.22</ele>
	<time>2021-10-16T09:18:49.211Z</time>
	<hdop>21.04</hdop>
	<extensions>
		<gpxtpx:TrackPointExtension>
			<gpxtpx:course>106.46081</gpxtpx:course>
		</gpxtpx:TrackPointExtension>
	</extensions>
</trkpt>
<trkpt lat="49.8744599" lon="7.6395380">
	<ele>353.38</ele>
	<time>2021-10-16T09:18:54.000Z</time>
	<hdop>4.80</hdop>
	<extensions>
		<gpxtpx:TrackPointExtension>
			<gpxtpx:course>95.001</gpxtpx:course>
		</gpxtpx:TrackPointExtension>
	</extensions>
</trkpt>
<trkpt lat="49.8744367" lon="7.6399455">
	<ele>354.31</ele>
	<time>2021-10-16T09:18:59.000Z</time>
	<hdop>4.80</hdop>
	<extensions>
		<gpxtpx:TrackPointExtension>
			<gpxtpx:course>98.99974</gpxtpx:course>
		</gpxtpx:TrackPointExtension>
	</extensions>
</trkpt>
<trkpt lat="49.8744151" lon="7.6403655">
	<ele>355.75</ele>
	<time>2021-10-16T09:19:04.000Z</time>
	<hdop>4.00</hdop>
	<extensions>
		<gpxtpx:TrackPointExtension>
			<gpxtpx:course>90.21629</gpxtpx:course>
		</gpxtpx:TrackPointExtension>
	</extensions>
</trkpt>
<trkpt lat="49.8744186" lon="7.6407825">
	<ele>357.21</ele>
	<time>2021-10-16T09:19:09.000Z</time>
	<hdop>4.00</hdop>
	<extensions>
		<gpxtpx:TrackPointExtension>
			<gpxtpx:course>89.00001</gpxtpx:course>
		</gpxtpx:TrackPointExtension>
	</extensions>
</trkpt>
<trkpt lat="49.8744315" lon="7.6412050">
	<ele>358.75</ele>
	<time>2021-10-16T09:19:14.000Z</time>
	<hdop>4.40</hdop>
	<extensions>
		<gpxtpx:TrackPointExtension>
			<gpxtpx:course>86.0094</gpxtpx:course>
		</gpxtpx:TrackPointExtension>
	</extensions>
</trkpt>
<trkpt lat="49.8744493" lon="7.6416067">
	<ele>359.94</ele>
	<time>2021-10-16T09:19:19.000Z</time>
	<hdop>4.00</hdop>
	<extensions>
		<gpxtpx:TrackPointExtension>
			<gpxtpx:course>84.04468</gpxtpx:course>
		</gpxtpx:TrackPointExtension>
	</extensions>
</trkpt>
<trkpt lat="49.8745204" lon="7.6419580">
	<ele>361.49</ele>
	<time>2021-10-16T09:19:24.000Z</time>
	<hdop>4.00</hdop>
	<extensions>
		<gpxtpx:TrackPointExtension>
			<gpxtpx:course>82.70087</gpxtpx:course>
		</gpxtpx:TrackPointExtension>
	</extensions>
</trkpt>
<trkpt lat="49.8743241" lon="7.6420507">
	<ele>362.28</ele>
	<time>2021-10-16T09:19:29.000Z</time>
	<hdop>4.00</hdop>
	<extensions>
		<gpxtpx:TrackPointExtension>
			<gpxtpx:course>183.99342</gpxtpx:course>
		</gpxtpx:TrackPointExtension>
	</extensions>
</trkpt>
<trkpt lat="49.8740282" lon="7.6420241">
	<ele>362.64</ele>
	<time>2021-10-16T09:19:34.000Z</time>
	<hdop>4.00</hdop>
	<extensions>
		<gpxtpx:TrackPointExtension>
			<gpxtpx:course>178.99998</gpxtpx:course>
		</gpxtpx:TrackPointExtension>
	</extensions>
</trkpt>
<trkpt lat="49.8737741" lon="7.6420567">
	<ele>363.45</ele>
	<time>2021-10-16T09:19:39.000Z</time>
	<hdop>4.00</hdop>
	<extensions>
		<gpxtpx:TrackPointExtension>
			<gpxtpx:course>172.00002</gpxtpx:course>
		</gpxtpx:TrackPointExtension>
	</extensions>
</trkpt>
<trkpt lat="49.8735252" lon="7.6421157">
	<ele>364.66</ele>
	<time>2021-10-16T09:19:44.000Z</time>
	<hdop>4.00</hdop>
	<extensions>
		<gpxtpx:TrackPointExtension>
			<gpxtpx:course>168.9998</gpxtpx:course>
		</gpxtpx:TrackPointExtension>
	</extensions>
</trkpt>
<trkpt lat="49.8733249" lon="7.6421918">
	<ele>366.72</ele>
	<time>2021-10-16T09:19:49.000Z</time>
	<hdop>4.00</hdop>
	<extensions>
		<gpxtpx:TrackPointExtension>
			<gpxtpx:course>162.01695</gpxtpx:course>
		</gpxtpx:TrackPointExtension>
	</extensions>
</trkpt>
<trkpt lat="49.8732207" lon="7.6422691">
	<ele>367.53</ele>
	<time>2021-10-16T09:19:54.251Z</time>
	<hdop>7.18</hdop>
	<extensions>
		<gpxtpx:TrackPointExtension>
			<gpxtpx:course>138.3416</gpxtpx:course>
		</gpxtpx:TrackPointExtension>
	</extensions>
</trkpt>
<trkpt lat="49.8728990" lon="7.6424695">
	<ele>367.35</ele>
	<time>2021-10-16T09:19:59.000Z</time>
	<hdop>4.00</hdop>
	<extensions>
		<gpxtpx:TrackPointExtension>
			<gpxtpx:course>153.00049</gpxtpx:course>
		</gpxtpx:TrackPointExtension>
	</extensions>
</trkpt>
<trkpt lat="49.8726941" lon="7.6426545">
	<ele>367.03</ele>
	<time>2021-10-16T09:20:04.000Z</time>
	<hdop>4.00</hdop>
	<extensions>
		<gpxtpx:TrackPointExtension>
			<gpxtpx:course>149.99971</gpxtpx:course>
		</gpxtpx:TrackPointExtension>
	</extensions>
</trkpt>
<trkpt lat="49.8725199" lon="7.6427924">
	<ele>366.44</ele>
	<time>2021-10-16T09:20:09.000Z</time>
	<hdop>4.00</hdop>
	<extensions>
		<gpxtpx:TrackPointExtension>
			<gpxtpx:course>153.01044</gpxtpx:course>
		</gpxtpx:TrackPointExtension>
	</extensions>
</trkpt>
<trkpt lat="49.8724304" lon="7.6428368">
	<ele>366.98</ele>
	<time>2021-10-16T09:20:13.313Z</time>
	<hdop>8.20</hdop>
	<extensions>
		<gpxtpx:TrackPointExtension>
			<gpxtpx:course>183.84445</gpxtpx:course>
		</gpxtpx:TrackPointExtension>
	</extensions>
</trkpt>
<trkpt lat="49.8720641" lon="7.6429524">
	<ele>366.95</ele>
	<time>2021-10-16T09:20:18.000Z</time>
	<hdop>4.00</hdop>
	<extensions>
		<gpxtpx:TrackPointExtension>
			<gpxtpx:course>175.00002</gpxtpx:course>
		</gpxtpx:TrackPointExtension>
	</extensions>
</trkpt>
<trkpt lat="49.8717683" lon="7.6429696">
	<ele>367.26</ele>
	<time>2021-10-16T09:20:23.000Z</time>
	<hdop>4.00</hdop>
	<extensions>
		<gpxtpx:TrackPointExtension>
			<gpxtpx:course>177.0</gpxtpx:course>
		</gpxtpx:TrackPointExtension>
	</extensions>
</trkpt>
<trkpt lat="49.8714631" lon="7.6429763">
	<ele>366.98</ele>
	<time>2021-10-16T09:20:28.000Z</time>
	<hdop>4.00</hdop>
	<extensions>
		<gpxtpx:TrackPointExtension>
			<gpxtpx:course>178.9991</gpxtpx:course>
		</gpxtpx:TrackPointExtension>
	</extensions>
</trkpt>
<trkpt lat="49.8711394" lon="7.6429900">
	<ele>366.44</ele>
	<time>2021-10-16T09:20:33.000Z</time>
	<hdop>4.00</hdop>
	<extensions>
		<gpxtpx:TrackPointExtension>
			<gpxtpx:course>168.23325</gpxtpx:course>
		</gpxtpx:TrackPointExtension>
	</extensions>
</trkpt>
<trkpt lat="49.8708858" lon="7.6432217">
	<ele>366.53</ele>
	<time>2021-10-16T09:20:38.000Z</time>
	<hdop>4.00</hdop>
	<extensions>
		<gpxtpx:TrackPointExtension>
			<gpxtpx:course>139.00519</gpxtpx:course>
		</gpxtpx:TrackPointExtension>
	</extensions>
</trkpt>
<trkpt lat="49.8706587" lon="7.6434890">
	<ele>366.69</ele>
	<time>2021-10-16T09:20:43.000Z</time>
	<hdop>4.00</hdop>
	<extensions>
		<gpxtpx:TrackPointExtension>
			<gpxtpx:course>147.9972</gpxtpx:course>
		</gpxtpx:TrackPointExtension>
	</extensions>
</trkpt>
<trkpt lat="49.8703892" lon="7.6437029">
	<ele>366.00</ele>
	<time>2021-10-16T09:20:48.000Z</time>
	<hdop>4.00</hdop>
	<extensions>
		<gpxtpx:TrackPointExtension>
			<gpxtpx:course>154.00026</gpxtpx:course>
		</gpxtpx:TrackPointExtension>
	</extensions>
</trkpt>
<trkpt lat="49.8700688" lon="7.6439265">
	<ele>364.54</ele>
	<time>2021-10-16T09:20:53.000Z</time>
	<hdop>4.00</hdop>
	<extensions>
		<gpxtpx:TrackPointExtension>
			<gpxtpx:course>155.00108</gpxtpx:course>
		</gpxtpx:TrackPointExtension>
	</extensions>
</trkpt>
<trkpt lat="49.8697387" lon="7.6441871">
	<ele>363.08</ele>
	<time>2021-10-16T09:20:58.000Z</time>
	<hdop>4.00</hdop>
	<extensions>
		<gpxtpx:TrackPointExtension>
			<gpxtpx:course>152.00105</gpxtpx:course>
		</gpxtpx:TrackPointExtension>
	</extensions>
</trkpt>
<trkpt lat="49.8694545" lon="7.6444443">
	<ele>362.43</ele>
	<time>2021-10-16T09:21:03.000Z</time>
	<hdop>4.00</hdop>
	<extensions>
		<gpxtpx:TrackPointExtension>
			<gpxtpx:course>149.98924</gpxtpx:course>
		</gpxtpx:TrackPointExtension>
	</extensions>
</trkpt>
<trkpt lat="49.8691874" lon="7.6446346">
	<ele>361.98</ele>
	<time>2021-10-16T09:21:08.000Z</time>
	<hdop>4.00</hdop>
	<extensions>
		<gpxtpx:TrackPointExtension>
			<gpxtpx:course>155.99957</gpxtpx:course>
		</gpxtpx:TrackPointExtension>
	</extensions>
</trkpt>
<trkpt lat="49.8689193" lon="7.6448044">
	<ele>363.08</ele>
	<time>2021-10-16T09:21:13.000Z</time>
	<hdop>4.00</hdop>
	<extensions>
		<gpxtpx:TrackPointExtension>
			<gpxtpx:course>156.9998</gpxtpx:course>
		</gpxtpx:TrackPointExtension>
	</extensions>
</trkpt>
<trkpt lat="49.8686699" lon="7.6449908">
	<ele>365.27</ele>
	<time>2021-10-16T09:21:18.000Z</time>
	<hdop>4.00</hdop>
	<extensions>
		<gpxtpx:TrackPointExtension>
			<gpxtpx:course>151.99983</gpxtpx:course>
		</gpxtpx:TrackPointExtension>
	</extensions>
</trkpt>
<trkpt lat="49.8684799" lon="7.6451505">
	<ele>367.11</ele>
	<time>2021-10-16T09:21:23.000Z</time>
	<hdop>4.00</hdop>
	<extensions>
		<gpxtpx:TrackPointExtension>
			<gpxtpx:course>149.96207</gpxtpx:course>
		</gpxtpx:TrackPointExtension>
	</extensions>
</trkpt>
<trkpt lat="49.8683342" lon="7.6453437">
	<ele>368.51</ele>
	<time>2021-10-16T09:21:28.000Z</time>
	<hdop>4.00</hdop>
	<extensions>
		<gpxtpx:TrackPointExtension>
			<gpxtpx:course>97.30887</gpxtpx:course>
		</gpxtpx:TrackPointExtension>
	</extensions>
</trkpt>
<trkpt lat="49.8683737" lon="7.6455010">
	<ele>368.88</ele>
	<time>2021-10-16T09:21:32.211Z</time>
	<hdop>8.89</hdop>
	<extensions>
		<gpxtpx:TrackPointExtension>
			<gpxtpx:course>56.758877</gpxtpx:course>
		</gpxtpx:TrackPointExtension>
	</extensions>
</trkpt>
<trkpt lat="49.8685426" lon="7.6460033">
	<ele>369.21</ele>
	<time>2021-10-16T09:21:37.000Z</time>
	<hdop>4.00</hdop>
	<extensions>
		<gpxtpx:TrackPointExtension>
			<gpxtpx:course>62.00556</gpxtpx:course>
		</gpxtpx:TrackPointExtension>
	</extensions>
</trkpt>
<trkpt lat="49.8686772" lon="7.6464228">
	<ele>369.22</ele>
	<time>2021-10-16T09:21:42.000Z</time>
	<hdop>4.00</hdop>
	<extensions>
		<gpxtpx:TrackPointExtension>
			<gpxtpx:course>63.000458</gpxtpx:course>
		</gpxtpx:TrackPointExtension>
	</extensions>
</trkpt>
<trkpt lat="49.8688148" lon="7.6468415">
	<ele>368.82</ele>
	<time>2021-10-16T09:21:47.000Z</time>
	<hdop>4.00</hdop>
	<extensions>
		<gpxtpx:TrackPointExtension>
			<gpxtpx:course>62.99997</gpxtpx:course>
		</gpxtpx:TrackPointExtension>
	</extensions>
</trkpt>
<trkpt lat="49.8689531" lon="7.6472519">
	<ele>368.80</ele>
	<time>2021-10-16T09:21:52.000Z</time>
	<hdop>4.00</hdop>
	<extensions>
		<gpxtpx:TrackPointExtension>
			<gpxtpx:course>61.000065</gpxtpx:course>
		</gpxtpx:TrackPointExtension>
	</extensions>
</trkpt>
<trkpt lat="49.8690988" lon="7.6476664">
	<ele>368.64</ele>
	<time>2021-10-16T09:21:57.000Z</time>
	<hdop>4.00</hdop>
	<extensions>
		<gpxtpx:TrackPointExtension>
			<gpxtpx:course>59.998535</gpxtpx:course>
		</gpxtpx:TrackPointExtension>
	</extensions>
</trkpt>
<trkpt lat="49.8693126" lon="7.6479652">
	<ele>368.18</ele>
	<time>2021-10-16T09:22:02.000Z</time>
	<hdop>4.00</hdop>
	<extensions>
		<gpxtpx:TrackPointExtension>
			<gpxtpx:course>358.2852</gpxtpx:course>
		</gpxtpx:TrackPointExtension>
	</extensions>
</trkpt>
<trkpt lat="49.8695979" lon="7.6479249">
	<ele>368.15</ele>
	<time>2021-10-16T09:22:07.000Z</time>
	<hdop>4.00</hdop>
	<extensions>
		<gpxtpx:TrackPointExtension>
			<gpxtpx:course>3.9953148</gpxtpx:course>
		</gpxtpx:TrackPointExtension>
	</extensions>
</trkpt>
<trkpt lat="49.8698225" lon="7.6480954">
	<ele>367.23</ele>
	<time>2021-10-16T09:22:12.000Z</time>
	<hdop>4.67</hdop>
	<extensions>
		<gpxtpx:TrackPointExtension>
			<gpxtpx:course>37.999996</gpxtpx:course>
		</gpxtpx:TrackPointExtension>
	</extensions>
</trkpt>
<trkpt lat="49.8700395" lon="7.6483753">
	<ele>368.46</ele>
	<time>2021-10-16T09:22:17.000Z</time>
	<hdop>5.00</hdop>
	<extensions>
		<gpxtpx:TrackPointExtension>
			<gpxtpx:course>42.99799</gpxtpx:course>
		</gpxtpx:TrackPointExtension>
	</extensions>
</trkpt>
<trkpt lat="49.8701685" lon="7.6486846">
	<ele>368.80</ele>
	<time>2021-10-16T09:22:22.000Z</time>
	<hdop>4.80</hdop>
	<extensions>
		<gpxtpx:TrackPointExtension>
			<gpxtpx:course>66.98805</gpxtpx:course>
		</gpxtpx:TrackPointExtension>
	</extensions>
</trkpt>
<trkpt lat="49.8702293" lon="7.6490677">
	<ele>367.06</ele>
	<time>2021-10-16T09:22:27.000Z</time>
	<hdop>5.00</hdop>
	<extensions>
		<gpxtpx:TrackPointExtension>
			<gpxtpx:course>79.992134</gpxtpx:course>
		</gpxtpx:TrackPointExtension>
	</extensions>
</trkpt>
<trkpt lat="49.8702840" lon="7.6495452">
	<ele>364.54</ele>
	<time>2021-10-16T09:22:32.000Z</time>
	<hdop>4.00</hdop>
	<extensions>
		<gpxtpx:TrackPointExtension>
			<gpxtpx:course>78.00033</gpxtpx:course>
		</gpxtpx:TrackPointExtension>
	</extensions>
</trkpt>
<trkpt lat="49.8703662" lon="7.6500851">
	<ele>360.89</ele>
	<time>2021-10-16T09:22:37.000Z</time>
	<hdop>4.00</hdop>
	<extensions>
		<gpxtpx:TrackPointExtension>
			<gpxtpx:course>67.1545</gpxtpx:course>
		</gpxtpx:TrackPointExtension>
	</extensions>
</trkpt>
<trkpt lat="49.8706631" lon="7.6502338">
	<ele>357.57</ele>
	<time>2021-10-16T09:22:42.000Z</time>
	<hdop>4.00</hdop>
	<extensions>
		<gpxtpx:TrackPointExtension>
			<gpxtpx:course>331.0437</gpxtpx:course>
		</gpxtpx:TrackPointExtension>
	</extensions>
</trkpt>
<trkpt lat="49.8709076" lon="7.6499748">
	<ele>356.19</ele>
	<time>2021-10-16T09:22:47.000Z</time>
	<hdop>4.00</hdop>
	<extensions>
		<gpxtpx:TrackPointExtension>
			<gpxtpx:course>354.99207</gpxtpx:course>
		</gpxtpx:TrackPointExtension>
	</extensions>
</trkpt>
<trkpt lat="49.8711379" lon="7.6501775">
	<ele>354.60</ele>
	<time>2021-10-16T09:22:52.000Z</time>
	<hdop>4.00</hdop>
	<extensions>
		<gpxtpx:TrackPointExtension>
			<gpxtpx:course>53.997776</gpxtpx:course>
		</gpxtpx:TrackPointExtension>
	</extensions>
</trkpt>
<trkpt lat="49.8711312" lon="7.6505653">
	<ele>351.39</ele>
	<time>2021-10-16T09:22:57.000Z</time>
	<hdop>4.00</hdop>
	<extensions>
		<gpxtpx:TrackPointExtension>
			<gpxtpx:course>120.99522</gpxtpx:course>
		</gpxtpx:TrackPointExtension>
	</extensions>
</trkpt>
<trkpt lat="49.8709331" lon="7.6509181">
	<ele>349.56</ele>
	<time>2021-10-16T09:23:02.000Z</time>
	<hdop>4.00</hdop>
	<extensions>
		<gpxtpx:TrackPointExtension>
			<gpxtpx:course>136.99492</gpxtpx:course>
		</gpxtpx:TrackPointExtension>
	</extensions>
</trkpt>
<trkpt lat="49.8705947" lon="7.6512000">
	<ele>346.71</ele>
	<time>2021-10-16T09:23:07.000Z</time>
	<hdop>4.00</hdop>
	<extensions>
		<gpxtpx:TrackPointExtension>
			<gpxtpx:course>153.00078</gpxtpx:course>
		</gpxtpx:TrackPointExtension>
	</extensions>
</trkpt>
<trkpt lat="49.8702499" lon="7.6515766">
	<ele>342.26</ele>
	<time>2021-10-16T09:23:12.000Z</time>
	<hdop>4.00</hdop>
	<extensions>
		<gpxtpx:TrackPointExtension>
			<gpxtpx:course>122.578476</gpxtpx:course>
		</gpxtpx:TrackPointExtension>
	</extensions>
</trkpt>
<trkpt lat="49.8700573" lon="7.6519979">
	<ele>339.09</ele>
	<time>2021-10-16T09:23:17.000Z</time>
	<hdop>4.00</hdop>
	<extensions>
		<gpxtpx:TrackPointExtension>
			<gpxtpx:course>145.98152</gpxtpx:course>
		</gpxtpx:TrackPointExtension>
	</extensions>
</trkpt>
<trkpt lat="49.8697614" lon="7.6522573">
	<ele>336.64</ele>
	<time>2021-10-16T09:23:22.000Z</time>
	<hdop>4.00</hdop>
	<extensions>
		<gpxtpx:TrackPointExtension>
			<gpxtpx:course>146.99434</gpxtpx:course>
		</gpxtpx:TrackPointExtension>
	</extensions>
</trkpt>
<trkpt lat="49.8696351" lon="7.6525901">
	<ele>332.92</ele>
	<time>2021-10-16T09:23:27.000Z</time>
	<hdop>4.00</hdop>
	<extensions>
		<gpxtpx:TrackPointExtension>
			<gpxtpx:course>77.53447</gpxtpx:course>
		</gpxtpx:TrackPointExtension>
	</extensions>
</trkpt>
<trkpt lat="49.8698429" lon="7.6530310">
	<ele>329.94</ele>
	<time>2021-10-16T09:23:32.000Z</time>
	<hdop>4.00</hdop>
	<extensions>
		<gpxtpx:TrackPointExtension>
			<gpxtpx:course>49.984787</gpxtpx:course>
		</gpxtpx:TrackPointExtension>
	</extensions>
</trkpt>
<trkpt lat="49.8699047" lon="7.6532491">
	<ele>328.14</ele>
	<time>2021-10-16T09:23:37.000Z</time>
	<hdop>4.25</hdop>
	<extensions>
		<gpxtpx:TrackPointExtension>
			<gpxtpx:course>112.850716</gpxtpx:course>
		</gpxtpx:TrackPointExtension>
	</extensions>
</trkpt>
<trkpt lat="49.8698073" lon="7.6532483">
	<ele>326.89</ele>
	<time>2021-10-16T09:23:43.000Z</time>
	<hdop>4.28</hdop>
	<extensions>
		<gpxtpx:TrackPointExtension>
			<gpxtpx:course>215.04587</gpxtpx:course>
		</gpxtpx:TrackPointExtension>
	</extensions>
</trkpt>
<trkpt lat="49.8697958" lon="7.6533864">
	<ele>322.73</ele>
	<time>2021-10-16T09:24:04.598Z</time>
	<hdop>25.77</hdop>
	<extensions>
		<gpxtpx:TrackPointExtension>
			<gpxtpx:course>58.30997</gpxtpx:course>
		</gpxtpx:TrackPointExtension>
	</extensions>
</trkpt>
<trkpt lat="49.8698617" lon="7.6535448">
	<ele>321.18</ele>
	<time>2021-10-16T09:24:09.098Z</time>
	<hdop>24.59</hdop>
	<extensions>
		<gpxtpx:TrackPointExtension>
			<gpxtpx:course>64.82448</gpxtpx:course>
		</gpxtpx:TrackPointExtension>
	</extensions>
</trkpt>
<trkpt lat="49.8699552" lon="7.6536682">
	<ele>320.08</ele>
	<time>2021-10-16T09:24:13.298Z</time>
	<hdop>25.57</hdop>
	<extensions>
		<gpxtpx:TrackPointExtension>
			<gpxtpx:course>16.85135</gpxtpx:course>
		</gpxtpx:TrackPointExtension>
	</extensions>
</trkpt>
<trkpt lat="49.8701254" lon="7.6536927">
	<ele>318.88</ele>
	<time>2021-10-16T09:24:19.440Z</time>
	<hdop>25.39</hdop>
	<extensions>
		<gpxtpx:TrackPointExtension>
			<gpxtpx:course>346.0061</gpxtpx:course>
		</gpxtpx:TrackPointExtension>
	</extensions>
</trkpt>
<trkpt lat="49.8703233" lon="7.6536069">
	<ele>318.18</ele>
	<time>2021-10-16T09:24:23.722Z</time>
	<hdop>25.55</hdop>
	<extensions>
		<gpxtpx:TrackPointExtension>
			<gpxtpx:course>344.28635</gpxtpx:course>
		</gpxtpx:TrackPointExtension>
	</extensions>
</trkpt>
<trkpt lat="49.8704730" lon="7.6534639">
	<ele>317.06</ele>
	<time>2021-10-16T09:24:28.260Z</time>
	<hdop>22.50</hdop>
	<extensions>
		<gpxtpx:TrackPointExtension>
			<gpxtpx:course>333.5636</gpxtpx:course>
		</gpxtpx:TrackPointExtension>
	</extensions>
</trkpt>
<trkpt lat="49.8706149" lon="7.6533594">
	<ele>316.46</ele>
	<time>2021-10-16T09:24:33.280Z</time>
	<hdop>20.68</hdop>
	<extensions>
		<gpxtpx:TrackPointExtension>
			<gpxtpx:course>336.14493</gpxtpx:course>
		</gpxtpx:TrackPointExtension>
	</extensions>
</trkpt>
<trkpt lat="49.8707059" lon="7.6533371">
	<ele>315.77</ele>
	<time>2021-10-16T09:24:37.660Z</time>
	<hdop>22.66</hdop>
	<extensions>
		<gpxtpx:TrackPointExtension>
			<gpxtpx:course>350.3125</gpxtpx:course>
		</gpxtpx:TrackPointExtension>
	</extensions>
</trkpt>
<trkpt lat="49.8708010" lon="7.6533380">
	<ele>314.70</ele>
	<time>2021-10-16T09:24:42.200Z</time>
	<hdop>24.62</hdop>
	<extensions>
		<gpxtpx:TrackPointExtension>
			<gpxtpx:course>15.998333</gpxtpx:course>
		</gpxtpx:TrackPointExtension>
	</extensions>
</trkpt>
<trkpt lat="49.8708959" lon="7.6533345">
	<ele>314.11</ele>
	<time>2021-10-16T09:24:47.000Z</time>
	<hdop>17.28</hdop>
	<extensions>
		<gpxtpx:TrackPointExtension>
			<gpxtpx:course>359.99252</gpxtpx:course>
		</gpxtpx:TrackPointExtension>
	</extensions>
</trkpt>
<trkpt lat="49.8709791" lon="7.6533930">
	<ele>314.91</ele>
	<time>2021-10-16T09:25:23.343Z</time>
	<hdop>4.33</hdop>
	<extensions>
		<gpxtpx:TrackPointExtension>
			<gpxtpx:course>320.28397</gpxtpx:course>
		</gpxtpx:TrackPointExtension>
	</extensions>
</trkpt>
<trkpt lat="49.8710842" lon="7.6533880">
	<ele>316.34</ele>
	<time>2021-10-16T09:25:30.602Z</time>
	<hdop>8.58</hdop>
	<extensions>
		<gpxtpx:TrackPointExtension>
			<gpxtpx:course>340.68112</gpxtpx:course>
		</gpxtpx:TrackPointExtension>
	</extensions>
</trkpt>
<trkpt lat="49.8712372" lon="7.6533821">
	<ele>318.25</ele>
	<time>2021-10-16T09:25:35.502Z</time>
	<hdop>25.73</hdop>
	<extensions>
		<gpxtpx:TrackPointExtension>
			<gpxtpx:course>359.6434</gpxtpx:course>
		</gpxtpx:TrackPointExtension>
	</extensions>
</trkpt>
<trkpt lat="49.8713265" lon="7.6533538">
	<ele>320.11</ele>
	<time>2021-10-16T09:25:40.382Z</time>
	<hdop>24.26</hdop>
	<extensions>
		<gpxtpx:TrackPointExtension>
			<gpxtpx:course>4.3374176</gpxtpx:course>
		</gpxtpx:TrackPointExtension>
	</extensions>
</trkpt>
<trkpt lat="49.8714222" lon="7.6533770">
	<ele>322.22</ele>
	<time>2021-10-16T09:25:45.442Z</time>
	<hdop>8.88</hdop>
	<extensions>
		<gpxtpx:TrackPointExtension>
			<gpxtpx:course>14.935916</gpxtpx:course>
		</gpxtpx:TrackPointExtension>
	</extensions>
</trkpt>
<trkpt lat="49.8715108" lon="7.6534804">
	<ele>324.00</ele>
	<time>2021-10-16T09:25:50.000Z</time>
	<hdop>21.70</hdop>
	<extensions>
		<gpxtpx:TrackPointExtension>
			<gpxtpx:course>61.16927</gpxtpx:course>
		</gpxtpx:TrackPointExtension>
	</extensions>
</trkpt>
<trkpt lat="49.8715872" lon="7.6535833">
	<ele>325.11</ele>
	<time>2021-10-16T09:25:56.662Z</time>
	<hdop>30.88</hdop>
	<extensions>
		<gpxtpx:TrackPointExtension>
			<gpxtpx:course>64.70403</gpxtpx:course>
		</gpxtpx:TrackPointExtension>
	</extensions>
</trkpt>
<trkpt lat="49.8716905" lon="7.6536440">
	<ele>324.88</ele>
	<time>2021-10-16T09:26:07.000Z</time>
	<hdop>6.48</hdop>
	<extensions>
		<gpxtpx:TrackPointExtension>
			<gpxtpx:course>41.048332</gpxtpx:course>
		</gpxtpx:TrackPointExtension>
	</extensions>
</trkpt>
<trkpt lat="49.8717866" lon="7.6536170">
	<ele>326.48</ele>
	<time>2021-10-16T09:26:37.583Z</time>
	<hdop>4.98</hdop>
	<extensions>
		<gpxtpx:TrackPointExtension>
			<gpxtpx:course>258.58188</gpxtpx:course>
		</gpxtpx:TrackPointExtension>
	</extensions>
</trkpt>
<trkpt lat="49.8718305" lon="7.6534613">
	<ele>328.51</ele>
	<time>2021-10-16T09:26:45.426Z</time>
	<hdop>24.97</hdop>
	<extensions>
		<gpxtpx:TrackPointExtension>
			<gpxtpx:course>298.09122</gpxtpx:course>
		</gpxtpx:TrackPointExtension>
	</extensions>
</trkpt>
<trkpt lat="49.8718979" lon="7.6531498">
	<ele>329.49</ele>
	<time>2021-10-16T09:26:50.181Z</time>
	<hdop>22.52</hdop>
	<extensions>
		<gpxtpx:TrackPointExtension>
			<gpxtpx:course>324.69324</gpxtpx:course>
		</gpxtpx:TrackPointExtension>
	</extensions>
</trkpt>
<trkpt lat="49.8719783" lon="7.6530732">
	<ele>329.49</ele>
	<time>2021-10-16T09:26:54.624Z</time>
	<hdop>27.05</hdop>
	<extensions>
		<gpxtpx:TrackPointExtension>
			<gpxtpx:course>341.83124</gpxtpx:course>
		</gpxtpx:TrackPointExtension>
	</extensions>
</trkpt>
<trkpt lat="49.8720880" lon="7.6529828">
	<ele>329.48</ele>
	<time>2021-10-16T09:26:59.306Z</time>
	<hdop>33.02</hdop>
	<extensions>
		<gpxtpx:TrackPointExtension>
			<gpxtpx:course>343.29123</gpxtpx:course>
		</gpxtpx:TrackPointExtension>
	</extensions>
</trkpt>
<trkpt lat="49.8722100" lon="7.6528991">
	<ele>329.43</ele>
	<time>2021-10-16T09:27:04.184Z</time>
	<hdop>33.97</hdop>
	<extensions>
		<gpxtpx:TrackPointExtension>
			<gpxtpx:course>355.98047</gpxtpx:course>
		</gpxtpx:TrackPointExtension>
	</extensions>
</trkpt>
<trkpt lat="49.8723092" lon="7.6528450">
	<ele>329.54</ele>
	<time>2021-10-16T09:27:08.405Z</time>
	<hdop>33.90</hdop>
	<extensions>
		<gpxtpx:TrackPointExtension>
			<gpxtpx:course>342.84515</gpxtpx:course>
		</gpxtpx:TrackPointExtension>
	</extensions>
</trkpt>
<trkpt lat="49.8724489" lon="7.6526832">
	<ele>330.14</ele>
	<time>2021-10-16T09:27:13.366Z</time>
	<hdop>34.38</hdop>
	<extensions>
		<gpxtpx:TrackPointExtension>
			<gpxtpx:course>334.17465</gpxtpx:course>
		</gpxtpx:TrackPointExtension>
	</extensions>
</trkpt>
<trkpt lat="49.8725683" lon="7.6525900">
	<ele>330.17</ele>
	<time>2021-10-16T09:27:17.644Z</time>
	<hdop>34.14</hdop>
	<extensions>
		<gpxtpx:TrackPointExtension>
			<gpxtpx:course>333.8553</gpxtpx:course>
		</gpxtpx:TrackPointExtension>
	</extensions>
</trkpt>
<trkpt lat="49.8727065" lon="7.6524579">
	<ele>329.94</ele>
	<time>2021-10-16T09:27:22.083Z</time>
	<hdop>34.13</hdop>
	<extensions>
		<gpxtpx:TrackPointExtension>
			<gpxtpx:course>330.4044</gpxtpx:course>
		</gpxtpx:TrackPointExtension>
	</extensions>
</trkpt>
<trkpt lat="49.8728466" lon="7.6523157">
	<ele>330.02</ele>
	<time>2021-10-16T09:27:26.564Z</time>
	<hdop>34.62</hdop>
	<extensions>
		<gpxtpx:TrackPointExtension>
			<gpxtpx:course>325.9573</gpxtpx:course>
		</gpxtpx:TrackPointExtension>
	</extensions>
</trkpt>
<trkpt lat="49.8729543" lon="7.6521300">
	<ele>329.94</ele>
	<time>2021-10-16T09:27:31.185Z</time>
	<hdop>33.60</hdop>
	<extensions>
		<gpxtpx:TrackPointExtension>
			<gpxtpx:course>308.9825</gpxtpx:course>
		</gpxtpx:TrackPointExtension>
	</extensions>
</trkpt>
<trkpt lat="49.8730163" lon="7.6519835">
	<ele>329.84</ele>
	<time>2021-10-16T09:27:35.404Z</time>
	<hdop>33.57</hdop>
	<extensions>
		<gpxtpx:TrackPointExtension>
			<gpxtpx:course>321.6616</gpxtpx:course>
		</gpxtpx:TrackPointExtension>
	</extensions>
</trkpt>
<trkpt lat="49.8730809" lon="7.6518346">
	<ele>329.92</ele>
	<time>2021-10-16T09:27:39.686Z</time>
	<hdop>33.58</hdop>
	<extensions>
		<gpxtpx:TrackPointExtension>
			<gpxtpx:course>325.24207</gpxtpx:course>
		</gpxtpx:TrackPointExtension>
	</extensions>
</trkpt>
<trkpt lat="49.8731613" lon="7.6516627">
	<ele>330.01</ele>
	<time>2021-10-16T09:27:44.224Z</time>
	<hdop>34.26</hdop>
	<extensions>
		<gpxtpx:TrackPointExtension>
			<gpxtpx:course>324.35242</gpxtpx:course>
		</gpxtpx:TrackPointExtension>
	</extensions>
</trkpt>
<trkpt lat="49.8732593" lon="7.6514747">
	<ele>330.62</ele>
	<time>2021-10-16T09:27:49.425Z</time>
	<hdop>33.81</hdop>
	<extensions>
		<gpxtpx:TrackPointExtension>
			<gpxtpx:course>324.6388</gpxtpx:course>
		</gpxtpx:TrackPointExtension>
	</extensions>
</trkpt>
<trkpt lat="49.8733249" lon="7.6513630">
	<ele>330.93</ele>
	<time>2021-10-16T09:27:53.643Z</time>
	<hdop>35.18</hdop>
	<extensions>
		<gpxtpx:TrackPointExtension>
			<gpxtpx:course>326.04733</gpxtpx:course>
		</gpxtpx:TrackPointExtension>
	</extensions>
</trkpt>
<trkpt lat="49.8734213" lon="7.6512131">
	<ele>330.87</ele>
	<time>2021-10-16T09:27:58.224Z</time>
	<hdop>46.30</hdop>
	<extensions>
		<gpxtpx:TrackPointExtension>
			<gpxtpx:course>324.90512</gpxtpx:course>
		</gpxtpx:TrackPointExtension>
	</extensions>
</trkpt>
<trkpt lat="49.8735287" lon="7.6510496">
	<ele>330.57</ele>
	<time>2021-10-16T09:28:02.564Z</time>
	<hdop>39.58</hdop>
	<extensions>
		<gpxtpx:TrackPointExtension>
			<gpxtpx:course>329.12186</gpxtpx:course>
		</gpxtpx:TrackPointExtension>
	</extensions>
</trkpt>
<trkpt lat="49.8736377" lon="7.6508944">
	<ele>330.08</ele>
	<time>2021-10-16T09:28:07.127Z</time>
	<hdop>50.18</hdop>
	<extensions>
		<gpxtpx:TrackPointExtension>
			<gpxtpx:course>323.7055</gpxtpx:course>
		</gpxtpx:TrackPointExtension>
	</extensions>
</trkpt>
<trkpt lat="49.8737170" lon="7.6507456">
	<ele>329.56</ele>
	<time>2021-10-16T09:28:11.425Z</time>
	<hdop>50.77</hdop>
	<extensions>
		<gpxtpx:TrackPointExtension>
			<gpxtpx:course>333.27893</gpxtpx:course>
		</gpxtpx:TrackPointExtension>
	</extensions>
</trkpt>
<trkpt lat="49.8738010" lon="7.6505463">
	<ele>330.05</ele>
	<time>2021-10-16T09:28:15.985Z</time>
	<hdop>51.21</hdop>
	<extensions>
		<gpxtpx:TrackPointExtension>
			<gpxtpx:course>333.3433</gpxtpx:course>
		</gpxtpx:TrackPointExtension>
	</extensions>
</trkpt>
<trkpt lat="49.8738703" lon="7.6503646">
	<ele>330.53</ele>
	<time>2021-10-16T09:28:20.556Z</time>
	<hdop>51.15</hdop>
	<extensions>
		<gpxtpx:TrackPointExtension>
			<gpxtpx:course>331.4425</gpxtpx:course>
		</gpxtpx:TrackPointExtension>
	</extensions>
</trkpt>
<trkpt lat="49.8739340" lon="7.6502030">
	<ele>331.03</ele>
	<time>2021-10-16T09:28:24.896Z</time>
	<hdop>50.43</hdop>
	<extensions>
		<gpxtpx:TrackPointExtension>
			<gpxtpx:course>345.9358</gpxtpx:course>
		</gpxtpx:TrackPointExtension>
	</extensions>
</trkpt>
<trkpt lat="49.8739964" lon="7.6500193">
	<ele>331.76</ele>
	<time>2021-10-16T09:28:29.322Z</time>
	<hdop>36.74</hdop>
	<extensions>
		<gpxtpx:TrackPointExtension>
			<gpxtpx:course>5.180199</gpxtpx:course>
		</gpxtpx:TrackPointExtension>
	</extensions>
</trkpt>
<trkpt lat="49.8740656" lon="7.6499153">
	<ele>332.37</ele>
	<time>2021-10-16T09:28:35.616Z</time>
	<hdop>45.86</hdop>
	<extensions>
		<gpxtpx:TrackPointExtension>
			<gpxtpx:course>357.07468</gpxtpx:course>
		</gpxtpx:TrackPointExtension>
	</extensions>
</trkpt>
<trkpt lat="49.8740969" lon="7.6497592">
	<ele>333.56</ele>
	<time>2021-10-16T09:28:39.880Z</time>
	<hdop>15.37</hdop>
	<extensions>
		<gpxtpx:TrackPointExtension>
			<gpxtpx:course>358.17053</gpxtpx:course>
		</gpxtpx:TrackPointExtension>
	</extensions>
</trkpt>
<trkpt lat="49.8741860" lon="7.6497329">
	<ele>335.04</ele>
	<time>2021-10-16T09:28:47.479Z</time>
	<hdop>11.35</hdop>
	<extensions>
		<gpxtpx:TrackPointExtension>
			<gpxtpx:course>25.541391</gpxtpx:course>
		</gpxtpx:TrackPointExtension>
	</extensions>
</trkpt>
<trkpt lat="49.8742919" lon="7.6497087">
	<ele>335.67</ele>
	<time>2021-10-16T09:28:52.656Z</time>
	<hdop>8.18</hdop>
	<extensions>
		<gpxtpx:TrackPointExtension>
			<gpxtpx:course>3.2718458</gpxtpx:course>
		</gpxtpx:TrackPointExtension>
	</extensions>
</trkpt>
<trkpt lat="49.8744427" lon="7.6497498">
	<ele>336.33</ele>
	<time>2021-10-16T09:28:57.000Z</time>
	<hdop>7.25</hdop>
	<extensions>
		<gpxtpx:TrackPointExtension>
			<gpxtpx:course>29.615976</gpxtpx:course>
		</gpxtpx:TrackPointExtension>
	</extensions>
</trkpt>
<trkpt lat="49.8745243" lon="7.6498709">
	<ele>337.07</ele>
	<time>2021-10-16T09:29:03.498Z</time>
	<hdop>26.92</hdop>
	<extensions>
		<gpxtpx:TrackPointExtension>
			<gpxtpx:course>66.54823</gpxtpx:course>
		</gpxtpx:TrackPointExtension>
	</extensions>
</trkpt>
<trkpt lat="49.8745945" lon="7.6500065">
	<ele>337.89</ele>
	<time>2021-10-16T09:29:07.577Z</time>
	<hdop>34.85</hdop>
	<extensions>
		<gpxtpx:TrackPointExtension>
			<gpxtpx:course>70.01419</gpxtpx:course>
		</gpxtpx:TrackPointExtension>
	</extensions>
</trkpt>
<trkpt lat="49.8746893" lon="7.6501879">
	<ele>338.48</ele>
	<time>2021-10-16T09:29:11.898Z</time>
	<hdop>34.82</hdop>
	<extensions>
		<gpxtpx:TrackPointExtension>
			<gpxtpx:course>67.13945</gpxtpx:course>
		</gpxtpx:TrackPointExtension>
	</extensions>
</trkpt>
<trkpt lat="49.8747860" lon="7.6503612">
	<ele>338.63</ele>
	<time>2021-10-16T09:29:16.348Z</time>
	<hdop>34.52</hdop>
	<extensions>
		<gpxtpx:TrackPointExtension>
			<gpxtpx:course>62.29502</gpxtpx:course>
		</gpxtpx:TrackPointExtension>
	</extensions>
</trkpt>
<trkpt lat="49.8749010" lon="7.6505539">
	<ele>338.47</ele>
	<time>2021-10-16T09:29:21.318Z</time>
	<hdop>34.11</hdop>
	<extensions>
		<gpxtpx:TrackPointExtension>
			<gpxtpx:course>65.34702</gpxtpx:course>
		</gpxtpx:TrackPointExtension>
	</extensions>
</trkpt>
<trkpt lat="49.8749926" lon="7.6506997">
	<ele>338.82</ele>
	<time>2021-10-16T09:29:25.520Z</time>
	<hdop>33.96</hdop>
	<extensions>
		<gpxtpx:TrackPointExtension>
			<gpxtpx:course>60.122932</gpxtpx:course>
		</gpxtpx:TrackPointExtension>
	</extensions>
</trkpt>
<trkpt lat="49.8751085" lon="7.6508482">
	<ele>339.90</ele>
	<time>2021-10-16T09:29:29.999Z</time>
	<hdop>33.85</hdop>
	<extensions>
		<gpxtpx:TrackPointExtension>
			<gpxtpx:course>61.387615</gpxtpx:course>
		</gpxtpx:TrackPointExtension>
	</extensions>
</trkpt>
<trkpt lat="49.8752113" lon="7.6509894">
	<ele>340.74</ele>
	<time>2021-10-16T09:29:34.519Z</time>
	<hdop>33.87</hdop>
	<extensions>
		<gpxtpx:TrackPointExtension>
			<gpxtpx:course>65.21642</gpxtpx:course>
		</gpxtpx:TrackPointExtension>
	</extensions>
</trkpt>
<trkpt lat="49.8753134" lon="7.6511348">
	<ele>341.55</ele>
	<time>2021-10-16T09:29:39.199Z</time>
	<hdop>35.04</hdop>
	<extensions>
		<gpxtpx:TrackPointExtension>
			<gpxtpx:course>69.53279</gpxtpx:course>
		</gpxtpx:TrackPointExtension>
	</extensions>
</trkpt>
<trkpt lat="49.8754118" lon="7.6512598">
	<ele>342.35</ele>
	<time>2021-10-16T09:29:43.440Z</time>
	<hdop>33.78</hdop>
	<extensions>
		<gpxtpx:TrackPointExtension>
			<gpxtpx:course>56.338013</gpxtpx:course>
		</gpxtpx:TrackPointExtension>
	</extensions>
</trkpt>
<trkpt lat="49.8755202" lon="7.6513953">
	<ele>343.08</ele>
	<time>2021-10-16T09:29:48.678Z</time>
	<hdop>34.24</hdop>
	<extensions>
		<gpxtpx:TrackPointExtension>
			<gpxtpx:course>59.75291</gpxtpx:course>
		</gpxtpx:TrackPointExtension>
	</extensions>
</trkpt>
<trkpt lat="49.8756947" lon="7.6515047">
	<ele>343.81</ele>
	<time>2021-10-16T09:29:53.238Z</time>
	<hdop>27.60</hdop>
	<extensions>
		<gpxtpx:TrackPointExtension>
			<gpxtpx:course>44.31707</gpxtpx:course>
		</gpxtpx:TrackPointExtension>
	</extensions>
</trkpt>
<trkpt lat="49.8758443" lon="7.6516068">
	<ele>344.45</ele>
	<time>2021-10-16T09:29:58.194Z</time>
	<hdop>25.92</hdop>
	<extensions>
		<gpxtpx:TrackPointExtension>
			<gpxtpx:course>50.15743</gpxtpx:course>
		</gpxtpx:TrackPointExtension>
	</extensions>
</trkpt>
<trkpt lat="49.8759947" lon="7.6517122">
	<ele>344.70</ele>
	<time>2021-10-16T09:30:03.359Z</time>
	<hdop>25.25</hdop>
	<extensions>
		<gpxtpx:TrackPointExtension>
			<gpxtpx:course>53.75856</gpxtpx:course>
		</gpxtpx:TrackPointExtension>
	</extensions>
</trkpt>
<trkpt lat="49.8760902" lon="7.6518050">
	<ele>345.02</ele>
	<time>2021-10-16T09:30:07.579Z</time>
	<hdop>24.98</hdop>
	<extensions>
		<gpxtpx:TrackPointExtension>
			<gpxtpx:course>60.676945</gpxtpx:course>
		</gpxtpx:TrackPointExtension>
	</extensions>
</trkpt>
<trkpt lat="49.8761686" lon="7.6519259">
	<ele>345.52</ele>
	<time>2021-10-16T09:30:12.000Z</time>
	<hdop>25.25</hdop>
	<extensions>
		<gpxtpx:TrackPointExtension>
			<gpxtpx:course>65.00381</gpxtpx:course>
		</gpxtpx:TrackPointExtension>
	</extensions>
</trkpt>
<trkpt lat="49.8762580" lon="7.6520812">
	<ele>346.02</ele>
	<time>2021-10-16T09:30:17.158Z</time>
	<hdop>25.85</hdop>
	<extensions>
		<gpxtpx:TrackPointExtension>
			<gpxtpx:course>62.455795</gpxtpx:course>
		</gpxtpx:TrackPointExtension>
	</extensions>
</trkpt>
<trkpt lat="49.8763339" lon="7.6522393">
	<ele>346.02</ele>
	<time>2021-10-16T09:30:21.479Z</time>
	<hdop>19.77</hdop>
	<extensions>
		<gpxtpx:TrackPointExtension>
			<gpxtpx:course>51.119877</gpxtpx:course>
		</gpxtpx:TrackPointExtension>
	</extensions>
</trkpt>
<trkpt lat="49.8764210" lon="7.6523936">
	<ele>346.19</ele>
	<time>2021-10-16T09:30:26.188Z</time>
	<hdop>17.21</hdop>
	<extensions>
		<gpxtpx:TrackPointExtension>
			<gpxtpx:course>62.348614</gpxtpx:course>
		</gpxtpx:TrackPointExtension>
	</extensions>
</trkpt>
<trkpt lat="49.8765134" lon="7.6526396">
	<ele>346.61</ele>
	<time>2021-10-16T09:30:32.340Z</time>
	<hdop>17.12</hdop>
	<extensions>
		<gpxtpx:TrackPointExtension>
			<gpxtpx:course>72.28787</gpxtpx:course>
		</gpxtpx:TrackPointExtension>
	</extensions>
</trkpt>
<trkpt lat="49.8765511" lon="7.6528336">
	<ele>346.93</ele>
	<time>2021-10-16T09:30:37.521Z</time>
	<hdop>16.89</hdop>
	<extensions>
		<gpxtpx:TrackPointExtension>
			<gpxtpx:course>93.48177</gpxtpx:course>
		</gpxtpx:TrackPointExtension>
	</extensions>
</trkpt>
<trkpt lat="49.8765384" lon="7.6529998">
	<ele>347.60</ele>
	<time>2021-10-16T09:30:42.278Z</time>
	<hdop>17.19</hdop>
	<extensions>
		<gpxtpx:TrackPointExtension>
			<gpxtpx:course>98.16542</gpxtpx:course>
		</gpxtpx:TrackPointExtension>
	</extensions>
</trkpt>
<trkpt lat="49.8765291" lon="7.6531628">
	<ele>348.30</ele>
	<time>2021-10-16T09:30:46.780Z</time>
	<hdop>18.64</hdop>
	<extensions>
		<gpxtpx:TrackPointExtension>
			<gpxtpx:course>94.13748</gpxtpx:course>
		</gpxtpx:TrackPointExtension>
	</extensions>
</trkpt>
<trkpt lat="49.8765217" lon="7.6533353">
	<ele>349.21</ele>
	<time>2021-10-16T09:30:51.218Z</time>
	<hdop>24.99</hdop>
	<extensions>
		<gpxtpx:TrackPointExtension>
			<gpxtpx:course>100.17766</gpxtpx:course>
		</gpxtpx:TrackPointExtension>
	</extensions>
</trkpt>
<trkpt lat="49.8765088" lon="7.6535326">
	<ele>349.89</ele>
	<time>2021-10-16T09:30:55.479Z</time>
	<hdop>25.54</hdop>
	<extensions>
		<gpxtpx:TrackPointExtension>
			<gpxtpx:course>102.805084</gpxtpx:course>
		</gpxtpx:TrackPointExtension>
	</extensions>
</trkpt>
<trkpt lat="49.8764805" lon="7.6538217">
	<ele>350.48</ele>
	<time>2021-10-16T09:31:00.381Z</time>
	<hdop>21.28</hdop>
	<extensions>
		<gpxtpx:TrackPointExtension>
			<gpxtpx:course>100.83226</gpxtpx:course>
		</gpxtpx:TrackPointExtension>
	</extensions>
</trkpt>
<trkpt lat="49.8764797" lon="7.6540976">
	<ele>350.83</ele>
	<time>2021-10-16T09:31:05.300Z</time>
	<hdop>17.35</hdop>
	<extensions>
		<gpxtpx:TrackPointExtension>
			<gpxtpx:course>96.59848</gpxtpx:course>
		</gpxtpx:TrackPointExtension>
	</extensions>
</trkpt>
<trkpt lat="49.8764978" lon="7.6543665">
	<ele>351.42</ele>
	<time>2021-10-16T09:31:10.300Z</time>
	<hdop>17.09</hdop>
	<extensions>
		<gpxtpx:TrackPointExtension>
			<gpxtpx:course>92.75518</gpxtpx:course>
		</gpxtpx:TrackPointExtension>
	</extensions>
</trkpt>
<trkpt lat="49.8765075" lon="7.6546027">
	<ele>352.32</ele>
	<time>2021-10-16T09:31:14.561Z</time>
	<hdop>23.41</hdop>
	<extensions>
		<gpxtpx:TrackPointExtension>
			<gpxtpx:course>89.36881</gpxtpx:course>
		</gpxtpx:TrackPointExtension>
	</extensions>
</trkpt>
<trkpt lat="49.8765218" lon="7.6549511">
	<ele>353.47</ele>
	<time>2021-10-16T09:31:20.600Z</time>
	<hdop>17.31</hdop>
	<extensions>
		<gpxtpx:TrackPointExtension>
			<gpxtpx:course>90.94791</gpxtpx:course>
		</gpxtpx:TrackPointExtension>
	</extensions>
</trkpt>
<trkpt lat="49.8765268" lon="7.6552223">
	<ele>354.22</ele>
	<time>2021-10-16T09:31:25.540Z</time>
	<hdop>16.53</hdop>
	<extensions>
		<gpxtpx:TrackPointExtension>
			<gpxtpx:course>90.74457</gpxtpx:course>
		</gpxtpx:TrackPointExtension>
	</extensions>
</trkpt>
<trkpt lat="49.8765182" lon="7.6555001">
	<ele>355.96</ele>
	<time>2021-10-16T09:31:30.221Z</time>
	<hdop>17.31</hdop>
	<extensions>
		<gpxtpx:TrackPointExtension>
			<gpxtpx:course>104.56559</gpxtpx:course>
		</gpxtpx:TrackPointExtension>
	</extensions>
</trkpt>
<trkpt lat="49.8764953" lon="7.6557253">
	<ele>357.97</ele>
	<time>2021-10-16T09:31:35.361Z</time>
	<hdop>17.46</hdop>
	<extensions>
		<gpxtpx:TrackPointExtension>
			<gpxtpx:course>92.58105</gpxtpx:course>
		</gpxtpx:TrackPointExtension>
	</extensions>
</trkpt>
<trkpt lat="49.8765519" lon="7.6559344">
	<ele>358.07</ele>
	<time>2021-10-16T09:31:40.462Z</time>
	<hdop>15.59</hdop>
	<extensions>
		<gpxtpx:TrackPointExtension>
			<gpxtpx:course>63.110973</gpxtpx:course>
		</gpxtpx:TrackPointExtension>
	</extensions>
</trkpt>
<trkpt lat="49.8766040" lon="7.6560958">
	<ele>357.96</ele>
	<time>2021-10-16T09:31:44.582Z</time>
	<hdop>16.79</hdop>
	<extensions>
		<gpxtpx:TrackPointExtension>
			<gpxtpx:course>63.638042</gpxtpx:course>
		</gpxtpx:TrackPointExtension>
	</extensions>
</trkpt>
<trkpt lat="49.8766717" lon="7.6563057">
	<ele>358.68</ele>
	<time>2021-10-16T09:31:49.542Z</time>
	<hdop>16.76</hdop>
	<extensions>
		<gpxtpx:TrackPointExtension>
			<gpxtpx:course>61.35336</gpxtpx:course>
		</gpxtpx:TrackPointExtension>
	</extensions>
</trkpt>
<trkpt lat="49.8767472" lon="7.6565501">
	<ele>359.81</ele>
	<time>2021-10-16T09:31:55.194Z</time>
	<hdop>16.73</hdop>
	<extensions>
		<gpxtpx:TrackPointExtension>
			<gpxtpx:course>67.155975</gpxtpx:course>
		</gpxtpx:TrackPointExtension>
	</extensions>
</trkpt>
<trkpt lat="49.8767728" lon="7.6568093">
	<ele>360.10</ele>
	<time>2021-10-16T09:32:00.503Z</time>
	<hdop>17.02</hdop>
	<extensions>
		<gpxtpx:TrackPointExtension>
			<gpxtpx:course>80.20712</gpxtpx:course>
		</gpxtpx:TrackPointExtension>
	</extensions>
</trkpt>
<trkpt lat="49.8767800" lon="7.6569997">
	<ele>359.62</ele>
	<time>2021-10-16T09:32:04.882Z</time>
	<hdop>16.40</hdop>
	<extensions>
		<gpxtpx:TrackPointExtension>
			<gpxtpx:course>94.26202</gpxtpx:course>
		</gpxtpx:TrackPointExtension>
	</extensions>
</trkpt>
<trkpt lat="49.8767805" lon="7.6572165">
	<ele>359.75</ele>
	<time>2021-10-16T09:32:09.262Z</time>
	<hdop>16.47</hdop>
	<extensions>
		<gpxtpx:TrackPointExtension>
			<gpxtpx:course>86.62751</gpxtpx:course>
		</gpxtpx:TrackPointExtension>
	</extensions>
</trkpt>
<trkpt lat="49.8767892" lon="7.6574261">
	<ele>359.84</ele>
	<time>2021-10-16T09:32:13.365Z</time>
	<hdop>16.33</hdop>
	<extensions>
		<gpxtpx:TrackPointExtension>
			<gpxtpx:course>80.72355</gpxtpx:course>
		</gpxtpx:TrackPointExtension>
	</extensions>
</trkpt>
<trkpt lat="49.8767981" lon="7.6576238">
	<ele>360.06</ele>
	<time>2021-10-16T09:32:18.062Z</time>
	<hdop>16.53</hdop>
	<extensions>
		<gpxtpx:TrackPointExtension>
			<gpxtpx:course>82.162506</gpxtpx:course>
		</gpxtpx:TrackPointExtension>
	</extensions>
</trkpt>
<trkpt lat="49.8768283" lon="7.6578538">
	<ele>360.58</ele>
	<time>2021-10-16T09:32:23.000Z</time>
	<hdop>16.80</hdop>
	<extensions>
		<gpxtpx:TrackPointExtension>
			<gpxtpx:course>88.07056</gpxtpx:course>
		</gpxtpx:TrackPointExtension>
	</extensions>
</trkpt>
<trkpt lat="49.8767861" lon="7.6580078">
	<ele>361.34</ele>
	<time>2021-10-16T09:33:00.383Z</time>
	<hdop>16.69</hdop>
	<extensions>
		<gpxtpx:TrackPointExtension>
			<gpxtpx:course>89.218925</gpxtpx:course>
		</gpxtpx:TrackPointExtension>
	</extensions>
</trkpt>
<trkpt lat="49.8768121" lon="7.6581619">
	<ele>361.79</ele>
	<time>2021-10-16T09:33:04.561Z</time>
	<hdop>16.26</hdop>
	<extensions>
		<gpxtpx:TrackPointExtension>
			<gpxtpx:course>77.62786</gpxtpx:course>
		</gpxtpx:TrackPointExtension>
	</extensions>
</trkpt>
<trkpt lat="49.8768719" lon="7.6583612">
	<ele>362.77</ele>
	<time>2021-10-16T09:33:09.302Z</time>
	<hdop>16.64</hdop>
	<extensions>
		<gpxtpx:TrackPointExtension>
			<gpxtpx:course>65.92972</gpxtpx:course>
		</gpxtpx:TrackPointExtension>
	</extensions>
</trkpt>
<trkpt lat="49.8769291" lon="7.6585306">
	<ele>363.18</ele>
	<time>2021-10-16T09:33:13.442Z</time>
	<hdop>16.83</hdop>
	<extensions>
		<gpxtpx:TrackPointExtension>
			<gpxtpx:course>57.2851</gpxtpx:course>
		</gpxtpx:TrackPointExtension>
	</extensions>
</trkpt>
<trkpt lat="49.8769958" lon="7.6587159">
	<ele>363.59</ele>
	<time>2021-10-16T09:33:18.123Z</time>
	<hdop>17.01</hdop>
	<extensions>
		<gpxtpx:TrackPointExtension>
			<gpxtpx:course>62.957123</gpxtpx:course>
		</gpxtpx:TrackPointExtension>
	</extensions>
</trkpt>
<trkpt lat="49.8770510" lon="7.6589288">
	<ele>363.87</ele>
	<time>2021-10-16T09:33:23.363Z</time>
	<hdop>16.75</hdop>
	<extensions>
		<gpxtpx:TrackPointExtension>
			<gpxtpx:course>68.02104</gpxtpx:course>
		</gpxtpx:TrackPointExtension>
	</extensions>
</trkpt>
<trkpt lat="49.8771190" lon="7.6590386">
	<ele>364.87</ele>
	<time>2021-10-16T09:33:38.106Z</time>
	<hdop>7.76</hdop>
	<extensions>
		<gpxtpx:TrackPointExtension>
			<gpxtpx:course>66.84325</gpxtpx:course>
		</gpxtpx:TrackPointExtension>
	</extensions>
</trkpt>
<trkpt lat="49.8771815" lon="7.6591661">
	<ele>365.12</ele>
	<time>2021-10-16T09:33:42.443Z</time>
	<hdop>16.90</hdop>
	<extensions>
		<gpxtpx:TrackPointExtension>
			<gpxtpx:course>65.969574</gpxtpx:course>
		</gpxtpx:TrackPointExtension>
	</extensions>
</trkpt>
<trkpt lat="49.8772730" lon="7.6592857">
	<ele>365.28</ele>
	<time>2021-10-16T09:33:47.000Z</time>
	<hdop>16.93</hdop>
	<extensions>
		<gpxtpx:TrackPointExtension>
			<gpxtpx:course>26.906977</gpxtpx:course>
		</gpxtpx:TrackPointExtension>
	</extensions>
</trkpt>
<trkpt lat="49.8773576" lon="7.6591954">
	<ele>365.19</ele>
	<time>2021-10-16T09:33:54.195Z</time>
	<hdop>17.00</hdop>
	<extensions>
		<gpxtpx:TrackPointExtension>
			<gpxtpx:course>320.04755</gpxtpx:course>
		</gpxtpx:TrackPointExtension>
	</extensions>
</trkpt>
<trkpt lat="49.8774801" lon="7.6590675">
	<ele>365.48</ele>
	<time>2021-10-16T09:33:58.548Z</time>
	<hdop>16.41</hdop>
	<extensions>
		<gpxtpx:TrackPointExtension>
			<gpxtpx:course>347.04065</gpxtpx:course>
		</gpxtpx:TrackPointExtension>
	</extensions>
</trkpt>
<trkpt lat="49.8776950" lon="7.6589323">
	<ele>366.47</ele>
	<time>2021-10-16T09:34:03.636Z</time>
	<hdop>17.30</hdop>
	<extensions>
		<gpxtpx:TrackPointExtension>
			<gpxtpx:course>335.91476</gpxtpx:course>
		</gpxtpx:TrackPointExtension>
	</extensions>
</trkpt>
<trkpt lat="49.8779391" lon="7.6587273">
	<ele>366.38</ele>
	<time>2021-10-16T09:34:08.000Z</time>
	<hdop>17.16</hdop>
	<extensions>
		<gpxtpx:TrackPointExtension>
			<gpxtpx:course>330.0279</gpxtpx:course>
		</gpxtpx:TrackPointExtension>
	</extensions>
</trkpt>
<trkpt lat="49.8782219" lon="7.6585378">
	<ele>364.72</ele>
	<time>2021-10-16T09:34:13.000Z</time>
	<hdop>12.13</hdop>
	<extensions>
		<gpxtpx:TrackPointExtension>
			<gpxtpx:course>346.9984</gpxtpx:course>
		</gpxtpx:TrackPointExtension>
	</extensions>
</trkpt>
<trkpt lat="49.8784804" lon="7.6584517">
	<ele>362.90</ele>
	<time>2021-10-16T09:34:18.000Z</time>
	<hdop>8.34</hdop>
	<extensions>
		<gpxtpx:TrackPointExtension>
			<gpxtpx:course>346.06165</gpxtpx:course>
		</gpxtpx:TrackPointExtension>
	</extensions>
</trkpt>
<trkpt lat="49.8786017" lon="7.6583923">
	<ele>362.46</ele>
	<time>2021-10-16T09:34:22.639Z</time>
	<hdop>17.02</hdop>
	<extensions>
		<gpxtpx:TrackPointExtension>
			<gpxtpx:course>252.76637</gpxtpx:course>
		</gpxtpx:TrackPointExtension>
	</extensions>
</trkpt>
<trkpt lat="49.8786294" lon="7.6578897">
	<ele>361.89</ele>
	<time>2021-10-16T09:34:27.000Z</time>
	<hdop>4.00</hdop>
	<extensions>
		<gpxtpx:TrackPointExtension>
			<gpxtpx:course>257.00146</gpxtpx:course>
		</gpxtpx:TrackPointExtension>
	</extensions>
</trkpt>
<trkpt lat="49.8784972" lon="7.6574566">
	<ele>360.91</ele>
	<time>2021-10-16T09:34:32.000Z</time>
	<hdop>4.00</hdop>
	<extensions>
		<gpxtpx:TrackPointExtension>
			<gpxtpx:course>242.99982</gpxtpx:course>
		</gpxtpx:TrackPointExtension>
	</extensions>
</trkpt>
<trkpt lat="49.8783913" lon="7.6570672">
	<ele>361.91</ele>
	<time>2021-10-16T09:34:37.000Z</time>
	<hdop>4.00</hdop>
	<extensions>
		<gpxtpx:TrackPointExtension>
			<gpxtpx:course>245.04024</gpxtpx:course>
		</gpxtpx:TrackPointExtension>
	</extensions>
</trkpt>
<trkpt lat="49.8782787" lon="7.6567300">
	<ele>362.57</ele>
	<time>2021-10-16T09:34:42.000Z</time>
	<hdop>4.00</hdop>
	<extensions>
		<gpxtpx:TrackPointExtension>
			<gpxtpx:course>240.99953</gpxtpx:course>
		</gpxtpx:TrackPointExtension>
	</extensions>
</trkpt>
<trkpt lat="49.8782850" lon="7.6565220">
	<ele>362.91</ele>
	<time>2021-10-16T09:34:47.000Z</time>
	<hdop>4.00</hdop>
	<extensions>
		<gpxtpx:TrackPointExtension>
			<gpxtpx:course>301.9879</gpxtpx:course>
		</gpxtpx:TrackPointExtension>
	</extensions>
</trkpt>
<trkpt lat="49.8783192" lon="7.6563679">
	<ele>363.69</ele>
	<time>2021-10-16T09:34:52.200Z</time>
	<hdop>12.29</hdop>
	<extensions>
		<gpxtpx:TrackPointExtension>
			<gpxtpx:course>292.58508</gpxtpx:course>
		</gpxtpx:TrackPointExtension>
	</extensions>
</trkpt>
<trkpt lat="49.8784493" lon="7.6559048">
	<ele>365.47</ele>
	<time>2021-10-16T09:34:57.000Z</time>
	<hdop>13.74</hdop>
	<extensions>
		<gpxtpx:TrackPointExtension>
			<gpxtpx:course>285.04272</gpxtpx:course>
		</gpxtpx:TrackPointExtension>
	</extensions>
</trkpt>
<trkpt lat="49.8784932" lon="7.6555445">
	<ele>367.94</ele>
	<time>2021-10-16T09:35:02.000Z</time>
	<hdop>4.00</hdop>
	<extensions>
		<gpxtpx:TrackPointExtension>
			<gpxtpx:course>281.99945</gpxtpx:course>
		</gpxtpx:TrackPointExtension>
	</extensions>
</trkpt>
<trkpt lat="49.8785311" lon="7.6551709">
	<ele>369.72</ele>
	<time>2021-10-16T09:35:07.000Z</time>
	<hdop>4.80</hdop>
	<extensions>
		<gpxtpx:TrackPointExtension>
			<gpxtpx:course>277.0009</gpxtpx:course>
		</gpxtpx:TrackPointExtension>
	</extensions>
</trkpt>
<trkpt lat="49.8785759" lon="7.6548032">
	<ele>371.13</ele>
	<time>2021-10-16T09:35:12.000Z</time>
	<hdop>4.00</hdop>
	<extensions>
		<gpxtpx:TrackPointExtension>
			<gpxtpx:course>283.00107</gpxtpx:course>
		</gpxtpx:TrackPointExtension>
	</extensions>
</trkpt>
<trkpt lat="49.8786433" lon="7.6544517">
	<ele>372.21</ele>
	<time>2021-10-16T09:35:17.000Z</time>
	<hdop>4.00</hdop>
	<extensions>
		<gpxtpx:TrackPointExtension>
			<gpxtpx:course>290.9948</gpxtpx:course>
		</gpxtpx:TrackPointExtension>
	</extensions>
</trkpt>
<trkpt lat="49.8787319" lon="7.6541238">
	<ele>373.14</ele>
	<time>2021-10-16T09:35:22.000Z</time>
	<hdop>4.00</hdop>
	<extensions>
		<gpxtpx:TrackPointExtension>
			<gpxtpx:course>287.0087</gpxtpx:course>
		</gpxtpx:TrackPointExtension>
	</extensions>
</trkpt>
<trkpt lat="49.8787761" lon="7.6537574">
	<ele>373.79</ele>
	<time>2021-10-16T09:35:27.000Z</time>
	<hdop>4.00</hdop>
	<extensions>
		<gpxtpx:TrackPointExtension>
			<gpxtpx:course>278.99988</gpxtpx:course>
		</gpxtpx:TrackPointExtension>
	</extensions>
</trkpt>
<trkpt lat="49.8788333" lon="7.6534454">
	<ele>374.25</ele>
	<time>2021-10-16T09:35:32.000Z</time>
	<hdop>4.00</hdop>
	<extensions>
		<gpxtpx:TrackPointExtension>
			<gpxtpx:course>286.00034</gpxtpx:course>
		</gpxtpx:TrackPointExtension>
	</extensions>
</trkpt>
<trkpt lat="49.8789099" lon="7.6531183">
	<ele>375.00</ele>
	<time>2021-10-16T09:35:37.000Z</time>
	<hdop>4.00</hdop>
	<extensions>
		<gpxtpx:TrackPointExtension>
			<gpxtpx:course>295.99927</gpxtpx:course>
		</gpxtpx:TrackPointExtension>
	</extensions>
</trkpt>
<trkpt lat="49.8790120" lon="7.6527605">
	<ele>375.39</ele>
	<time>2021-10-16T09:35:42.000Z</time>
	<hdop>4.00</hdop>
	<extensions>
		<gpxtpx:TrackPointExtension>
			<gpxtpx:course>291.9997</gpxtpx:course>
		</gpxtpx:TrackPointExtension>
	</extensions>
</trkpt>
<trkpt lat="49.8791083" lon="7.6524047">
	<ele>376.31</ele>
	<time>2021-10-16T09:35:47.000Z</time>
	<hdop>4.00</hdop>
	<extensions>
		<gpxtpx:TrackPointExtension>
			<gpxtpx:course>293.00012</gpxtpx:course>
		</gpxtpx:TrackPointExtension>
	</extensions>
</trkpt>
<trkpt lat="49.8791892" lon="7.6520613">
	<ele>377.24</ele>
	<time>2021-10-16T09:35:52.000Z</time>
	<hdop>4.00</hdop>
	<extensions>
		<gpxtpx:TrackPointExtension>
			<gpxtpx:course>290.00656</gpxtpx:course>
		</gpxtpx:TrackPointExtension>
	</extensions>
</trkpt>
<trkpt lat="49.8792705" lon="7.6517364">
	<ele>378.05</ele>
	<time>2021-10-16T09:35:57.000Z</time>
	<hdop>4.57</hdop>
	<extensions>
		<gpxtpx:TrackPointExtension>
			<gpxtpx:course>291.99878</gpxtpx:course>
		</gpxtpx:TrackPointExtension>
	</extensions>
</trkpt>
<trkpt lat="49.8793637" lon="7.6513891">
	<ele>378.58</ele>
	<time>2021-10-16T09:36:02.000Z</time>
	<hdop>4.00</hdop>
	<extensions>
		<gpxtpx:TrackPointExtension>
			<gpxtpx:course>287.9994</gpxtpx:course>
		</gpxtpx:TrackPointExtension>
	</extensions>
</trkpt>
<trkpt lat="49.8794496" lon="7.6510205">
	<ele>378.96</ele>
	<time>2021-10-16T09:36:07.000Z</time>
	<hdop>4.00</hdop>
	<extensions>
		<gpxtpx:TrackPointExtension>
			<gpxtpx:course>290.00003</gpxtpx:course>
		</gpxtpx:TrackPointExtension>
	</extensions>
</trkpt>
<trkpt lat="49.8795540" lon="7.6506863">
	<ele>379.46</ele>
	<time>2021-10-16T09:36:12.000Z</time>
	<hdop>4.00</hdop>
	<extensions>
		<gpxtpx:TrackPointExtension>
			<gpxtpx:course>297.0014</gpxtpx:course>
		</gpxtpx:TrackPointExtension>
	</extensions>
</trkpt>
<trkpt lat="49.8796394" lon="7.6504368">
	<ele>380.25</ele>
	<time>2021-10-16T09:36:17.000Z</time>
	<hdop>4.00</hdop>
	<extensions>
		<gpxtpx:TrackPointExtension>
			<gpxtpx:course>303.84286</gpxtpx:course>
		</gpxtpx:TrackPointExtension>
	</extensions>
</trkpt>
<trkpt lat="49.8797268" lon="7.6503491">
	<ele>380.93</ele>
	<time>2021-10-16T09:36:22.225Z</time>
	<hdop>14.25</hdop>
	<extensions>
		<gpxtpx:TrackPointExtension>
			<gpxtpx:course>310.4955</gpxtpx:course>
		</gpxtpx:TrackPointExtension>
	</extensions>
</trkpt>
<trkpt lat="49.8799065" lon="7.6498534">
	<ele>382.30</ele>
	<time>2021-10-16T09:36:27.000Z</time>
	<hdop>13.10</hdop>
	<extensions>
		<gpxtpx:TrackPointExtension>
			<gpxtpx:course>303.05518</gpxtpx:course>
		</gpxtpx:TrackPointExtension>
	</extensions>
</trkpt>
<trkpt lat="49.8800482" lon="7.6495134">
	<ele>383.51</ele>
	<time>2021-10-16T09:36:32.000Z</time>
	<hdop>4.00</hdop>
	<extensions>
		<gpxtpx:TrackPointExtension>
			<gpxtpx:course>305.949</gpxtpx:course>
		</gpxtpx:TrackPointExtension>
	</extensions>
</trkpt>
<trkpt lat="49.8801187" lon="7.6493749">
	<ele>384.49</ele>
	<time>2021-10-16T09:36:36.330Z</time>
	<hdop>8.83</hdop>
	<extensions>
		<gpxtpx:TrackPointExtension>
			<gpxtpx:course>308.37674</gpxtpx:course>
		</gpxtpx:TrackPointExtension>
	</extensions>
</trkpt>
<trkpt lat="49.8802105" lon="7.6491641">
	<ele>385.60</ele>
	<time>2021-10-16T09:36:40.530Z</time>
	<hdop>16.09</hdop>
	<extensions>
		<gpxtpx:TrackPointExtension>
			<gpxtpx:course>303.8198</gpxtpx:course>
		</gpxtpx:TrackPointExtension>
	</extensions>
</trkpt>
<trkpt lat="49.8802667" lon="7.6489322">
	<ele>386.38</ele>
	<time>2021-10-16T09:36:44.649Z</time>
	<hdop>16.37</hdop>
	<extensions>
		<gpxtpx:TrackPointExtension>
			<gpxtpx:course>287.91385</gpxtpx:course>
		</gpxtpx:TrackPointExtension>
	</extensions>
</trkpt>
<trkpt lat="49.8802777" lon="7.6486861">
	<ele>387.35</ele>
	<time>2021-10-16T09:36:48.851Z</time>
	<hdop>16.89</hdop>
	<extensions>
		<gpxtpx:TrackPointExtension>
			<gpxtpx:course>272.0113</gpxtpx:course>
		</gpxtpx:TrackPointExtension>
	</extensions>
</trkpt>
<trkpt lat="49.8802882" lon="7.6485204">
	<ele>387.92</ele>
	<time>2021-10-16T09:36:53.688Z</time>
	<hdop>17.28</hdop>
	<extensions>
		<gpxtpx:TrackPointExtension>
			<gpxtpx:course>279.8834</gpxtpx:course>
		</gpxtpx:TrackPointExtension>
	</extensions>
</trkpt>
<trkpt lat="49.8802868" lon="7.6482488">
	<ele>388.91</ele>
	<time>2021-10-16T09:36:59.149Z</time>
	<hdop>17.95</hdop>
	<extensions>
		<gpxtpx:TrackPointExtension>
			<gpxtpx:course>253.64706</gpxtpx:course>
		</gpxtpx:TrackPointExtension>
	</extensions>
</trkpt>
<trkpt lat="49.8801977" lon="7.6479099">
	<ele>390.05</ele>
	<time>2021-10-16T09:37:05.490Z</time>
	<hdop>16.67</hdop>
	<extensions>
		<gpxtpx:TrackPointExtension>
			<gpxtpx:course>248.4207</gpxtpx:course>
		</gpxtpx:TrackPointExtension>
	</extensions>
</trkpt>
<trkpt lat="49.8801261" lon="7.6476378">
	<ele>390.87</ele>
	<time>2021-10-16T09:37:10.212Z</time>
	<hdop>17.19</hdop>
	<extensions>
		<gpxtpx:TrackPointExtension>
			<gpxtpx:course>246.88266</gpxtpx:course>
		</gpxtpx:TrackPointExtension>
	</extensions>
</trkpt>
<trkpt lat="49.8800443" lon="7.6473184">
	<ele>391.54</ele>
	<time>2021-10-16T09:37:15.588Z</time>
	<hdop>16.77</hdop>
	<extensions>
		<gpxtpx:TrackPointExtension>
			<gpxtpx:course>246.66234</gpxtpx:course>
		</gpxtpx:TrackPointExtension>
	</extensions>
</trkpt>
<trkpt lat="49.8799687" lon="7.6470280">
	<ele>392.15</ele>
	<time>2021-10-16T09:37:20.388Z</time>
	<hdop>17.41</hdop>
	<extensions>
		<gpxtpx:TrackPointExtension>
			<gpxtpx:course>247.37917</gpxtpx:course>
		</gpxtpx:TrackPointExtension>
	</extensions>
</trkpt>
<trkpt lat="49.8799068" lon="7.6467785">
	<ele>392.48</ele>
	<time>2021-10-16T09:37:24.409Z</time>
	<hdop>17.16</hdop>
	<extensions>
		<gpxtpx:TrackPointExtension>
			<gpxtpx:course>247.71117</gpxtpx:course>
		</gpxtpx:TrackPointExtension>
	</extensions>
</trkpt>
<trkpt lat="49.8798184" lon="7.6464595">
	<ele>392.85</ele>
	<time>2021-10-16T09:37:29.371Z</time>
	<hdop>17.16</hdop>
	<extensions>
		<gpxtpx:TrackPointExtension>
			<gpxtpx:course>246.83287</gpxtpx:course>
		</gpxtpx:TrackPointExtension>
	</extensions>
</trkpt>
<trkpt lat="49.8797057" lon="7.6460074">
	<ele>393.44</ele>
	<time>2021-10-16T09:37:34.000Z</time>
	<hdop>4.00</hdop>
	<extensions>
		<gpxtpx:TrackPointExtension>
			<gpxtpx:course>248.0</gpxtpx:course>
		</gpxtpx:TrackPointExtension>
	</extensions>
</trkpt>
<trkpt lat="49.8796130" lon="7.6456523">
	<ele>394.38</ele>
	<time>2021-10-16T09:37:39.000Z</time>
	<hdop>4.00</hdop>
	<extensions>
		<gpxtpx:TrackPointExtension>
			<gpxtpx:course>247.00046</gpxtpx:course>
		</gpxtpx:TrackPointExtension>
	</extensions>
</trkpt>
<trkpt lat="49.8795137" lon="7.6452728">
	<ele>394.93</ele>
	<time>2021-10-16T09:37:44.000Z</time>
	<hdop>4.00</hdop>
	<extensions>
		<gpxtpx:TrackPointExtension>
			<gpxtpx:course>247.99265</gpxtpx:course>
		</gpxtpx:TrackPointExtension>
	</extensions>
</trkpt>
<trkpt lat="49.8794154" lon="7.6448990">
	<ele>395.50</ele>
	<time>2021-10-16T09:37:49.000Z</time>
	<hdop>4.00</hdop>
	<extensions>
		<gpxtpx:TrackPointExtension>
			<gpxtpx:course>247.00003</gpxtpx:course>
		</gpxtpx:TrackPointExtension>
	</extensions>
</trkpt>
<trkpt lat="49.8793205" lon="7.6445276">
	<ele>396.03</ele>
	<time>2021-10-16T09:37:54.000Z</time>
	<hdop>4.00</hdop>
	<extensions>
		<gpxtpx:TrackPointExtension>
			<gpxtpx:course>247.99956</gpxtpx:course>
		</gpxtpx:TrackPointExtension>
	</extensions>
</trkpt>
<trkpt lat="49.8792233" lon="7.6441679">
	<ele>396.13</ele>
	<time>2021-10-16T09:37:59.000Z</time>
	<hdop>4.00</hdop>
	<extensions>
		<gpxtpx:TrackPointExtension>
			<gpxtpx:course>246.97891</gpxtpx:course>
		</gpxtpx:TrackPointExtension>
	</extensions>
</trkpt>
<trkpt lat="49.8791382" lon="7.6438442">
	<ele>396.09</ele>
	<time>2021-10-16T09:38:04.000Z</time>
	<hdop>4.00</hdop>
	<extensions>
		<gpxtpx:TrackPointExtension>
			<gpxtpx:course>246.00043</gpxtpx:course>
		</gpxtpx:TrackPointExtension>
	</extensions>
</trkpt>
<trkpt lat="49.8790853" lon="7.6437017">
	<ele>395.96</ele>
	<time>2021-10-16T09:38:08.231Z</time>
	<hdop>8.88</hdop>
	<extensions>
		<gpxtpx:TrackPointExtension>
			<gpxtpx:course>236.20401</gpxtpx:course>
		</gpxtpx:TrackPointExtension>
	</extensions>
</trkpt>
<trkpt lat="49.8790525" lon="7.6435332">
	<ele>395.56</ele>
	<time>2021-10-16T09:38:12.452Z</time>
	<hdop>16.82</hdop>
	<extensions>
		<gpxtpx:TrackPointExtension>
			<gpxtpx:course>257.5456</gpxtpx:course>
		</gpxtpx:TrackPointExtension>
	</extensions>
</trkpt>
<trkpt lat="49.8792867" lon="7.6434358">
	<ele>396.22</ele>
	<time>2021-10-16T09:38:17.000Z</time>
	<hdop>13.03</hdop>
	<extensions>
		<gpxtpx:TrackPointExtension>
			<gpxtpx:course>351.99518</gpxtpx:course>
		</gpxtpx:TrackPointExtension>
	</extensions>
</trkpt>
<trkpt lat="49.8795836" lon="7.6433927">
	<ele>397.38</ele>
	<time>2021-10-16T09:38:22.000Z</time>
	<hdop>4.00</hdop>
	<extensions>
		<gpxtpx:TrackPointExtension>
			<gpxtpx:course>352.00116</gpxtpx:course>
		</gpxtpx:TrackPointExtension>
	</extensions>
</trkpt>
<trkpt lat="49.8798607" lon="7.6433283">
	<ele>398.61</ele>
	<time>2021-10-16T09:38:27.000Z</time>
	<hdop>4.00</hdop>
	<extensions>
		<gpxtpx:TrackPointExtension>
			<gpxtpx:course>351.99658</gpxtpx:course>
		</gpxtpx:TrackPointExtension>
	</extensions>
</trkpt>
<trkpt lat="49.8801527" lon="7.6432573">
	<ele>399.70</ele>
	<time>2021-10-16T09:38:32.000Z</time>
	<hdop>4.00</hdop>
	<extensions>
		<gpxtpx:TrackPointExtension>
			<gpxtpx:course>349.0011</gpxtpx:course>
		</gpxtpx:TrackPointExtension>
	</extensions>
</trkpt>
<trkpt lat="49.8804231" lon="7.6431786">
	<ele>400.01</ele>
	<time>2021-10-16T09:38:37.000Z</time>
	<hdop>4.00</hdop>
	<extensions>
		<gpxtpx:TrackPointExtension>
			<gpxtpx:course>348.00034</gpxtpx:course>
		</gpxtpx:TrackPointExtension>
	</extensions>
</trkpt>
<trkpt lat="49.8806822" lon="7.6430887">
	<ele>400.31</ele>
	<time>2021-10-16T09:38:42.000Z</time>
	<hdop>4.00</hdop>
	<extensions>
		<gpxtpx:TrackPointExtension>
			<gpxtpx:course>348.9758</gpxtpx:course>
		</gpxtpx:TrackPointExtension>
	</extensions>
</trkpt>
<trkpt lat="49.8809743" lon="7.6430049">
	<ele>400.95</ele>
	<time>2021-10-16T09:38:47.000Z</time>
	<hdop>4.00</hdop>
	<extensions>
		<gpxtpx:TrackPointExtension>
			<gpxtpx:course>348.00058</gpxtpx:course>
		</gpxtpx:TrackPointExtension>
	</extensions>
</trkpt>
<trkpt lat="49.8812571" lon="7.6429111">
	<ele>401.36</ele>
	<time>2021-10-16T09:38:52.000Z</time>
	<hdop>4.00</hdop>
	<extensions>
		<gpxtpx:TrackPointExtension>
			<gpxtpx:course>346.0011</gpxtpx:course>
		</gpxtpx:TrackPointExtension>
	</extensions>
</trkpt>
<trkpt lat="49.8813984" lon="7.6428307">
	<ele>401.45</ele>
	<time>2021-10-16T09:38:57.000Z</time>
	<hdop>4.00</hdop>
	<extensions>
		<gpxtpx:TrackPointExtension>
			<gpxtpx:course>335.98904</gpxtpx:course>
		</gpxtpx:TrackPointExtension>
	</extensions>
</trkpt>
<trkpt lat="49.8815140" lon="7.6427554">
	<ele>401.81</ele>
	<time>2021-10-16T09:39:01.634Z</time>
	<hdop>5.43</hdop>
	<extensions>
		<gpxtpx:TrackPointExtension>
			<gpxtpx:course>124.545334</gpxtpx:course>
		</gpxtpx:TrackPointExtension>
	</extensions>
</trkpt>
<trkpt lat="49.8816129" lon="7.6426898">
	<ele>402.37</ele>
	<time>2021-10-16T09:39:06.000Z</time>
	<hdop>17.07</hdop>
	<extensions>
		<gpxtpx:TrackPointExtension>
			<gpxtpx:course>332.93008</gpxtpx:course>
		</gpxtpx:TrackPointExtension>
	</extensions>
</trkpt>
<trkpt lat="49.8815317" lon="7.6426255">
	<ele>402.22</ele>
	<time>2021-10-16T09:39:26.212Z</time>
	<hdop>11.71</hdop>
	<extensions>
		<gpxtpx:TrackPointExtension>
			<gpxtpx:course>247.61595</gpxtpx:course>
		</gpxtpx:TrackPointExtension>
	</extensions>
</trkpt>
<trkpt lat="49.8815811" lon="7.6421014">
	<ele>402.37</ele>
	<time>2021-10-16T09:39:31.000Z</time>
	<hdop>7.55</hdop>
	<extensions>
		<gpxtpx:TrackPointExtension>
			<gpxtpx:course>279.99997</gpxtpx:course>
		</gpxtpx:TrackPointExtension>
	</extensions>
</trkpt>
<trkpt lat="49.8816229" lon="7.6416368">
	<ele>402.29</ele>
	<time>2021-10-16T09:39:36.000Z</time>
	<hdop>4.00</hdop>
	<extensions>
		<gpxtpx:TrackPointExtension>
			<gpxtpx:course>274.00095</gpxtpx:course>
		</gpxtpx:TrackPointExtension>
	</extensions>
</trkpt>
<trkpt lat="49.8816279" lon="7.6411798">
	<ele>402.46</ele>
	<time>2021-10-16T09:39:41.000Z</time>
	<hdop>4.00</hdop>
	<extensions>
		<gpxtpx:TrackPointExtension>
			<gpxtpx:course>266.00156</gpxtpx:course>
		</gpxtpx:TrackPointExtension>
	</extensions>
</trkpt>
<trkpt lat="49.8815979" lon="7.6407255">
	<ele>402.15</ele>
	<time>2021-10-16T09:39:46.000Z</time>
	<hdop>4.00</hdop>
	<extensions>
		<gpxtpx:TrackPointExtension>
			<gpxtpx:course>266.99887</gpxtpx:course>
		</gpxtpx:TrackPointExtension>
	</extensions>
</trkpt>
<trkpt lat="49.8816102" lon="7.6402192">
	<ele>401.03</ele>
	<time>2021-10-16T09:39:51.000Z</time>
	<hdop>4.00</hdop>
	<extensions>
		<gpxtpx:TrackPointExtension>
			<gpxtpx:course>274.0</gpxtpx:course>
		</gpxtpx:TrackPointExtension>
	</extensions>
</trkpt>
<trkpt lat="49.8816701" lon="7.6397309">
	<ele>399.83</ele>
	<time>2021-10-16T09:39:56.000Z</time>
	<hdop>4.00</hdop>
	<extensions>
		<gpxtpx:TrackPointExtension>
			<gpxtpx:course>284.9765</gpxtpx:course>
		</gpxtpx:TrackPointExtension>
	</extensions>
</trkpt>
<trkpt lat="49.8818186" lon="7.6392978">
	<ele>398.62</ele>
	<time>2021-10-16T09:40:01.000Z</time>
	<hdop>4.00</hdop>
	<extensions>
		<gpxtpx:TrackPointExtension>
			<gpxtpx:course>308.99603</gpxtpx:course>
		</gpxtpx:TrackPointExtension>
	</extensions>
</trkpt>
<trkpt lat="49.8820312" lon="7.6389817">
	<ele>398.02</ele>
	<time>2021-10-16T09:40:06.000Z</time>
	<hdop>4.00</hdop>
	<extensions>
		<gpxtpx:TrackPointExtension>
			<gpxtpx:course>308.00156</gpxtpx:course>
		</gpxtpx:TrackPointExtension>
	</extensions>
</trkpt>
<trkpt lat="49.8820908" lon="7.6385932">
	<ele>397.96</ele>
	<time>2021-10-16T09:40:11.000Z</time>
	<hdop>4.00</hdop>
	<extensions>
		<gpxtpx:TrackPointExtension>
			<gpxtpx:course>268.27716</gpxtpx:course>
		</gpxtpx:TrackPointExtension>
	</extensions>
</trkpt>
<trkpt lat="49.8820558" lon="7.6381132">
	<ele>397.83</ele>
	<time>2021-10-16T09:40:16.000Z</time>
	<hdop>4.00</hdop>
	<extensions>
		<gpxtpx:TrackPointExtension>
			<gpxtpx:course>265.00003</gpxtpx:course>
		</gpxtpx:TrackPointExtension>
	</extensions>
</trkpt>
<trkpt lat="49.8820372" lon="7.6376589">
	<ele>397.20</ele>
	<time>2021-10-16T09:40:21.000Z</time>
	<hdop>4.00</hdop>
	<extensions>
		<gpxtpx:TrackPointExtension>
			<gpxtpx:course>265.9963</gpxtpx:course>
		</gpxtpx:TrackPointExtension>
	</extensions>
</trkpt>
<trkpt lat="49.8820098" lon="7.6372493">
	<ele>396.80</ele>
	<time>2021-10-16T09:40:26.000Z</time>
	<hdop>4.00</hdop>
	<extensions>
		<gpxtpx:TrackPointExtension>
			<gpxtpx:course>262.99976</gpxtpx:course>
		</gpxtpx:TrackPointExtension>
	</extensions>
</trkpt>
<trkpt lat="49.8819843" lon="7.6369547">
	<ele>396.37</ele>
	<time>2021-10-16T09:40:31.000Z</time>
	<hdop>4.00</hdop>
	<extensions>
		<gpxtpx:TrackPointExtension>
			<gpxtpx:course>257.35132</gpxtpx:course>
		</gpxtpx:TrackPointExtension>
	</extensions>
</trkpt>
<trkpt lat="49.8818600" lon="7.6365334">
	<ele>396.47</ele>
	<time>2021-10-16T09:40:36.000Z</time>
	<hdop>4.00</hdop>
	<extensions>
		<gpxtpx:TrackPointExtension>
			<gpxtpx:course>247.96875</gpxtpx:course>
		</gpxtpx:TrackPointExtension>
	</extensions>
</trkpt>
<trkpt lat="49.8817392" lon="7.6360902">
	<ele>395.61</ele>
	<time>2021-10-16T09:40:41.000Z</time>
	<hdop>4.00</hdop>
	<extensions>
		<gpxtpx:TrackPointExtension>
			<gpxtpx:course>243.99977</gpxtpx:course>
		</gpxtpx:TrackPointExtension>
	</extensions>
</trkpt>
<trkpt lat="49.8816737" lon="7.6358061">
	<ele>394.85</ele>
	<time>2021-10-16T09:40:46.000Z</time>
	<hdop>4.00</hdop>
	<extensions>
		<gpxtpx:TrackPointExtension>
			<gpxtpx:course>262.45282</gpxtpx:course>
		</gpxtpx:TrackPointExtension>
	</extensions>
</trkpt>
<trkpt lat="49.8818798" lon="7.6358166">
	<ele>395.65</ele>
	<time>2021-10-16T09:40:51.000Z</time>
	<hdop>6.40</hdop>
	<extensions>
		<gpxtpx:TrackPointExtension>
			<gpxtpx:course>352.5161</gpxtpx:course>
		</gpxtpx:TrackPointExtension>
	</extensions>
</trkpt>
<trkpt lat="49.8820663" lon="7.6354892">
	<ele>396.67</ele>
	<time>2021-10-16T09:40:56.000Z</time>
	<hdop>4.00</hdop>
	<extensions>
		<gpxtpx:TrackPointExtension>
			<gpxtpx:course>300.99908</gpxtpx:course>
		</gpxtpx:TrackPointExtension>
	</extensions>
</trkpt>
<trkpt lat="49.8822169" lon="7.6350860">
	<ele>397.25</ele>
	<time>2021-10-16T09:41:01.000Z</time>
	<hdop>4.00</hdop>
	<extensions>
		<gpxtpx:TrackPointExtension>
			<gpxtpx:course>300.0</gpxtpx:course>
		</gpxtpx:TrackPointExtension>
	</extensions>
</trkpt>
<trkpt lat="49.8823629" lon="7.6346772">
	<ele>397.57</ele>
	<time>2021-10-16T09:41:06.000Z</time>
	<hdop>4.00</hdop>
	<extensions>
		<gpxtpx:TrackPointExtension>
			<gpxtpx:course>299.00015</gpxtpx:course>
		</gpxtpx:TrackPointExtension>
	</extensions>
</trkpt>
<trkpt lat="49.8825030" lon="7.6342782">
	<ele>398.12</ele>
	<time>2021-10-16T09:41:11.000Z</time>
	<hdop>4.00</hdop>
	<extensions>
		<gpxtpx:TrackPointExtension>
			<gpxtpx:course>297.00003</gpxtpx:course>
		</gpxtpx:TrackPointExtension>
	</extensions>
</trkpt>
<trkpt lat="49.8826034" lon="7.6338872">
	<ele>398.87</ele>
	<time>2021-10-16T09:41:16.000Z</time>
	<hdop>4.00</hdop>
	<extensions>
		<gpxtpx:TrackPointExtension>
			<gpxtpx:course>289.9994</gpxtpx:course>
		</gpxtpx:TrackPointExtension>
	</extensions>
</trkpt>
<trkpt lat="49.8824979" lon="7.6336346">
	<ele>399.41</ele>
	<time>2021-10-16T09:41:21.000Z</time>
	<hdop>4.00</hdop>
	<extensions>
		<gpxtpx:TrackPointExtension>
			<gpxtpx:course>218.99968</gpxtpx:course>
		</gpxtpx:TrackPointExtension>
	</extensions>
</trkpt>
<trkpt lat="49.8822651" lon="7.6333057">
	<ele>399.18</ele>
	<time>2021-10-16T09:41:26.000Z</time>
	<hdop>4.00</hdop>
	<extensions>
		<gpxtpx:TrackPointExtension>
			<gpxtpx:course>225.99945</gpxtpx:course>
		</gpxtpx:TrackPointExtension>
	</extensions>
</trkpt>
<trkpt lat="49.8820733" lon="7.6329869">
	<ele>398.23</ele>
	<time>2021-10-16T09:41:31.000Z</time>
	<hdop>4.00</hdop>
	<extensions>
		<gpxtpx:TrackPointExtension>
			<gpxtpx:course>227.99974</gpxtpx:course>
		</gpxtpx:TrackPointExtension>
	</extensions>
</trkpt>
<trkpt lat="49.8818973" lon="7.6326301">
	<ele>396.82</ele>
	<time>2021-10-16T09:41:36.000Z</time>
	<hdop>4.00</hdop>
	<extensions>
		<gpxtpx:TrackPointExtension>
			<gpxtpx:course>233.99805</gpxtpx:course>
		</gpxtpx:TrackPointExtension>
	</extensions>
</trkpt>
<trkpt lat="49.8816808" lon="7.6322303">
	<ele>395.03</ele>
	<time>2021-10-16T09:41:41.000Z</time>
	<hdop>4.00</hdop>
	<extensions>
		<gpxtpx:TrackPointExtension>
			<gpxtpx:course>211.09834</gpxtpx:course>
		</gpxtpx:TrackPointExtension>
	</extensions>
</trkpt>
<trkpt lat="49.8813922" lon="7.6320788">
	<ele>394.23</ele>
	<time>2021-10-16T09:41:46.000Z</time>
	<hdop>4.80</hdop>
	<extensions>
		<gpxtpx:TrackPointExtension>
			<gpxtpx:course>197.00034</gpxtpx:course>
		</gpxtpx:TrackPointExtension>
	</extensions>
</trkpt>
<trkpt lat="49.8811333" lon="7.6319580">
	<ele>393.66</ele>
	<time>2021-10-16T09:41:51.000Z</time>
	<hdop>4.00</hdop>
	<extensions>
		<gpxtpx:TrackPointExtension>
			<gpxtpx:course>199.99873</gpxtpx:course>
		</gpxtpx:TrackPointExtension>
	</extensions>
</trkpt>
<trkpt lat="49.8808953" lon="7.6317810">
	<ele>392.73</ele>
	<time>2021-10-16T09:41:56.000Z</time>
	<hdop>4.00</hdop>
	<extensions>
		<gpxtpx:TrackPointExtension>
			<gpxtpx:course>214.9537</gpxtpx:course>
		</gpxtpx:TrackPointExtension>
	</extensions>
</trkpt>
<trkpt lat="49.8807181" lon="7.6315656">
	<ele>390.65</ele>
	<time>2021-10-16T09:42:01.000Z</time>
	<hdop>4.89</hdop>
	<extensions>
		<gpxtpx:TrackPointExtension>
			<gpxtpx:course>198.6314</gpxtpx:course>
		</gpxtpx:TrackPointExtension>
	</extensions>
</trkpt>
<trkpt lat="49.8805141" lon="7.6315003">
	<ele>389.67</ele>
	<time>2021-10-16T09:42:06.000Z</time>
	<hdop>7.80</hdop>
	<extensions>
		<gpxtpx:TrackPointExtension>
			<gpxtpx:course>187.0994</gpxtpx:course>
		</gpxtpx:TrackPointExtension>
	</extensions>
</trkpt>
<trkpt lat="49.8804217" lon="7.6314916">
	<ele>389.58</ele>
	<time>2021-10-16T09:42:10.037Z</time>
	<hdop>14.71</hdop>
	<extensions>
		<gpxtpx:TrackPointExtension>
			<gpxtpx:course>182.15474</gpxtpx:course>
		</gpxtpx:TrackPointExtension>
	</extensions>
</trkpt>
<trkpt lat="49.8801611" lon="7.6316329">
	<ele>389.60</ele>
	<time>2021-10-16T09:42:15.554Z</time>
	<hdop>21.29</hdop>
	<extensions>
		<gpxtpx:TrackPointExtension>
			<gpxtpx:course>149.97134</gpxtpx:course>
		</gpxtpx:TrackPointExtension>
	</extensions>
</trkpt>
<trkpt lat="49.8798534" lon="7.6318972">
	<ele>388.09</ele>
	<time>2021-10-16T09:42:20.000Z</time>
	<hdop>11.50</hdop>
	<extensions>
		<gpxtpx:TrackPointExtension>
			<gpxtpx:course>150.00197</gpxtpx:course>
		</gpxtpx:TrackPointExtension>
	</extensions>
</trkpt>
<trkpt lat="49.8796292" lon="7.6321169">
	<ele>386.53</ele>
	<time>2021-10-16T09:42:25.000Z</time>
	<hdop>4.00</hdop>
	<extensions>
		<gpxtpx:TrackPointExtension>
			<gpxtpx:course>146.99953</gpxtpx:course>
		</gpxtpx:TrackPointExtension>
	</extensions>
</trkpt>
<trkpt lat="49.8794989" lon="7.6322075">
	<ele>385.31</ele>
	<time>2021-10-16T09:42:30.318Z</time>
	<hdop>15.37</hdop>
	<extensions>
		<gpxtpx:TrackPointExtension>
			<gpxtpx:course>149.87831</gpxtpx:course>
		</gpxtpx:TrackPointExtension>
	</extensions>
</trkpt>
<trkpt lat="49.8793414" lon="7.6324084">
	<ele>384.60</ele>
	<time>2021-10-16T09:42:35.478Z</time>
	<hdop>22.98</hdop>
	<extensions>
		<gpxtpx:TrackPointExtension>
			<gpxtpx:course>146.90251</gpxtpx:course>
		</gpxtpx:TrackPointExtension>
	</extensions>
</trkpt>
<trkpt lat="49.8791494" lon="7.6325980">
	<ele>383.89</ele>
	<time>2021-10-16T09:42:40.576Z</time>
	<hdop>21.57</hdop>
	<extensions>
		<gpxtpx:TrackPointExtension>
			<gpxtpx:course>148.13766</gpxtpx:course>
		</gpxtpx:TrackPointExtension>
	</extensions>
</trkpt>
<trkpt lat="49.8789010" lon="7.6328358">
	<ele>383.31</ele>
	<time>2021-10-16T09:42:45.000Z</time>
	<hdop>16.40</hdop>
	<extensions>
		<gpxtpx:TrackPointExtension>
			<gpxtpx:course>147.00362</gpxtpx:course>
		</gpxtpx:TrackPointExtension>
	</extensions>
</trkpt>
<trkpt lat="49.8787002" lon="7.6330378">
	<ele>383.05</ele>
	<time>2021-10-16T09:42:50.000Z</time>
	<hdop>4.80</hdop>
	<extensions>
		<gpxtpx:TrackPointExtension>
			<gpxtpx:course>146.0068</gpxtpx:course>
		</gpxtpx:TrackPointExtension>
	</extensions>
</trkpt>
<trkpt lat="49.8784596" lon="7.6332711">
	<ele>380.41</ele>
	<time>2021-10-16T09:42:55.000Z</time>
	<hdop>4.00</hdop>
	<extensions>
		<gpxtpx:TrackPointExtension>
			<gpxtpx:course>149.98213</gpxtpx:course>
		</gpxtpx:TrackPointExtension>
	</extensions>
</trkpt>
<trkpt lat="49.8782138" lon="7.6334512">
	<ele>377.24</ele>
	<time>2021-10-16T09:43:00.000Z</time>
	<hdop>4.00</hdop>
	<extensions>
		<gpxtpx:TrackPointExtension>
			<gpxtpx:course>151.99944</gpxtpx:course>
		</gpxtpx:TrackPointExtension>
	</extensions>
</trkpt>
<trkpt lat="49.8780407" lon="7.6335758">
	<ele>376.40</ele>
	<time>2021-10-16T09:43:05.000Z</time>
	<hdop>4.00</hdop>
	<extensions>
		<gpxtpx:TrackPointExtension>
			<gpxtpx:course>152.00883</gpxtpx:course>
		</gpxtpx:TrackPointExtension>
	</extensions>
</trkpt>
<trkpt lat="49.8778100" lon="7.6337514">
	<ele>374.79</ele>
	<time>2021-10-16T09:43:10.000Z</time>
	<hdop>4.33</hdop>
	<extensions>
		<gpxtpx:TrackPointExtension>
			<gpxtpx:course>152.00125</gpxtpx:course>
		</gpxtpx:TrackPointExtension>
	</extensions>
</trkpt>
<trkpt lat="49.8775513" lon="7.6339667">
	<ele>373.01</ele>
	<time>2021-10-16T09:43:15.000Z</time>
	<hdop>4.00</hdop>
	<extensions>
		<gpxtpx:TrackPointExtension>
			<gpxtpx:course>153.98523</gpxtpx:course>
		</gpxtpx:TrackPointExtension>
	</extensions>
</trkpt>
<trkpt lat="49.8774549" lon="7.6340706">
	<ele>371.08</ele>
	<time>2021-10-16T09:43:20.000Z</time>
	<hdop>4.00</hdop>
	<extensions>
		<gpxtpx:TrackPointExtension>
			<gpxtpx:course>83.37765</gpxtpx:course>
		</gpxtpx:TrackPointExtension>
	</extensions>
</trkpt>
<trkpt lat="49.8775167" lon="7.6343028">
	<ele>371.05</ele>
	<time>2021-10-16T09:43:25.541Z</time>
	<hdop>9.42</hdop>
	<extensions>
		<gpxtpx:TrackPointExtension>
			<gpxtpx:course>62.389652</gpxtpx:course>
		</gpxtpx:TrackPointExtension>
	</extensions>
</trkpt>
<trkpt lat="49.8776652" lon="7.6346651">
	<ele>371.04</ele>
	<time>2021-10-16T09:43:30.000Z</time>
	<hdop>15.34</hdop>
	<extensions>
		<gpxtpx:TrackPointExtension>
			<gpxtpx:course>62.999718</gpxtpx:course>
		</gpxtpx:TrackPointExtension>
	</extensions>
</trkpt>
<trkpt lat="49.8777931" lon="7.6350569">
	<ele>372.38</ele>
	<time>2021-10-16T09:43:35.000Z</time>
	<hdop>4.00</hdop>
	<extensions>
		<gpxtpx:TrackPointExtension>
			<gpxtpx:course>58.00044</gpxtpx:course>
		</gpxtpx:TrackPointExtension>
	</extensions>
</trkpt>
<trkpt lat="49.8779716" lon="7.6354031">
	<ele>373.65</ele>
	<time>2021-10-16T09:43:40.000Z</time>
	<hdop>4.00</hdop>
	<extensions>
		<gpxtpx:TrackPointExtension>
			<gpxtpx:course>43.002586</gpxtpx:course>
		</gpxtpx:TrackPointExtension>
	</extensions>
</trkpt>
<trkpt lat="49.8782125" lon="7.6356063">
	<ele>374.72</ele>
	<time>2021-10-16T09:43:45.000Z</time>
	<hdop>4.00</hdop>
	<extensions>
		<gpxtpx:TrackPointExtension>
			<gpxtpx:course>31.648857</gpxtpx:course>
		</gpxtpx:TrackPointExtension>
	</extensions>
</trkpt>
<trkpt lat="49.8782174" lon="7.6359659">
	<ele>376.15</ele>
	<time>2021-10-16T09:43:50.000Z</time>
	<hdop>4.00</hdop>
	<extensions>
		<gpxtpx:TrackPointExtension>
			<gpxtpx:course>96.99092</gpxtpx:course>
		</gpxtpx:TrackPointExtension>
	</extensions>
</trkpt>
<trkpt lat="49.8781273" lon="7.6363533">
	<ele>375.00</ele>
	<time>2021-10-16T09:43:55.000Z</time>
	<hdop>4.00</hdop>
	<extensions>
		<gpxtpx:TrackPointExtension>
			<gpxtpx:course>121.99295</gpxtpx:course>
		</gpxtpx:TrackPointExtension>
	</extensions>
</trkpt>
<trkpt lat="49.8779509" lon="7.6366157">
	<ele>373.83</ele>
	<time>2021-10-16T09:44:00.000Z</time>
	<hdop>4.00</hdop>
	<extensions>
		<gpxtpx:TrackPointExtension>
			<gpxtpx:course>147.98625</gpxtpx:course>
		</gpxtpx:TrackPointExtension>
	</extensions>
</trkpt>
<trkpt lat="49.8777078" lon="7.6368817">
	<ele>372.30</ele>
	<time>2021-10-16T09:44:05.000Z</time>
	<hdop>4.67</hdop>
	<extensions>
		<gpxtpx:TrackPointExtension>
			<gpxtpx:course>139.0001</gpxtpx:course>
		</gpxtpx:TrackPointExtension>
	</extensions>
</trkpt>
<trkpt lat="49.8775552" lon="7.6370720">
	<ele>369.91</ele>
	<time>2021-10-16T09:44:10.000Z</time>
	<hdop>4.33</hdop>
	<extensions>
		<gpxtpx:TrackPointExtension>
			<gpxtpx:course>100.47569</gpxtpx:course>
		</gpxtpx:TrackPointExtension>
	</extensions>
</trkpt>
<trkpt lat="49.8776863" lon="7.6372417">
	<ele>371.18</ele>
	<time>2021-10-16T09:44:15.000Z</time>
	<hdop>4.00</hdop>
	<extensions>
		<gpxtpx:TrackPointExtension>
			<gpxtpx:course>35.974052</gpxtpx:course>
		</gpxtpx:TrackPointExtension>
	</extensions>
</trkpt>
<trkpt lat="49.8777726" lon="7.6373623">
	<ele>371.98</ele>
	<time>2021-10-16T09:44:19.640Z</time>
	<hdop>9.14</hdop>
	<extensions>
		<gpxtpx:TrackPointExtension>
			<gpxtpx:course>56.75925</gpxtpx:course>
		</gpxtpx:TrackPointExtension>
	</extensions>
</trkpt>
<trkpt lat="49.8778485" lon="7.6375563">
	<ele>373.21</ele>
	<time>2021-10-16T09:44:24.101Z</time>
	<hdop>17.49</hdop>
	<extensions>
		<gpxtpx:TrackPointExtension>
			<gpxtpx:course>59.017063</gpxtpx:course>
		</gpxtpx:TrackPointExtension>
	</extensions>
</trkpt>
<trkpt lat="49.8777957" lon="7.6377368">
	<ele>373.99</ele>
	<time>2021-10-16T09:44:29.221Z</time>
	<hdop>16.68</hdop>
	<extensions>
		<gpxtpx:TrackPointExtension>
			<gpxtpx:course>139.15926</gpxtpx:course>
		</gpxtpx:TrackPointExtension>
	</extensions>
</trkpt>
<trkpt lat="49.8777110" lon="7.6378891">
	<ele>374.24</ele>
	<time>2021-10-16T09:44:33.222Z</time>
	<hdop>16.83</hdop>
	<extensions>
		<gpxtpx:TrackPointExtension>
			<gpxtpx:course>122.03557</gpxtpx:course>
		</gpxtpx:TrackPointExtension>
	</extensions>
</trkpt>
<trkpt lat="49.8775576" lon="7.6383707">
	<ele>374.83</ele>
	<time>2021-10-16T09:44:38.000Z</time>
	<hdop>4.00</hdop>
	<extensions>
		<gpxtpx:TrackPointExtension>
			<gpxtpx:course>114.0002</gpxtpx:course>
		</gpxtpx:TrackPointExtension>
	</extensions>
</trkpt>
<trkpt lat="49.8774401" lon="7.6387179">
	<ele>375.13</ele>
	<time>2021-10-16T09:44:43.000Z</time>
	<hdop>4.00</hdop>
	<extensions>
		<gpxtpx:TrackPointExtension>
			<gpxtpx:course>121.99515</gpxtpx:course>
		</gpxtpx:TrackPointExtension>
	</extensions>
</trkpt>
<trkpt lat="49.8772592" lon="7.6390867">
	<ele>373.94</ele>
	<time>2021-10-16T09:44:48.000Z</time>
	<hdop>4.00</hdop>
	<extensions>
		<gpxtpx:TrackPointExtension>
			<gpxtpx:course>129.99902</gpxtpx:course>
		</gpxtpx:TrackPointExtension>
	</extensions>
</trkpt>
<trkpt lat="49.8769873" lon="7.6392977">
	<ele>372.46</ele>
	<time>2021-10-16T09:44:53.000Z</time>
	<hdop>4.00</hdop>
	<extensions>
		<gpxtpx:TrackPointExtension>
			<gpxtpx:course>167.94048</gpxtpx:course>
		</gpxtpx:TrackPointExtension>
	</extensions>
</trkpt>
<trkpt lat="49.8766894" lon="7.6392638">
	<ele>371.56</ele>
	<time>2021-10-16T09:44:58.000Z</time>
	<hdop>4.00</hdop>
	<extensions>
		<gpxtpx:TrackPointExtension>
			<gpxtpx:course>186.99997</gpxtpx:course>
		</gpxtpx:TrackPointExtension>
	</extensions>
</trkpt>
<trkpt lat="49.8764172" lon="7.6391693">
	<ele>370.29</ele>
	<time>2021-10-16T09:45:03.000Z</time>
	<hdop>4.00</hdop>
	<extensions>
		<gpxtpx:TrackPointExtension>
			<gpxtpx:course>188.00087</gpxtpx:course>
		</gpxtpx:TrackPointExtension>
	</extensions>
</trkpt>
<trkpt lat="49.8761442" lon="7.6391644">
	<ele>369.32</ele>
	<time>2021-10-16T09:45:08.000Z</time>
	<hdop>4.00</hdop>
	<extensions>
		<gpxtpx:TrackPointExtension>
			<gpxtpx:course>180.0</gpxtpx:course>
		</gpxtpx:TrackPointExtension>
	</extensions>
</trkpt>
<trkpt lat="49.8758563" lon="7.6391846">
	<ele>369.61</ele>
	<time>2021-10-16T09:45:13.000Z</time>
	<hdop>4.00</hdop>
	<extensions>
		<gpxtpx:TrackPointExtension>
			<gpxtpx:course>176.00005</gpxtpx:course>
		</gpxtpx:TrackPointExtension>
	</extensions>
</trkpt>
<trkpt lat="49.8755756" lon="7.6392550">
	<ele>370.36</ele>
	<time>2021-10-16T09:45:18.000Z</time>
	<hdop>4.00</hdop>
	<extensions>
		<gpxtpx:TrackPointExtension>
			<gpxtpx:course>164.0007</gpxtpx:course>
		</gpxtpx:TrackPointExtension>
	</extensions>
</trkpt>
<trkpt lat="49.8753997" lon="7.6393754">
	<ele>369.18</ele>
	<time>2021-10-16T09:45:23.000Z</time>
	<hdop>4.00</hdop>
	<extensions>
		<gpxtpx:TrackPointExtension>
			<gpxtpx:course>155.39148</gpxtpx:course>
		</gpxtpx:TrackPointExtension>
	</extensions>
</trkpt>
<trkpt lat="49.8753068" lon="7.6392280">
	<ele>367.92</ele>
	<time>2021-10-16T09:45:30.000Z</time>
	<hdop>8.39</hdop>
	<extensions>
		<gpxtpx:TrackPointExtension>
			<gpxtpx:course>266.4509</gpxtpx:course>
		</gpxtpx:TrackPointExtension>
	</extensions>
</trkpt>
<trkpt lat="49.8753089" lon="7.6390740">
	<ele>367.47</ele>
	<time>2021-10-16T09:45:34.651Z</time>
	<hdop>16.72</hdop>
	<extensions>
		<gpxtpx:TrackPointExtension>
			<gpxtpx:course>252.84586</gpxtpx:course>
		</gpxtpx:TrackPointExtension>
	</extensions>
</trkpt>
<trkpt lat="49.8752709" lon="7.6388133">
	<ele>365.97</ele>
	<time>2021-10-16T09:45:40.542Z</time>
	<hdop>16.81</hdop>
	<extensions>
		<gpxtpx:TrackPointExtension>
			<gpxtpx:course>253.2709</gpxtpx:course>
		</gpxtpx:TrackPointExtension>
	</extensions>
</trkpt>
<trkpt lat="49.8751774" lon="7.6387232">
	<ele>364.33</ele>
	<time>2021-10-16T09:45:45.443Z</time>
	<hdop>17.00</hdop>
	<extensions>
		<gpxtpx:TrackPointExtension>
			<gpxtpx:course>209.15013</gpxtpx:course>
		</gpxtpx:TrackPointExtension>
	</extensions>
</trkpt>
<trkpt lat="49.8751298" lon="7.6385235">
	<ele>363.18</ele>
	<time>2021-10-16T09:45:50.447Z</time>
	<hdop>17.36</hdop>
	<extensions>
		<gpxtpx:TrackPointExtension>
			<gpxtpx:course>277.84348</gpxtpx:course>
		</gpxtpx:TrackPointExtension>
	</extensions>
</trkpt>
<trkpt lat="49.8751167" lon="7.6383797">
	<ele>357.85</ele>
	<time>2021-10-16T09:46:25.966Z</time>
	<hdop>6.16</hdop>
	<extensions>
		<gpxtpx:TrackPointExtension>
			<gpxtpx:course>281.98663</gpxtpx:course>
		</gpxtpx:TrackPointExtension>
	</extensions>
</trkpt>
<trkpt lat="49.8750659" lon="7.6382242">
	<ele>356.04</ele>
	<time>2021-10-16T09:46:36.999Z</time>
	<hdop>14.18</hdop>
	<extensions>
		<gpxtpx:TrackPointExtension>
			<gpxtpx:course>231.01297</gpxtpx:course>
		</gpxtpx:TrackPointExtension>
	</extensions>
</trkpt>
<trkpt lat="49.8750479" lon="7.6380827">
	<ele>355.25</ele>
	<time>2021-10-16T09:46:42.026Z</time>
	<hdop>19.27</hdop>
	<extensions>
		<gpxtpx:TrackPointExtension>
			<gpxtpx:course>248.80803</gpxtpx:course>
		</gpxtpx:TrackPointExtension>
	</extensions>
</trkpt>
<trkpt lat="49.8748855" lon="7.6381575">
	<ele>354.88</ele>
	<time>2021-10-16T09:46:46.999Z</time>
	<hdop>14.13</hdop>
	<extensions>
		<gpxtpx:TrackPointExtension>
			<gpxtpx:course>146.00354</gpxtpx:course>
		</gpxtpx:TrackPointExtension>
	</extensions>
</trkpt>
<trkpt lat="49.8746410" lon="7.6384562">
	<ele>354.36</ele>
	<time>2021-10-16T09:46:51.999Z</time>
	<hdop>6.00</hdop>
	<extensions>
		<gpxtpx:TrackPointExtension>
			<gpxtpx:course>117.088585</gpxtpx:course>
		</gpxtpx:TrackPointExtension>
	</extensions>
</trkpt>
<trkpt lat="49.8745783" lon="7.6387399">
	<ele>353.80</ele>
	<time>2021-10-16T09:46:58.345Z</time>
	<hdop>11.71</hdop>
	<extensions>
		<gpxtpx:TrackPointExtension>
			<gpxtpx:course>123.31196</gpxtpx:course>
		</gpxtpx:TrackPointExtension>
	</extensions>
</trkpt>
<trkpt lat="49.8743586" lon="7.6388754">
	<ele>353.48</ele>
	<time>2021-10-16T09:47:02.999Z</time>
	<hdop>14.25</hdop>
	<extensions>
		<gpxtpx:TrackPointExtension>
			<gpxtpx:course>147.01881</gpxtpx:course>
		</gpxtpx:TrackPointExtension>
	</extensions>
</trkpt>
<trkpt lat="49.8741969" lon="7.6389176">
	<ele>352.66</ele>
	<time>2021-10-16T09:47:07.999Z</time>
	<hdop>22.31</hdop>
	<extensions>
		<gpxtpx:TrackPointExtension>
			<gpxtpx:course>197.89221</gpxtpx:course>
		</gpxtpx:TrackPointExtension>
	</extensions>
</trkpt>
<trkpt lat="49.8741873" lon="7.6389695">
	<ele>352.71</ele>
	<time>2021-10-16T09:47:22.044Z</time>
	<hdop>4.08</hdop>
	<extensions>
		<gpxtpx:TrackPointExtension>
			<gpxtpx:course>177.84618</gpxtpx:course>
		</gpxtpx:TrackPointExtension>
	</extensions>
</trkpt>
</trkseg>
</trk>
</gpx>




