<?xml version='1.0' encoding='UTF-8'?>
<gpx version="1.1" creator="https://www.komoot.de" xmlns="http://www.topografix.com/GPX/1/1" xmlns:xsi="http://www.w3.org/2001/XMLSchema-instance" xsi:schemaLocation="http://www.topografix.com/GPX/1/1 http://www.topografix.com/GPX/1/1/gpx.xsd">
  <metadata>
    <name>Geltendorf Rund um St. Ottilien 6 km</name>
    <author>
      <link href="https://www.komoot.de">
        <text>komoot</text>
        <type>text/html</type>
      </link>
    </author>
  </metadata>
  <trk>
    <name>Geltendorf Rund um St. Ottilien 6 km</name>
    <trkseg>
      <trkpt lat="48.121128" lon="11.028586">
        <ele>608.110132</ele>
        <time>2022-09-10T13:30:29.233Z</time>
      </trkpt>
      <trkpt lat="48.121243" lon="11.028552">
        <ele>608.110132</ele>
        <time>2022-09-10T13:30:41.245Z</time>
      </trkpt>
      <trkpt lat="48.121313" lon="11.028526">
        <ele>608.110132</ele>
        <time>2022-09-10T13:30:48.704Z</time>
      </trkpt>
      <trkpt lat="48.121416" lon="11.028421">
        <ele>608.110132</ele>
        <time>2022-09-10T13:31:01.564Z</time>
      </trkpt>
      <trkpt lat="48.121468" lon="11.028612">
        <ele>608.110132</ele>
        <time>2022-09-10T13:31:15.788Z</time>
      </trkpt>
      <trkpt lat="48.121428" lon="11.028670">
        <ele>608.110132</ele>
        <time>2022-09-10T13:31:21.489Z</time>
      </trkpt>
      <trkpt lat="48.121413" lon="11.028692">
        <ele>608.110132</ele>
        <time>2022-09-10T13:31:23.701Z</time>
      </trkpt>
      <trkpt lat="48.121489" lon="11.028809">
        <ele>608.110132</ele>
        <time>2022-09-10T13:31:35.017Z</time>
      </trkpt>
      <trkpt lat="48.121472" lon="11.029049">
        <ele>608.110132</ele>
        <time>2022-09-10T13:31:51.675Z</time>
      </trkpt>
      <trkpt lat="48.121400" lon="11.029371">
        <ele>607.898369</ele>
        <time>2022-09-10T13:32:15.049Z</time>
      </trkpt>
      <trkpt lat="48.121384" lon="11.029426">
        <ele>607.830921</ele>
        <time>2022-09-10T13:32:19.172Z</time>
      </trkpt>
      <trkpt lat="48.121351" lon="11.029533">
        <ele>607.698414</ele>
        <time>2022-09-10T13:32:27.211Z</time>
      </trkpt>
      <trkpt lat="48.121192" lon="11.029897">
        <ele>607.209382</ele>
        <time>2022-09-10T13:32:57.159Z</time>
      </trkpt>
      <trkpt lat="48.121160" lon="11.029939">
        <ele>607.137733</ele>
        <time>2022-09-10T13:33:01.547Z</time>
      </trkpt>
      <trkpt lat="48.120952" lon="11.030217">
        <ele>606.668292</ele>
        <time>2022-09-10T13:33:30.336Z</time>
      </trkpt>
      <trkpt lat="48.120841" lon="11.030365">
        <ele>606.418039</ele>
        <time>2022-09-10T13:33:45.641Z</time>
      </trkpt>
      <trkpt lat="48.120664" lon="11.030629">
        <ele>605.997400</ele>
        <time>2022-09-10T13:34:11.386Z</time>
      </trkpt>
      <trkpt lat="48.120233" lon="11.031235">
        <ele>604.978257</ele>
        <time>2022-09-10T13:35:13.047Z</time>
      </trkpt>
      <trkpt lat="48.120101" lon="11.031421">
        <ele>604.581847</ele>
        <time>2022-09-10T13:35:32.096Z</time>
      </trkpt>
      <trkpt lat="48.120051" lon="11.031471">
        <ele>604.450345</ele>
        <time>2022-09-10T13:35:38.337Z</time>
      </trkpt>
      <trkpt lat="48.119918" lon="11.031607">
        <ele>604.098097</ele>
        <time>2022-09-10T13:35:55.169Z</time>
      </trkpt>
      <trkpt lat="48.119579" lon="11.032065">
        <ele>603.099514</ele>
        <time>2022-09-10T13:36:42.893Z</time>
      </trkpt>
      <trkpt lat="48.119489" lon="11.031981">
        <ele>602.867560</ele>
        <time>2022-09-10T13:36:53.939Z</time>
      </trkpt>
      <trkpt lat="48.119287" lon="11.032193">
        <ele>602.328044</ele>
        <time>2022-09-10T13:37:19.849Z</time>
      </trkpt>
      <trkpt lat="48.119018" lon="11.032474">
        <ele>601.610680</ele>
        <time>2022-09-10T13:37:54.236Z</time>
      </trkpt>
      <trkpt lat="48.118742" lon="11.032763">
        <ele>600.995192</ele>
        <time>2022-09-10T13:38:29.458Z</time>
      </trkpt>
      <trkpt lat="48.118515" lon="11.032952">
        <ele>600.679462</ele>
        <time>2022-09-10T13:38:56.812Z</time>
      </trkpt>
      <trkpt lat="48.118364" lon="11.033077">
        <ele>600.469724</ele>
        <time>2022-09-10T13:39:14.890Z</time>
      </trkpt>
      <trkpt lat="48.118244" lon="11.033178">
        <ele>600.302387</ele>
        <time>2022-09-10T13:39:29.306Z</time>
      </trkpt>
      <trkpt lat="48.118156" lon="11.033251">
        <ele>600.180095</ele>
        <time>2022-09-10T13:39:39.911Z</time>
      </trkpt>
      <trkpt lat="48.118047" lon="11.033341">
        <ele>600.028785</ele>
        <time>2022-09-10T13:39:52.833Z</time>
      </trkpt>
      <trkpt lat="48.117984" lon="11.033390">
        <ele>599.942486</ele>
        <time>2022-09-10T13:40:00.284Z</time>
      </trkpt>
      <trkpt lat="48.117769" lon="11.033553">
        <ele>599.649538</ele>
        <time>2022-09-10T13:40:25.036Z</time>
      </trkpt>
      <trkpt lat="48.117705" lon="11.033602">
        <ele>599.562159</ele>
        <time>2022-09-10T13:40:32.342Z</time>
      </trkpt>
      <trkpt lat="48.117485" lon="11.033770">
        <ele>599.261953</ele>
        <time>2022-09-10T13:40:57.249Z</time>
      </trkpt>
      <trkpt lat="48.117376" lon="11.033842">
        <ele>599.117128</ele>
        <time>2022-09-10T13:41:09.190Z</time>
      </trkpt>
      <trkpt lat="48.116966" lon="11.034114">
        <ele>599.992293</ele>
        <time>2022-09-10T13:41:55.702Z</time>
      </trkpt>
      <trkpt lat="48.116903" lon="11.034156">
        <ele>600.215244</ele>
        <time>2022-09-10T13:42:03.179Z</time>
      </trkpt>
      <trkpt lat="48.116680" lon="11.034303">
        <ele>601.002964</ele>
        <time>2022-09-10T13:42:29.694Z</time>
      </trkpt>
      <trkpt lat="48.116540" lon="11.034396">
        <ele>601.498119</ele>
        <time>2022-09-10T13:42:46.908Z</time>
      </trkpt>
      <trkpt lat="48.116388" lon="11.034497">
        <ele>602.035741</ele>
        <time>2022-09-10T13:43:05.754Z</time>
      </trkpt>
      <trkpt lat="48.115814" lon="11.034877">
        <ele>604.064744</ele>
        <time>2022-09-10T13:44:17.794Z</time>
      </trkpt>
      <trkpt lat="48.115838" lon="11.034966">
        <ele>604.271932</ele>
        <time>2022-09-10T13:44:25.263Z</time>
      </trkpt>
      <trkpt lat="48.115955" lon="11.035683">
        <ele>606.541882</ele>
        <time>2022-09-10T13:45:23.502Z</time>
      </trkpt>
      <trkpt lat="48.115727" lon="11.035780">
        <ele>607.784054</ele>
        <time>2022-09-10T13:45:51.738Z</time>
      </trkpt>
      <trkpt lat="48.114396" lon="11.039058">
        <ele>620.897877</ele>
        <time>2022-09-10T13:50:55.166Z</time>
      </trkpt>
      <trkpt lat="48.113336" lon="11.040448">
        <ele>626.596122</ele>
        <time>2022-09-10T13:53:37.097Z</time>
      </trkpt>
      <trkpt lat="48.112907" lon="11.041461">
        <ele>629.459144</ele>
        <time>2022-09-10T13:55:06.102Z</time>
      </trkpt>
      <trkpt lat="48.112689" lon="11.042165">
        <ele>630.057251</ele>
        <time>2022-09-10T13:56:01.790Z</time>
      </trkpt>
      <trkpt lat="48.112373" lon="11.043521">
        <ele>630.913033</ele>
        <time>2022-09-10T13:57:40.479Z</time>
      </trkpt>
      <trkpt lat="48.112236" lon="11.043753">
        <ele>631.097582</ele>
        <time>2022-09-10T13:58:01.215Z</time>
      </trkpt>
      <trkpt lat="48.111950" lon="11.044010">
        <ele>630.792968</ele>
        <time>2022-09-10T13:58:35.070Z</time>
      </trkpt>
      <trkpt lat="48.111789" lon="11.044328">
        <ele>630.076285</ele>
        <time>2022-09-10T13:59:02.562Z</time>
      </trkpt>
      <trkpt lat="48.111663" lon="11.044868">
        <ele>629.049033</ele>
        <time>2022-09-10T13:59:42.730Z</time>
      </trkpt>
      <trkpt lat="48.111474" lon="11.045186">
        <ele>628.284486</ele>
        <time>2022-09-10T14:00:12.916Z</time>
      </trkpt>
      <trkpt lat="48.111227" lon="11.045530">
        <ele>627.377303</ele>
        <time>2022-09-10T14:00:49.329Z</time>
      </trkpt>
      <trkpt lat="48.110958" lon="11.045787">
        <ele>626.519119</ele>
        <time>2022-09-10T14:01:24.020Z</time>
      </trkpt>
      <trkpt lat="48.110757" lon="11.045581">
        <ele>625.569732</ele>
        <time>2022-09-10T14:01:50.481Z</time>
      </trkpt>
      <trkpt lat="48.110310" lon="11.044826">
        <ele>622.776218</ele>
        <time>2022-09-10T14:03:03.614Z</time>
      </trkpt>
      <trkpt lat="48.110287" lon="11.044439">
        <ele>621.700599</ele>
        <time>2022-09-10T14:03:31.771Z</time>
      </trkpt>
      <trkpt lat="48.109967" lon="11.043452">
        <ele>618.784367</ele>
        <time>2022-09-10T14:04:51.929Z</time>
      </trkpt>
      <trkpt lat="48.109428" lon="11.042920">
        <ele>617.239810</ele>
        <time>2022-09-10T14:06:00.607Z</time>
      </trkpt>
      <trkpt lat="48.109267" lon="11.042611">
        <ele>616.613622</ele>
        <time>2022-09-10T14:06:27.617Z</time>
      </trkpt>
      <trkpt lat="48.109102" lon="11.041777">
        <ele>615.223925</ele>
        <time>2022-09-10T14:07:27.299Z</time>
      </trkpt>
      <trkpt lat="48.108620" lon="11.041884">
        <ele>613.757014</ele>
        <time>2022-09-10T14:08:17.577Z</time>
      </trkpt>
      <trkpt lat="48.108141" lon="11.041834">
        <ele>612.020184</ele>
        <time>2022-09-10T14:09:08.382Z</time>
      </trkpt>
      <trkpt lat="48.107911" lon="11.041821">
        <ele>611.187641</ele>
        <time>2022-09-10T14:09:33.119Z</time>
      </trkpt>
      <trkpt lat="48.107655" lon="11.041778">
        <ele>610.255838</ele>
        <time>2022-09-10T14:10:01.282Z</time>
      </trkpt>
      <trkpt lat="48.107488" lon="11.041750">
        <ele>609.647996</ele>
        <time>2022-09-10T14:10:19.623Z</time>
      </trkpt>
      <trkpt lat="48.107404" lon="11.042021">
        <ele>608.926361</ele>
        <time>2022-09-10T14:10:41.384Z</time>
      </trkpt>
      <trkpt lat="48.107076" lon="11.042085">
        <ele>607.608108</ele>
        <time>2022-09-10T14:11:18.174Z</time>
      </trkpt>
      <trkpt lat="48.106707" lon="11.042139">
        <ele>605.868979</ele>
        <time>2022-09-10T14:11:59.556Z</time>
      </trkpt>
      <trkpt lat="48.106487" lon="11.042178">
        <ele>604.829811</ele>
        <time>2022-09-10T14:12:24.411Z</time>
      </trkpt>
      <trkpt lat="48.106267" lon="11.042263">
        <ele>603.764057</ele>
        <time>2022-09-10T14:12:49.692Z</time>
      </trkpt>
      <trkpt lat="48.106165" lon="11.042303">
        <ele>603.269468</ele>
        <time>2022-09-10T14:13:01.352Z</time>
      </trkpt>
      <trkpt lat="48.105808" lon="11.042443">
        <ele>601.538409</ele>
        <time>2022-09-10T14:13:41.662Z</time>
      </trkpt>
      <trkpt lat="48.105742" lon="11.042469">
        <ele>601.218287</ele>
        <time>2022-09-10T14:13:49.071Z</time>
      </trkpt>
      <trkpt lat="48.105925" lon="11.041190">
        <ele>599.387303</ele>
        <time>2022-09-10T14:15:22.249Z</time>
      </trkpt>
      <trkpt lat="48.105971" lon="11.040867">
        <ele>599.260712</ele>
        <time>2022-09-10T14:15:44.464Z</time>
      </trkpt>
      <trkpt lat="48.106180" lon="11.039783">
        <ele>598.828239</ele>
        <time>2022-09-10T14:17:02.445Z</time>
      </trkpt>
      <trkpt lat="48.106265" lon="11.038276">
        <ele>598.861212</ele>
        <time>2022-09-10T14:18:46.914Z</time>
      </trkpt>
      <trkpt lat="48.106284" lon="11.038070">
        <ele>598.897149</ele>
        <time>2022-09-10T14:19:00.921Z</time>
      </trkpt>
      <trkpt lat="48.106301" lon="11.037891">
        <ele>598.928393</ele>
        <time>2022-09-10T14:19:13.118Z</time>
      </trkpt>
      <trkpt lat="48.106310" lon="11.037790">
        <ele>598.946001</ele>
        <time>2022-09-10T14:19:20.022Z</time>
      </trkpt>
      <trkpt lat="48.106322" lon="11.037664">
        <ele>598.967995</ele>
        <time>2022-09-10T14:19:28.579Z</time>
      </trkpt>
      <trkpt lat="48.106368" lon="11.037187">
        <ele>599.051280</ele>
        <time>2022-09-10T14:20:00.860Z</time>
      </trkpt>
      <trkpt lat="48.106530" lon="11.036856">
        <ele>599.122198</ele>
        <time>2022-09-10T14:20:28.543Z</time>
      </trkpt>
      <trkpt lat="48.106456" lon="11.036808">
        <ele>599.113218</ele>
        <time>2022-09-10T14:20:36.706Z</time>
      </trkpt>
      <trkpt lat="48.106434" lon="11.036715">
        <ele>599.055037</ele>
        <time>2022-09-10T14:20:43.442Z</time>
      </trkpt>
      <trkpt lat="48.106458" lon="11.036249">
        <ele>598.779424</ele>
        <time>2022-09-10T14:21:15.435Z</time>
      </trkpt>
      <trkpt lat="48.106463" lon="11.036163">
        <ele>598.728518</ele>
        <time>2022-09-10T14:21:21.374Z</time>
      </trkpt>
      <trkpt lat="48.106473" lon="11.036034">
        <ele>598.651937</ele>
        <time>2022-09-10T14:21:30.271Z</time>
      </trkpt>
      <trkpt lat="48.106546" lon="11.035082">
        <ele>598.086860</ele>
        <time>2022-09-10T14:22:36.248Z</time>
      </trkpt>
      <trkpt lat="48.106606" lon="11.035074">
        <ele>598.033664</ele>
        <time>2022-09-10T14:22:42.355Z</time>
      </trkpt>
      <trkpt lat="48.106662" lon="11.034302">
        <ele>597.575744</ele>
        <time>2022-09-10T14:23:35.380Z</time>
      </trkpt>
      <trkpt lat="48.106782" lon="11.033668">
        <ele>598.611259</ele>
        <time>2022-09-10T14:24:19.560Z</time>
      </trkpt>
      <trkpt lat="48.106742" lon="11.033305">
        <ele>599.250738</ele>
        <time>2022-09-10T14:24:45.564Z</time>
      </trkpt>
      <trkpt lat="48.106551" lon="11.032914">
        <ele>600.092794</ele>
        <time>2022-09-10T14:25:21.152Z</time>
      </trkpt>
      <trkpt lat="48.106571" lon="11.031554">
        <ele>602.762408</ele>
        <time>2022-09-10T14:27:05.102Z</time>
      </trkpt>
      <trkpt lat="48.106825" lon="11.030976">
        <ele>605.578562</ele>
        <time>2022-09-10T14:28:00.405Z</time>
      </trkpt>
      <trkpt lat="48.106960" lon="11.030461">
        <ele>607.830308</ele>
        <time>2022-09-10T14:28:46.786Z</time>
      </trkpt>
      <trkpt lat="48.107095" lon="11.030250">
        <ele>609.019644</ele>
        <time>2022-09-10T14:29:11.120Z</time>
      </trkpt>
      <trkpt lat="48.107821" lon="11.029868">
        <ele>613.498641</ele>
        <time>2022-09-10T14:30:45.862Z</time>
      </trkpt>
      <trkpt lat="48.108182" lon="11.029782">
        <ele>614.816813</ele>
        <time>2022-09-10T14:31:28.286Z</time>
      </trkpt>
      <trkpt lat="48.108600" lon="11.029816">
        <ele>616.326387</ele>
        <time>2022-09-10T14:32:15.624Z</time>
      </trkpt>
      <trkpt lat="48.108967" lon="11.030057">
        <ele>617.771460</ele>
        <time>2022-09-10T14:33:00.250Z</time>
      </trkpt>
      <trkpt lat="48.109500" lon="11.030185">
        <ele>619.682660</ele>
        <time>2022-09-10T14:33:59.572Z</time>
      </trkpt>
      <trkpt lat="48.111305" lon="11.030228">
        <ele>620.291972</ele>
        <time>2022-09-10T14:37:01.512Z</time>
      </trkpt>
      <trkpt lat="48.112302" lon="11.030402">
        <ele>618.436994</ele>
        <time>2022-09-10T14:38:44.333Z</time>
      </trkpt>
      <trkpt lat="48.112503" lon="11.029786">
        <ele>617.591002</ele>
        <time>2022-09-10T14:39:32.259Z</time>
      </trkpt>
      <trkpt lat="48.112617" lon="11.029092">
        <ele>616.069142</ele>
        <time>2022-09-10T14:40:23.141Z</time>
      </trkpt>
      <trkpt lat="48.112823" lon="11.028413">
        <ele>613.126037</ele>
        <time>2022-09-10T14:41:18.187Z</time>
      </trkpt>
      <trkpt lat="48.113267" lon="11.027475">
        <ele>608.588690</ele>
        <time>2022-09-10T14:42:45.775Z</time>
      </trkpt>
      <trkpt lat="48.113699" lon="11.026798">
        <ele>604.889400</ele>
        <time>2022-09-10T14:43:57.355Z</time>
      </trkpt>
      <trkpt lat="48.114305" lon="11.025659">
        <ele>599.127268</ele>
        <time>2022-09-10T14:45:47.246Z</time>
      </trkpt>
      <trkpt lat="48.114490" lon="11.024921">
        <ele>596.008476</ele>
        <time>2022-09-10T14:46:45.425Z</time>
      </trkpt>
      <trkpt lat="48.114911" lon="11.023936">
        <ele>593.634033</ele>
        <time>2022-09-10T14:48:09.145Z</time>
      </trkpt>
      <trkpt lat="48.115662" lon="11.022997">
        <ele>590.852976</ele>
        <time>2022-09-10T14:49:51.380Z</time>
      </trkpt>
      <trkpt lat="48.115934" lon="11.022823">
        <ele>590.465083</ele>
        <time>2022-09-10T14:50:22.270Z</time>
      </trkpt>
      <trkpt lat="48.116014" lon="11.022609">
        <ele>590.359468</ele>
        <time>2022-09-10T14:50:39.200Z</time>
      </trkpt>
      <trkpt lat="48.116075" lon="11.022120">
        <ele>590.145254</ele>
        <time>2022-09-10T14:51:13.553Z</time>
      </trkpt>
      <trkpt lat="48.116245" lon="11.021314">
        <ele>589.781272</ele>
        <time>2022-09-10T14:52:10.986Z</time>
      </trkpt>
      <trkpt lat="48.116496" lon="11.021170">
        <ele>589.607910</ele>
        <time>2022-09-10T14:52:38.071Z</time>
      </trkpt>
      <trkpt lat="48.117370" lon="11.021556">
        <ele>591.126640</ele>
        <time>2022-09-10T14:54:13.463Z</time>
      </trkpt>
      <trkpt lat="48.118540" lon="11.022071">
        <ele>594.346274</ele>
        <time>2022-09-10T14:56:30.581Z</time>
      </trkpt>
      <trkpt lat="48.119478" lon="11.022616">
        <ele>597.552058</ele>
        <time>2022-09-10T14:58:24.341Z</time>
      </trkpt>
      <trkpt lat="48.119894" lon="11.022915">
        <ele>599.022281</ele>
        <time>2022-09-10T14:59:15.657Z</time>
      </trkpt>
      <trkpt lat="48.121035" lon="11.023928">
        <ele>601.731865</ele>
        <time>2022-09-10T15:01:37.111Z</time>
      </trkpt>
      <trkpt lat="48.121224" lon="11.024096">
        <ele>602.118759</ele>
        <time>2022-09-10T15:02:00.210Z</time>
      </trkpt>
      <trkpt lat="48.120867" lon="11.024712">
        <ele>603.073243</ele>
        <time>2022-09-10T15:02:57.450Z</time>
      </trkpt>
      <trkpt lat="48.120317" lon="11.025651">
        <ele>604.422066</ele>
        <time>2022-09-10T15:04:24.774Z</time>
      </trkpt>
      <trkpt lat="48.120476" lon="11.025968">
        <ele>604.850194</ele>
        <time>2022-09-10T15:04:52.866Z</time>
      </trkpt>
      <trkpt lat="48.120949" lon="11.026612">
        <ele>605.884029</ele>
        <time>2022-09-10T15:06:01.116Z</time>
      </trkpt>
      <trkpt lat="48.120924" lon="11.026818">
        <ele>605.935023</ele>
        <time>2022-09-10T15:06:16.072Z</time>
      </trkpt>
      <trkpt lat="48.120567" lon="11.027442">
        <ele>605.935023</ele>
        <time>2022-09-10T15:07:15.373Z</time>
      </trkpt>
      <trkpt lat="48.120737" lon="11.027786">
        <ele>605.935023</ele>
        <time>2022-09-10T15:07:45.794Z</time>
      </trkpt>
      <trkpt lat="48.120786" lon="11.027872">
        <ele>605.935023</ele>
        <time>2022-09-10T15:07:53.724Z</time>
      </trkpt>
      <trkpt lat="48.120898" lon="11.028061">
        <ele>605.935023</ele>
        <time>2022-09-10T15:08:11.365Z</time>
      </trkpt>
      <trkpt lat="48.120916" lon="11.028093">
        <ele>605.935023</ele>
        <time>2022-09-10T15:08:14.302Z</time>
      </trkpt>
      <trkpt lat="48.121029" lon="11.028315">
        <ele>605.935023</ele>
        <time>2022-09-10T15:08:33.877Z</time>
      </trkpt>
    </trkseg>
  </trk>
</gpx>