<?xml version="1.0" encoding="UTF-8" standalone="no" ?>
<gpx xmlns="http://www.topografix.com/GPX/1/1" creator="MapSource 6.16.3" version="1.1" xmlns:xsi="http://www.w3.org/2001/XMLSchema-instance" xsi:schemaLocation="http://www.topografix.com/GPX/1/1 http://www.topografix.com/GPX/1/1/gpx.xsd">

  <metadata>
    <link href="http://www.garmin.com">
      <text>Garmin International</text>
    </link>
    <time>2019-09-23T06:34:34Z</time>
    <bounds maxlat="48.249933840706944" maxlon="10.781543059274554" minlat="48.214769996702671" minlon="10.711336070671678"/>
  </metadata>

  <trk>
    <name>21 km Großaitingen</name>
    <link href="https://www.gpsies.com/map.do?fileId=nudxspvilbhszxbc"/>
    <link href="https://www.gpsies.com/charts/nu/map/nudxspvilbhszxbc_map.png"/>
    <link href="https://www.gpsies.com/charts/nu/mapThumb/nudxspvilbhszxbc_mapThumb.png"/>
    <link href="https://www.gpsies.com/charts/nu/tab/nudxspvilbhszxbc_tab.png"/>
    <extensions>
      <gpxx:TrackExtension xmlns:gpxx="http://www.garmin.com/xmlschemas/GpxExtensions/v3">
        <gpxx:DisplayColor>Red</gpxx:DisplayColor>
      </gpxx:TrackExtension>
    </extensions>
    <trkseg>
      <trkpt lat="48.227398674935102" lon="10.780718615278602">
        <ele>535</ele>
        <time>2010-01-01T00:00:00Z</time>
      </trkpt>
      <trkpt lat="48.227426838129759" lon="10.780692463740706">
        <ele>534</ele>
        <time>2010-01-01T00:00:01Z</time>
      </trkpt>
      <trkpt lat="48.22787837125361" lon="10.78093009069562">
        <ele>536</ele>
        <time>2010-01-01T00:00:20Z</time>
      </trkpt>
      <trkpt lat="48.228322360664606" lon="10.781270563602448">
        <ele>538</ele>
        <time>2010-01-01T00:00:40Z</time>
      </trkpt>
      <trkpt lat="48.228638609871268" lon="10.781543059274554">
        <ele>538</ele>
        <time>2010-01-01T00:00:55Z</time>
      </trkpt>
      <trkpt lat="48.228671718388796" lon="10.781464604660869">
        <ele>538</ele>
        <time>2010-01-01T00:00:57Z</time>
      </trkpt>
      <trkpt lat="48.228516820818186" lon="10.781333260238171">
        <ele>538</ele>
        <time>2010-01-01T00:01:04Z</time>
      </trkpt>
      <trkpt lat="48.228493602946401" lon="10.781293697655201">
        <ele>538</ele>
        <time>2010-01-01T00:01:06Z</time>
      </trkpt>
      <trkpt lat="48.228586809709668" lon="10.781010473147035">
        <ele>536</ele>
        <time>2010-01-01T00:01:14Z</time>
      </trkpt>
      <trkpt lat="48.228714969009161" lon="10.780462464317679">
        <ele>533</ele>
        <time>2010-01-01T00:01:29Z</time>
      </trkpt>
      <trkpt lat="48.228786299005151" lon="10.779801718890667">
        <ele>531</ele>
        <time>2010-01-01T00:01:47Z</time>
      </trkpt>
      <trkpt lat="48.228830806910992" lon="10.779582532122731">
        <ele>531</ele>
        <time>2010-01-01T00:01:53Z</time>
      </trkpt>
      <trkpt lat="48.229514770209789" lon="10.777723509818316">
        <ele>529</ele>
        <time>2010-01-01T00:02:50Z</time>
      </trkpt>
      <trkpt lat="48.229573862627149" lon="10.777373816817999">
        <ele>529</ele>
        <time>2010-01-01T00:03:00Z</time>
      </trkpt>
      <trkpt lat="48.22955533862114" lon="10.777116660028696">
        <ele>529</ele>
        <time>2010-01-01T00:03:07Z</time>
      </trkpt>
      <trkpt lat="48.229559697210789" lon="10.776991099119186">
        <ele>529</ele>
        <time>2010-01-01T00:03:10Z</time>
      </trkpt>
      <trkpt lat="48.229636894538999" lon="10.776506038382649">
        <ele>529</ele>
        <time>2010-01-01T00:03:23Z</time>
      </trkpt>
      <trkpt lat="48.229659274220467" lon="10.77543986029923">
        <ele>527</ele>
        <time>2010-01-01T00:03:52Z</time>
      </trkpt>
      <trkpt lat="48.229637481272221" lon="10.775355203077197">
        <ele>528</ele>
        <time>2010-01-01T00:03:54Z</time>
      </trkpt>
      <trkpt lat="48.229561876505613" lon="10.775285717099905">
        <ele>528</ele>
        <time>2010-01-01T00:03:58Z</time>
      </trkpt>
      <trkpt lat="48.22927881963551" lon="10.77517063356936">
        <ele>528</ele>
        <time>2010-01-01T00:04:09Z</time>
      </trkpt>
      <trkpt lat="48.229239592328668" lon="10.775140291079879">
        <ele>528</ele>
        <time>2010-01-01T00:04:11Z</time>
      </trkpt>
      <trkpt lat="48.229200700297952" lon="10.775027722120285">
        <ele>528</ele>
        <time>2010-01-01T00:04:15Z</time>
      </trkpt>
      <trkpt lat="48.229207573458552" lon="10.772741893306375">
        <ele>528</ele>
        <time>2010-01-01T00:05:15Z</time>
      </trkpt>
      <trkpt lat="48.229235233739018" lon="10.772089529782534">
        <ele>528</ele>
        <time>2010-01-01T00:05:33Z</time>
      </trkpt>
      <trkpt lat="48.229225091636181" lon="10.771367512643337">
        <ele>528</ele>
        <time>2010-01-01T00:05:52Z</time>
      </trkpt>
      <trkpt lat="48.229184858500957" lon="10.770540134981275">
        <ele>527</ele>
        <time>2010-01-01T00:06:14Z</time>
      </trkpt>
      <trkpt lat="48.229169519618154" lon="10.76921571046114">
        <ele>527</ele>
        <time>2010-01-01T00:06:50Z</time>
      </trkpt>
      <trkpt lat="48.229155270382762" lon="10.769129209220409">
        <ele>527</ele>
        <time>2010-01-01T00:06:52Z</time>
      </trkpt>
      <trkpt lat="48.229125011712313" lon="10.769062405452132">
        <ele>527</ele>
        <time>2010-01-01T00:06:54Z</time>
      </trkpt>
      <trkpt lat="48.229080336168408" lon="10.769030302762985">
        <ele>527</ele>
        <time>2010-01-01T00:06:56Z</time>
      </trkpt>
      <trkpt lat="48.228685967624187" lon="10.769027872011065">
        <ele>528</ele>
        <time>2010-01-01T00:07:12Z</time>
      </trkpt>
      <trkpt lat="48.228648416697979" lon="10.769004235044122">
        <ele>529</ele>
        <time>2010-01-01T00:07:14Z</time>
      </trkpt>
      <trkpt lat="48.228671886026859" lon="10.767588699236512">
        <ele>530</ele>
        <time>2010-01-01T00:07:51Z</time>
      </trkpt>
      <trkpt lat="48.22871346026659" lon="10.767562631517649">
        <ele>530</ele>
        <time>2010-01-01T00:07:53Z</time>
      </trkpt>
      <trkpt lat="48.22874522767961" lon="10.767571097239852">
        <ele>530</ele>
        <time>2010-01-01T00:07:54Z</time>
      </trkpt>
      <trkpt lat="48.229204723611474" lon="10.767789613455534">
        <ele>529</ele>
        <time>2010-01-01T00:08:14Z</time>
      </trkpt>
      <trkpt lat="48.229373283684254" lon="10.767809394747019">
        <ele>529</ele>
        <time>2010-01-01T00:08:20Z</time>
      </trkpt>
      <trkpt lat="48.229419300332665" lon="10.767829176038504">
        <ele>529</ele>
        <time>2010-01-01T00:08:22Z</time>
      </trkpt>
      <trkpt lat="48.229589872062206" lon="10.767953479662538">
        <ele>530</ele>
        <time>2010-01-01T00:08:30Z</time>
      </trkpt>
      <trkpt lat="48.2310925796628" lon="10.769793139770627">
        <ele>527</ele>
        <time>2010-01-01T00:09:48Z</time>
      </trkpt>
      <trkpt lat="48.231228366494179" lon="10.770005704835057">
        <ele>527</ele>
        <time>2010-01-01T00:09:55Z</time>
      </trkpt>
      <trkpt lat="48.231381503865123" lon="10.770303597673774">
        <ele>527</ele>
        <time>2010-01-01T00:10:05Z</time>
      </trkpt>
      <trkpt lat="48.231626087799668" lon="10.771027375012636">
        <ele>527</ele>
        <time>2010-01-01T00:10:27Z</time>
      </trkpt>
      <trkpt lat="48.231646539643407" lon="10.771066937595606">
        <ele>527</ele>
        <time>2010-01-01T00:10:28Z</time>
      </trkpt>
      <trkpt lat="48.231671266257763" lon="10.77108227647841">
        <ele>527</ele>
        <time>2010-01-01T00:10:30Z</time>
      </trkpt>
      <trkpt lat="48.23169456794858" lon="10.771073726937175">
        <ele>527</ele>
        <time>2010-01-01T00:10:30Z</time>
      </trkpt>
      <trkpt lat="48.23170923627913" lon="10.771045312285423">
        <ele>527</ele>
        <time>2010-01-01T00:10:31Z</time>
      </trkpt>
      <trkpt lat="48.23171803727746" lon="10.770940203219652">
        <ele>527</ele>
        <time>2010-01-01T00:10:34Z</time>
      </trkpt>
      <trkpt lat="48.231744524091482" lon="10.770397307351232">
        <ele>526</ele>
        <time>2010-01-01T00:10:49Z</time>
      </trkpt>
      <trkpt lat="48.231700686737895" lon="10.770127410069108">
        <ele>526</ele>
        <time>2010-01-01T00:10:56Z</time>
      </trkpt>
      <trkpt lat="48.231499101966619" lon="10.769618293270469">
        <ele>526</ele>
        <time>2010-01-01T00:11:12Z</time>
      </trkpt>
      <trkpt lat="48.231421737000346" lon="10.76951083727181">
        <ele>526</ele>
        <time>2010-01-01T00:11:16Z</time>
      </trkpt>
      <trkpt lat="48.231240436434746" lon="10.769036840647459">
        <ele>527</ele>
        <time>2010-01-01T00:11:31Z</time>
      </trkpt>
      <trkpt lat="48.231116384267807" lon="10.768165374174714">
        <ele>530</ele>
        <time>2010-01-01T00:11:55Z</time>
      </trkpt>
      <trkpt lat="48.230819413438439" lon="10.767188295722008">
        <ele>530</ele>
        <time>2010-01-01T00:12:23Z</time>
      </trkpt>
      <trkpt lat="48.230705922469497" lon="10.766861569136381">
        <ele>529</ele>
        <time>2010-01-01T00:12:33Z</time>
      </trkpt>
      <trkpt lat="48.230116758495569" lon="10.765379732474685">
        <ele>531</ele>
        <time>2010-01-01T00:13:19Z</time>
      </trkpt>
      <trkpt lat="48.229819871485233" lon="10.764717226848006">
        <ele>531</ele>
        <time>2010-01-01T00:13:40Z</time>
      </trkpt>
      <trkpt lat="48.228964582085609" lon="10.763058783486485">
        <ele>532</ele>
        <time>2010-01-01T00:14:36Z</time>
      </trkpt>
      <trkpt lat="48.228514641523361" lon="10.762203494086862">
        <ele>532</ele>
        <time>2010-01-01T00:15:05Z</time>
      </trkpt>
      <trkpt lat="48.228265615180135" lon="10.761777358129621">
        <ele>530</ele>
        <time>2010-01-01T00:15:21Z</time>
      </trkpt>
      <trkpt lat="48.228190932422876" lon="10.761712733656168">
        <ele>530</ele>
        <time>2010-01-01T00:15:24Z</time>
      </trkpt>
      <trkpt lat="48.228116165846586" lon="10.761727737262845">
        <ele>530</ele>
        <time>2010-01-01T00:15:27Z</time>
      </trkpt>
      <trkpt lat="48.228091774508357" lon="10.761723378673196">
        <ele>530</ele>
        <time>2010-01-01T00:15:28Z</time>
      </trkpt>
      <trkpt lat="48.228081716224551" lon="10.761695383116603">
        <ele>530</ele>
        <time>2010-01-01T00:15:29Z</time>
      </trkpt>
      <trkpt lat="48.228078782558441" lon="10.761665208265185">
        <ele>530</ele>
        <time>2010-01-01T00:15:30Z</time>
      </trkpt>
      <trkpt lat="48.22811046615243" lon="10.761602679267526">
        <ele>530</ele>
        <time>2010-01-01T00:15:32Z</time>
      </trkpt>
      <trkpt lat="48.228596867993474" lon="10.760905724018812">
        <ele>528</ele>
        <time>2010-01-01T00:15:59Z</time>
      </trkpt>
      <trkpt lat="48.228601394221187" lon="10.760859875008464">
        <ele>528</ele>
        <time>2010-01-01T00:16:00Z</time>
      </trkpt>
      <trkpt lat="48.228575494140387" lon="10.760785778984427">
        <ele>528</ele>
        <time>2010-01-01T00:16:02Z</time>
      </trkpt>
      <trkpt lat="48.228256981819868" lon="10.76041110791266">
        <ele>529</ele>
        <time>2010-01-01T00:16:18Z</time>
      </trkpt>
      <trkpt lat="48.227050574496388" lon="10.758818965405226">
        <ele>529</ele>
        <time>2010-01-01T00:17:23Z</time>
      </trkpt>
      <trkpt lat="48.226959211751819" lon="10.758642526343465">
        <ele>528</ele>
        <time>2010-01-01T00:17:29Z</time>
      </trkpt>
      <trkpt lat="48.226724602282047" lon="10.758431637659669">
        <ele>528</ele>
        <time>2010-01-01T00:17:40Z</time>
      </trkpt>
      <trkpt lat="48.226575488224626" lon="10.758272968232632">
        <ele>528</ele>
        <time>2010-01-01T00:17:47Z</time>
      </trkpt>
      <trkpt lat="48.226067880168557" lon="10.757634099572897">
        <ele>529</ele>
        <time>2010-01-01T00:18:13Z</time>
      </trkpt>
      <trkpt lat="48.225830085575581" lon="10.757365459576249">
        <ele>529</ele>
        <time>2010-01-01T00:18:25Z</time>
      </trkpt>
      <trkpt lat="48.225632691755891" lon="10.757180722430348">
        <ele>530</ele>
        <time>2010-01-01T00:18:35Z</time>
      </trkpt>
      <trkpt lat="48.225427586585283" lon="10.757016018033028">
        <ele>530</ele>
        <time>2010-01-01T00:18:44Z</time>
      </trkpt>
      <trkpt lat="48.225329266861081" lon="10.756856594234705">
        <ele>531</ele>
        <time>2010-01-01T00:18:50Z</time>
      </trkpt>
      <trkpt lat="48.224321762099862" lon="10.755592435598373">
        <ele>531</ele>
        <time>2010-01-01T00:19:42Z</time>
      </trkpt>
      <trkpt lat="48.224287563934922" lon="10.755517082288861">
        <ele>531</ele>
        <time>2010-01-01T00:19:45Z</time>
      </trkpt>
      <trkpt lat="48.224250515922904" lon="10.755312312394381">
        <ele>531</ele>
        <time>2010-01-01T00:19:50Z</time>
      </trkpt>
      <trkpt lat="48.224204834550619" lon="10.755221368744969">
        <ele>530</ele>
        <time>2010-01-01T00:19:53Z</time>
      </trkpt>
      <trkpt lat="48.223598906770349" lon="10.754466997459531">
        <ele>530</ele>
        <time>2010-01-01T00:20:25Z</time>
      </trkpt>
      <trkpt lat="48.223165897652507" lon="10.753870960325003">
        <ele>530</ele>
        <time>2010-01-01T00:20:49Z</time>
      </trkpt>
      <trkpt lat="48.222171384841204" lon="10.752643095329404">
        <ele>530</ele>
        <time>2010-01-01T00:21:40Z</time>
      </trkpt>
      <trkpt lat="48.221341576427221" lon="10.751516399905086">
        <ele>531</ele>
        <time>2010-01-01T00:22:25Z</time>
      </trkpt>
      <trkpt lat="48.220538925379515" lon="10.750505458563566">
        <ele>531</ele>
        <time>2010-01-01T00:23:07Z</time>
      </trkpt>
      <trkpt lat="48.220297610387206" lon="10.750220809131861">
        <ele>532</ele>
        <time>2010-01-01T00:23:19Z</time>
      </trkpt>
      <trkpt lat="48.219965016469359" lon="10.749937333166599">
        <ele>532</ele>
        <time>2010-01-01T00:23:34Z</time>
      </trkpt>
      <trkpt lat="48.218136839568615" lon="10.7476198207587">
        <ele>535</ele>
        <time>2010-01-01T00:25:10Z</time>
      </trkpt>
      <trkpt lat="48.217986216768622" lon="10.747385378926992">
        <ele>535</ele>
        <time>2010-01-01T00:25:19Z</time>
      </trkpt>
      <trkpt lat="48.217093460261822" lon="10.746236890554428">
        <ele>535</ele>
        <time>2010-01-01T00:26:06Z</time>
      </trkpt>
      <trkpt lat="48.216672018170357" lon="10.745749901980162">
        <ele>534</ele>
        <time>2010-01-01T00:26:27Z</time>
      </trkpt>
      <trkpt lat="48.216165415942669" lon="10.745096616446972">
        <ele>535</ele>
        <time>2010-01-01T00:26:54Z</time>
      </trkpt>
      <trkpt lat="48.215952767059207" lon="10.744738541543484">
        <ele>536</ele>
        <time>2010-01-01T00:27:07Z</time>
      </trkpt>
      <trkpt lat="48.215864924713969" lon="10.74454240500927">
        <ele>537</ele>
        <time>2010-01-01T00:27:13Z</time>
      </trkpt>
      <trkpt lat="48.215265031903982" lon="10.743498941883445">
        <ele>538</ele>
        <time>2010-01-01T00:27:50Z</time>
      </trkpt>
      <trkpt lat="48.215231839567423" lon="10.743252178654075">
        <ele>538</ele>
        <time>2010-01-01T00:27:57Z</time>
      </trkpt>
      <trkpt lat="48.215057831257582" lon="10.742926960811019">
        <ele>536</ele>
        <time>2010-01-01T00:28:08Z</time>
      </trkpt>
      <trkpt lat="48.214924139901996" lon="10.742611885070801">
        <ele>536</ele>
        <time>2010-01-01T00:28:18Z</time>
      </trkpt>
      <trkpt lat="48.214808637276292" lon="10.742269903421402">
        <ele>537</ele>
        <time>2010-01-01T00:28:28Z</time>
      </trkpt>
      <trkpt lat="48.214933862909675" lon="10.742050297558308">
        <ele>538</ele>
        <time>2010-01-01T00:28:36Z</time>
      </trkpt>
      <trkpt lat="48.215046934783459" lon="10.741742178797722">
        <ele>540</ele>
        <time>2010-01-01T00:28:45Z</time>
      </trkpt>
      <trkpt lat="48.215071326121688" lon="10.741520393639803">
        <ele>541</ele>
        <time>2010-01-01T00:28:51Z</time>
      </trkpt>
      <trkpt lat="48.215105440467596" lon="10.74136046692729">
        <ele>541</ele>
        <time>2010-01-01T00:28:56Z</time>
      </trkpt>
      <trkpt lat="48.215159000828862" lon="10.74119727127254">
        <ele>541</ele>
        <time>2010-01-01T00:29:01Z</time>
      </trkpt>
      <trkpt lat="48.215245166793466" lon="10.740842465311289">
        <ele>541</ele>
        <time>2010-01-01T00:29:11Z</time>
      </trkpt>
      <trkpt lat="48.215255476534367" lon="10.740581536665559">
        <ele>541</ele>
        <time>2010-01-01T00:29:18Z</time>
      </trkpt>
      <trkpt lat="48.215235359966755" lon="10.739891538396478">
        <ele>540</ele>
        <time>2010-01-01T00:29:36Z</time>
      </trkpt>
      <trkpt lat="48.215262684971094" lon="10.739615187048912">
        <ele>540</ele>
        <time>2010-01-01T00:29:43Z</time>
      </trkpt>
      <trkpt lat="48.215334685519338" lon="10.739287538453937">
        <ele>540</ele>
        <time>2010-01-01T00:29:53Z</time>
      </trkpt>
      <trkpt lat="48.215380702167749" lon="10.739141190424562">
        <ele>539</ele>
        <time>2010-01-01T00:29:57Z</time>
      </trkpt>
      <trkpt lat="48.215491930022836" lon="10.738876406103373">
        <ele>537</ele>
        <time>2010-01-01T00:30:05Z</time>
      </trkpt>
      <trkpt lat="48.216333976015449" lon="10.737012438476086">
        <ele>533</ele>
        <time>2010-01-01T00:31:05Z</time>
      </trkpt>
      <trkpt lat="48.216397678479552" lon="10.736855613067746">
        <ele>533</ele>
        <time>2010-01-01T00:31:10Z</time>
      </trkpt>
      <trkpt lat="48.21645132265985" lon="10.736595690250397">
        <ele>533</ele>
        <time>2010-01-01T00:31:18Z</time>
      </trkpt>
      <trkpt lat="48.216435816138983" lon="10.736419335007668">
        <ele>533</ele>
        <time>2010-01-01T00:31:22Z</time>
      </trkpt>
      <trkpt lat="48.21633942425251" lon="10.736205177381635">
        <ele>534</ele>
        <time>2010-01-01T00:31:29Z</time>
      </trkpt>
      <trkpt lat="48.215824859216809" lon="10.735312504693866">
        <ele>533</ele>
        <time>2010-01-01T00:32:01Z</time>
      </trkpt>
      <trkpt lat="48.21572327055037" lon="10.735092228278518">
        <ele>534</ele>
        <time>2010-01-01T00:32:08Z</time>
      </trkpt>
      <trkpt lat="48.21564313955605" lon="10.734871700406075">
        <ele>534</ele>
        <time>2010-01-01T00:32:15Z</time>
      </trkpt>
      <trkpt lat="48.21556787006557" lon="10.734547572210431">
        <ele>536</ele>
        <time>2010-01-01T00:32:24Z</time>
      </trkpt>
      <trkpt lat="48.215518835932016" lon="10.734112802892923">
        <ele>537</ele>
        <time>2010-01-01T00:32:35Z</time>
      </trkpt>
      <trkpt lat="48.215414481237531" lon="10.73191381059587">
        <ele>536</ele>
        <time>2010-01-01T00:33:34Z</time>
      </trkpt>
      <trkpt lat="48.21535237133503" lon="10.73100982233882">
        <ele>537</ele>
        <time>2010-01-01T00:33:58Z</time>
      </trkpt>
      <trkpt lat="48.215104099363089" lon="10.728451162576675">
        <ele>535</ele>
        <time>2010-01-01T00:35:07Z</time>
      </trkpt>
      <trkpt lat="48.215109631419182" lon="10.728129213675857">
        <ele>535</ele>
        <time>2010-01-01T00:35:16Z</time>
      </trkpt>
      <trkpt lat="48.215204598382115" lon="10.727376183494925">
        <ele>536</ele>
        <time>2010-01-01T00:35:36Z</time>
      </trkpt>
      <trkpt lat="48.215218260884285" lon="10.727170826867223">
        <ele>536</ele>
        <time>2010-01-01T00:35:42Z</time>
      </trkpt>
      <trkpt lat="48.215209878981113" lon="10.727023892104626">
        <ele>536</ele>
        <time>2010-01-01T00:35:46Z</time>
      </trkpt>
      <trkpt lat="48.215161096304655" lon="10.726867401972413">
        <ele>537</ele>
        <time>2010-01-01T00:35:51Z</time>
      </trkpt>
      <trkpt lat="48.215003181248903" lon="10.726661710068583">
        <ele>538</ele>
        <time>2010-01-01T00:35:59Z</time>
      </trkpt>
      <trkpt lat="48.214868903160095" lon="10.726436236873269">
        <ele>539</ele>
        <time>2010-01-01T00:36:07Z</time>
      </trkpt>
      <trkpt lat="48.214793298393488" lon="10.726237166672945">
        <ele>540</ele>
        <time>2010-01-01T00:36:13Z</time>
      </trkpt>
      <trkpt lat="48.214769996702671" lon="10.726106325164437">
        <ele>541</ele>
        <time>2010-01-01T00:36:17Z</time>
      </trkpt>
      <trkpt lat="48.214886169880629" lon="10.725279534235597">
        <ele>541</ele>
        <time>2010-01-01T00:36:39Z</time>
      </trkpt>
      <trkpt lat="48.214975437149405" lon="10.72491173632443">
        <ele>542</ele>
        <time>2010-01-01T00:36:50Z</time>
      </trkpt>
      <trkpt lat="48.215185068547726" lon="10.724222827702761">
        <ele>540</ele>
        <time>2010-01-01T00:37:10Z</time>
      </trkpt>
      <trkpt lat="48.215411128476262" lon="10.72364866733551">
        <ele>539</ele>
        <time>2010-01-01T00:37:28Z</time>
      </trkpt>
      <trkpt lat="48.215623190626502" lon="10.723170982673764">
        <ele>541</ele>
        <time>2010-01-01T00:37:43Z</time>
      </trkpt>
      <trkpt lat="48.21572570130229" lon="10.722890105098486">
        <ele>542</ele>
        <time>2010-01-01T00:37:52Z</time>
      </trkpt>
      <trkpt lat="48.215881185606122" lon="10.722350729629397">
        <ele>547</ele>
        <time>2010-01-01T00:38:07Z</time>
      </trkpt>
      <trkpt lat="48.215935584157705" lon="10.722002629190683">
        <ele>551</ele>
        <time>2010-01-01T00:38:17Z</time>
      </trkpt>
      <trkpt lat="48.216000460088253" lon="10.721287401393056">
        <ele>560</ele>
        <time>2010-01-01T00:38:36Z</time>
      </trkpt>
      <trkpt lat="48.21605795994401" lon="10.720939636230469">
        <ele>565</ele>
        <time>2010-01-01T00:38:46Z</time>
      </trkpt>
      <trkpt lat="48.216089392080903" lon="10.720824636518955">
        <ele>567</ele>
        <time>2010-01-01T00:38:49Z</time>
      </trkpt>
      <trkpt lat="48.21612736210227" lon="10.720729166641831">
        <ele>568</ele>
        <time>2010-01-01T00:38:52Z</time>
      </trkpt>
      <trkpt lat="48.216168433427811" lon="10.720674516633153">
        <ele>569</ele>
        <time>2010-01-01T00:38:54Z</time>
      </trkpt>
      <trkpt lat="48.216238087043166" lon="10.720641994848847">
        <ele>570</ele>
        <time>2010-01-01T00:38:57Z</time>
      </trkpt>
      <trkpt lat="48.216431625187397" lon="10.720680635422468">
        <ele>571</ele>
        <time>2010-01-01T00:39:05Z</time>
      </trkpt>
      <trkpt lat="48.216643603518605" lon="10.720754899084568">
        <ele>571</ele>
        <time>2010-01-01T00:39:13Z</time>
      </trkpt>
      <trkpt lat="48.216948704794049" lon="10.720914239063859">
        <ele>571</ele>
        <time>2010-01-01T00:39:26Z</time>
      </trkpt>
      <trkpt lat="48.217266211286187" lon="10.721114818006754">
        <ele>573</ele>
        <time>2010-01-01T00:39:40Z</time>
      </trkpt>
      <trkpt lat="48.21785562671721" lon="10.721442131325603">
        <ele>576</ele>
        <time>2010-01-01T00:40:05Z</time>
      </trkpt>
      <trkpt lat="48.218132397159934" lon="10.721529303118587">
        <ele>578</ele>
        <time>2010-01-01T00:40:17Z</time>
      </trkpt>
      <trkpt lat="48.218299029394984" lon="10.721547240391374">
        <ele>579</ele>
        <time>2010-01-01T00:40:23Z</time>
      </trkpt>
      <trkpt lat="48.21839852258563" lon="10.721523268148303">
        <ele>580</ele>
        <time>2010-01-01T00:40:27Z</time>
      </trkpt>
      <trkpt lat="48.218479994684458" lon="10.72148647159338">
        <ele>581</ele>
        <time>2010-01-01T00:40:31Z</time>
      </trkpt>
      <trkpt lat="48.218609914183617" lon="10.721390414983034">
        <ele>583</ele>
        <time>2010-01-01T00:40:37Z</time>
      </trkpt>
      <trkpt lat="48.21868241764605" lon="10.721300225704908">
        <ele>584</ele>
        <time>2010-01-01T00:40:40Z</time>
      </trkpt>
      <trkpt lat="48.218772606924176" lon="10.721104089170694">
        <ele>586</ele>
        <time>2010-01-01T00:40:47Z</time>
      </trkpt>
      <trkpt lat="48.218805631622672" lon="10.720873000100255">
        <ele>589</ele>
        <time>2010-01-01T00:40:53Z</time>
      </trkpt>
      <trkpt lat="48.218821892514825" lon="10.720399422571063">
        <ele>592</ele>
        <time>2010-01-01T00:41:06Z</time>
      </trkpt>
      <trkpt lat="48.218853995203972" lon="10.720221726223826">
        <ele>594</ele>
        <time>2010-01-01T00:41:11Z</time>
      </trkpt>
      <trkpt lat="48.218980813398957" lon="10.719888629391789">
        <ele>597</ele>
        <time>2010-01-01T00:41:21Z</time>
      </trkpt>
      <trkpt lat="48.219073684886098" lon="10.719710430130363">
        <ele>599</ele>
        <time>2010-01-01T00:41:27Z</time>
      </trkpt>
      <trkpt lat="48.219171166419983" lon="10.719577996060252">
        <ele>600</ele>
        <time>2010-01-01T00:41:32Z</time>
      </trkpt>
      <trkpt lat="48.219320699572563" lon="10.719296196475625">
        <ele>602</ele>
        <time>2010-01-01T00:41:42Z</time>
      </trkpt>
      <trkpt lat="48.219417091459036" lon="10.71907457895577">
        <ele>602</ele>
        <time>2010-01-01T00:41:49Z</time>
      </trkpt>
      <trkpt lat="48.21964256465435" lon="10.718387430533767">
        <ele>598</ele>
        <time>2010-01-01T00:42:09Z</time>
      </trkpt>
      <trkpt lat="48.219892010092735" lon="10.717820478603244">
        <ele>594</ele>
        <time>2010-01-01T00:42:27Z</time>
      </trkpt>
      <trkpt lat="48.220208426937461" lon="10.717227039858699">
        <ele>591</ele>
        <time>2010-01-01T00:42:48Z</time>
      </trkpt>
      <trkpt lat="48.220589971169829" lon="10.716600241139531">
        <ele>589</ele>
        <time>2010-01-01T00:43:10Z</time>
      </trkpt>
      <trkpt lat="48.220781497657299" lon="10.716321375221014">
        <ele>589</ele>
        <time>2010-01-01T00:43:21Z</time>
      </trkpt>
      <trkpt lat="48.220835225656629" lon="10.716281225904822">
        <ele>589</ele>
        <time>2010-01-01T00:43:23Z</time>
      </trkpt>
      <trkpt lat="48.220934132114053" lon="10.716248704120517">
        <ele>590</ele>
        <time>2010-01-01T00:43:27Z</time>
      </trkpt>
      <trkpt lat="48.221185337752104" lon="10.716250129044056">
        <ele>592</ele>
        <time>2010-01-01T00:43:37Z</time>
      </trkpt>
      <trkpt lat="48.221250716596842" lon="10.716231018304825">
        <ele>592</ele>
        <time>2010-01-01T00:43:40Z</time>
      </trkpt>
      <trkpt lat="48.221397567540407" lon="10.716156167909503">
        <ele>594</ele>
        <time>2010-01-01T00:43:46Z</time>
      </trkpt>
      <trkpt lat="48.221553973853588" lon="10.716004287824035">
        <ele>596</ele>
        <time>2010-01-01T00:43:54Z</time>
      </trkpt>
      <trkpt lat="48.22230557911098" lon="10.715387463569641">
        <ele>597</ele>
        <time>2010-01-01T00:44:28Z</time>
      </trkpt>
      <trkpt lat="48.222576566040516" lon="10.715195601806045">
        <ele>597</ele>
        <time>2010-01-01T00:44:40Z</time>
      </trkpt>
      <trkpt lat="48.222790891304612" lon="10.715059982612729">
        <ele>597</ele>
        <time>2010-01-01T00:44:49Z</time>
      </trkpt>
      <trkpt lat="48.22391758672893" lon="10.714412983506918">
        <ele>600</ele>
        <time>2010-01-01T00:45:38Z</time>
      </trkpt>
      <trkpt lat="48.223960502073169" lon="10.71437350474298">
        <ele>600</ele>
        <time>2010-01-01T00:45:40Z</time>
      </trkpt>
      <trkpt lat="48.224036274477839" lon="10.714220870286226">
        <ele>601</ele>
        <time>2010-01-01T00:45:45Z</time>
      </trkpt>
      <trkpt lat="48.224077681079507" lon="10.714074186980724">
        <ele>601</ele>
        <time>2010-01-01T00:45:49Z</time>
      </trkpt>
      <trkpt lat="48.224152028560638" lon="10.713701276108623">
        <ele>603</ele>
        <time>2010-01-01T00:45:59Z</time>
      </trkpt>
      <trkpt lat="48.224342884495854" lon="10.712553877383471">
        <ele>601</ele>
        <time>2010-01-01T00:46:31Z</time>
      </trkpt>
      <trkpt lat="48.224442293867469" lon="10.712084574624896">
        <ele>600</ele>
        <time>2010-01-01T00:46:44Z</time>
      </trkpt>
      <trkpt lat="48.224552683532238" lon="10.711402371525764">
        <ele>598</ele>
        <time>2010-01-01T00:47:03Z</time>
      </trkpt>
      <trkpt lat="48.224583612754941" lon="10.711336070671678">
        <ele>598</ele>
        <time>2010-01-01T00:47:05Z</time>
      </trkpt>
      <trkpt lat="48.224629294127226" lon="10.711399940773845">
        <ele>598</ele>
        <time>2010-01-01T00:47:07Z</time>
      </trkpt>
      <trkpt lat="48.224663492292166" lon="10.711505301296711">
        <ele>598</ele>
        <time>2010-01-01T00:47:11Z</time>
      </trkpt>
      <trkpt lat="48.225078899413347" lon="10.713069532066584">
        <ele>596</ele>
        <time>2010-01-01T00:47:55Z</time>
      </trkpt>
      <trkpt lat="48.225269420072436" lon="10.713735306635499">
        <ele>595</ele>
        <time>2010-01-01T00:48:15Z</time>
      </trkpt>
      <trkpt lat="48.225458264350891" lon="10.714652203023434">
        <ele>595</ele>
        <time>2010-01-01T00:48:40Z</time>
      </trkpt>
      <trkpt lat="48.226170307025313" lon="10.7177968416363">
        <ele>605</ele>
        <time>2010-01-01T00:50:09Z</time>
      </trkpt>
      <trkpt lat="48.22620433755219" lon="10.717998091131449">
        <ele>603</ele>
        <time>2010-01-01T00:50:14Z</time>
      </trkpt>
      <trkpt lat="48.226242559030652" lon="10.718346023932099">
        <ele>599</ele>
        <time>2010-01-01T00:50:24Z</time>
      </trkpt>
      <trkpt lat="48.226347584277391" lon="10.720043610781431">
        <ele>586</ele>
        <time>2010-01-01T00:51:09Z</time>
      </trkpt>
      <trkpt lat="48.226392511278391" lon="10.722143361344934">
        <ele>579</ele>
        <time>2010-01-01T00:52:05Z</time>
      </trkpt>
      <trkpt lat="48.226372478529811" lon="10.722431279718876">
        <ele>579</ele>
        <time>2010-01-01T00:52:13Z</time>
      </trkpt>
      <trkpt lat="48.22621900588274" lon="10.723324874415994">
        <ele>585</ele>
        <time>2010-01-01T00:52:38Z</time>
      </trkpt>
      <trkpt lat="48.226200230419636" lon="10.723500559106469">
        <ele>587</ele>
        <time>2010-01-01T00:52:42Z</time>
      </trkpt>
      <trkpt lat="48.226241720840335" lon="10.72392082773149">
        <ele>591</ele>
        <time>2010-01-01T00:52:54Z</time>
      </trkpt>
      <trkpt lat="48.226232836022973" lon="10.724518373608589">
        <ele>595</ele>
        <time>2010-01-01T00:53:10Z</time>
      </trkpt>
      <trkpt lat="48.226248091086745" lon="10.724833868443966">
        <ele>597</ele>
        <time>2010-01-01T00:53:18Z</time>
      </trkpt>
      <trkpt lat="48.226381195709109" lon="10.726206488907337">
        <ele>602</ele>
        <time>2010-01-01T00:53:55Z</time>
      </trkpt>
      <trkpt lat="48.226404162123799" lon="10.72628578171134">
        <ele>603</ele>
        <time>2010-01-01T00:53:57Z</time>
      </trkpt>
      <trkpt lat="48.226555623114109" lon="10.726499604061246">
        <ele>605</ele>
        <time>2010-01-01T00:54:06Z</time>
      </trkpt>
      <trkpt lat="48.226781599223614" lon="10.726674702018499">
        <ele>607</ele>
        <time>2010-01-01T00:54:16Z</time>
      </trkpt>
      <trkpt lat="48.227022495120764" lon="10.726816272363067">
        <ele>609</ele>
        <time>2010-01-01T00:54:26Z</time>
      </trkpt>
      <trkpt lat="48.227378558367491" lon="10.727151716127992">
        <ele>609</ele>
        <time>2010-01-01T00:54:43Z</time>
      </trkpt>
      <trkpt lat="48.227655999362469" lon="10.727627808228135">
        <ele>608</ele>
        <time>2010-01-01T00:55:00Z</time>
      </trkpt>
      <trkpt lat="48.227995466440916" lon="10.728388633579016">
        <ele>605</ele>
        <time>2010-01-01T00:55:24Z</time>
      </trkpt>
      <trkpt lat="48.22824097238481" lon="10.728983161970973">
        <ele>599</ele>
        <time>2010-01-01T00:55:43Z</time>
      </trkpt>
      <trkpt lat="48.228240804746747" lon="10.729104867205024">
        <ele>598</ele>
        <time>2010-01-01T00:55:46Z</time>
      </trkpt>
      <trkpt lat="48.228212809190154" lon="10.72919799014926">
        <ele>598</ele>
        <time>2010-01-01T00:55:49Z</time>
      </trkpt>
      <trkpt lat="48.228140892460942" lon="10.729387169703841">
        <ele>598</ele>
        <time>2010-01-01T00:55:55Z</time>
      </trkpt>
      <trkpt lat="48.22793360799551" lon="10.729744071140885">
        <ele>600</ele>
        <time>2010-01-01T00:56:07Z</time>
      </trkpt>
      <trkpt lat="48.22785884141922" lon="10.729908691719174">
        <ele>600</ele>
        <time>2010-01-01T00:56:13Z</time>
      </trkpt>
      <trkpt lat="48.22781927883625" lon="10.730036431923509">
        <ele>601</ele>
        <time>2010-01-01T00:56:17Z</time>
      </trkpt>
      <trkpt lat="48.227800587192178" lon="10.73018747381866">
        <ele>601</ele>
        <time>2010-01-01T00:56:21Z</time>
      </trkpt>
      <trkpt lat="48.227826738730073" lon="10.730342036113143">
        <ele>601</ele>
        <time>2010-01-01T00:56:25Z</time>
      </trkpt>
      <trkpt lat="48.227878203615546" lon="10.730433315038681">
        <ele>601</ele>
        <time>2010-01-01T00:56:28Z</time>
      </trkpt>
      <trkpt lat="48.228178108111024" lon="10.731120882555842">
        <ele>601</ele>
        <time>2010-01-01T00:56:50Z</time>
      </trkpt>
      <trkpt lat="48.228258909657598" lon="10.731253735721111">
        <ele>600</ele>
        <time>2010-01-01T00:56:55Z</time>
      </trkpt>
      <trkpt lat="48.228590581566095" lon="10.731774671003222">
        <ele>599</ele>
        <time>2010-01-01T00:57:14Z</time>
      </trkpt>
      <trkpt lat="48.228819407522678" lon="10.732048004865646">
        <ele>597</ele>
        <time>2010-01-01T00:57:26Z</time>
      </trkpt>
      <trkpt lat="48.228965923190117" lon="10.73221723549068">
        <ele>596</ele>
        <time>2010-01-01T00:57:33Z</time>
      </trkpt>
      <trkpt lat="48.22908871807158" lon="10.73231304064393">
        <ele>595</ele>
        <time>2010-01-01T00:57:39Z</time>
      </trkpt>
      <trkpt lat="48.229145966470242" lon="10.73228957131505">
        <ele>595</ele>
        <time>2010-01-01T00:57:41Z</time>
      </trkpt>
      <trkpt lat="48.229227522388101" lon="10.730655519291759">
        <ele>587</ele>
        <time>2010-01-01T00:58:25Z</time>
      </trkpt>
      <trkpt lat="48.229327267035842" lon="10.729936184361577">
        <ele>585</ele>
        <time>2010-01-01T00:58:44Z</time>
      </trkpt>
      <trkpt lat="48.229455761611462" lon="10.729190111160278">
        <ele>584</ele>
        <time>2010-01-01T00:59:05Z</time>
      </trkpt>
      <trkpt lat="48.229509824886918" lon="10.72871376760304">
        <ele>583</ele>
        <time>2010-01-01T00:59:18Z</time>
      </trkpt>
      <trkpt lat="48.229571180418134" lon="10.728322500362992">
        <ele>582</ele>
        <time>2010-01-01T00:59:28Z</time>
      </trkpt>
      <trkpt lat="48.230214575305581" lon="10.72586216032505">
        <ele>571</ele>
        <time>2010-01-01T01:00:39Z</time>
      </trkpt>
      <trkpt lat="48.230430074036121" lon="10.725429737940431">
        <ele>571</ele>
        <time>2010-01-01T01:00:53Z</time>
      </trkpt>
      <trkpt lat="48.23051699437201" lon="10.725209629163146">
        <ele>572</ele>
        <time>2010-01-01T01:01:00Z</time>
      </trkpt>
      <trkpt lat="48.230552366003394" lon="10.724996896460652">
        <ele>573</ele>
        <time>2010-01-01T01:01:06Z</time>
      </trkpt>
      <trkpt lat="48.230559574440122" lon="10.724634462967515">
        <ele>577</ele>
        <time>2010-01-01T01:01:16Z</time>
      </trkpt>
      <trkpt lat="48.230591928586364" lon="10.724296336993575">
        <ele>581</ele>
        <time>2010-01-01T01:01:25Z</time>
      </trkpt>
      <trkpt lat="48.230653032660484" lon="10.724089220166206">
        <ele>582</ele>
        <time>2010-01-01T01:01:31Z</time>
      </trkpt>
      <trkpt lat="48.23072955943644" lon="10.723948404192924">
        <ele>582</ele>
        <time>2010-01-01T01:01:36Z</time>
      </trkpt>
      <trkpt lat="48.230771217495203" lon="10.723910098895431">
        <ele>582</ele>
        <time>2010-01-01T01:01:38Z</time>
      </trkpt>
      <trkpt lat="48.230816898867488" lon="10.723905572667718">
        <ele>582</ele>
        <time>2010-01-01T01:01:39Z</time>
      </trkpt>
      <trkpt lat="48.230857383459806" lon="10.723919570446014">
        <ele>581</ele>
        <time>2010-01-01T01:01:41Z</time>
      </trkpt>
      <trkpt lat="48.230963665992022" lon="10.724033899605274">
        <ele>580</ele>
        <time>2010-01-01T01:01:46Z</time>
      </trkpt>
      <trkpt lat="48.231009682640433" lon="10.724063739180565">
        <ele>579</ele>
        <time>2010-01-01T01:01:48Z</time>
      </trkpt>
      <trkpt lat="48.231149995699525" lon="10.724095506593585">
        <ele>578</ele>
        <time>2010-01-01T01:01:54Z</time>
      </trkpt>
      <trkpt lat="48.231176314875484" lon="10.724123669788241">
        <ele>577</ele>
        <time>2010-01-01T01:01:55Z</time>
      </trkpt>
      <trkpt lat="48.231507232412696" lon="10.72463471442461">
        <ele>572</ele>
        <time>2010-01-01T01:02:14Z</time>
      </trkpt>
      <trkpt lat="48.232491100206971" lon="10.725789237767458">
        <ele>573</ele>
        <time>2010-01-01T01:03:04Z</time>
      </trkpt>
      <trkpt lat="48.232606183737516" lon="10.72595695964992">
        <ele>573</ele>
        <time>2010-01-01T01:03:11Z</time>
      </trkpt>
      <trkpt lat="48.232647338882089" lon="10.726054608821869">
        <ele>573</ele>
        <time>2010-01-01T01:03:14Z</time>
      </trkpt>
      <trkpt lat="48.232769211754203" lon="10.72650320827961">
        <ele>571</ele>
        <time>2010-01-01T01:03:27Z</time>
      </trkpt>
      <trkpt lat="48.232868537306786" lon="10.726674282923341">
        <ele>571</ele>
        <time>2010-01-01T01:03:33Z</time>
      </trkpt>
      <trkpt lat="48.232976915314794" lon="10.726814931258559">
        <ele>571</ele>
        <time>2010-01-01T01:03:39Z</time>
      </trkpt>
      <trkpt lat="48.233347982168198" lon="10.726996315643191">
        <ele>573</ele>
        <time>2010-01-01T01:03:54Z</time>
      </trkpt>
      <trkpt lat="48.233553003519773" lon="10.727066388353705">
        <ele>574</ele>
        <time>2010-01-01T01:04:03Z</time>
      </trkpt>
      <trkpt lat="48.233815189450979" lon="10.727072590962052">
        <ele>576</ele>
        <time>2010-01-01T01:04:13Z</time>
      </trkpt>
      <trkpt lat="48.23389439843595" lon="10.727089438587427">
        <ele>576</ele>
        <time>2010-01-01T01:04:16Z</time>
      </trkpt>
      <trkpt lat="48.234072681516409" lon="10.72720536030829">
        <ele>576</ele>
        <time>2010-01-01T01:04:24Z</time>
      </trkpt>
      <trkpt lat="48.234641058370471" lon="10.72772478684783">
        <ele>576</ele>
        <time>2010-01-01T01:04:51Z</time>
      </trkpt>
      <trkpt lat="48.23491950519383" lon="10.728127202019095">
        <ele>575</ele>
        <time>2010-01-01T01:05:06Z</time>
      </trkpt>
      <trkpt lat="48.235037187114358" lon="10.728352004662156">
        <ele>574</ele>
        <time>2010-01-01T01:05:14Z</time>
      </trkpt>
      <trkpt lat="48.235616711899638" lon="10.729116769507527">
        <ele>572</ele>
        <time>2010-01-01T01:05:45Z</time>
      </trkpt>
      <trkpt lat="48.235696004703641" lon="10.729247191920877">
        <ele>571</ele>
        <time>2010-01-01T01:05:49Z</time>
      </trkpt>
      <trkpt lat="48.23571209795773" lon="10.729531506076455">
        <ele>570</ele>
        <time>2010-01-01T01:05:57Z</time>
      </trkpt>
      <trkpt lat="48.235660716891289" lon="10.730176493525505">
        <ele>567</ele>
        <time>2010-01-01T01:06:14Z</time>
      </trkpt>
      <trkpt lat="48.235681504011154" lon="10.73089255951345">
        <ele>565</ele>
        <time>2010-01-01T01:06:33Z</time>
      </trkpt>
      <trkpt lat="48.235639678314328" lon="10.731321712955832">
        <ele>563</ele>
        <time>2010-01-01T01:06:45Z</time>
      </trkpt>
      <trkpt lat="48.235600115731359" lon="10.731441490352154">
        <ele>563</ele>
        <time>2010-01-01T01:06:49Z</time>
      </trkpt>
      <trkpt lat="48.235574718564749" lon="10.731685822829604">
        <ele>562</ele>
        <time>2010-01-01T01:06:55Z</time>
      </trkpt>
      <trkpt lat="48.235582010820508" lon="10.732044987380505">
        <ele>561</ele>
        <time>2010-01-01T01:07:05Z</time>
      </trkpt>
      <trkpt lat="48.235623333603144" lon="10.732730962336063">
        <ele>560</ele>
        <time>2010-01-01T01:07:23Z</time>
      </trkpt>
      <trkpt lat="48.235616963356733" lon="10.733033381402493">
        <ele>560</ele>
        <time>2010-01-01T01:07:31Z</time>
      </trkpt>
      <trkpt lat="48.235585279762745" lon="10.733242006972432">
        <ele>561</ele>
        <time>2010-01-01T01:07:37Z</time>
      </trkpt>
      <trkpt lat="48.235512608662248" lon="10.733454572036862">
        <ele>562</ele>
        <time>2010-01-01T01:07:43Z</time>
      </trkpt>
      <trkpt lat="48.23533046990633" lon="10.733698066323996">
        <ele>564</ele>
        <time>2010-01-01T01:07:53Z</time>
      </trkpt>
      <trkpt lat="48.235177332535386" lon="10.733766378834844">
        <ele>565</ele>
        <time>2010-01-01T01:07:59Z</time>
      </trkpt>
      <trkpt lat="48.234970383346081" lon="10.733819101005793">
        <ele>567</ele>
        <time>2010-01-01T01:08:08Z</time>
      </trkpt>
      <trkpt lat="48.234912967309356" lon="10.733844498172402">
        <ele>568</ele>
        <time>2010-01-01T01:08:10Z</time>
      </trkpt>
      <trkpt lat="48.234889917075634" lon="10.733870482072234">
        <ele>568</ele>
        <time>2010-01-01T01:08:11Z</time>
      </trkpt>
      <trkpt lat="48.234706101939082" lon="10.734532233327627">
        <ele>574</ele>
        <time>2010-01-01T01:08:30Z</time>
      </trkpt>
      <trkpt lat="48.234732002019882" lon="10.734725771471858">
        <ele>575</ele>
        <time>2010-01-01T01:08:36Z</time>
      </trkpt>
      <trkpt lat="48.234768966212869" lon="10.734811937436461">
        <ele>575</ele>
        <time>2010-01-01T01:08:38Z</time>
      </trkpt>
      <trkpt lat="48.234817078337073" lon="10.734901037067175">
        <ele>574</ele>
        <time>2010-01-01T01:08:42Z</time>
      </trkpt>
      <trkpt lat="48.235015897080302" lon="10.735150398686528">
        <ele>574</ele>
        <time>2010-01-01T01:08:52Z</time>
      </trkpt>
      <trkpt lat="48.235118072479963" lon="10.735365226864815">
        <ele>574</ele>
        <time>2010-01-01T01:08:59Z</time>
      </trkpt>
      <trkpt lat="48.235147576779127" lon="10.735490284860134">
        <ele>574</ele>
        <time>2010-01-01T01:09:02Z</time>
      </trkpt>
      <trkpt lat="48.235128801316023" lon="10.735586928203702">
        <ele>575</ele>
        <time>2010-01-01T01:09:05Z</time>
      </trkpt>
      <trkpt lat="48.235102817416191" lon="10.735630765557289">
        <ele>575</ele>
        <time>2010-01-01T01:09:07Z</time>
      </trkpt>
      <trkpt lat="48.235027128830552" lon="10.735690360888839">
        <ele>576</ele>
        <time>2010-01-01T01:09:10Z</time>
      </trkpt>
      <trkpt lat="48.234464786946774" lon="10.735936369746923">
        <ele>583</ele>
        <time>2010-01-01T01:09:34Z</time>
      </trkpt>
      <trkpt lat="48.234380800276995" lon="10.735993534326553">
        <ele>584</ele>
        <time>2010-01-01T01:09:37Z</time>
      </trkpt>
      <trkpt lat="48.23434391990304" lon="10.736097637563944">
        <ele>584</ele>
        <time>2010-01-01T01:09:40Z</time>
      </trkpt>
      <trkpt lat="48.234287006780505" lon="10.736625026911497">
        <ele>585</ele>
        <time>2010-01-01T01:09:55Z</time>
      </trkpt>
      <trkpt lat="48.234190614894032" lon="10.737064070999622">
        <ele>586</ele>
        <time>2010-01-01T01:10:07Z</time>
      </trkpt>
      <trkpt lat="48.234135461971164" lon="10.73723740875721">
        <ele>586</ele>
        <time>2010-01-01T01:10:12Z</time>
      </trkpt>
      <trkpt lat="48.234059270471334" lon="10.737402113154531">
        <ele>586</ele>
        <time>2010-01-01T01:10:17Z</time>
      </trkpt>
      <trkpt lat="48.23399749584496" lon="10.737486686557531">
        <ele>587</ele>
        <time>2010-01-01T01:10:21Z</time>
      </trkpt>
      <trkpt lat="48.23393052443862" lon="10.737520717084408">
        <ele>587</ele>
        <time>2010-01-01T01:10:24Z</time>
      </trkpt>
      <trkpt lat="48.233769005164504" lon="10.737501019611955">
        <ele>588</ele>
        <time>2010-01-01T01:10:30Z</time>
      </trkpt>
      <trkpt lat="48.233119994401932" lon="10.737206814810634">
        <ele>589</ele>
        <time>2010-01-01T01:10:57Z</time>
      </trkpt>
      <trkpt lat="48.232968784868717" lon="10.7371567748487">
        <ele>589</ele>
        <time>2010-01-01T01:11:03Z</time>
      </trkpt>
      <trkpt lat="48.232771223410964" lon="10.737051414325833">
        <ele>589</ele>
        <time>2010-01-01T01:11:12Z</time>
      </trkpt>
      <trkpt lat="48.232621774077415" lon="10.736914118751884">
        <ele>588</ele>
        <time>2010-01-01T01:11:19Z</time>
      </trkpt>
      <trkpt lat="48.232521610334516" lon="10.736776823177934">
        <ele>588</ele>
        <time>2010-01-01T01:11:24Z</time>
      </trkpt>
      <trkpt lat="48.23219102807343" lon="10.736229233443737">
        <ele>588</ele>
        <time>2010-01-01T01:11:44Z</time>
      </trkpt>
      <trkpt lat="48.232113579288125" lon="10.736126136034727">
        <ele>588</ele>
        <time>2010-01-01T01:11:48Z</time>
      </trkpt>
      <trkpt lat="48.232025485485792" lon="10.736038964241743">
        <ele>589</ele>
        <time>2010-01-01T01:11:52Z</time>
      </trkpt>
      <trkpt lat="48.231946527957916" lon="10.736003341153264">
        <ele>589</ele>
        <time>2010-01-01T01:11:56Z</time>
      </trkpt>
      <trkpt lat="48.231850303709507" lon="10.73600459843874">
        <ele>589</ele>
        <time>2010-01-01T01:12:00Z</time>
      </trkpt>
      <trkpt lat="48.231811998412013" lon="10.736026307567954">
        <ele>589</ele>
        <time>2010-01-01T01:12:01Z</time>
      </trkpt>
      <trkpt lat="48.231765227392316" lon="10.73613753542304">
        <ele>589</ele>
        <time>2010-01-01T01:12:05Z</time>
      </trkpt>
      <trkpt lat="48.231736896559596" lon="10.736520839855075">
        <ele>590</ele>
        <time>2010-01-01T01:12:15Z</time>
      </trkpt>
      <trkpt lat="48.231682414188981" lon="10.736734494566917">
        <ele>590</ele>
        <time>2010-01-01T01:12:21Z</time>
      </trkpt>
      <trkpt lat="48.231641091406345" lon="10.737015958875418">
        <ele>592</ele>
        <time>2010-01-01T01:12:29Z</time>
      </trkpt>
      <trkpt lat="48.231533216312528" lon="10.738924769684672">
        <ele>587</ele>
        <time>2010-01-01T01:13:20Z</time>
      </trkpt>
      <trkpt lat="48.231523325666785" lon="10.739506222307682">
        <ele>579</ele>
        <time>2010-01-01T01:13:35Z</time>
      </trkpt>
      <trkpt lat="48.231557691469789" lon="10.740228909999132">
        <ele>566</ele>
        <time>2010-01-01T01:13:55Z</time>
      </trkpt>
      <trkpt lat="48.23158266954124" lon="10.740476930513978">
        <ele>561</ele>
        <time>2010-01-01T01:14:01Z</time>
      </trkpt>
      <trkpt lat="48.231645869091153" lon="10.740815978497267">
        <ele>555</ele>
        <time>2010-01-01T01:14:11Z</time>
      </trkpt>
      <trkpt lat="48.232162026688457" lon="10.743081020191312">
        <ele>545</ele>
        <time>2010-01-01T01:15:15Z</time>
      </trkpt>
      <trkpt lat="48.232278283685446" lon="10.743681499734521">
        <ele>541</ele>
        <time>2010-01-01T01:15:31Z</time>
      </trkpt>
      <trkpt lat="48.232633760198951" lon="10.746949687600136">
        <ele>530</ele>
        <time>2010-01-01T01:17:00Z</time>
      </trkpt>
      <trkpt lat="48.232688913121819" lon="10.747075332328677">
        <ele>530</ele>
        <time>2010-01-01T01:17:04Z</time>
      </trkpt>
      <trkpt lat="48.233068780973554" lon="10.746961673721671">
        <ele>531</ele>
        <time>2010-01-01T01:17:20Z</time>
      </trkpt>
      <trkpt lat="48.233254523947835" lon="10.746996458619833">
        <ele>532</ele>
        <time>2010-01-01T01:17:27Z</time>
      </trkpt>
      <trkpt lat="48.233822397887707" lon="10.747160408645868">
        <ele>533</ele>
        <time>2010-01-01T01:17:50Z</time>
      </trkpt>
      <trkpt lat="48.23454818688333" lon="10.747355204075575">
        <ele>533</ele>
        <time>2010-01-01T01:18:20Z</time>
      </trkpt>
      <trkpt lat="48.234773827716708" lon="10.747490068897605">
        <ele>533</ele>
        <time>2010-01-01T01:18:30Z</time>
      </trkpt>
      <trkpt lat="48.235164424404502" lon="10.747796595096588">
        <ele>532</ele>
        <time>2010-01-01T01:18:47Z</time>
      </trkpt>
      <trkpt lat="48.235394675284624" lon="10.748027265071869">
        <ele>530</ele>
        <time>2010-01-01T01:18:58Z</time>
      </trkpt>
      <trkpt lat="48.235818212851882" lon="10.748528838157654">
        <ele>528</ele>
        <time>2010-01-01T01:19:20Z</time>
      </trkpt>
      <trkpt lat="48.236062712967396" lon="10.74888976290822">
        <ele>529</ele>
        <time>2010-01-01T01:19:34Z</time>
      </trkpt>
      <trkpt lat="48.236127337440848" lon="10.749011635780334">
        <ele>529</ele>
        <time>2010-01-01T01:19:38Z</time>
      </trkpt>
      <trkpt lat="48.236276032403111" lon="10.749368537217379">
        <ele>529</ele>
        <time>2010-01-01T01:19:49Z</time>
      </trkpt>
      <trkpt lat="48.236420536413789" lon="10.749629298225045">
        <ele>528</ele>
        <time>2010-01-01T01:19:58Z</time>
      </trkpt>
      <trkpt lat="48.236665371805429" lon="10.749864326789975">
        <ele>528</ele>
        <time>2010-01-01T01:20:10Z</time>
      </trkpt>
      <trkpt lat="48.236965024843812" lon="10.750074712559581">
        <ele>528</ele>
        <time>2010-01-01T01:20:23Z</time>
      </trkpt>
      <trkpt lat="48.237337097525597" lon="10.750219635665417">
        <ele>527</ele>
        <time>2010-01-01T01:20:38Z</time>
      </trkpt>
      <trkpt lat="48.237540274858475" lon="10.750247212126851">
        <ele>527</ele>
        <time>2010-01-01T01:20:47Z</time>
      </trkpt>
      <trkpt lat="48.23770766146481" lon="10.750247463583946">
        <ele>528</ele>
        <time>2010-01-01T01:20:53Z</time>
      </trkpt>
      <trkpt lat="48.237865408882499" lon="10.750219887122512">
        <ele>528</ele>
        <time>2010-01-01T01:21:00Z</time>
      </trkpt>
      <trkpt lat="48.237943192943931" lon="10.750128859654069">
        <ele>528</ele>
        <time>2010-01-01T01:21:04Z</time>
      </trkpt>
      <trkpt lat="48.238172437995672" lon="10.749468365684152">
        <ele>533</ele>
        <time>2010-01-01T01:21:23Z</time>
      </trkpt>
      <trkpt lat="48.238202277570963" lon="10.749428467825055">
        <ele>533</ele>
        <time>2010-01-01T01:21:25Z</time>
      </trkpt>
      <trkpt lat="48.238256005570292" lon="10.749404998496175">
        <ele>534</ele>
        <time>2010-01-01T01:21:27Z</time>
      </trkpt>
      <trkpt lat="48.238310236483812" lon="10.749404830858111">
        <ele>535</ele>
        <time>2010-01-01T01:21:29Z</time>
      </trkpt>
      <trkpt lat="48.239275077357888" lon="10.749788722023368">
        <ele>535</ele>
        <time>2010-01-01T01:22:09Z</time>
      </trkpt>
      <trkpt lat="48.240123325958848" lon="10.750129362568259">
        <ele>534</ele>
        <time>2010-01-01T01:22:45Z</time>
      </trkpt>
      <trkpt lat="48.240240924060345" lon="10.750191975384951">
        <ele>536</ele>
        <time>2010-01-01T01:22:50Z</time>
      </trkpt>
      <trkpt lat="48.24041023850441" lon="10.750321308150887">
        <ele>538</ele>
        <time>2010-01-01T01:22:57Z</time>
      </trkpt>
      <trkpt lat="48.240888006985188" lon="10.750904604792595">
        <ele>538</ele>
        <time>2010-01-01T01:23:22Z</time>
      </trkpt>
      <trkpt lat="48.241124209016562" lon="10.751283718273044">
        <ele>536</ele>
        <time>2010-01-01T01:23:36Z</time>
      </trkpt>
      <trkpt lat="48.241425873711705" lon="10.751676075160503">
        <ele>534</ele>
        <time>2010-01-01T01:23:52Z</time>
      </trkpt>
      <trkpt lat="48.241597032174468" lon="10.751828290522099">
        <ele>533</ele>
        <time>2010-01-01T01:24:00Z</time>
      </trkpt>
      <trkpt lat="48.242426170036197" lon="10.752432709559798">
        <ele>533</ele>
        <time>2010-01-01T01:24:37Z</time>
      </trkpt>
      <trkpt lat="48.242715010419488" lon="10.752719203010201">
        <ele>533</ele>
        <time>2010-01-01T01:24:50Z</time>
      </trkpt>
      <trkpt lat="48.242974597960711" lon="10.753067387267947">
        <ele>533</ele>
        <time>2010-01-01T01:25:04Z</time>
      </trkpt>
      <trkpt lat="48.243351196870208" lon="10.753644816577435">
        <ele>532</ele>
        <time>2010-01-01T01:25:26Z</time>
      </trkpt>
      <trkpt lat="48.243582369759679" lon="10.75388646684587">
        <ele>532</ele>
        <time>2010-01-01T01:25:37Z</time>
      </trkpt>
      <trkpt lat="48.243916220963001" lon="10.754070784896612">
        <ele>532</ele>
        <time>2010-01-01T01:25:51Z</time>
      </trkpt>
      <trkpt lat="48.244588114321232" lon="10.754353506490588">
        <ele>532</ele>
        <time>2010-01-01T01:26:19Z</time>
      </trkpt>
      <trkpt lat="48.244767989963293" lon="10.754449227824807">
        <ele>532</ele>
        <time>2010-01-01T01:26:27Z</time>
      </trkpt>
      <trkpt lat="48.245043084025383" lon="10.754651399329305">
        <ele>532</ele>
        <time>2010-01-01T01:26:39Z</time>
      </trkpt>
      <trkpt lat="48.245111899450421" lon="10.754767823964357">
        <ele>532</ele>
        <time>2010-01-01T01:26:43Z</time>
      </trkpt>
      <trkpt lat="48.245145007967949" lon="10.754872933030128">
        <ele>531</ele>
        <time>2010-01-01T01:26:47Z</time>
      </trkpt>
      <trkpt lat="48.245939612388611" lon="10.756116388365626">
        <ele>530</ele>
        <time>2010-01-01T01:27:33Z</time>
      </trkpt>
      <trkpt lat="48.246183609589934" lon="10.756389303132892">
        <ele>530</ele>
        <time>2010-01-01T01:27:45Z</time>
      </trkpt>
      <trkpt lat="48.246949966996908" lon="10.756854498758912">
        <ele>530</ele>
        <time>2010-01-01T01:28:18Z</time>
      </trkpt>
      <trkpt lat="48.247371576726437" lon="10.757167479023337">
        <ele>529</ele>
        <time>2010-01-01T01:28:37Z</time>
      </trkpt>
      <trkpt lat="48.247803496196866" lon="10.757513400167227">
        <ele>527</ele>
        <time>2010-01-01T01:28:56Z</time>
      </trkpt>
      <trkpt lat="48.248416800051928" lon="10.758040035143495">
        <ele>527</ele>
        <time>2010-01-01T01:29:25Z</time>
      </trkpt>
      <trkpt lat="48.248525680974126" lon="10.758080184459686">
        <ele>528</ele>
        <time>2010-01-01T01:29:29Z</time>
      </trkpt>
      <trkpt lat="48.249739296734333" lon="10.759019963443279">
        <ele>532</ele>
        <time>2010-01-01T01:30:24Z</time>
      </trkpt>
      <trkpt lat="48.249861672520638" lon="10.759081821888685">
        <ele>533</ele>
        <time>2010-01-01T01:30:29Z</time>
      </trkpt>
      <trkpt lat="48.249898888170719" lon="10.75912456959486">
        <ele>533</ele>
        <time>2010-01-01T01:30:31Z</time>
      </trkpt>
      <trkpt lat="48.249918920919299" lon="10.759177375584841">
        <ele>533</ele>
        <time>2010-01-01T01:30:32Z</time>
      </trkpt>
      <trkpt lat="48.249933840706944" lon="10.759374937042594">
        <ele>531</ele>
        <time>2010-01-01T01:30:38Z</time>
      </trkpt>
      <trkpt lat="48.249810794368386" lon="10.760010872036219">
        <ele>525</ele>
        <time>2010-01-01T01:30:56Z</time>
      </trkpt>
      <trkpt lat="48.249582136049867" lon="10.760978311300278">
        <ele>524</ele>
        <time>2010-01-01T01:31:23Z</time>
      </trkpt>
      <trkpt lat="48.248420488089323" lon="10.765311503782868">
        <ele>522</ele>
        <time>2010-01-01T01:33:27Z</time>
      </trkpt>
      <trkpt lat="48.248035591095686" lon="10.766651099547744">
        <ele>522</ele>
        <time>2010-01-01T01:34:06Z</time>
      </trkpt>
      <trkpt lat="48.248015223070979" lon="10.766688399016857">
        <ele>522</ele>
        <time>2010-01-01T01:34:08Z</time>
      </trkpt>
      <trkpt lat="48.24795856140554" lon="10.766704995185137">
        <ele>522</ele>
        <time>2010-01-01T01:34:10Z</time>
      </trkpt>
      <trkpt lat="48.24793366715312" lon="10.766694601625204">
        <ele>522</ele>
        <time>2010-01-01T01:34:11Z</time>
      </trkpt>
      <trkpt lat="48.247893014922738" lon="10.766653614118695">
        <ele>522</ele>
        <time>2010-01-01T01:34:13Z</time>
      </trkpt>
      <trkpt lat="48.247795701026917" lon="10.766470218077302">
        <ele>522</ele>
        <time>2010-01-01T01:34:19Z</time>
      </trkpt>
      <trkpt lat="48.246932029724121" lon="10.764473062008619">
        <ele>522</ele>
        <time>2010-01-01T01:35:23Z</time>
      </trkpt>
      <trkpt lat="48.246893472969532" lon="10.764391589909792">
        <ele>522</ele>
        <time>2010-01-01T01:35:25Z</time>
      </trkpt>
      <trkpt lat="48.246841505169868" lon="10.76433040201664">
        <ele>522</ele>
        <time>2010-01-01T01:35:28Z</time>
      </trkpt>
      <trkpt lat="48.246814431622624" lon="10.764326965436339">
        <ele>522</ele>
        <time>2010-01-01T01:35:29Z</time>
      </trkpt>
      <trkpt lat="48.246787190437317" lon="10.764343980699778">
        <ele>522</ele>
        <time>2010-01-01T01:35:30Z</time>
      </trkpt>
      <trkpt lat="48.246678560972214" lon="10.764612285420299">
        <ele>522</ele>
        <time>2010-01-01T01:35:39Z</time>
      </trkpt>
      <trkpt lat="48.245885968208313" lon="10.767315616831183">
        <ele>521</ele>
        <time>2010-01-01T01:36:57Z</time>
      </trkpt>
      <trkpt lat="48.245431333780289" lon="10.768942208960652">
        <ele>524</ele>
        <time>2010-01-01T01:37:44Z</time>
      </trkpt>
      <trkpt lat="48.245379533618689" lon="10.769077660515904">
        <ele>524</ele>
        <time>2010-01-01T01:37:49Z</time>
      </trkpt>
      <trkpt lat="48.245352460071445" lon="10.769108086824417">
        <ele>524</ele>
        <time>2010-01-01T01:37:50Z</time>
      </trkpt>
      <trkpt lat="48.245305269956589" lon="10.769111271947622">
        <ele>524</ele>
        <time>2010-01-01T01:37:52Z</time>
      </trkpt>
      <trkpt lat="48.245269395411015" lon="10.769087299704552">
        <ele>524</ele>
        <time>2010-01-01T01:37:53Z</time>
      </trkpt>
      <trkpt lat="48.24487091973424" lon="10.768676418811083">
        <ele>525</ele>
        <time>2010-01-01T01:38:13Z</time>
      </trkpt>
      <trkpt lat="48.244629101827741" lon="10.768470894545317">
        <ele>525</ele>
        <time>2010-01-01T01:38:24Z</time>
      </trkpt>
      <trkpt lat="48.244035998359323" lon="10.768070071935654">
        <ele>526</ele>
        <time>2010-01-01T01:38:50Z</time>
      </trkpt>
      <trkpt lat="48.243691083043814" lon="10.767747368663549">
        <ele>527</ele>
        <time>2010-01-01T01:39:06Z</time>
      </trkpt>
      <trkpt lat="48.243341809138656" lon="10.767319472506642">
        <ele>526</ele>
        <time>2010-01-01T01:39:24Z</time>
      </trkpt>
      <trkpt lat="48.243168806657195" lon="10.767170358449221">
        <ele>525</ele>
        <time>2010-01-01T01:39:32Z</time>
      </trkpt>
      <trkpt lat="48.24267016723752" lon="10.766820665448904">
        <ele>524</ele>
        <time>2010-01-01T01:39:54Z</time>
      </trkpt>
      <trkpt lat="48.242292394861579" lon="10.766583122313023">
        <ele>524</ele>
        <time>2010-01-01T01:40:11Z</time>
      </trkpt>
      <trkpt lat="48.240960091352463" lon="10.765626328065991">
        <ele>524</ele>
        <time>2010-01-01T01:41:10Z</time>
      </trkpt>
      <trkpt lat="48.239248339086771" lon="10.764483790844679">
        <ele>524</ele>
        <time>2010-01-01T01:42:25Z</time>
      </trkpt>
      <trkpt lat="48.23914960026741" lon="10.764446659013629">
        <ele>524</ele>
        <time>2010-01-01T01:42:29Z</time>
      </trkpt>
      <trkpt lat="48.23912269435823" lon="10.764456801116467">
        <ele>524</ele>
        <time>2010-01-01T01:42:30Z</time>
      </trkpt>
      <trkpt lat="48.239102493971586" lon="10.764490496367216">
        <ele>524</ele>
        <time>2010-01-01T01:42:31Z</time>
      </trkpt>
      <trkpt lat="48.239005682989955" lon="10.764701385051012">
        <ele>524</ele>
        <time>2010-01-01T01:42:38Z</time>
      </trkpt>
      <trkpt lat="48.2384870108217" lon="10.765970572829247">
        <ele>525</ele>
        <time>2010-01-01T01:43:18Z</time>
      </trkpt>
      <trkpt lat="48.238187776878476" lon="10.766661241650581">
        <ele>526</ele>
        <time>2010-01-01T01:43:40Z</time>
      </trkpt>
      <trkpt lat="48.237994238734245" lon="10.767057538032532">
        <ele>526</ele>
        <time>2010-01-01T01:43:53Z</time>
      </trkpt>
      <trkpt lat="48.237835234031081" lon="10.767316119745374">
        <ele>526</ele>
        <time>2010-01-01T01:44:02Z</time>
      </trkpt>
      <trkpt lat="48.237372133880854" lon="10.767890112474561">
        <ele>527</ele>
        <time>2010-01-01T01:44:26Z</time>
      </trkpt>
      <trkpt lat="48.234316930174828" lon="10.771385701373219">
        <ele>524</ele>
        <time>2010-01-01T01:47:00Z</time>
      </trkpt>
      <trkpt lat="48.234001183882356" lon="10.771853914484382">
        <ele>524</ele>
        <time>2010-01-01T01:47:18Z</time>
      </trkpt>
      <trkpt lat="48.233814686536789" lon="10.772104281932116">
        <ele>524</ele>
        <time>2010-01-01T01:47:28Z</time>
      </trkpt>
      <trkpt lat="48.233785517513752" lon="10.772118028253317">
        <ele>524</ele>
        <time>2010-01-01T01:47:29Z</time>
      </trkpt>
      <trkpt lat="48.233756180852652" lon="10.772111490368843">
        <ele>524</ele>
        <time>2010-01-01T01:47:30Z</time>
      </trkpt>
      <trkpt lat="48.233713433146477" lon="10.772061198949814">
        <ele>524</ele>
        <time>2010-01-01T01:47:32Z</time>
      </trkpt>
      <trkpt lat="48.233650317415595" lon="10.772068491205573">
        <ele>524</ele>
        <time>2010-01-01T01:47:35Z</time>
      </trkpt>
      <trkpt lat="48.233474800363183" lon="10.772204529494047">
        <ele>524</ele>
        <time>2010-01-01T01:47:43Z</time>
      </trkpt>
      <trkpt lat="48.233411768451333" lon="10.772214671596885">
        <ele>524</ele>
        <time>2010-01-01T01:47:45Z</time>
      </trkpt>
      <trkpt lat="48.23335837572813" lon="10.772190531715751">
        <ele>523</ele>
        <time>2010-01-01T01:47:48Z</time>
      </trkpt>
      <trkpt lat="48.233261313289404" lon="10.772054996341467">
        <ele>523</ele>
        <time>2010-01-01T01:47:53Z</time>
      </trkpt>
      <trkpt lat="48.232670808210969" lon="10.770599562674761">
        <ele>526</ele>
        <time>2010-01-01T01:48:38Z</time>
      </trkpt>
      <trkpt lat="48.232484813779593" lon="10.770267890766263">
        <ele>526</ele>
        <time>2010-01-01T01:48:50Z</time>
      </trkpt>
      <trkpt lat="48.232435695827007" lon="10.770131014287472">
        <ele>527</ele>
        <time>2010-01-01T01:48:54Z</time>
      </trkpt>
      <trkpt lat="48.232366628944874" lon="10.76984066516161">
        <ele>527</ele>
        <time>2010-01-01T01:49:02Z</time>
      </trkpt>
      <trkpt lat="48.232240313664079" lon="10.769215459004045">
        <ele>528</ele>
        <time>2010-01-01T01:49:20Z</time>
      </trkpt>
      <trkpt lat="48.231985922902822" lon="10.768454717472196">
        <ele>529</ele>
        <time>2010-01-01T01:49:42Z</time>
      </trkpt>
      <trkpt lat="48.231961531564593" lon="10.768421441316605">
        <ele>529</ele>
        <time>2010-01-01T01:49:44Z</time>
      </trkpt>
      <trkpt lat="48.231844017282128" lon="10.768391015008092">
        <ele>528</ele>
        <time>2010-01-01T01:49:48Z</time>
      </trkpt>
      <trkpt lat="48.231817362830043" lon="10.768337789922953">
        <ele>528</ele>
        <time>2010-01-01T01:49:50Z</time>
      </trkpt>
      <trkpt lat="48.230976741760969" lon="10.766072496771812">
        <ele>528</ele>
        <time>2010-01-01T01:50:59Z</time>
      </trkpt>
      <trkpt lat="48.230664934962988" lon="10.765287866815925">
        <ele>530</ele>
        <time>2010-01-01T01:51:24Z</time>
      </trkpt>
      <trkpt lat="48.230423787608743" lon="10.764748239889741">
        <ele>530</ele>
        <time>2010-01-01T01:51:41Z</time>
      </trkpt>
      <trkpt lat="48.230021204799414" lon="10.763904768973589">
        <ele>530</ele>
        <time>2010-01-01T01:52:09Z</time>
      </trkpt>
      <trkpt lat="48.22943807579577" lon="10.762758292257786">
        <ele>529</ele>
        <time>2010-01-01T01:52:47Z</time>
      </trkpt>
      <trkpt lat="48.229165161028504" lon="10.762308770790696">
        <ele>529</ele>
        <time>2010-01-01T01:53:03Z</time>
      </trkpt>
      <trkpt lat="48.229027697816491" lon="10.76198497787118">
        <ele>528</ele>
        <time>2010-01-01T01:53:14Z</time>
      </trkpt>
      <trkpt lat="48.229012191295624" lon="10.76163268648088">
        <ele>528</ele>
        <time>2010-01-01T01:53:23Z</time>
      </trkpt>
      <trkpt lat="48.228987716138363" lon="10.761532271280885">
        <ele>528</ele>
        <time>2010-01-01T01:53:26Z</time>
      </trkpt>
      <trkpt lat="48.228663001209497" lon="10.760860126465559">
        <ele>528</ele>
        <time>2010-01-01T01:53:48Z</time>
      </trkpt>
      <trkpt lat="48.228632658720016" lon="10.760830538347363">
        <ele>528</ele>
        <time>2010-01-01T01:53:50Z</time>
      </trkpt>
      <trkpt lat="48.228570884093642" lon="10.760829281061888">
        <ele>528</ele>
        <time>2010-01-01T01:53:52Z</time>
      </trkpt>
      <trkpt lat="48.228066209703684" lon="10.761568564921618">
        <ele>530</ele>
        <time>2010-01-01T01:54:20Z</time>
      </trkpt>
      <trkpt lat="48.228013068437576" lon="10.761688761413097">
        <ele>530</ele>
        <time>2010-01-01T01:54:24Z</time>
      </trkpt>
      <trkpt lat="48.227964788675308" lon="10.761861177161336">
        <ele>530</ele>
        <time>2010-01-01T01:54:29Z</time>
      </trkpt>
      <trkpt lat="48.227572683244944" lon="10.762431984767318">
        <ele>530</ele>
        <time>2010-01-01T01:54:51Z</time>
      </trkpt>
      <trkpt lat="48.22743128053844" lon="10.762665001675487">
        <ele>530</ele>
        <time>2010-01-01T01:54:59Z</time>
      </trkpt>
      <trkpt lat="48.227340336889029" lon="10.762859797105193">
        <ele>529</ele>
        <time>2010-01-01T01:55:06Z</time>
      </trkpt>
      <trkpt lat="48.22726858779788" lon="10.763064566999674">
        <ele>529</ele>
        <time>2010-01-01T01:55:12Z</time>
      </trkpt>
      <trkpt lat="48.227219805121422" lon="10.763484835624695">
        <ele>528</ele>
        <time>2010-01-01T01:55:23Z</time>
      </trkpt>
      <trkpt lat="48.22720848955214" lon="10.763716762885451">
        <ele>528</ele>
        <time>2010-01-01T01:55:29Z</time>
      </trkpt>
      <trkpt lat="48.227196922525764" lon="10.767434220761061">
        <ele>527</ele>
        <time>2010-01-01T01:57:09Z</time>
      </trkpt>
      <trkpt lat="48.22710782289505" lon="10.767653826624155">
        <ele>527</ele>
        <time>2010-01-01T01:57:15Z</time>
      </trkpt>
      <trkpt lat="48.227084605023265" lon="10.767744770273566">
        <ele>527</ele>
        <time>2010-01-01T01:57:18Z</time>
      </trkpt>
      <trkpt lat="48.227066835388541" lon="10.768156992271543">
        <ele>527</ele>
        <time>2010-01-01T01:57:29Z</time>
      </trkpt>
      <trkpt lat="48.22710832580924" lon="10.769613599404693">
        <ele>530</ele>
        <time>2010-01-01T01:58:08Z</time>
      </trkpt>
      <trkpt lat="48.227094663307071" lon="10.77131537720561">
        <ele>530</ele>
        <time>2010-01-01T01:58:53Z</time>
      </trkpt>
      <trkpt lat="48.227091729640961" lon="10.776047464460135">
        <ele>530</ele>
        <time>2010-01-01T02:01:00Z</time>
      </trkpt>
      <trkpt lat="48.227106900885701" lon="10.776651380583644">
        <ele>529</ele>
        <time>2010-01-01T02:01:16Z</time>
      </trkpt>
      <trkpt lat="48.227162975817919" lon="10.777283962816">
        <ele>529</ele>
        <time>2010-01-01T02:01:33Z</time>
      </trkpt>
      <trkpt lat="48.227240005508065" lon="10.777836833149195">
        <ele>529</ele>
        <time>2010-01-01T02:01:48Z</time>
      </trkpt>
      <trkpt lat="48.227258780971169" lon="10.778367994353175">
        <ele>531</ele>
        <time>2010-01-01T02:02:02Z</time>
      </trkpt>
      <trkpt lat="48.227214775979519" lon="10.778597239404917">
        <ele>531</ele>
        <time>2010-01-01T02:02:08Z</time>
      </trkpt>
      <trkpt lat="48.227164819836617" lon="10.778695391491055">
        <ele>531</ele>
        <time>2010-01-01T02:02:12Z</time>
      </trkpt>
      <trkpt lat="48.227046635001898" lon="10.778852300718427">
        <ele>531</ele>
        <time>2010-01-01T02:02:18Z</time>
      </trkpt>
      <trkpt lat="48.226948818191886" lon="10.779080539941788">
        <ele>531</ele>
        <time>2010-01-01T02:02:25Z</time>
      </trkpt>
      <trkpt lat="48.226893162354827" lon="10.77917349524796">
        <ele>531</ele>
        <time>2010-01-01T02:02:28Z</time>
      </trkpt>
      <trkpt lat="48.226753687486053" lon="10.77930836006999">
        <ele>532</ele>
        <time>2010-01-01T02:02:35Z</time>
      </trkpt>
      <trkpt lat="48.226643800735474" lon="10.779346665367484">
        <ele>532</ele>
        <time>2010-01-01T02:02:40Z</time>
      </trkpt>
      <trkpt lat="48.226592587307096" lon="10.779390586540103">
        <ele>532</ele>
        <time>2010-01-01T02:02:42Z</time>
      </trkpt>
      <trkpt lat="48.226559730246663" lon="10.77945931814611">
        <ele>532</ele>
        <time>2010-01-01T02:02:44Z</time>
      </trkpt>
      <trkpt lat="48.226505080237985" lon="10.779730724170804">
        <ele>533</ele>
        <time>2010-01-01T02:02:52Z</time>
      </trkpt>
      <trkpt lat="48.226443976163864" lon="10.780209917575121">
        <ele>534</ele>
        <time>2010-01-01T02:03:05Z</time>
      </trkpt>
      <trkpt lat="48.226464092731476" lon="10.780283510684967">
        <ele>534</ele>
        <time>2010-01-01T02:03:07Z</time>
      </trkpt>
      <trkpt lat="48.22651413269341" lon="10.780317792668939">
        <ele>534</ele>
        <time>2010-01-01T02:03:09Z</time>
      </trkpt>
      <trkpt lat="48.226726613938808" lon="10.780354421585798">
        <ele>533</ele>
        <time>2010-01-01T02:03:18Z</time>
      </trkpt>
      <trkpt lat="48.226715633645654" lon="10.780451567843556">
        <ele>534</ele>
        <time>2010-01-01T02:03:20Z</time>
      </trkpt>
      <trkpt lat="48.226974634453654" lon="10.780519964173436">
        <ele>534</ele>
        <time>2010-01-01T02:03:31Z</time>
      </trkpt>
      <trkpt lat="48.227378390729427" lon="10.780664719641209">
        <ele>534</ele>
        <time>2010-01-01T02:03:47Z</time>
      </trkpt>
      <trkpt lat="48.227385766804218" lon="10.780694475397468">
        <ele>535</ele>
        <time>2010-01-01T02:03:48Z</time>
      </trkpt>
      <trkpt lat="48.227375792339444" lon="10.780705623328686">
        <ele>535</ele>
        <time>2010-01-01T02:03:49Z</time>
      </trkpt>
    </trkseg>
  </trk>

</gpx>
