<?xml version='1.0' encoding='UTF-8'?>
<gpx version="1.1" creator="https://www.komoot.de" xmlns="http://www.topografix.com/GPX/1/1" xmlns:xsi="http://www.w3.org/2001/XMLSchema-instance" xsi:schemaLocation="http://www.topografix.com/GPX/1/1 http://www.topografix.com/GPX/1/1/gpx.xsd">
  <metadata>
    <name>PW Datteln Grüne Acht 6 km</name>
    <author>
      <link href="https://www.komoot.de">
        <text>komoot</text>
        <type>text/html</type>
      </link>
    </author>
  </metadata>
  <trk>
    <name>PW Datteln Grüne Acht 6 km</name>
    <trkseg>
      <trkpt lat="51.686319" lon="7.269044">
        <ele>79.272376</ele>
        <time>2022-12-07T09:05:00.891Z</time>
      </trkpt>
      <trkpt lat="51.686363" lon="7.269149">
        <ele>79.272376</ele>
        <time>2022-12-07T09:05:09.857Z</time>
      </trkpt>
      <trkpt lat="51.686222" lon="7.269305">
        <ele>79.272376</ele>
        <time>2022-12-07T09:05:27.624Z</time>
      </trkpt>
      <trkpt lat="51.686160" lon="7.269373">
        <ele>79.272376</ele>
        <time>2022-12-07T09:05:35.560Z</time>
      </trkpt>
      <trkpt lat="51.685876" lon="7.268733">
        <ele>79.272376</ele>
        <time>2022-12-07T09:06:28.938Z</time>
      </trkpt>
      <trkpt lat="51.685819" lon="7.268681">
        <ele>79.272376</ele>
        <time>2022-12-07T09:06:35.966Z</time>
      </trkpt>
      <trkpt lat="51.685610" lon="7.268611">
        <ele>79.941418</ele>
        <time>2022-12-07T09:06:59.004Z</time>
      </trkpt>
      <trkpt lat="51.685582" lon="7.268513">
        <ele>80.174417</ele>
        <time>2022-12-07T09:07:06.979Z</time>
      </trkpt>
      <trkpt lat="51.685457" lon="7.267812">
        <ele>81.749438</ele>
        <time>2022-12-07T09:07:57.166Z</time>
      </trkpt>
      <trkpt lat="51.685288" lon="7.266858">
        <ele>83.891841</ele>
        <time>2022-12-07T09:09:07.301Z</time>
      </trkpt>
      <trkpt lat="51.684831" lon="7.263508">
        <ele>91.532208</ele>
        <time>2022-12-07T09:13:07.942Z</time>
      </trkpt>
      <trkpt lat="51.684803" lon="7.263558">
        <ele>91.683595</ele>
        <time>2022-12-07T09:13:12.564Z</time>
      </trkpt>
      <trkpt lat="51.684669" lon="7.263795">
        <ele>92.251395</ele>
        <time>2022-12-07T09:13:34.636Z</time>
      </trkpt>
      <trkpt lat="51.684551" lon="7.263061">
        <ele>93.208962</ele>
        <time>2022-12-07T09:14:26.916Z</time>
      </trkpt>
      <trkpt lat="51.684385" lon="7.262057">
        <ele>94.521151</ele>
        <time>2022-12-07T09:15:36.245Z</time>
      </trkpt>
      <trkpt lat="51.684186" lon="7.260820">
        <ele>95.525225</ele>
        <time>2022-12-07T09:16:58.608Z</time>
      </trkpt>
      <trkpt lat="51.684155" lon="7.260855">
        <ele>95.489392</ele>
        <time>2022-12-07T09:17:02.803Z</time>
      </trkpt>
      <trkpt lat="51.684186" lon="7.260820">
        <ele>95.453559</ele>
        <time>2022-12-07T09:17:06.816Z</time>
      </trkpt>
      <trkpt lat="51.684730" lon="7.260081">
        <ele>94.780047</ele>
        <time>2022-12-07T09:18:19.046Z</time>
      </trkpt>
      <trkpt lat="51.685273" lon="7.259015">
        <ele>93.903002</ele>
        <time>2022-12-07T09:19:48.133Z</time>
      </trkpt>
      <trkpt lat="51.685962" lon="7.257466">
        <ele>91.132604</ele>
        <time>2022-12-07T09:21:52.207Z</time>
      </trkpt>
      <trkpt lat="51.686422" lon="7.257273">
        <ele>90.018510</ele>
        <time>2022-12-07T09:22:42.416Z</time>
      </trkpt>
      <trkpt lat="51.687757" lon="7.256544">
        <ele>87.549500</ele>
        <time>2022-12-07T09:25:09.662Z</time>
      </trkpt>
      <trkpt lat="51.687802" lon="7.256520">
        <ele>87.468464</ele>
        <time>2022-12-07T09:25:15.021Z</time>
      </trkpt>
      <trkpt lat="51.687489" lon="7.254901">
        <ele>87.414848</ele>
        <time>2022-12-07T09:27:00.571Z</time>
      </trkpt>
      <trkpt lat="51.686538" lon="7.255373">
        <ele>88.529921</ele>
        <time>2022-12-07T09:28:45.889Z</time>
      </trkpt>
      <trkpt lat="51.685645" lon="7.255816">
        <ele>90.848451</ele>
        <time>2022-12-07T09:30:28.138Z</time>
      </trkpt>
      <trkpt lat="51.684819" lon="7.256242">
        <ele>93.296817</ele>
        <time>2022-12-07T09:32:04.449Z</time>
      </trkpt>
      <trkpt lat="51.684311" lon="7.256449">
        <ele>95.097305</ele>
        <time>2022-12-07T09:33:02.261Z</time>
      </trkpt>
      <trkpt lat="51.684161" lon="7.256423">
        <ele>95.666048</ele>
        <time>2022-12-07T09:33:19.089Z</time>
      </trkpt>
      <trkpt lat="51.683433" lon="7.256294">
        <ele>98.427058</ele>
        <time>2022-12-07T09:34:42.096Z</time>
      </trkpt>
      <trkpt lat="51.682763" lon="7.256449">
        <ele>100.885649</ele>
        <time>2022-12-07T09:36:00.683Z</time>
      </trkpt>
      <trkpt lat="51.682433" lon="7.256436">
        <ele>101.825081</ele>
        <time>2022-12-07T09:36:38.392Z</time>
      </trkpt>
      <trkpt lat="51.681704" lon="7.256408">
        <ele>103.900341</ele>
        <time>2022-12-07T09:37:59.540Z</time>
      </trkpt>
      <trkpt lat="51.681663" lon="7.256406">
        <ele>104.017076</ele>
        <time>2022-12-07T09:38:03.983Z</time>
      </trkpt>
      <trkpt lat="51.681447" lon="7.256398">
        <ele>104.631956</ele>
        <time>2022-12-07T09:38:27.617Z</time>
      </trkpt>
      <trkpt lat="51.681170" lon="7.256438">
        <ele>105.423428</ele>
        <time>2022-12-07T09:38:57.452Z</time>
      </trkpt>
      <trkpt lat="51.680028" lon="7.256604">
        <ele>105.188131</ele>
        <time>2022-12-07T09:40:53.207Z</time>
      </trkpt>
      <trkpt lat="51.678918" lon="7.257301">
        <ele>104.305331</ele>
        <time>2022-12-07T09:42:57.347Z</time>
      </trkpt>
      <trkpt lat="51.678120" lon="7.257916">
        <ele>103.291824</ele>
        <time>2022-12-07T09:44:28.459Z</time>
      </trkpt>
      <trkpt lat="51.677742" lon="7.258254">
        <ele>102.796532</ele>
        <time>2022-12-07T09:45:12.106Z</time>
      </trkpt>
      <trkpt lat="51.677683" lon="7.258307">
        <ele>102.782938</ele>
        <time>2022-12-07T09:45:18.992Z</time>
      </trkpt>
      <trkpt lat="51.676988" lon="7.258726">
        <ele>104.154498</ele>
        <time>2022-12-07T09:46:35.009Z</time>
      </trkpt>
      <trkpt lat="51.675303" lon="7.259916">
        <ele>108.407566</ele>
        <time>2022-12-07T09:49:58.857Z</time>
      </trkpt>
      <trkpt lat="51.675240" lon="7.259961">
        <ele>108.608001</ele>
        <time>2022-12-07T09:50:07.904Z</time>
      </trkpt>
      <trkpt lat="51.674753" lon="7.260336">
        <ele>110.177869</ele>
        <time>2022-12-07T09:51:06.490Z</time>
      </trkpt>
      <trkpt lat="51.674240" lon="7.260732">
        <ele>111.333010</ele>
        <time>2022-12-07T09:52:09.712Z</time>
      </trkpt>
      <trkpt lat="51.672667" lon="7.261926">
        <ele>111.243523</ele>
        <time>2022-12-07T09:55:04.114Z</time>
      </trkpt>
      <trkpt lat="51.672615" lon="7.261961">
        <ele>111.070551</ele>
        <time>2022-12-07T09:55:10.347Z</time>
      </trkpt>
      <trkpt lat="51.672667" lon="7.261926">
        <ele>110.897580</ele>
        <time>2022-12-07T09:55:16.264Z</time>
      </trkpt>
      <trkpt lat="51.672852" lon="7.262588">
        <ele>109.515306</ele>
        <time>2022-12-07T09:56:03.957Z</time>
      </trkpt>
      <trkpt lat="51.673131" lon="7.263444">
        <ele>107.674415</ele>
        <time>2022-12-07T09:57:08.803Z</time>
      </trkpt>
      <trkpt lat="51.673767" lon="7.265400">
        <ele>103.527289</ele>
        <time>2022-12-07T09:59:37.311Z</time>
      </trkpt>
      <trkpt lat="51.674278" lon="7.267165">
        <ele>100.312745</ele>
        <time>2022-12-07T10:01:43.488Z</time>
      </trkpt>
      <trkpt lat="51.674659" lon="7.268442">
        <ele>99.039123</ele>
        <time>2022-12-07T10:03:13.352Z</time>
      </trkpt>
      <trkpt lat="51.675221" lon="7.270391">
        <ele>96.181968</ele>
        <time>2022-12-07T10:05:30.860Z</time>
      </trkpt>
      <trkpt lat="51.675388" lon="7.271905">
        <ele>93.499808</ele>
        <time>2022-12-07T10:07:12.083Z</time>
      </trkpt>
      <trkpt lat="51.675305" lon="7.271953">
        <ele>93.251797</ele>
        <time>2022-12-07T10:07:21.476Z</time>
      </trkpt>
      <trkpt lat="51.675388" lon="7.271905">
        <ele>92.974916</ele>
        <time>2022-12-07T10:07:30.769Z</time>
      </trkpt>
      <trkpt lat="51.676809" lon="7.271068">
        <ele>84.376953</ele>
        <time>2022-12-07T10:10:21.367Z</time>
      </trkpt>
      <trkpt lat="51.676939" lon="7.270992">
        <ele>83.591061</ele>
        <time>2022-12-07T10:10:37.580Z</time>
      </trkpt>
      <trkpt lat="51.677158" lon="7.271849">
        <ele>81.306432</ele>
        <time>2022-12-07T10:11:40.221Z</time>
      </trkpt>
      <trkpt lat="51.677170" lon="7.271994">
        <ele>80.994602</ele>
        <time>2022-12-07T10:11:50.521Z</time>
      </trkpt>
      <trkpt lat="51.677158" lon="7.271849">
        <ele>80.682773</ele>
        <time>2022-12-07T10:12:00.659Z</time>
      </trkpt>
      <trkpt lat="51.677311" lon="7.271732">
        <ele>80.100679</ele>
        <time>2022-12-07T10:12:18.463Z</time>
      </trkpt>
      <trkpt lat="51.677777" lon="7.271342">
        <ele>78.295874</ele>
        <time>2022-12-07T10:13:15.926Z</time>
      </trkpt>
      <trkpt lat="51.678512" lon="7.270789">
        <ele>77.088325</ele>
        <time>2022-12-07T10:14:38.070Z</time>
      </trkpt>
      <trkpt lat="51.679012" lon="7.270440">
        <ele>77.861234</ele>
        <time>2022-12-07T10:15:35.000Z</time>
      </trkpt>
      <trkpt lat="51.679591" lon="7.269964">
        <ele>78.783194</ele>
        <time>2022-12-07T10:16:44.995Z</time>
      </trkpt>
      <trkpt lat="51.679664" lon="7.269947">
        <ele>78.887829</ele>
        <time>2022-12-07T10:16:53.219Z</time>
      </trkpt>
      <trkpt lat="51.680132" lon="7.269563">
        <ele>80.108803</ele>
        <time>2022-12-07T10:17:51.389Z</time>
      </trkpt>
      <trkpt lat="51.680958" lon="7.268904">
        <ele>82.785500</ele>
        <time>2022-12-07T10:19:35.188Z</time>
      </trkpt>
      <trkpt lat="51.681649" lon="7.268351">
        <ele>84.447839</ele>
        <time>2022-12-07T10:20:59.344Z</time>
      </trkpt>
      <trkpt lat="51.682467" lon="7.267778">
        <ele>84.635959</ele>
        <time>2022-12-07T10:22:29.431Z</time>
      </trkpt>
      <trkpt lat="51.682666" lon="7.267681">
        <ele>84.679811</ele>
        <time>2022-12-07T10:22:50.507Z</time>
      </trkpt>
      <trkpt lat="51.682699" lon="7.267912">
        <ele>84.710815</ele>
        <time>2022-12-07T10:23:05.579Z</time>
      </trkpt>
      <trkpt lat="51.683608" lon="7.267457">
        <ele>84.087012</ele>
        <time>2022-12-07T10:24:43.221Z</time>
      </trkpt>
      <trkpt lat="51.684319" lon="7.267219">
        <ele>83.265767</ele>
        <time>2022-12-07T10:25:57.292Z</time>
      </trkpt>
      <trkpt lat="51.684422" lon="7.267185">
        <ele>83.146864</ele>
        <time>2022-12-07T10:26:08.038Z</time>
      </trkpt>
      <trkpt lat="51.684916" lon="7.266998">
        <ele>82.455590</ele>
        <time>2022-12-07T10:26:59.970Z</time>
      </trkpt>
      <trkpt lat="51.685288" lon="7.266858">
        <ele>81.733391</ele>
        <time>2022-12-07T10:27:39.607Z</time>
      </trkpt>
      <trkpt lat="51.685457" lon="7.267812">
        <ele>80.570415</ele>
        <time>2022-12-07T10:28:44.134Z</time>
      </trkpt>
      <trkpt lat="51.685582" lon="7.268513">
        <ele>79.715435</ele>
        <time>2022-12-07T10:29:31.081Z</time>
      </trkpt>
      <trkpt lat="51.685610" lon="7.268611">
        <ele>79.588954</ele>
        <time>2022-12-07T10:29:38.365Z</time>
      </trkpt>
      <trkpt lat="51.685819" lon="7.268681">
        <ele>79.347233</ele>
        <time>2022-12-07T10:30:00.400Z</time>
      </trkpt>
      <trkpt lat="51.685876" lon="7.268733">
        <ele>79.347233</ele>
        <time>2022-12-07T10:30:07.179Z</time>
      </trkpt>
      <trkpt lat="51.686160" lon="7.269373">
        <ele>79.347233</ele>
        <time>2022-12-07T10:30:58.331Z</time>
      </trkpt>
      <trkpt lat="51.686222" lon="7.269305">
        <ele>79.347233</ele>
        <time>2022-12-07T10:31:06.065Z</time>
      </trkpt>
      <trkpt lat="51.686363" lon="7.269149">
        <ele>79.347233</ele>
        <time>2022-12-07T10:31:23.563Z</time>
      </trkpt>
      <trkpt lat="51.686464" lon="7.269032">
        <ele>79.347233</ele>
        <time>2022-12-07T10:31:36.570Z</time>
      </trkpt>
    </trkseg>
  </trk>
</gpx>