<?xml version="1.0" encoding="UTF-8"?>
<gpx xmlns="http://www.topografix.com/GPX/1/1" xmlns:gpsies="https://www.gpsies.com/GPX/1/0" creator="AllTrails https://www.alltrails.com/ - Gpsies_ivvpw" version="1.1" xmlns:xsi="http://www.w3.org/2001/XMLSchema-instance" xsi:schemaLocation="http://www.topografix.com/GPX/1/1 http://www.topografix.com/GPX/1/1/gpx.xsd https://www.gpsies.com/GPX/1/0 https://www.gpsies.com/gpsies.xsd">
  <metadata>
    <name>Gpsies_ivvpw</name>
    <link href="https://www.gpsies.com/">
      <text>Gpsies_ivvpw on AllTrails</text>
    </link>
    <time>2019-12-29T11:54:24Z</time>
  </metadata>
  <trk>
    <name>DVV Hürth-Rund um den Otto-Maigler-See</name>
    <link href="https://www.gpsies.com/map.do?fileId=cxpnhdrdlwqzvypa">
      <type>trackOnWeb</type>
    </link>
    <link href="https://www.gpsies.com/charts/cx/map/cxpnhdrdlwqzvypa_map.png">
      <type>elevationChartUrlMap</type>
    </link>
    <link href="https://www.gpsies.com/charts/cx/mapThumb/cxpnhdrdlwqzvypa_mapThumb.png">
      <type>elevationChartUrlMapThumb</type>
    </link>
    <link href="https://www.gpsies.com/charts/cx/tab/cxpnhdrdlwqzvypa_tab.png">
      <type>elevationChartUrlTab</type>
    </link>
    <trkseg>
      <trkpt lat="50.87112240" lon="6.869555000">
        <ele>88.000000</ele>
        <time>2009-06-18T12:54:04Z</time>
      </trkpt>
      <trkpt lat="50.87053800" lon="6.868461370">
        <ele>89.000000</ele>
        <time>2009-06-18T12:54:40Z</time>
      </trkpt>
      <trkpt lat="50.87091380" lon="6.868032210">
        <ele>89.000000</ele>
        <time>2009-06-18T12:54:59Z</time>
      </trkpt>
      <trkpt lat="50.87110330" lon="6.867860550">
        <ele>91.000000</ele>
        <time>2009-06-18T12:55:08Z</time>
      </trkpt>
      <trkpt lat="50.87126250" lon="6.867823000">
        <ele>92.000000</ele>
        <time>2009-06-18T12:55:14Z</time>
      </trkpt>
      <trkpt lat="50.87151640" lon="6.867774720">
        <ele>92.000000</ele>
        <time>2009-06-18T12:55:24Z</time>
      </trkpt>
      <trkpt lat="50.87189550" lon="6.867780080">
        <ele>92.000000</ele>
        <time>2009-06-18T12:55:40Z</time>
      </trkpt>
      <trkpt lat="50.87215620" lon="6.867731800">
        <ele>93.000000</ele>
        <time>2009-06-18T12:55:50Z</time>
      </trkpt>
      <trkpt lat="50.87242020" lon="6.867581600">
        <ele>93.000000</ele>
        <time>2009-06-18T12:56:01Z</time>
      </trkpt>
      <trkpt lat="50.87266060" lon="6.867388480">
        <ele>93.000000</ele>
        <time>2009-06-18T12:56:12Z</time>
      </trkpt>
      <trkpt lat="50.87284670" lon="6.867243640">
        <ele>93.000000</ele>
        <time>2009-06-18T12:56:20Z</time>
      </trkpt>
      <trkpt lat="50.87308370" lon="6.866943240">
        <ele>96.000000</ele>
        <time>2009-06-18T12:56:33Z</time>
      </trkpt>
      <trkpt lat="50.87334770" lon="6.866519450">
        <ele>96.000000</ele>
        <time>2009-06-18T12:56:48Z</time>
      </trkpt>
      <trkpt lat="50.87355420" lon="6.866170760">
        <ele>97.000000</ele>
        <time>2009-06-18T12:57:00Z</time>
      </trkpt>
      <trkpt lat="50.87375060" lon="6.865763060">
        <ele>97.000000</ele>
        <time>2009-06-18T12:57:13Z</time>
      </trkpt>
      <trkpt lat="50.87377770" lon="6.865628950">
        <ele>98.000000</ele>
        <time>2009-06-18T12:57:16Z</time>
      </trkpt>
      <trkpt lat="50.87379120" lon="6.865441200">
        <ele>98.000000</ele>
        <time>2009-06-18T12:57:21Z</time>
      </trkpt>
      <trkpt lat="50.87365920" lon="6.865317820">
        <ele>98.000000</ele>
        <time>2009-06-18T12:57:27Z</time>
      </trkpt>
      <trkpt lat="50.87341880" lon="6.865054960">
        <ele>98.000000</ele>
        <time>2009-06-18T12:57:39Z</time>
      </trkpt>
      <trkpt lat="50.87324280" lon="6.864818930">
        <ele>98.000000</ele>
        <time>2009-06-18T12:57:48Z</time>
      </trkpt>
      <trkpt lat="50.87290090" lon="6.864228840">
        <ele>100.00000</ele>
        <time>2009-06-18T12:58:08Z</time>
      </trkpt>
      <trkpt lat="50.87269780" lon="6.863858690">
        <ele>100.00000</ele>
        <time>2009-06-18T12:58:21Z</time>
      </trkpt>
      <trkpt lat="50.87259140" lon="6.863731800">
        <ele>101.00000</ele>
        <time>2009-06-18T12:58:26Z</time>
      </trkpt>
      <trkpt lat="50.87269470" lon="6.863583800">
        <ele>101.00000</ele>
        <time>2009-06-18T12:58:32Z</time>
      </trkpt>
      <trkpt lat="50.87281160" lon="6.863446600">
        <ele>101.00000</ele>
        <time>2009-06-18T12:58:37Z</time>
      </trkpt>
      <trkpt lat="50.87297770" lon="6.863243800">
        <ele>100.00000</ele>
        <time>2009-06-18T12:58:46Z</time>
      </trkpt>
      <trkpt lat="50.87313490" lon="6.863161600">
        <ele>100.00000</ele>
        <time>2009-06-18T12:58:52Z</time>
      </trkpt>
      <trkpt lat="50.87322480" lon="6.863150600">
        <ele>100.00000</ele>
        <time>2009-06-18T12:58:56Z</time>
      </trkpt>
      <trkpt lat="50.87326520" lon="6.863090200">
        <ele>100.00000</ele>
        <time>2009-06-18T12:58:58Z</time>
      </trkpt>
      <trkpt lat="50.87339090" lon="6.863079300">
        <ele>100.00000</ele>
        <time>2009-06-18T12:59:03Z</time>
      </trkpt>
      <trkpt lat="50.87354360" lon="6.863106700">
        <ele>100.00000</ele>
        <time>2009-06-18T12:59:09Z</time>
      </trkpt>
      <trkpt lat="50.87355260" lon="6.863106700">
        <ele>100.00000</ele>
        <time>2009-06-18T12:59:10Z</time>
      </trkpt>
      <trkpt lat="50.87363800" lon="6.863189000">
        <ele>100.00000</ele>
        <time>2009-06-18T12:59:14Z</time>
      </trkpt>
      <trkpt lat="50.87815730" lon="6.861056000">
        <ele>97.000000</ele>
        <time>2009-06-18T13:02:23Z</time>
      </trkpt>
      <trkpt lat="50.87897500" lon="6.860661100">
        <ele>95.000000</ele>
        <time>2009-06-18T13:02:57Z</time>
      </trkpt>
      <trkpt lat="50.87894810" lon="6.859657600">
        <ele>95.000000</ele>
        <time>2009-06-18T13:03:22Z</time>
      </trkpt>
      <trkpt lat="50.87889420" lon="6.859027000">
        <ele>93.000000</ele>
        <time>2009-06-18T13:03:38Z</time>
      </trkpt>
      <trkpt lat="50.87889870" lon="6.859016100">
        <ele>93.000000</ele>
        <time>2009-06-18T13:03:39Z</time>
      </trkpt>
      <trkpt lat="50.87888070" lon="6.858752900">
        <ele>93.000000</ele>
        <time>2009-06-18T13:03:45Z</time>
      </trkpt>
      <trkpt lat="50.87878190" lon="6.857870100">
        <ele>90.000000</ele>
        <time>2009-06-18T13:04:08Z</time>
      </trkpt>
      <trkpt lat="50.87858430" lon="6.856729600">
        <ele>91.000000</ele>
        <time>2009-06-18T13:04:38Z</time>
      </trkpt>
      <trkpt lat="50.87847200" lon="6.856099000">
        <ele>90.000000</ele>
        <time>2009-06-18T13:04:54Z</time>
      </trkpt>
      <trkpt lat="50.87805430" lon="6.854415500">
        <ele>89.000000</ele>
        <time>2009-06-18T13:05:40Z</time>
      </trkpt>
      <trkpt lat="50.87772640" lon="6.853099500">
        <ele>94.000000</ele>
        <time>2009-06-18T13:06:16Z</time>
      </trkpt>
      <trkpt lat="50.87733120" lon="6.851909700">
        <ele>92.000000</ele>
        <time>2009-06-18T13:06:50Z</time>
      </trkpt>
      <trkpt lat="50.87729070" lon="6.851756200">
        <ele>92.000000</ele>
        <time>2009-06-18T13:06:54Z</time>
      </trkpt>
      <trkpt lat="50.87727270" lon="6.851646500">
        <ele>92.000000</ele>
        <time>2009-06-18T13:06:57Z</time>
      </trkpt>
      <trkpt lat="50.87732220" lon="6.851498500">
        <ele>92.000000</ele>
        <time>2009-06-18T13:07:01Z</time>
      </trkpt>
      <trkpt lat="50.87733120" lon="6.851399800">
        <ele>92.000000</ele>
        <time>2009-06-18T13:07:03Z</time>
      </trkpt>
      <trkpt lat="50.87729520" lon="6.851290100">
        <ele>92.000000</ele>
        <time>2009-06-18T13:07:07Z</time>
      </trkpt>
      <trkpt lat="50.87729070" lon="6.851290100">
        <ele>92.000000</ele>
        <time>2009-06-18T13:07:07Z</time>
      </trkpt>
      <trkpt lat="50.87710650" lon="6.850780000">
        <ele>90.000000</ele>
        <time>2009-06-18T13:07:22Z</time>
      </trkpt>
      <trkpt lat="50.87699430" lon="6.850467400">
        <ele>92.000000</ele>
        <time>2009-06-18T13:07:31Z</time>
      </trkpt>
      <trkpt lat="50.87700330" lon="6.850286500">
        <ele>92.000000</ele>
        <time>2009-06-18T13:07:35Z</time>
      </trkpt>
      <trkpt lat="50.87695830" lon="6.850264600">
        <ele>92.000000</ele>
        <time>2009-06-18T13:07:37Z</time>
      </trkpt>
      <trkpt lat="50.87687740" lon="6.849699800">
        <ele>92.000000</ele>
        <time>2009-06-18T13:07:52Z</time>
      </trkpt>
      <trkpt lat="50.87685050" lon="6.849392700">
        <ele>92.000000</ele>
        <time>2009-06-18T13:08:00Z</time>
      </trkpt>
      <trkpt lat="50.87685050" lon="6.849387300">
        <ele>92.000000</ele>
        <time>2009-06-18T13:08:00Z</time>
      </trkpt>
      <trkpt lat="50.87683260" lon="6.848981500">
        <ele>92.000000</ele>
        <time>2009-06-18T13:08:10Z</time>
      </trkpt>
      <trkpt lat="50.87686850" lon="6.848471500">
        <ele>92.000000</ele>
        <time>2009-06-18T13:08:23Z</time>
      </trkpt>
      <trkpt lat="50.87694480" lon="6.847391400">
        <ele>92.000000</ele>
        <time>2009-06-18T13:08:50Z</time>
      </trkpt>
      <trkpt lat="50.87699430" lon="6.846821100">
        <ele>92.000000</ele>
        <time>2009-06-18T13:09:05Z</time>
      </trkpt>
      <trkpt lat="50.87704420" lon="6.846590630">
        <ele>92.000000</ele>
        <time>2009-06-18T13:09:11Z</time>
      </trkpt>
      <trkpt lat="50.87713220" lon="6.846408240">
        <ele>87.000000</ele>
        <time>2009-06-18T13:09:17Z</time>
      </trkpt>
      <trkpt lat="50.87733530" lon="6.846199030">
        <ele>90.000000</ele>
        <time>2009-06-18T13:09:27Z</time>
      </trkpt>
      <trkpt lat="50.87767710" lon="6.845984450">
        <ele>90.000000</ele>
        <time>2009-06-18T13:09:41Z</time>
      </trkpt>
      <trkpt lat="50.87819500" lon="6.845705500">
        <ele>92.000000</ele>
        <time>2009-06-18T13:10:03Z</time>
      </trkpt>
      <trkpt lat="50.87832360" lon="6.845641130">
        <ele>92.000000</ele>
        <time>2009-06-18T13:10:09Z</time>
      </trkpt>
      <trkpt lat="50.87867230" lon="6.845689410">
        <ele>92.000000</ele>
        <time>2009-06-18T13:10:23Z</time>
      </trkpt>
      <trkpt lat="50.87889910" lon="6.845705500">
        <ele>90.000000</ele>
        <time>2009-06-18T13:10:32Z</time>
      </trkpt>
      <trkpt lat="50.87899040" lon="6.845303170">
        <ele>87.000000</ele>
        <time>2009-06-18T13:10:43Z</time>
      </trkpt>
      <trkpt lat="50.87915020" lon="6.845126700">
        <ele>87.000000</ele>
        <time>2009-06-18T13:10:50Z</time>
      </trkpt>
      <trkpt lat="50.87925800" lon="6.845050000">
        <ele>87.000000</ele>
        <time>2009-06-18T13:10:55Z</time>
      </trkpt>
      <trkpt lat="50.87926250" lon="6.845050000">
        <ele>87.000000</ele>
        <time>2009-06-18T13:10:55Z</time>
      </trkpt>
      <trkpt lat="50.87973010" lon="6.845340600">
        <ele>90.000000</ele>
        <time>2009-06-18T13:11:15Z</time>
      </trkpt>
      <trkpt lat="50.87997260" lon="6.845505000">
        <ele>91.000000</ele>
        <time>2009-06-18T13:11:26Z</time>
      </trkpt>
      <trkpt lat="50.87998160" lon="6.845505000">
        <ele>91.000000</ele>
        <time>2009-06-18T13:11:26Z</time>
      </trkpt>
      <trkpt lat="50.88015230" lon="6.845565400">
        <ele>91.000000</ele>
        <time>2009-06-18T13:11:33Z</time>
      </trkpt>
      <trkpt lat="50.88032740" lon="6.845576300">
        <ele>91.000000</ele>
        <time>2009-06-18T13:11:40Z</time>
      </trkpt>
      <trkpt lat="50.88060140" lon="6.845461200">
        <ele>91.000000</ele>
        <time>2009-06-18T13:11:52Z</time>
      </trkpt>
      <trkpt lat="50.88087540" lon="6.845274800">
        <ele>90.000000</ele>
        <time>2009-06-18T13:12:04Z</time>
      </trkpt>
      <trkpt lat="50.88114040" lon="6.844956800">
        <ele>90.000000</ele>
        <time>2009-06-18T13:12:17Z</time>
      </trkpt>
      <trkpt lat="50.88140990" lon="6.844534600">
        <ele>91.000000</ele>
        <time>2009-06-18T13:12:32Z</time>
      </trkpt>
      <trkpt lat="50.88159860" lon="6.844139800">
        <ele>91.000000</ele>
        <time>2009-06-18T13:12:45Z</time>
      </trkpt>
      <trkpt lat="50.88185910" lon="6.843454300">
        <ele>90.000000</ele>
        <time>2009-06-18T13:13:05Z</time>
      </trkpt>
      <trkpt lat="50.88211060" lon="6.842692100">
        <ele>94.000000</ele>
        <time>2009-06-18T13:13:27Z</time>
      </trkpt>
      <trkpt lat="50.88230370" lon="6.841968400">
        <ele>94.000000</ele>
        <time>2009-06-18T13:13:46Z</time>
      </trkpt>
      <trkpt lat="50.88222740" lon="6.841957400">
        <ele>94.000000</ele>
        <time>2009-06-18T13:13:49Z</time>
      </trkpt>
      <trkpt lat="50.88220050" lon="6.841858600">
        <ele>94.000000</ele>
        <time>2009-06-18T13:13:52Z</time>
      </trkpt>
      <trkpt lat="50.88219140" lon="6.841754400">
        <ele>94.000000</ele>
        <time>2009-06-18T13:13:55Z</time>
      </trkpt>
      <trkpt lat="50.88219590" lon="6.841644800">
        <ele>94.000000</ele>
        <time>2009-06-18T13:13:58Z</time>
      </trkpt>
      <trkpt lat="50.88214200" lon="6.841524200">
        <ele>94.000000</ele>
        <time>2009-06-18T13:14:01Z</time>
      </trkpt>
      <trkpt lat="50.88202530" lon="6.841184200">
        <ele>91.000000</ele>
        <time>2009-06-18T13:14:11Z</time>
      </trkpt>
      <trkpt lat="50.88197580" lon="6.841019700">
        <ele>91.000000</ele>
        <time>2009-06-18T13:14:16Z</time>
      </trkpt>
      <trkpt lat="50.88193990" lon="6.840751100">
        <ele>91.000000</ele>
        <time>2009-06-18T13:14:23Z</time>
      </trkpt>
      <trkpt lat="50.88193090" lon="6.840592000">
        <ele>91.000000</ele>
        <time>2009-06-18T13:14:27Z</time>
      </trkpt>
      <trkpt lat="50.88191750" lon="6.840230100">
        <ele>92.000000</ele>
        <time>2009-06-18T13:14:36Z</time>
      </trkpt>
      <trkpt lat="50.88192190" lon="6.839457000">
        <ele>93.000000</ele>
        <time>2009-06-18T13:14:55Z</time>
      </trkpt>
      <trkpt lat="50.88192650" lon="6.838963500">
        <ele>93.000000</ele>
        <time>2009-06-18T13:15:08Z</time>
      </trkpt>
      <trkpt lat="50.88192650" lon="6.838256100">
        <ele>93.000000</ele>
        <time>2009-06-18T13:15:26Z</time>
      </trkpt>
      <trkpt lat="50.88191750" lon="6.838025800">
        <ele>93.000000</ele>
        <time>2009-06-18T13:15:31Z</time>
      </trkpt>
      <trkpt lat="50.88189500" lon="6.837927100">
        <ele>93.000000</ele>
        <time>2009-06-18T13:15:34Z</time>
      </trkpt>
      <trkpt lat="50.88178720" lon="6.837839300">
        <ele>94.000000</ele>
        <time>2009-06-18T13:15:39Z</time>
      </trkpt>
      <trkpt lat="50.88160310" lon="6.837779100">
        <ele>94.000000</ele>
        <time>2009-06-18T13:15:47Z</time>
      </trkpt>
      <trkpt lat="50.88151770" lon="6.837768100">
        <ele>94.000000</ele>
        <time>2009-06-18T13:15:50Z</time>
      </trkpt>
      <trkpt lat="50.88151320" lon="6.837768100">
        <ele>94.000000</ele>
        <time>2009-06-18T13:15:50Z</time>
      </trkpt>
      <trkpt lat="50.88130660" lon="6.837806500">
        <ele>94.000000</ele>
        <time>2009-06-18T13:15:58Z</time>
      </trkpt>
      <trkpt lat="50.88062390" lon="6.837877700">
        <ele>93.000000</ele>
        <time>2009-06-18T13:16:26Z</time>
      </trkpt>
      <trkpt lat="50.87961320" lon="6.837975380">
        <ele>96.000000</ele>
        <time>2009-06-18T13:17:06Z</time>
      </trkpt>
      <trkpt lat="50.87943380" lon="6.837964650">
        <ele>90.000000</ele>
        <time>2009-06-18T13:17:14Z</time>
      </trkpt>
      <trkpt lat="50.87935600" lon="6.837905640">
        <ele>93.000000</ele>
        <time>2009-06-18T13:17:17Z</time>
      </trkpt>
      <trkpt lat="50.87924430" lon="6.837766170">
        <ele>93.000000</ele>
        <time>2009-06-18T13:17:23Z</time>
      </trkpt>
      <trkpt lat="50.87918000" lon="6.837546220">
        <ele>93.000000</ele>
        <time>2009-06-18T13:17:29Z</time>
      </trkpt>
      <trkpt lat="50.87906080" lon="6.837170400">
        <ele>93.000000</ele>
        <time>2009-06-18T13:17:39Z</time>
      </trkpt>
      <trkpt lat="50.87882720" lon="6.836380800">
        <ele>95.000000</ele>
        <time>2009-06-18T13:18:01Z</time>
      </trkpt>
      <trkpt lat="50.87862060" lon="6.835777600">
        <ele>94.000000</ele>
        <time>2009-06-18T13:18:19Z</time>
      </trkpt>
      <trkpt lat="50.87835070" lon="6.835026400">
        <ele>94.000000</ele>
        <time>2009-06-18T13:18:41Z</time>
      </trkpt>
      <trkpt lat="50.87786110" lon="6.833776200">
        <ele>92.000000</ele>
        <time>2009-06-18T13:19:18Z</time>
      </trkpt>
      <trkpt lat="50.87733560" lon="6.832465700">
        <ele>95.000000</ele>
        <time>2009-06-18T13:19:57Z</time>
      </trkpt>
      <trkpt lat="50.87691790" lon="6.831423900">
        <ele>90.000000</ele>
        <time>2009-06-18T13:20:28Z</time>
      </trkpt>
      <trkpt lat="50.87320270" lon="6.823166000">
        <ele>104.00000</ele>
        <time>2009-06-18T13:24:45Z</time>
      </trkpt>
      <trkpt lat="50.87274460" lon="6.821981600">
        <ele>102.00000</ele>
        <time>2009-06-18T13:25:20Z</time>
      </trkpt>
      <trkpt lat="50.87221710" lon="6.820482010">
        <ele>106.00000</ele>
        <time>2009-06-18T13:26:03Z</time>
      </trkpt>
      <trkpt lat="50.87192940" lon="6.819698810">
        <ele>100.00000</ele>
        <time>2009-06-18T13:26:26Z</time>
      </trkpt>
      <trkpt lat="50.87168560" lon="6.819146270">
        <ele>105.00000</ele>
        <time>2009-06-18T13:26:43Z</time>
      </trkpt>
      <trkpt lat="50.87152990" lon="6.818861960">
        <ele>105.00000</ele>
        <time>2009-06-18T13:26:53Z</time>
      </trkpt>
      <trkpt lat="50.87135050" lon="6.818615190">
        <ele>109.00000</ele>
        <time>2009-06-18T13:27:02Z</time>
      </trkpt>
      <trkpt lat="50.87113380" lon="6.818405980">
        <ele>104.00000</ele>
        <time>2009-06-18T13:27:12Z</time>
      </trkpt>
      <trkpt lat="50.87085620" lon="6.818298690">
        <ele>104.00000</ele>
        <time>2009-06-18T13:27:24Z</time>
      </trkpt>
      <trkpt lat="50.87061250" lon="6.818223590">
        <ele>104.00000</ele>
        <time>2009-06-18T13:27:34Z</time>
      </trkpt>
      <trkpt lat="50.87033830" lon="6.818180680">
        <ele>104.00000</ele>
        <time>2009-06-18T13:27:45Z</time>
      </trkpt>
      <trkpt lat="50.86983340" lon="6.818368000">
        <ele>104.00000</ele>
        <time>2009-06-18T13:28:05Z</time>
      </trkpt>
      <trkpt lat="50.86983340" lon="6.818373500">
        <ele>104.00000</ele>
        <time>2009-06-18T13:28:05Z</time>
      </trkpt>
      <trkpt lat="50.86963570" lon="6.818483200">
        <ele>104.00000</ele>
        <time>2009-06-18T13:28:14Z</time>
      </trkpt>
      <trkpt lat="50.86942020" lon="6.818647700">
        <ele>110.00000</ele>
        <time>2009-06-18T13:28:23Z</time>
      </trkpt>
      <trkpt lat="50.86942020" lon="6.818658600">
        <ele>110.00000</ele>
        <time>2009-06-18T13:28:24Z</time>
      </trkpt>
      <trkpt lat="50.86933040" lon="6.818784800">
        <ele>108.00000</ele>
        <time>2009-06-18T13:28:29Z</time>
      </trkpt>
      <trkpt lat="50.86920010" lon="6.819108300">
        <ele>108.00000</ele>
        <time>2009-06-18T13:28:38Z</time>
      </trkpt>
      <trkpt lat="50.86896650" lon="6.819788200">
        <ele>105.00000</ele>
        <time>2009-06-18T13:28:58Z</time>
      </trkpt>
      <trkpt lat="50.86878240" lon="6.820325500">
        <ele>105.00000</ele>
        <time>2009-06-18T13:29:13Z</time>
      </trkpt>
      <trkpt lat="50.86868810" lon="6.820687500">
        <ele>118.00000</ele>
        <time>2009-06-18T13:29:23Z</time>
      </trkpt>
      <trkpt lat="50.86869250" lon="6.820687500">
        <ele>118.00000</ele>
        <time>2009-06-18T13:29:23Z</time>
      </trkpt>
      <trkpt lat="50.86865210" lon="6.821082200">
        <ele>118.00000</ele>
        <time>2009-06-18T13:29:33Z</time>
      </trkpt>
      <trkpt lat="50.86865210" lon="6.821087700">
        <ele>118.00000</ele>
        <time>2009-06-18T13:29:34Z</time>
      </trkpt>
      <trkpt lat="50.86864310" lon="6.821570200">
        <ele>116.00000</ele>
        <time>2009-06-18T13:29:46Z</time>
      </trkpt>
      <trkpt lat="50.86866560" lon="6.821948600">
        <ele>116.00000</ele>
        <time>2009-06-18T13:29:55Z</time>
      </trkpt>
      <trkpt lat="50.86875090" lon="6.822255600">
        <ele>107.00000</ele>
        <time>2009-06-18T13:30:04Z</time>
      </trkpt>
      <trkpt lat="50.86889470" lon="6.822579200">
        <ele>107.00000</ele>
        <time>2009-06-18T13:30:14Z</time>
      </trkpt>
      <trkpt lat="50.86911920" lon="6.822793000">
        <ele>107.00000</ele>
        <time>2009-06-18T13:30:24Z</time>
      </trkpt>
      <trkpt lat="50.86940220" lon="6.822968400">
        <ele>112.00000</ele>
        <time>2009-06-18T13:30:36Z</time>
      </trkpt>
      <trkpt lat="50.86972560" lon="6.823220700">
        <ele>108.00000</ele>
        <time>2009-06-18T13:30:51Z</time>
      </trkpt>
      <trkpt lat="50.86993220" lon="6.823401600">
        <ele>108.00000</ele>
        <time>2009-06-18T13:31:00Z</time>
      </trkpt>
      <trkpt lat="50.86986930" lon="6.823072600">
        <ele>108.00000</ele>
        <time>2009-06-18T13:31:09Z</time>
      </trkpt>
      <trkpt lat="50.86973910" lon="6.822869800">
        <ele>100.00000</ele>
        <time>2009-06-18T13:31:16Z</time>
      </trkpt>
      <trkpt lat="50.86954140" lon="6.822513400">
        <ele>107.00000</ele>
        <time>2009-06-18T13:31:28Z</time>
      </trkpt>
      <trkpt lat="50.86931690" lon="6.822041800">
        <ele>103.00000</ele>
        <time>2009-06-18T13:31:43Z</time>
      </trkpt>
      <trkpt lat="50.86927650" lon="6.821882800">
        <ele>103.00000</ele>
        <time>2009-06-18T13:31:48Z</time>
      </trkpt>
      <trkpt lat="50.86927650" lon="6.821877300">
        <ele>103.00000</ele>
        <time>2009-06-18T13:31:48Z</time>
      </trkpt>
      <trkpt lat="50.86927650" lon="6.821712800">
        <ele>103.00000</ele>
        <time>2009-06-18T13:31:52Z</time>
      </trkpt>
      <trkpt lat="50.86932590" lon="6.821444100">
        <ele>103.00000</ele>
        <time>2009-06-18T13:31:59Z</time>
      </trkpt>
      <trkpt lat="50.86938430" lon="6.821159000">
        <ele>104.00000</ele>
        <time>2009-06-18T13:32:07Z</time>
      </trkpt>
      <trkpt lat="50.86952790" lon="6.821515400">
        <ele>103.00000</ele>
        <time>2009-06-18T13:32:17Z</time>
      </trkpt>
      <trkpt lat="50.86963130" lon="6.821625100">
        <ele>93.000000</ele>
        <time>2009-06-18T13:32:22Z</time>
      </trkpt>
      <trkpt lat="50.87009390" lon="6.821844400">
        <ele>93.000000</ele>
        <time>2009-06-18T13:32:42Z</time>
      </trkpt>
      <trkpt lat="50.87018830" lon="6.821987000">
        <ele>93.000000</ele>
        <time>2009-06-18T13:32:47Z</time>
      </trkpt>
      <trkpt lat="50.87034540" lon="6.822305000">
        <ele>100.00000</ele>
        <time>2009-06-18T13:32:57Z</time>
      </trkpt>
      <trkpt lat="50.87068230" lon="6.823231600">
        <ele>90.000000</ele>
        <time>2009-06-18T13:33:24Z</time>
      </trkpt>
      <trkpt lat="50.87105060" lon="6.824103600">
        <ele>96.000000</ele>
        <time>2009-06-18T13:33:50Z</time>
      </trkpt>
      <trkpt lat="50.87130210" lon="6.824619000">
        <ele>90.000000</ele>
        <time>2009-06-18T13:34:07Z</time>
      </trkpt>
      <trkpt lat="50.87153120" lon="6.825013800">
        <ele>90.000000</ele>
        <time>2009-06-18T13:34:20Z</time>
      </trkpt>
      <trkpt lat="50.87153120" lon="6.825019300">
        <ele>90.000000</ele>
        <time>2009-06-18T13:34:21Z</time>
      </trkpt>
      <trkpt lat="50.87176480" lon="6.825545700">
        <ele>96.000000</ele>
        <time>2009-06-18T13:34:37Z</time>
      </trkpt>
      <trkpt lat="50.87194900" lon="6.826170700">
        <ele>96.000000</ele>
        <time>2009-06-18T13:34:54Z</time>
      </trkpt>
      <trkpt lat="50.87195340" lon="6.826170700">
        <ele>96.000000</ele>
        <time>2009-06-18T13:34:54Z</time>
      </trkpt>
      <trkpt lat="50.87218250" lon="6.827152300">
        <ele>90.000000</ele>
        <time>2009-06-18T13:35:21Z</time>
      </trkpt>
      <trkpt lat="50.87238010" lon="6.828183100">
        <ele>90.000000</ele>
        <time>2009-06-18T13:35:48Z</time>
      </trkpt>
      <trkpt lat="50.87264550" lon="6.829691100">
        <ele>99.000000</ele>
        <time>2009-06-18T13:36:28Z</time>
      </trkpt>
      <trkpt lat="50.87281170" lon="6.830535500">
        <ele>102.00000</ele>
        <time>2009-06-18T13:36:50Z</time>
      </trkpt>
      <trkpt lat="50.87290600" lon="6.830853500">
        <ele>102.00000</ele>
        <time>2009-06-18T13:36:59Z</time>
      </trkpt>
      <trkpt lat="50.87291050" lon="6.830859100">
        <ele>102.00000</ele>
        <time>2009-06-18T13:36:59Z</time>
      </trkpt>
      <trkpt lat="50.87307670" lon="6.831286700">
        <ele>90.000000</ele>
        <time>2009-06-18T13:37:12Z</time>
      </trkpt>
      <trkpt lat="50.87326080" lon="6.831719900">
        <ele>90.000000</ele>
        <time>2009-06-18T13:37:25Z</time>
      </trkpt>
      <trkpt lat="50.87349890" lon="6.832070800">
        <ele>90.000000</ele>
        <time>2009-06-18T13:37:38Z</time>
      </trkpt>
      <trkpt lat="50.87349890" lon="6.832087300">
        <ele>99.000000</ele>
        <time>2009-06-18T13:37:38Z</time>
      </trkpt>
      <trkpt lat="50.87366960" lon="6.832235300">
        <ele>99.000000</ele>
        <time>2009-06-18T13:37:46Z</time>
      </trkpt>
      <trkpt lat="50.87381780" lon="6.832295600">
        <ele>97.000000</ele>
        <time>2009-06-18T13:37:52Z</time>
      </trkpt>
      <trkpt lat="50.87410080" lon="6.832295600">
        <ele>97.000000</ele>
        <time>2009-06-18T13:38:04Z</time>
      </trkpt>
      <trkpt lat="50.87434780" lon="6.832246300">
        <ele>97.000000</ele>
        <time>2009-06-18T13:38:14Z</time>
      </trkpt>
      <trkpt lat="50.87451850" lon="6.832262700">
        <ele>97.000000</ele>
        <time>2009-06-18T13:38:20Z</time>
      </trkpt>
      <trkpt lat="50.87470710" lon="6.832366900">
        <ele>92.000000</ele>
        <time>2009-06-18T13:38:28Z</time>
      </trkpt>
      <trkpt lat="50.87489580" lon="6.832575300">
        <ele>92.000000</ele>
        <time>2009-06-18T13:38:38Z</time>
      </trkpt>
      <trkpt lat="50.87489580" lon="6.832580700">
        <ele>92.000000</ele>
        <time>2009-06-18T13:38:38Z</time>
      </trkpt>
      <trkpt lat="50.87504400" lon="6.832909800">
        <ele>92.000000</ele>
        <time>2009-06-18T13:38:48Z</time>
      </trkpt>
      <trkpt lat="50.87515180" lon="6.833162000">
        <ele>94.000000</ele>
        <time>2009-06-18T13:38:56Z</time>
      </trkpt>
      <trkpt lat="50.87518320" lon="6.833403200">
        <ele>94.000000</ele>
        <time>2009-06-18T13:39:02Z</time>
      </trkpt>
      <trkpt lat="50.87518320" lon="6.833392200">
        <ele>94.000000</ele>
        <time>2009-06-18T13:39:02Z</time>
      </trkpt>
      <trkpt lat="50.87524190" lon="6.833770700">
        <ele>95.000000</ele>
        <time>2009-06-18T13:39:12Z</time>
      </trkpt>
      <trkpt lat="50.87524630" lon="6.833776200">
        <ele>95.000000</ele>
        <time>2009-06-18T13:39:12Z</time>
      </trkpt>
      <trkpt lat="50.87523740" lon="6.834094200">
        <ele>95.000000</ele>
        <time>2009-06-18T13:39:20Z</time>
      </trkpt>
      <trkpt lat="50.87517890" lon="6.834735800">
        <ele>97.000000</ele>
        <time>2009-06-18T13:39:37Z</time>
      </trkpt>
      <trkpt lat="50.87513850" lon="6.835229200">
        <ele>97.000000</ele>
        <time>2009-06-18T13:39:49Z</time>
      </trkpt>
      <trkpt lat="50.87513850" lon="6.835624000">
        <ele>98.000000</ele>
        <time>2009-06-18T13:39:59Z</time>
      </trkpt>
      <trkpt lat="50.87513850" lon="6.835629500">
        <ele>98.000000</ele>
        <time>2009-06-18T13:39:59Z</time>
      </trkpt>
      <trkpt lat="50.87517000" lon="6.835953000">
        <ele>98.000000</ele>
        <time>2009-06-18T13:40:08Z</time>
      </trkpt>
      <trkpt lat="50.87525090" lon="6.836369700">
        <ele>99.000000</ele>
        <time>2009-06-18T13:40:19Z</time>
      </trkpt>
      <trkpt lat="50.87539900" lon="6.836682300">
        <ele>99.000000</ele>
        <time>2009-06-18T13:40:29Z</time>
      </trkpt>
      <trkpt lat="50.87539450" lon="6.836682300">
        <ele>99.000000</ele>
        <time>2009-06-18T13:40:29Z</time>
      </trkpt>
      <trkpt lat="50.87592900" lon="6.837641900">
        <ele>93.000000</ele>
        <time>2009-06-18T13:41:01Z</time>
      </trkpt>
      <trkpt lat="50.87625270" lon="6.838272600">
        <ele>90.000000</ele>
        <time>2009-06-18T13:41:22Z</time>
      </trkpt>
      <trkpt lat="50.87645030" lon="6.838810000">
        <ele>93.000000</ele>
        <time>2009-06-18T13:41:37Z</time>
      </trkpt>
      <trkpt lat="50.87654910" lon="6.839078600">
        <ele>93.000000</ele>
        <time>2009-06-18T13:41:45Z</time>
      </trkpt>
      <trkpt lat="50.87654460" lon="6.839084100">
        <ele>93.000000</ele>
        <time>2009-06-18T13:41:45Z</time>
      </trkpt>
      <trkpt lat="50.87640990" lon="6.839753100">
        <ele>96.000000</ele>
        <time>2009-06-18T13:42:03Z</time>
      </trkpt>
      <trkpt lat="50.87666590" lon="6.840520700">
        <ele>99.000000</ele>
        <time>2009-06-18T13:42:25Z</time>
      </trkpt>
      <trkpt lat="50.87694890" lon="6.841419900">
        <ele>103.00000</ele>
        <time>2009-06-18T13:42:50Z</time>
      </trkpt>
      <trkpt lat="50.87714650" lon="6.842067000">
        <ele>90.000000</ele>
        <time>2009-06-18T13:43:09Z</time>
      </trkpt>
      <trkpt lat="50.87729020" lon="6.842757800">
        <ele>92.000000</ele>
        <time>2009-06-18T13:43:27Z</time>
      </trkpt>
      <trkpt lat="50.87742500" lon="6.843317200">
        <ele>94.000000</ele>
        <time>2009-06-18T13:43:42Z</time>
      </trkpt>
      <trkpt lat="50.87754510" lon="6.843624110">
        <ele>94.000000</ele>
        <time>2009-06-18T13:43:51Z</time>
      </trkpt>
      <trkpt lat="50.87738000" lon="6.843618800">
        <ele>94.000000</ele>
        <time>2009-06-18T13:43:58Z</time>
      </trkpt>
      <trkpt lat="50.87738000" lon="6.843613200">
        <ele>94.000000</ele>
        <time>2009-06-18T13:43:58Z</time>
      </trkpt>
      <trkpt lat="50.87716900" lon="6.843273200">
        <ele>94.000000</ele>
        <time>2009-06-18T13:44:10Z</time>
      </trkpt>
      <trkpt lat="50.87701170" lon="6.842949800">
        <ele>97.000000</ele>
        <time>2009-06-18T13:44:20Z</time>
      </trkpt>
      <trkpt lat="50.87690850" lon="6.842560500">
        <ele>100.00000</ele>
        <time>2009-06-18T13:44:31Z</time>
      </trkpt>
      <trkpt lat="50.87677370" lon="6.842094400">
        <ele>100.00000</ele>
        <time>2009-06-18T13:44:44Z</time>
      </trkpt>
      <trkpt lat="50.87668380" lon="6.841814700">
        <ele>103.00000</ele>
        <time>2009-06-18T13:44:52Z</time>
      </trkpt>
      <trkpt lat="50.87650420" lon="6.841337700">
        <ele>103.00000</ele>
        <time>2009-06-18T13:45:06Z</time>
      </trkpt>
      <trkpt lat="50.87642330" lon="6.841167700">
        <ele>99.000000</ele>
        <time>2009-06-18T13:45:11Z</time>
      </trkpt>
      <trkpt lat="50.87633800" lon="6.841118300">
        <ele>99.000000</ele>
        <time>2009-06-18T13:45:15Z</time>
      </trkpt>
      <trkpt lat="50.87626620" lon="6.841096500">
        <ele>99.000000</ele>
        <time>2009-06-18T13:45:18Z</time>
      </trkpt>
      <trkpt lat="50.87597870" lon="6.841003300">
        <ele>99.000000</ele>
        <time>2009-06-18T13:45:30Z</time>
      </trkpt>
      <trkpt lat="50.87583050" lon="6.840953900">
        <ele>99.000000</ele>
        <time>2009-06-18T13:45:36Z</time>
      </trkpt>
      <trkpt lat="50.87574960" lon="6.840827700">
        <ele>99.000000</ele>
        <time>2009-06-18T13:45:40Z</time>
      </trkpt>
      <trkpt lat="50.87570020" lon="6.840635900">
        <ele>99.000000</ele>
        <time>2009-06-18T13:45:45Z</time>
      </trkpt>
      <trkpt lat="50.87563730" lon="6.840482300">
        <ele>99.000000</ele>
        <time>2009-06-18T13:45:50Z</time>
      </trkpt>
      <trkpt lat="50.87559240" lon="6.840367200">
        <ele>99.000000</ele>
        <time>2009-06-18T13:45:53Z</time>
      </trkpt>
      <trkpt lat="50.87552500" lon="6.840345300">
        <ele>99.000000</ele>
        <time>2009-06-18T13:45:56Z</time>
      </trkpt>
      <trkpt lat="50.87481530" lon="6.840356200">
        <ele>95.000000</ele>
        <time>2009-06-18T13:46:25Z</time>
      </trkpt>
      <trkpt lat="50.87435720" lon="6.840383700">
        <ele>97.000000</ele>
        <time>2009-06-18T13:46:43Z</time>
      </trkpt>
      <trkpt lat="50.87380880" lon="6.838919600">
        <ele>99.000000</ele>
        <time>2009-06-18T13:47:26Z</time>
      </trkpt>
      <trkpt lat="50.87335970" lon="6.837779100">
        <ele>106.00000</ele>
        <time>2009-06-18T13:48:00Z</time>
      </trkpt>
      <trkpt lat="50.87314410" lon="6.837345900">
        <ele>106.00000</ele>
        <time>2009-06-18T13:48:14Z</time>
      </trkpt>
      <trkpt lat="50.87305870" lon="6.837214300">
        <ele>106.00000</ele>
        <time>2009-06-18T13:48:19Z</time>
      </trkpt>
      <trkpt lat="50.87290600" lon="6.837000500">
        <ele>110.00000</ele>
        <time>2009-06-18T13:48:27Z</time>
      </trkpt>
      <trkpt lat="50.87290600" lon="6.837005900">
        <ele>110.00000</ele>
        <time>2009-06-18T13:48:27Z</time>
      </trkpt>
      <trkpt lat="50.87287010" lon="6.837367900">
        <ele>107.00000</ele>
        <time>2009-06-18T13:48:36Z</time>
      </trkpt>
      <trkpt lat="50.87275340" lon="6.838069700">
        <ele>103.00000</ele>
        <time>2009-06-18T13:48:55Z</time>
      </trkpt>
      <trkpt lat="50.87261410" lon="6.838612600">
        <ele>103.00000</ele>
        <time>2009-06-18T13:49:09Z</time>
      </trkpt>
      <trkpt lat="50.87261410" lon="6.838618000">
        <ele>103.00000</ele>
        <time>2009-06-18T13:49:09Z</time>
      </trkpt>
      <trkpt lat="50.87251080" lon="6.838919600">
        <ele>99.000000</ele>
        <time>2009-06-18T13:49:18Z</time>
      </trkpt>
      <trkpt lat="50.87250180" lon="6.838919600">
        <ele>99.000000</ele>
        <time>2009-06-18T13:49:19Z</time>
      </trkpt>
      <trkpt lat="50.87237160" lon="6.839171800">
        <ele>99.000000</ele>
        <time>2009-06-18T13:49:27Z</time>
      </trkpt>
      <trkpt lat="50.87237600" lon="6.839177300">
        <ele>99.000000</ele>
        <time>2009-06-18T13:49:27Z</time>
      </trkpt>
      <trkpt lat="50.87220540" lon="6.839374700">
        <ele>99.000000</ele>
        <time>2009-06-18T13:49:35Z</time>
      </trkpt>
      <trkpt lat="50.87200330" lon="6.839566600">
        <ele>105.00000</ele>
        <time>2009-06-18T13:49:45Z</time>
      </trkpt>
      <trkpt lat="50.87181460" lon="6.839725600">
        <ele>97.000000</ele>
        <time>2009-06-18T13:49:53Z</time>
      </trkpt>
      <trkpt lat="50.87163050" lon="6.839796900">
        <ele>97.000000</ele>
        <time>2009-06-18T13:50:01Z</time>
      </trkpt>
      <trkpt lat="50.87162590" lon="6.839796900">
        <ele>97.000000</ele>
        <time>2009-06-18T13:50:01Z</time>
      </trkpt>
      <trkpt lat="50.87143730" lon="6.839890100">
        <ele>97.000000</ele>
        <time>2009-06-18T13:50:09Z</time>
      </trkpt>
      <trkpt lat="50.87127570" lon="6.840005300">
        <ele>97.000000</ele>
        <time>2009-06-18T13:50:16Z</time>
      </trkpt>
      <trkpt lat="50.87120780" lon="6.840104000">
        <ele>102.00000</ele>
        <time>2009-06-18T13:50:20Z</time>
      </trkpt>
      <trkpt lat="50.87118540" lon="6.840274000">
        <ele>102.00000</ele>
        <time>2009-06-18T13:50:24Z</time>
      </trkpt>
      <trkpt lat="50.87117640" lon="6.840471300">
        <ele>100.00000</ele>
        <time>2009-06-18T13:50:29Z</time>
      </trkpt>
      <trkpt lat="50.87117640" lon="6.840624900">
        <ele>100.00000</ele>
        <time>2009-06-18T13:50:33Z</time>
      </trkpt>
      <trkpt lat="50.87118990" lon="6.840805800">
        <ele>100.00000</ele>
        <time>2009-06-18T13:50:38Z</time>
      </trkpt>
      <trkpt lat="50.87107760" lon="6.841387100">
        <ele>97.000000</ele>
        <time>2009-06-18T13:50:53Z</time>
      </trkpt>
      <trkpt lat="50.87084410" lon="6.843004600">
        <ele>96.000000</ele>
        <time>2009-06-18T13:51:35Z</time>
      </trkpt>
      <trkpt lat="50.87081260" lon="6.843405000">
        <ele>96.000000</ele>
        <time>2009-06-18T13:51:45Z</time>
      </trkpt>
      <trkpt lat="50.87081260" lon="6.843410500">
        <ele>96.000000</ele>
        <time>2009-06-18T13:51:45Z</time>
      </trkpt>
      <trkpt lat="50.87080810" lon="6.844052000">
        <ele>97.000000</ele>
        <time>2009-06-18T13:52:02Z</time>
      </trkpt>
      <trkpt lat="50.87083510" lon="6.844529000">
        <ele>97.000000</ele>
        <time>2009-06-18T13:52:14Z</time>
      </trkpt>
      <trkpt lat="50.87090690" lon="6.844984200">
        <ele>98.000000</ele>
        <time>2009-06-18T13:52:25Z</time>
      </trkpt>
      <trkpt lat="50.87090690" lon="6.844989600">
        <ele>98.000000</ele>
        <time>2009-06-18T13:52:26Z</time>
      </trkpt>
      <trkpt lat="50.87098330" lon="6.845433800">
        <ele>99.000000</ele>
        <time>2009-06-18T13:52:37Z</time>
      </trkpt>
      <trkpt lat="50.87097880" lon="6.845444700">
        <ele>99.000000</ele>
        <time>2009-06-18T13:52:38Z</time>
      </trkpt>
      <trkpt lat="50.87112700" lon="6.845910800">
        <ele>99.000000</ele>
        <time>2009-06-18T13:52:51Z</time>
      </trkpt>
      <trkpt lat="50.87141000" lon="6.846618100">
        <ele>92.000000</ele>
        <time>2009-06-18T13:53:12Z</time>
      </trkpt>
      <trkpt lat="50.87168850" lon="6.847188400">
        <ele>93.000000</ele>
        <time>2009-06-18T13:53:30Z</time>
      </trkpt>
      <trkpt lat="50.87193110" lon="6.847610700">
        <ele>93.000000</ele>
        <time>2009-06-18T13:53:45Z</time>
      </trkpt>
      <trkpt lat="50.87238470" lon="6.848285100">
        <ele>93.000000</ele>
        <time>2009-06-18T13:54:09Z</time>
      </trkpt>
      <trkpt lat="50.87277560" lon="6.848795100">
        <ele>94.000000</ele>
        <time>2009-06-18T13:54:30Z</time>
      </trkpt>
      <trkpt lat="50.87313040" lon="6.849211800">
        <ele>93.000000</ele>
        <time>2009-06-18T13:54:47Z</time>
      </trkpt>
      <trkpt lat="50.87328760" lon="6.849458500">
        <ele>93.000000</ele>
        <time>2009-06-18T13:54:56Z</time>
      </trkpt>
      <trkpt lat="50.87328760" lon="6.849464000">
        <ele>93.000000</ele>
        <time>2009-06-18T13:54:56Z</time>
      </trkpt>
      <trkpt lat="50.87345380" lon="6.849699800">
        <ele>96.000000</ele>
        <time>2009-06-18T13:55:05Z</time>
      </trkpt>
      <trkpt lat="50.87371430" lon="6.850297500">
        <ele>96.000000</ele>
        <time>2009-06-18T13:55:24Z</time>
      </trkpt>
      <trkpt lat="50.87371430" lon="6.850303000">
        <ele>96.000000</ele>
        <time>2009-06-18T13:55:24Z</time>
      </trkpt>
      <trkpt lat="50.87395690" lon="6.850884200">
        <ele>95.000000</ele>
        <time>2009-06-18T13:55:41Z</time>
      </trkpt>
      <trkpt lat="50.87410510" lon="6.851295500">
        <ele>96.000000</ele>
        <time>2009-06-18T13:55:53Z</time>
      </trkpt>
      <trkpt lat="50.86985140" lon="6.852913000">
        <ele>99.000000</ele>
        <time>2009-06-18T13:58:49Z</time>
      </trkpt>
      <trkpt lat="50.86973910" lon="6.852989800">
        <ele>101.00000</ele>
        <time>2009-06-18T13:58:53Z</time>
      </trkpt>
      <trkpt lat="50.86964920" lon="6.853165200">
        <ele>101.00000</ele>
        <time>2009-06-18T13:58:59Z</time>
      </trkpt>
      <trkpt lat="50.86964920" lon="6.853170700">
        <ele>101.00000</ele>
        <time>2009-06-18T13:58:59Z</time>
      </trkpt>
      <trkpt lat="50.86962230" lon="6.853401000">
        <ele>101.00000</ele>
        <time>2009-06-18T13:59:05Z</time>
      </trkpt>
      <trkpt lat="50.86954140" lon="6.853993300">
        <ele>102.00000</ele>
        <time>2009-06-18T13:59:20Z</time>
      </trkpt>
      <trkpt lat="50.86945610" lon="6.854503200">
        <ele>102.00000</ele>
        <time>2009-06-18T13:59:34Z</time>
      </trkpt>
      <trkpt lat="50.86942020" lon="6.854684100">
        <ele>103.00000</ele>
        <time>2009-06-18T13:59:39Z</time>
      </trkpt>
      <trkpt lat="50.86943820" lon="6.854821200">
        <ele>103.00000</ele>
        <time>2009-06-18T13:59:42Z</time>
      </trkpt>
      <trkpt lat="50.86961720" lon="6.855152240">
        <ele>101.00000</ele>
        <time>2009-06-18T13:59:53Z</time>
      </trkpt>
      <trkpt lat="50.86959010" lon="6.855286350">
        <ele>101.00000</ele>
        <time>2009-06-18T13:59:57Z</time>
      </trkpt>
      <trkpt lat="50.86941740" lon="6.855404370">
        <ele>103.00000</ele>
        <time>2009-06-18T14:00:04Z</time>
      </trkpt>
      <trkpt lat="50.86928200" lon="6.855522390">
        <ele>103.00000</ele>
        <time>2009-06-18T14:00:10Z</time>
      </trkpt>
      <trkpt lat="50.86918630" lon="6.855320200">
        <ele>103.00000</ele>
        <time>2009-06-18T14:00:17Z</time>
      </trkpt>
      <trkpt lat="50.86884940" lon="6.854941900">
        <ele>103.00000</ele>
        <time>2009-06-18T14:00:33Z</time>
      </trkpt>
      <trkpt lat="50.86855300" lon="6.854662200">
        <ele>103.00000</ele>
        <time>2009-06-18T14:00:47Z</time>
      </trkpt>
      <trkpt lat="50.86825650" lon="6.854442900">
        <ele>103.00000</ele>
        <time>2009-06-18T14:01:00Z</time>
      </trkpt>
      <trkpt lat="50.86796460" lon="6.854278400">
        <ele>103.00000</ele>
        <time>2009-06-18T14:01:13Z</time>
      </trkpt>
      <trkpt lat="50.86767260" lon="6.854130300">
        <ele>102.00000</ele>
        <time>2009-06-18T14:01:25Z</time>
      </trkpt>
      <trkpt lat="50.86730430" lon="6.854015200">
        <ele>102.00000</ele>
        <time>2009-06-18T14:01:40Z</time>
      </trkpt>
      <trkpt lat="50.86690860" lon="6.853965900">
        <ele>104.00000</ele>
        <time>2009-06-18T14:01:56Z</time>
      </trkpt>
      <trkpt lat="50.86656280" lon="6.853987800">
        <ele>104.00000</ele>
        <time>2009-06-18T14:02:10Z</time>
      </trkpt>
      <trkpt lat="50.86628430" lon="6.854026100">
        <ele>104.00000</ele>
        <time>2009-06-18T14:02:21Z</time>
      </trkpt>
      <trkpt lat="50.86597890" lon="6.854119300">
        <ele>106.00000</ele>
        <time>2009-06-18T14:02:33Z</time>
      </trkpt>
      <trkpt lat="50.86555650" lon="6.854355100">
        <ele>106.00000</ele>
        <time>2009-06-18T14:02:51Z</time>
      </trkpt>
      <trkpt lat="50.86515230" lon="6.854651300">
        <ele>108.00000</ele>
        <time>2009-06-18T14:03:09Z</time>
      </trkpt>
      <trkpt lat="50.86481090" lon="6.854903500">
        <ele>108.00000</ele>
        <time>2009-06-18T14:03:24Z</time>
      </trkpt>
      <trkpt lat="50.86442910" lon="6.855205100">
        <ele>109.00000</ele>
        <time>2009-06-18T14:03:41Z</time>
      </trkpt>
      <trkpt lat="50.86426110" lon="6.855425830">
        <ele>108.00000</ele>
        <time>2009-06-18T14:03:50Z</time>
      </trkpt>
      <trkpt lat="50.86421370" lon="6.855597490">
        <ele>108.00000</ele>
        <time>2009-06-18T14:03:55Z</time>
      </trkpt>
      <trkpt lat="50.86422730" lon="6.855758420">
        <ele>108.00000</ele>
        <time>2009-06-18T14:03:59Z</time>
      </trkpt>
      <trkpt lat="50.86605050" lon="6.861083200">
        <ele>99.000000</ele>
        <time>2009-06-18T14:06:32Z</time>
      </trkpt>
      <trkpt lat="50.86662580" lon="6.862059400">
        <ele>97.000000</ele>
        <time>2009-06-18T14:07:06Z</time>
      </trkpt>
      <trkpt lat="50.86673360" lon="6.862201800">
        <ele>96.000000</ele>
        <time>2009-06-18T14:07:11Z</time>
      </trkpt>
      <trkpt lat="50.86737580" lon="6.862821500">
        <ele>94.000000</ele>
        <time>2009-06-18T14:07:41Z</time>
      </trkpt>
      <trkpt lat="50.86765430" lon="6.863243700">
        <ele>93.000000</ele>
        <time>2009-06-18T14:07:57Z</time>
      </trkpt>
      <trkpt lat="50.86820230" lon="6.864219700">
        <ele>92.000000</ele>
        <time>2009-06-18T14:08:30Z</time>
      </trkpt>
      <trkpt lat="50.86830560" lon="6.864373300">
        <ele>92.000000</ele>
        <time>2009-06-18T14:08:35Z</time>
      </trkpt>
      <trkpt lat="50.86830110" lon="6.864378700">
        <ele>92.000000</ele>
        <time>2009-06-18T14:08:36Z</time>
      </trkpt>
      <trkpt lat="50.86842240" lon="6.864669300">
        <ele>91.000000</ele>
        <time>2009-06-18T14:08:44Z</time>
      </trkpt>
      <trkpt lat="50.86852570" lon="6.865080500">
        <ele>91.000000</ele>
        <time>2009-06-18T14:08:56Z</time>
      </trkpt>
      <trkpt lat="50.86852120" lon="6.865086100">
        <ele>91.000000</ele>
        <time>2009-06-18T14:08:56Z</time>
      </trkpt>
      <trkpt lat="50.86844480" lon="6.865195700">
        <ele>91.000000</ele>
        <time>2009-06-18T14:09:00Z</time>
      </trkpt>
      <trkpt lat="50.86844480" lon="6.865190200">
        <ele>91.000000</ele>
        <time>2009-06-18T14:09:00Z</time>
      </trkpt>
      <trkpt lat="50.86839990" lon="6.865299900">
        <ele>91.000000</ele>
        <time>2009-06-18T14:09:03Z</time>
      </trkpt>
      <trkpt lat="50.86839990" lon="6.865305400">
        <ele>91.000000</ele>
        <time>2009-06-18T14:09:04Z</time>
      </trkpt>
      <trkpt lat="50.86839090" lon="6.865426000">
        <ele>91.000000</ele>
        <time>2009-06-18T14:09:07Z</time>
      </trkpt>
      <trkpt lat="50.86837300" lon="6.865596000">
        <ele>91.000000</ele>
        <time>2009-06-18T14:09:11Z</time>
      </trkpt>
      <trkpt lat="50.86839090" lon="6.865661800">
        <ele>91.000000</ele>
        <time>2009-06-18T14:09:13Z</time>
      </trkpt>
      <trkpt lat="50.86839990" lon="6.865771500">
        <ele>91.000000</ele>
        <time>2009-06-18T14:09:16Z</time>
      </trkpt>
      <trkpt lat="50.86848080" lon="6.866067700">
        <ele>91.000000</ele>
        <time>2009-06-18T14:09:24Z</time>
      </trkpt>
      <trkpt lat="50.86847630" lon="6.866073100">
        <ele>91.000000</ele>
        <time>2009-06-18T14:09:24Z</time>
      </trkpt>
      <trkpt lat="50.86862450" lon="6.866413100">
        <ele>91.000000</ele>
        <time>2009-06-18T14:09:34Z</time>
      </trkpt>
      <trkpt lat="50.86902430" lon="6.867235500">
        <ele>90.000000</ele>
        <time>2009-06-18T14:10:01Z</time>
      </trkpt>
      <trkpt lat="50.86937040" lon="6.867981300">
        <ele>90.000000</ele>
        <time>2009-06-18T14:10:24Z</time>
      </trkpt>
      <trkpt lat="50.86949160" lon="6.868337700">
        <ele>90.000000</ele>
        <time>2009-06-18T14:10:34Z</time>
      </trkpt>
      <trkpt lat="50.86957250" lon="6.868491300">
        <ele>90.000000</ele>
        <time>2009-06-18T14:10:39Z</time>
      </trkpt>
      <trkpt lat="50.86957250" lon="6.868496700">
        <ele>90.000000</ele>
        <time>2009-06-18T14:10:39Z</time>
      </trkpt>
      <trkpt lat="50.86968480" lon="6.868683200">
        <ele>88.000000</ele>
        <time>2009-06-18T14:10:46Z</time>
      </trkpt>
      <trkpt lat="50.86980610" lon="6.868606400">
        <ele>88.000000</ele>
        <time>2009-06-18T14:10:51Z</time>
      </trkpt>
      <trkpt lat="50.86994530" lon="6.868447400">
        <ele>88.000000</ele>
        <time>2009-06-18T14:10:58Z</time>
      </trkpt>
      <trkpt lat="50.87000810" lon="6.868315800">
        <ele>88.000000</ele>
        <time>2009-06-18T14:11:02Z</time>
      </trkpt>
      <trkpt lat="50.87006660" lon="6.868282900">
        <ele>88.000000</ele>
        <time>2009-06-18T14:11:05Z</time>
      </trkpt>
      <trkpt lat="50.87015190" lon="6.868293900">
        <ele>88.000000</ele>
        <time>2009-06-18T14:11:08Z</time>
      </trkpt>
      <trkpt lat="50.87021930" lon="6.868409000">
        <ele>88.000000</ele>
        <time>2009-06-18T14:11:12Z</time>
      </trkpt>
      <trkpt lat="50.87021930" lon="6.868414500">
        <ele>88.000000</ele>
        <time>2009-06-18T14:11:12Z</time>
      </trkpt>
      <trkpt lat="50.87035860" lon="6.868643760">
        <ele>88.000000</ele>
        <time>2009-06-18T14:11:20Z</time>
      </trkpt>
      <trkpt lat="50.87053800" lon="6.868477460">
        <ele>89.000000</ele>
        <time>2009-06-18T14:11:29Z</time>
      </trkpt>
      <trkpt lat="50.87068650" lon="6.868803800">
        <ele>88.000000</ele>
        <time>2009-06-18T14:11:39Z</time>
      </trkpt>
      <trkpt lat="50.87111770" lon="6.869560500">
        <ele>88.000000</ele>
        <time>2009-06-18T14:12:05Z</time>
      </trkpt>
    </trkseg>
  </trk>
</gpx>
