<?xml version='1.0' encoding='UTF-8'?>
<gpx version="1.1" creator="https://www.komoot.de" xmlns="http://www.topografix.com/GPX/1/1" xmlns:xsi="http://www.w3.org/2001/XMLSchema-instance" xsi:schemaLocation="http://www.topografix.com/GPX/1/1 http://www.topografix.com/GPX/1/1/gpx.xsd">
  <metadata>
    <name>PW Datteln Grüne Acht 15 km</name>
    <author>
      <link href="https://www.komoot.de">
        <text>komoot</text>
        <type>text/html</type>
      </link>
    </author>
  </metadata>
  <trk>
    <name>PW Datteln Grüne Acht 15 km</name>
    <trkseg>
      <trkpt lat="51.686319" lon="7.269044">
        <ele>79.272376</ele>
        <time>2022-12-07T09:05:00.891Z</time>
      </trkpt>
      <trkpt lat="51.686363" lon="7.269149">
        <ele>79.272376</ele>
        <time>2022-12-07T09:05:09.857Z</time>
      </trkpt>
      <trkpt lat="51.686222" lon="7.269305">
        <ele>79.272376</ele>
        <time>2022-12-07T09:05:27.624Z</time>
      </trkpt>
      <trkpt lat="51.686160" lon="7.269373">
        <ele>79.272376</ele>
        <time>2022-12-07T09:05:35.560Z</time>
      </trkpt>
      <trkpt lat="51.685876" lon="7.268733">
        <ele>79.272376</ele>
        <time>2022-12-07T09:06:28.938Z</time>
      </trkpt>
      <trkpt lat="51.685819" lon="7.268681">
        <ele>79.272376</ele>
        <time>2022-12-07T09:06:35.966Z</time>
      </trkpt>
      <trkpt lat="51.685610" lon="7.268611">
        <ele>79.941418</ele>
        <time>2022-12-07T09:06:59.004Z</time>
      </trkpt>
      <trkpt lat="51.685582" lon="7.268513">
        <ele>80.174417</ele>
        <time>2022-12-07T09:07:06.979Z</time>
      </trkpt>
      <trkpt lat="51.685457" lon="7.267812">
        <ele>81.749438</ele>
        <time>2022-12-07T09:07:57.166Z</time>
      </trkpt>
      <trkpt lat="51.685288" lon="7.266858">
        <ele>83.891841</ele>
        <time>2022-12-07T09:09:07.301Z</time>
      </trkpt>
      <trkpt lat="51.684831" lon="7.263508">
        <ele>91.532208</ele>
        <time>2022-12-07T09:13:07.942Z</time>
      </trkpt>
      <trkpt lat="51.684803" lon="7.263558">
        <ele>91.683595</ele>
        <time>2022-12-07T09:13:12.564Z</time>
      </trkpt>
      <trkpt lat="51.684669" lon="7.263795">
        <ele>92.251395</ele>
        <time>2022-12-07T09:13:34.636Z</time>
      </trkpt>
      <trkpt lat="51.684551" lon="7.263061">
        <ele>93.208962</ele>
        <time>2022-12-07T09:14:26.916Z</time>
      </trkpt>
      <trkpt lat="51.684385" lon="7.262057">
        <ele>94.521151</ele>
        <time>2022-12-07T09:15:36.245Z</time>
      </trkpt>
      <trkpt lat="51.684186" lon="7.260820">
        <ele>95.525225</ele>
        <time>2022-12-07T09:16:58.608Z</time>
      </trkpt>
      <trkpt lat="51.684155" lon="7.260855">
        <ele>95.489392</ele>
        <time>2022-12-07T09:17:02.803Z</time>
      </trkpt>
      <trkpt lat="51.684186" lon="7.260820">
        <ele>95.453559</ele>
        <time>2022-12-07T09:17:06.816Z</time>
      </trkpt>
      <trkpt lat="51.684730" lon="7.260081">
        <ele>94.780047</ele>
        <time>2022-12-07T09:18:19.046Z</time>
      </trkpt>
      <trkpt lat="51.685273" lon="7.259015">
        <ele>93.901965</ele>
        <time>2022-12-07T09:19:48.133Z</time>
      </trkpt>
      <trkpt lat="51.685962" lon="7.257466">
        <ele>91.106021</ele>
        <time>2022-12-07T09:21:52.207Z</time>
      </trkpt>
      <trkpt lat="51.686422" lon="7.257273">
        <ele>89.981654</ele>
        <time>2022-12-07T09:22:42.416Z</time>
      </trkpt>
      <trkpt lat="51.687757" lon="7.256544">
        <ele>86.755246</ele>
        <time>2022-12-07T09:25:10.052Z</time>
      </trkpt>
      <trkpt lat="51.687802" lon="7.256520">
        <ele>86.647006</ele>
        <time>2022-12-07T09:25:15.492Z</time>
      </trkpt>
      <trkpt lat="51.687489" lon="7.254901">
        <ele>84.732226</ele>
        <time>2022-12-07T09:27:04.800Z</time>
      </trkpt>
      <trkpt lat="51.687145" lon="7.253226">
        <ele>83.097338</ele>
        <time>2022-12-07T09:28:57.417Z</time>
      </trkpt>
      <trkpt lat="51.686962" lon="7.252342">
        <ele>82.927385</ele>
        <time>2022-12-07T09:29:56.186Z</time>
      </trkpt>
      <trkpt lat="51.686685" lon="7.250671">
        <ele>82.845026</ele>
        <time>2022-12-07T09:31:44.246Z</time>
      </trkpt>
      <trkpt lat="51.686670" lon="7.250565">
        <ele>82.839850</ele>
        <time>2022-12-07T09:31:51.027Z</time>
      </trkpt>
      <trkpt lat="51.686416" lon="7.249300">
        <ele>83.909944</ele>
        <time>2022-12-07T09:33:15.373Z</time>
      </trkpt>
      <trkpt lat="51.686349" lon="7.248967">
        <ele>84.269037</ele>
        <time>2022-12-07T09:33:38.844Z</time>
      </trkpt>
      <trkpt lat="51.686242" lon="7.248888">
        <ele>84.463725</ele>
        <time>2022-12-07T09:33:50.899Z</time>
      </trkpt>
      <trkpt lat="51.686064" lon="7.248596">
        <ele>84.883757</ele>
        <time>2022-12-07T09:34:18.675Z</time>
      </trkpt>
      <trkpt lat="51.685688" lon="7.248121">
        <ele>85.673910</ele>
        <time>2022-12-07T09:35:10.227Z</time>
      </trkpt>
      <trkpt lat="51.684844" lon="7.247265">
        <ele>88.436902</ele>
        <time>2022-12-07T09:36:59.965Z</time>
      </trkpt>
      <trkpt lat="51.684209" lon="7.246604">
        <ele>90.602777</ele>
        <time>2022-12-07T09:38:24.099Z</time>
      </trkpt>
      <trkpt lat="51.684111" lon="7.246501">
        <ele>90.937993</ele>
        <time>2022-12-07T09:38:37.363Z</time>
      </trkpt>
      <trkpt lat="51.683745" lon="7.246253">
        <ele>91.518402</ele>
        <time>2022-12-07T09:39:20.804Z</time>
      </trkpt>
      <trkpt lat="51.683466" lon="7.246167">
        <ele>91.926862</ele>
        <time>2022-12-07T09:39:51.219Z</time>
      </trkpt>
      <trkpt lat="51.683013" lon="7.246181">
        <ele>92.578391</ele>
        <time>2022-12-07T09:40:38.816Z</time>
      </trkpt>
      <trkpt lat="51.682656" lon="7.246296">
        <ele>93.101892</ele>
        <time>2022-12-07T09:41:15.887Z</time>
      </trkpt>
      <trkpt lat="51.681738" lon="7.246832">
        <ele>93.902219</ele>
        <time>2022-12-07T09:42:53.654Z</time>
      </trkpt>
      <trkpt lat="51.681087" lon="7.247272">
        <ele>94.280529</ele>
        <time>2022-12-07T09:44:05.600Z</time>
      </trkpt>
      <trkpt lat="51.680514" lon="7.247661">
        <ele>94.834153</ele>
        <time>2022-12-07T09:45:10.081Z</time>
      </trkpt>
      <trkpt lat="51.679977" lon="7.248102">
        <ele>95.827806</ele>
        <time>2022-12-07T09:46:13.715Z</time>
      </trkpt>
      <trkpt lat="51.678668" lon="7.249048">
        <ele>97.928845</ele>
        <time>2022-12-07T09:48:47.570Z</time>
      </trkpt>
      <trkpt lat="51.678472" lon="7.249161">
        <ele>98.146061</ele>
        <time>2022-12-07T09:49:09.357Z</time>
      </trkpt>
      <trkpt lat="51.678031" lon="7.249212">
        <ele>98.607456</ele>
        <time>2022-12-07T09:49:55.034Z</time>
      </trkpt>
      <trkpt lat="51.677534" lon="7.249281">
        <ele>99.128027</ele>
        <time>2022-12-07T09:50:45.961Z</time>
      </trkpt>
      <trkpt lat="51.677021" lon="7.249506">
        <ele>99.345471</ele>
        <time>2022-12-07T09:51:39.558Z</time>
      </trkpt>
      <trkpt lat="51.676810" lon="7.249697">
        <ele>99.341726</ele>
        <time>2022-12-07T09:52:03.831Z</time>
      </trkpt>
      <trkpt lat="51.676319" lon="7.250357">
        <ele>99.331832</ele>
        <time>2022-12-07T09:53:08.482Z</time>
      </trkpt>
      <trkpt lat="51.676077" lon="7.250956">
        <ele>99.324970</ele>
        <time>2022-12-07T09:53:53.449Z</time>
      </trkpt>
      <trkpt lat="51.675791" lon="7.251827">
        <ele>100.182022</ele>
        <time>2022-12-07T09:54:57.311Z</time>
      </trkpt>
      <trkpt lat="51.675688" lon="7.252194">
        <ele>100.653308</ele>
        <time>2022-12-07T09:55:22.510Z</time>
      </trkpt>
      <trkpt lat="51.675534" lon="7.252593">
        <ele>101.203139</ele>
        <time>2022-12-07T09:55:53.092Z</time>
      </trkpt>
      <trkpt lat="51.675235" lon="7.253033">
        <ele>101.966811</ele>
        <time>2022-12-07T09:56:36.662Z</time>
      </trkpt>
      <trkpt lat="51.675093" lon="7.253119">
        <ele>102.252982</ele>
        <time>2022-12-07T09:56:54.628Z</time>
      </trkpt>
      <trkpt lat="51.674794" lon="7.253465">
        <ele>103.207878</ele>
        <time>2022-12-07T09:57:35.977Z</time>
      </trkpt>
      <trkpt lat="51.674413" lon="7.254254">
        <ele>105.695474</ele>
        <time>2022-12-07T09:58:46.301Z</time>
      </trkpt>
      <trkpt lat="51.674266" lon="7.254496">
        <ele>106.538167</ele>
        <time>2022-12-07T09:59:11.124Z</time>
      </trkpt>
      <trkpt lat="51.674144" lon="7.254641">
        <ele>107.146128</ele>
        <time>2022-12-07T09:59:28.156Z</time>
      </trkpt>
      <trkpt lat="51.673861" lon="7.254692">
        <ele>108.288432</ele>
        <time>2022-12-07T10:00:00.922Z</time>
      </trkpt>
      <trkpt lat="51.673331" lon="7.254741">
        <ele>110.436651</ele>
        <time>2022-12-07T10:01:00.607Z</time>
      </trkpt>
      <trkpt lat="51.672497" lon="7.254817">
        <ele>113.915977</ele>
        <time>2022-12-07T10:02:38.931Z</time>
      </trkpt>
      <trkpt lat="51.672275" lon="7.254854">
        <ele>114.845580</ele>
        <time>2022-12-07T10:03:04.212Z</time>
      </trkpt>
      <trkpt lat="51.672163" lon="7.254914">
        <ele>115.337155</ele>
        <time>2022-12-07T10:03:17.679Z</time>
      </trkpt>
      <trkpt lat="51.671997" lon="7.255121">
        <ele>116.211211</ele>
        <time>2022-12-07T10:03:41.108Z</time>
      </trkpt>
      <trkpt lat="51.671681" lon="7.255537">
        <ele>117.655056</ele>
        <time>2022-12-07T10:04:26.989Z</time>
      </trkpt>
      <trkpt lat="51.671550" lon="7.255633">
        <ele>117.940567</ele>
        <time>2022-12-07T10:04:43.290Z</time>
      </trkpt>
      <trkpt lat="51.671278" lon="7.255738">
        <ele>118.495513</ele>
        <time>2022-12-07T10:05:14.654Z</time>
      </trkpt>
      <trkpt lat="51.671051" lon="7.255925">
        <ele>119.001298</ele>
        <time>2022-12-07T10:05:43.048Z</time>
      </trkpt>
      <trkpt lat="51.670901" lon="7.256170">
        <ele>119.424940</ele>
        <time>2022-12-07T10:06:06.613Z</time>
      </trkpt>
      <trkpt lat="51.670678" lon="7.256969">
        <ele>120.503120</ele>
        <time>2022-12-07T10:07:04.209Z</time>
      </trkpt>
      <trkpt lat="51.670570" lon="7.257442">
        <ele>120.836462</ele>
        <time>2022-12-07T10:07:36.061Z</time>
      </trkpt>
      <trkpt lat="51.670465" lon="7.257791">
        <ele>120.274319</ele>
        <time>2022-12-07T10:08:00.983Z</time>
      </trkpt>
      <trkpt lat="51.670324" lon="7.258118">
        <ele>119.697147</ele>
        <time>2022-12-07T10:08:26.581Z</time>
      </trkpt>
      <trkpt lat="51.669467" lon="7.259801">
        <ele>116.432225</ele>
        <time>2022-12-07T10:10:49.699Z</time>
      </trkpt>
      <trkpt lat="51.669176" lon="7.260273">
        <ele>115.042289</ele>
        <time>2022-12-07T10:11:34.541Z</time>
      </trkpt>
      <trkpt lat="51.669033" lon="7.260585">
        <ele>114.232067</ele>
        <time>2022-12-07T10:12:00.669Z</time>
      </trkpt>
      <trkpt lat="51.668880" lon="7.261023">
        <ele>113.182207</ele>
        <time>2022-12-07T10:12:34.472Z</time>
      </trkpt>
      <trkpt lat="51.668795" lon="7.261465">
        <ele>112.215745</ele>
        <time>2022-12-07T10:13:05.553Z</time>
      </trkpt>
      <trkpt lat="51.668635" lon="7.264836">
        <ele>108.412553</ele>
        <time>2022-12-07T10:16:44.826Z</time>
      </trkpt>
      <trkpt lat="51.667155" lon="7.262861">
        <ele>112.778066</ele>
        <time>2022-12-07T10:20:16.409Z</time>
      </trkpt>
      <trkpt lat="51.666703" lon="7.262612">
        <ele>114.109397</ele>
        <time>2022-12-07T10:21:11.171Z</time>
      </trkpt>
      <trkpt lat="51.666103" lon="7.262281">
        <ele>115.883010</ele>
        <time>2022-12-07T10:22:22.320Z</time>
      </trkpt>
      <trkpt lat="51.665220" lon="7.261794">
        <ele>118.012044</ele>
        <time>2022-12-07T10:24:02.042Z</time>
      </trkpt>
      <trkpt lat="51.664359" lon="7.261305">
        <ele>118.626042</ele>
        <time>2022-12-07T10:25:34.996Z</time>
      </trkpt>
      <trkpt lat="51.662945" lon="7.259228">
        <ele>121.223598</ele>
        <time>2022-12-07T10:28:48.298Z</time>
      </trkpt>
      <trkpt lat="51.662919" lon="7.258989">
        <ele>121.482230</ele>
        <time>2022-12-07T10:29:05.159Z</time>
      </trkpt>
      <trkpt lat="51.662893" lon="7.258746">
        <ele>121.745063</ele>
        <time>2022-12-07T10:29:22.360Z</time>
      </trkpt>
      <trkpt lat="51.663018" lon="7.258783">
        <ele>121.963449</ele>
        <time>2022-12-07T10:29:36.934Z</time>
      </trkpt>
      <trkpt lat="51.663246" lon="7.258769">
        <ele>122.784212</ele>
        <time>2022-12-07T10:30:03.497Z</time>
      </trkpt>
      <trkpt lat="51.664677" lon="7.258133">
        <ele>130.933758</ele>
        <time>2022-12-07T10:33:05.451Z</time>
      </trkpt>
      <trkpt lat="51.664614" lon="7.258087">
        <ele>131.313459</ele>
        <time>2022-12-07T10:33:15.172Z</time>
      </trkpt>
      <trkpt lat="51.664574" lon="7.257993">
        <ele>131.701653</ele>
        <time>2022-12-07T10:33:22.855Z</time>
      </trkpt>
      <trkpt lat="51.664402" lon="7.257307">
        <ele>132.261057</ele>
        <time>2022-12-07T10:34:11.908Z</time>
      </trkpt>
      <trkpt lat="51.664260" lon="7.257049">
        <ele>132.382442</ele>
        <time>2022-12-07T10:34:35.742Z</time>
      </trkpt>
      <trkpt lat="51.664119" lon="7.256911">
        <ele>132.476027</ele>
        <time>2022-12-07T10:34:52.596Z</time>
      </trkpt>
      <trkpt lat="51.663976" lon="7.256947">
        <ele>132.558143</ele>
        <time>2022-12-07T10:35:07.569Z</time>
      </trkpt>
      <trkpt lat="51.663616" lon="7.257429">
        <ele>132.823645</ele>
        <time>2022-12-07T10:35:55.139Z</time>
      </trkpt>
      <trkpt lat="51.663489" lon="7.257516">
        <ele>132.901935</ele>
        <time>2022-12-07T10:36:09.329Z</time>
      </trkpt>
      <trkpt lat="51.663421" lon="7.257521">
        <ele>132.940555</ele>
        <time>2022-12-07T10:36:17.075Z</time>
      </trkpt>
      <trkpt lat="51.663320" lon="7.257422">
        <ele>133.007619</ele>
        <time>2022-12-07T10:36:29.111Z</time>
      </trkpt>
      <trkpt lat="51.663312" lon="7.257384">
        <ele>133.021741</ele>
        <time>2022-12-07T10:36:31.878Z</time>
      </trkpt>
      <trkpt lat="51.663209" lon="7.256892">
        <ele>132.491678</ele>
        <time>2022-12-07T10:37:06.488Z</time>
      </trkpt>
      <trkpt lat="51.663156" lon="7.256818">
        <ele>132.340996</ele>
        <time>2022-12-07T10:37:14.271Z</time>
      </trkpt>
      <trkpt lat="51.662875" lon="7.256623">
        <ele>131.683521</ele>
        <time>2022-12-07T10:37:47.861Z</time>
      </trkpt>
      <trkpt lat="51.662710" lon="7.256176">
        <ele>130.990106</ele>
        <time>2022-12-07T10:38:21.705Z</time>
      </trkpt>
      <trkpt lat="51.662579" lon="7.256115">
        <ele>130.697062</ele>
        <time>2022-12-07T10:38:35.669Z</time>
      </trkpt>
      <trkpt lat="51.662400" lon="7.256154">
        <ele>130.308872</ele>
        <time>2022-12-07T10:38:54.849Z</time>
      </trkpt>
      <trkpt lat="51.662299" lon="7.256307">
        <ele>130.011019</ele>
        <time>2022-12-07T10:39:09.264Z</time>
      </trkpt>
      <trkpt lat="51.662207" lon="7.256517">
        <ele>129.668288</ele>
        <time>2022-12-07T10:39:26.207Z</time>
      </trkpt>
      <trkpt lat="51.662064" lon="7.256634">
        <ele>129.323649</ele>
        <time>2022-12-07T10:39:42.909Z</time>
      </trkpt>
      <trkpt lat="51.661949" lon="7.256562">
        <ele>129.135906</ele>
        <time>2022-12-07T10:39:56.111Z</time>
      </trkpt>
      <trkpt lat="51.661839" lon="7.256420">
        <ele>129.011171</ele>
        <time>2022-12-07T10:40:10.304Z</time>
      </trkpt>
      <trkpt lat="51.661797" lon="7.256317">
        <ele>128.943493</ele>
        <time>2022-12-07T10:40:18.774Z</time>
      </trkpt>
      <trkpt lat="51.661717" lon="7.255926">
        <ele>128.717433</ele>
        <time>2022-12-07T10:40:44.876Z</time>
      </trkpt>
      <trkpt lat="51.661544" lon="7.255785">
        <ele>128.545845</ele>
        <time>2022-12-07T10:41:05.325Z</time>
      </trkpt>
      <trkpt lat="51.661342" lon="7.255470">
        <ele>128.297082</ele>
        <time>2022-12-07T10:41:34.579Z</time>
      </trkpt>
      <trkpt lat="51.661262" lon="7.255396">
        <ele>128.215442</ele>
        <time>2022-12-07T10:41:44.086Z</time>
      </trkpt>
      <trkpt lat="51.661213" lon="7.255368">
        <ele>128.169425</ele>
        <time>2022-12-07T10:41:49.561Z</time>
      </trkpt>
      <trkpt lat="51.661076" lon="7.255420">
        <ele>128.044844</ele>
        <time>2022-12-07T10:42:04.125Z</time>
      </trkpt>
      <trkpt lat="51.660974" lon="7.255413">
        <ele>127.954477</ele>
        <time>2022-12-07T10:42:14.620Z</time>
      </trkpt>
      <trkpt lat="51.660919" lon="7.255229">
        <ele>127.842331</ele>
        <time>2022-12-07T10:42:28.577Z</time>
      </trkpt>
      <trkpt lat="51.660774" lon="7.254980">
        <ele>127.654808</ele>
        <time>2022-12-07T10:42:50.138Z</time>
      </trkpt>
      <trkpt lat="51.660542" lon="7.254103">
        <ele>126.349160</ele>
        <time>2022-12-07T10:43:50.930Z</time>
      </trkpt>
      <trkpt lat="51.660274" lon="7.253741">
        <ele>125.521031</ele>
        <time>2022-12-07T10:44:27.936Z</time>
      </trkpt>
      <trkpt lat="51.660235" lon="7.253593">
        <ele>125.284777</ele>
        <time>2022-12-07T10:44:38.688Z</time>
      </trkpt>
      <trkpt lat="51.660226" lon="7.253428">
        <ele>125.041417</ele>
        <time>2022-12-07T10:44:49.509Z</time>
      </trkpt>
      <trkpt lat="51.660285" lon="7.253192">
        <ele>124.667576</ele>
        <time>2022-12-07T10:45:06.250Z</time>
      </trkpt>
      <trkpt lat="51.660281" lon="7.253113">
        <ele>124.551120</ele>
        <time>2022-12-07T10:45:11.565Z</time>
      </trkpt>
      <trkpt lat="51.660150" lon="7.252676">
        <ele>123.838022</ele>
        <time>2022-12-07T10:45:43.357Z</time>
      </trkpt>
      <trkpt lat="51.659919" lon="7.252119">
        <ele>123.006207</ele>
        <time>2022-12-07T10:46:28.315Z</time>
      </trkpt>
      <trkpt lat="51.659839" lon="7.252041">
        <ele>122.854537</ele>
        <time>2022-12-07T10:46:38.114Z</time>
      </trkpt>
      <trkpt lat="51.659330" lon="7.251763">
        <ele>121.982710</ele>
        <time>2022-12-07T10:47:34.413Z</time>
      </trkpt>
      <trkpt lat="51.658989" lon="7.251517">
        <ele>121.376658</ele>
        <time>2022-12-07T10:48:12.851Z</time>
      </trkpt>
      <trkpt lat="51.658890" lon="7.251396">
        <ele>121.175113</ele>
        <time>2022-12-07T10:48:25.461Z</time>
      </trkpt>
      <trkpt lat="51.658772" lon="7.251060">
        <ele>120.786555</ele>
        <time>2022-12-07T10:48:49.612Z</time>
      </trkpt>
      <trkpt lat="51.658732" lon="7.250991">
        <ele>120.691517</ele>
        <time>2022-12-07T10:48:55.565Z</time>
      </trkpt>
      <trkpt lat="51.658706" lon="7.250926">
        <ele>120.613684</ele>
        <time>2022-12-07T10:49:00.603Z</time>
      </trkpt>
      <trkpt lat="51.658911" lon="7.250751">
        <ele>120.264662</ele>
        <time>2022-12-07T10:49:24.517Z</time>
      </trkpt>
      <trkpt lat="51.659596" lon="7.250232">
        <ele>119.220184</ele>
        <time>2022-12-07T10:50:42.012Z</time>
      </trkpt>
      <trkpt lat="51.659682" lon="7.250107">
        <ele>119.060390</ele>
        <time>2022-12-07T10:50:54.164Z</time>
      </trkpt>
      <trkpt lat="51.659776" lon="7.250201">
        <ele>118.907742</ele>
        <time>2022-12-07T10:51:05.558Z</time>
      </trkpt>
      <trkpt lat="51.659876" lon="7.249733">
        <ele>118.484019</ele>
        <time>2022-12-07T10:51:37.588Z</time>
      </trkpt>
      <trkpt lat="51.659949" lon="7.249508">
        <ele>118.266659</ele>
        <time>2022-12-07T10:51:53.525Z</time>
      </trkpt>
      <trkpt lat="51.660049" lon="7.248966">
        <ele>117.659102</ele>
        <time>2022-12-07T10:52:29.911Z</time>
      </trkpt>
      <trkpt lat="51.660072" lon="7.248596">
        <ele>117.087862</ele>
        <time>2022-12-07T10:52:54.807Z</time>
      </trkpt>
      <trkpt lat="51.660056" lon="7.248419">
        <ele>116.813083</ele>
        <time>2022-12-07T10:53:06.910Z</time>
      </trkpt>
      <trkpt lat="51.659905" lon="7.247529">
        <ele>115.395648</ele>
        <time>2022-12-07T10:54:08.564Z</time>
      </trkpt>
      <trkpt lat="51.659865" lon="7.247076">
        <ele>114.692732</ele>
        <time>2022-12-07T10:54:39.151Z</time>
      </trkpt>
      <trkpt lat="51.659743" lon="7.246410">
        <ele>113.625942</ele>
        <time>2022-12-07T10:55:24.128Z</time>
      </trkpt>
      <trkpt lat="51.659747" lon="7.246231">
        <ele>113.586813</ele>
        <time>2022-12-07T10:55:35.864Z</time>
      </trkpt>
      <trkpt lat="51.659655" lon="7.246272">
        <ele>113.769839</ele>
        <time>2022-12-07T10:55:45.929Z</time>
      </trkpt>
      <trkpt lat="51.659747" lon="7.246231">
        <ele>113.952866</ele>
        <time>2022-12-07T10:55:56.574Z</time>
      </trkpt>
      <trkpt lat="51.660115" lon="7.246129">
        <ele>114.668859</ele>
        <time>2022-12-07T10:56:36.431Z</time>
      </trkpt>
      <trkpt lat="51.660499" lon="7.246082">
        <ele>115.407297</ele>
        <time>2022-12-07T10:57:18.103Z</time>
      </trkpt>
      <trkpt lat="51.660743" lon="7.246104">
        <ele>115.875898</ele>
        <time>2022-12-07T10:57:44.387Z</time>
      </trkpt>
      <trkpt lat="51.661256" lon="7.246212">
        <ele>116.867926</ele>
        <time>2022-12-07T10:58:42.206Z</time>
      </trkpt>
      <trkpt lat="51.661365" lon="7.246270">
        <ele>117.151940</ele>
        <time>2022-12-07T10:58:55.325Z</time>
      </trkpt>
      <trkpt lat="51.661826" lon="7.246785">
        <ele>118.669956</ele>
        <time>2022-12-07T10:59:58.226Z</time>
      </trkpt>
      <trkpt lat="51.661951" lon="7.246873">
        <ele>119.039126</ele>
        <time>2022-12-07T11:00:13.466Z</time>
      </trkpt>
      <trkpt lat="51.662088" lon="7.246888">
        <ele>119.410777</ele>
        <time>2022-12-07T11:00:28.972Z</time>
      </trkpt>
      <trkpt lat="51.662478" lon="7.246844">
        <ele>120.468911</ele>
        <time>2022-12-07T11:01:11.307Z</time>
      </trkpt>
      <trkpt lat="51.662901" lon="7.246981">
        <ele>121.636654</ele>
        <time>2022-12-07T11:01:57.238Z</time>
      </trkpt>
      <trkpt lat="51.663446" lon="7.247178">
        <ele>122.587726</ele>
        <time>2022-12-07T11:02:56.677Z</time>
      </trkpt>
      <trkpt lat="51.664266" lon="7.247629">
        <ele>123.957109</ele>
        <time>2022-12-07T11:04:28.990Z</time>
      </trkpt>
      <trkpt lat="51.665710" lon="7.248408">
        <ele>124.650255</ele>
        <time>2022-12-07T11:07:06.182Z</time>
      </trkpt>
      <trkpt lat="51.666707" lon="7.248953">
        <ele>124.026527</ele>
        <time>2022-12-07T11:08:54.510Z</time>
      </trkpt>
      <trkpt lat="51.667560" lon="7.249378">
        <ele>122.389081</ele>
        <time>2022-12-07T11:10:28.034Z</time>
      </trkpt>
      <trkpt lat="51.667980" lon="7.249655">
        <ele>121.556824</ele>
        <time>2022-12-07T11:11:15.303Z</time>
      </trkpt>
      <trkpt lat="51.668108" lon="7.249783">
        <ele>121.327102</ele>
        <time>2022-12-07T11:11:30.857Z</time>
      </trkpt>
      <trkpt lat="51.668673" lon="7.250598">
        <ele>120.797023</ele>
        <time>2022-12-07T11:12:48.573Z</time>
      </trkpt>
      <trkpt lat="51.669360" lon="7.251697">
        <ele>120.120355</ele>
        <time>2022-12-07T11:14:25.937Z</time>
      </trkpt>
      <trkpt lat="51.669434" lon="7.251817">
        <ele>120.076524</ele>
        <time>2022-12-07T11:14:36.696Z</time>
      </trkpt>
      <trkpt lat="51.670189" lon="7.252963">
        <ele>119.770312</ele>
        <time>2022-12-07T11:16:21.392Z</time>
      </trkpt>
      <trkpt lat="51.670695" lon="7.253803">
        <ele>119.560893</ele>
        <time>2022-12-07T11:17:35.827Z</time>
      </trkpt>
      <trkpt lat="51.670815" lon="7.253944">
        <ele>119.536944</ele>
        <time>2022-12-07T11:17:51.233Z</time>
      </trkpt>
      <trkpt lat="51.671536" lon="7.254483">
        <ele>119.408764</ele>
        <time>2022-12-07T11:19:11.361Z</time>
      </trkpt>
      <trkpt lat="51.671707" lon="7.254610">
        <ele>119.378399</ele>
        <time>2022-12-07T11:19:30.536Z</time>
      </trkpt>
      <trkpt lat="51.671967" lon="7.254771">
        <ele>119.333478</ele>
        <time>2022-12-07T11:19:58.619Z</time>
      </trkpt>
      <trkpt lat="51.672163" lon="7.254914">
        <ele>119.298780</ele>
        <time>2022-12-07T11:20:20.503Z</time>
      </trkpt>
      <trkpt lat="51.671997" lon="7.255121">
        <ele>119.348499</ele>
        <time>2022-12-07T11:20:41.736Z</time>
      </trkpt>
      <trkpt lat="51.671681" lon="7.255537">
        <ele>119.743440</ele>
        <time>2022-12-07T11:21:23.478Z</time>
      </trkpt>
      <trkpt lat="51.671550" lon="7.255633">
        <ele>119.882750</ele>
        <time>2022-12-07T11:21:38.269Z</time>
      </trkpt>
      <trkpt lat="51.671278" lon="7.255738">
        <ele>120.153524</ele>
        <time>2022-12-07T11:22:07.350Z</time>
      </trkpt>
      <trkpt lat="51.671051" lon="7.255925">
        <ele>120.400311</ele>
        <time>2022-12-07T11:22:34.520Z</time>
      </trkpt>
      <trkpt lat="51.670901" lon="7.256170">
        <ele>120.607019</ele>
        <time>2022-12-07T11:22:57.454Z</time>
      </trkpt>
      <trkpt lat="51.670678" lon="7.256969">
        <ele>120.818820</ele>
        <time>2022-12-07T11:23:55.050Z</time>
      </trkpt>
      <trkpt lat="51.670570" lon="7.257442">
        <ele>120.293636</ele>
        <time>2022-12-07T11:24:26.902Z</time>
      </trkpt>
      <trkpt lat="51.670465" lon="7.257791">
        <ele>119.889464</ele>
        <time>2022-12-07T11:24:51.824Z</time>
      </trkpt>
      <trkpt lat="51.670324" lon="7.258118">
        <ele>119.474485</ele>
        <time>2022-12-07T11:25:17.422Z</time>
      </trkpt>
      <trkpt lat="51.669467" lon="7.259801">
        <ele>116.304051</ele>
        <time>2022-12-07T11:27:40.541Z</time>
      </trkpt>
      <trkpt lat="51.669176" lon="7.260273">
        <ele>114.820128</ele>
        <time>2022-12-07T11:28:25.383Z</time>
      </trkpt>
      <trkpt lat="51.669033" lon="7.260585">
        <ele>113.955119</ele>
        <time>2022-12-07T11:28:51.510Z</time>
      </trkpt>
      <trkpt lat="51.668880" lon="7.261023">
        <ele>112.834267</ele>
        <time>2022-12-07T11:29:25.313Z</time>
      </trkpt>
      <trkpt lat="51.668795" lon="7.261465">
        <ele>111.802453</ele>
        <time>2022-12-07T11:29:56.394Z</time>
      </trkpt>
      <trkpt lat="51.668635" lon="7.264836">
        <ele>104.950026</ele>
        <time>2022-12-07T11:33:39.538Z</time>
      </trkpt>
      <trkpt lat="51.668628" lon="7.265321">
        <ele>103.721754</ele>
        <time>2022-12-07T11:34:11.196Z</time>
      </trkpt>
      <trkpt lat="51.668624" lon="7.265632">
        <ele>102.934185</ele>
        <time>2022-12-07T11:34:31.569Z</time>
      </trkpt>
      <trkpt lat="51.669325" lon="7.267016">
        <ele>98.376131</ele>
        <time>2022-12-07T11:36:32.999Z</time>
      </trkpt>
      <trkpt lat="51.669588" lon="7.267507">
        <ele>96.204091</ele>
        <time>2022-12-07T11:37:18.194Z</time>
      </trkpt>
      <trkpt lat="51.670133" lon="7.268542">
        <ele>91.658545</ele>
        <time>2022-12-07T11:38:52.747Z</time>
      </trkpt>
      <trkpt lat="51.670540" lon="7.269274">
        <ele>88.653175</ele>
        <time>2022-12-07T11:40:00.187Z</time>
      </trkpt>
      <trkpt lat="51.670967" lon="7.270040">
        <ele>87.451190</ele>
        <time>2022-12-07T11:41:08.584Z</time>
      </trkpt>
      <trkpt lat="51.671210" lon="7.270413">
        <ele>86.819859</ele>
        <time>2022-12-07T11:41:43.100Z</time>
      </trkpt>
      <trkpt lat="51.671641" lon="7.271073">
        <ele>85.701362</ele>
        <time>2022-12-07T11:42:42.637Z</time>
      </trkpt>
      <trkpt lat="51.671896" lon="7.271480">
        <ele>85.380996</ele>
        <time>2022-12-07T11:43:19.224Z</time>
      </trkpt>
      <trkpt lat="51.672037" lon="7.271706">
        <ele>85.342608</ele>
        <time>2022-12-07T11:43:39.212Z</time>
      </trkpt>
      <trkpt lat="51.672215" lon="7.272013">
        <ele>85.292281</ele>
        <time>2022-12-07T11:44:05.508Z</time>
      </trkpt>
      <trkpt lat="51.672524" lon="7.272785">
        <ele>85.182254</ele>
        <time>2022-12-07T11:45:02.924Z</time>
      </trkpt>
      <trkpt lat="51.673158" lon="7.274244">
        <ele>84.379707</ele>
        <time>2022-12-07T11:46:54.680Z</time>
      </trkpt>
      <trkpt lat="51.673445" lon="7.274906">
        <ele>83.741983</ele>
        <time>2022-12-07T11:47:46.023Z</time>
      </trkpt>
      <trkpt lat="51.673998" lon="7.276197">
        <ele>82.374974</ele>
        <time>2022-12-07T11:49:27.379Z</time>
      </trkpt>
      <trkpt lat="51.674272" lon="7.276769">
        <ele>81.544083</ele>
        <time>2022-12-07T11:50:13.955Z</time>
      </trkpt>
      <trkpt lat="51.674471" lon="7.277265">
        <ele>80.864965</ele>
        <time>2022-12-07T11:50:51.768Z</time>
      </trkpt>
      <trkpt lat="51.674816" lon="7.277923">
        <ele>79.874417</ele>
        <time>2022-12-07T11:51:47.013Z</time>
      </trkpt>
      <trkpt lat="51.675393" lon="7.278716">
        <ele>77.998840</ele>
        <time>2022-12-07T11:53:06.460Z</time>
      </trkpt>
      <trkpt lat="51.675731" lon="7.279152">
        <ele>76.811916</ele>
        <time>2022-12-07T11:53:52.073Z</time>
      </trkpt>
      <trkpt lat="51.676174" lon="7.279609">
        <ele>75.369811</ele>
        <time>2022-12-07T11:54:47.821Z</time>
      </trkpt>
      <trkpt lat="51.676554" lon="7.279937">
        <ele>74.209166</ele>
        <time>2022-12-07T11:55:34.114Z</time>
      </trkpt>
      <trkpt lat="51.677102" lon="7.280575">
        <ele>72.475293</ele>
        <time>2022-12-07T11:56:47.046Z</time>
      </trkpt>
      <trkpt lat="51.677844" lon="7.281023">
        <ele>70.442781</ele>
        <time>2022-12-07T11:58:10.522Z</time>
      </trkpt>
      <trkpt lat="51.678110" lon="7.281134">
        <ele>69.992589</ele>
        <time>2022-12-07T11:58:38.449Z</time>
      </trkpt>
      <trkpt lat="51.678619" lon="7.281553">
        <ele>70.779112</ele>
        <time>2022-12-07T11:59:36.363Z</time>
      </trkpt>
      <trkpt lat="51.678710" lon="7.281328">
        <ele>71.008363</ele>
        <time>2022-12-07T11:59:53.558Z</time>
      </trkpt>
      <trkpt lat="51.678842" lon="7.281143">
        <ele>71.249051</ele>
        <time>2022-12-07T12:00:12.575Z</time>
      </trkpt>
      <trkpt lat="51.678899" lon="7.280856">
        <ele>71.506235</ele>
        <time>2022-12-07T12:00:32.479Z</time>
      </trkpt>
      <trkpt lat="51.678949" lon="7.280698">
        <ele>71.657617</ele>
        <time>2022-12-07T12:00:44.680Z</time>
      </trkpt>
      <trkpt lat="51.679050" lon="7.280376">
        <ele>71.965570</ele>
        <time>2022-12-07T12:01:08.969Z</time>
      </trkpt>
      <trkpt lat="51.678938" lon="7.280175">
        <ele>72.196189</ele>
        <time>2022-12-07T12:01:27.697Z</time>
      </trkpt>
      <trkpt lat="51.678891" lon="7.280009">
        <ele>72.351923</ele>
        <time>2022-12-07T12:01:40.176Z</time>
      </trkpt>
      <trkpt lat="51.678918" lon="7.279530">
        <ele>72.963669</ele>
        <time>2022-12-07T12:02:13.158Z</time>
      </trkpt>
      <trkpt lat="51.679008" lon="7.279316">
        <ele>73.300239</ele>
        <time>2022-12-07T12:02:30.810Z</time>
      </trkpt>
      <trkpt lat="51.679114" lon="7.279092">
        <ele>73.667006</ele>
        <time>2022-12-07T12:02:50.611Z</time>
      </trkpt>
      <trkpt lat="51.679238" lon="7.278887">
        <ele>74.039768</ele>
        <time>2022-12-07T12:03:09.802Z</time>
      </trkpt>
      <trkpt lat="51.679613" lon="7.278266">
        <ele>75.168038</ele>
        <time>2022-12-07T12:04:07.630Z</time>
      </trkpt>
      <trkpt lat="51.679931" lon="7.277910">
        <ele>75.980629</ele>
        <time>2022-12-07T12:04:47.878Z</time>
      </trkpt>
      <trkpt lat="51.680196" lon="7.277846">
        <ele>76.200620</ele>
        <time>2022-12-07T12:05:15.486Z</time>
      </trkpt>
      <trkpt lat="51.680293" lon="7.277710">
        <ele>76.232476</ele>
        <time>2022-12-07T12:05:28.892Z</time>
      </trkpt>
      <trkpt lat="51.680448" lon="7.277325">
        <ele>76.303018</ele>
        <time>2022-12-07T12:05:57.718Z</time>
      </trkpt>
      <trkpt lat="51.680686" lon="7.276431">
        <ele>76.452530</ele>
        <time>2022-12-07T12:06:58.193Z</time>
      </trkpt>
      <trkpt lat="51.680567" lon="7.275052">
        <ele>76.904657</ele>
        <time>2022-12-07T12:08:24.845Z</time>
      </trkpt>
      <trkpt lat="51.680451" lon="7.274388">
        <ele>77.393589</ele>
        <time>2022-12-07T12:09:08.444Z</time>
      </trkpt>
      <trkpt lat="51.680522" lon="7.273979">
        <ele>77.694615</ele>
        <time>2022-12-07T12:09:35.324Z</time>
      </trkpt>
      <trkpt lat="51.681649" lon="7.272248">
        <ele>80.863371</ele>
        <time>2022-12-07T12:12:22.436Z</time>
      </trkpt>
      <trkpt lat="51.681749" lon="7.272201">
        <ele>81.184955</ele>
        <time>2022-12-07T12:12:34.529Z</time>
      </trkpt>
      <trkpt lat="51.682095" lon="7.272295">
        <ele>82.268250</ele>
        <time>2022-12-07T12:13:14.769Z</time>
      </trkpt>
      <trkpt lat="51.682535" lon="7.272325">
        <ele>83.627926</ele>
        <time>2022-12-07T12:14:05.009Z</time>
      </trkpt>
      <trkpt lat="51.682923" lon="7.272211">
        <ele>84.402350</ele>
        <time>2022-12-07T12:14:49.258Z</time>
      </trkpt>
      <trkpt lat="51.683124" lon="7.272095">
        <ele>84.602066</ele>
        <time>2022-12-07T12:15:12.155Z</time>
      </trkpt>
      <trkpt lat="51.683230" lon="7.271937">
        <ele>84.737094</ele>
        <time>2022-12-07T12:15:28.245Z</time>
      </trkpt>
      <trkpt lat="51.683321" lon="7.271729">
        <ele>84.884754</ele>
        <time>2022-12-07T12:15:44.592Z</time>
      </trkpt>
      <trkpt lat="51.683521" lon="7.271203">
        <ele>85.242654</ele>
        <time>2022-12-07T12:16:24.345Z</time>
      </trkpt>
      <trkpt lat="51.683575" lon="7.271002">
        <ele>85.369714</ele>
        <time>2022-12-07T12:16:38.239Z</time>
      </trkpt>
      <trkpt lat="51.683588" lon="7.270953">
        <ele>85.400629</ele>
        <time>2022-12-07T12:16:41.652Z</time>
      </trkpt>
      <trkpt lat="51.683587" lon="7.270818">
        <ele>85.478938</ele>
        <time>2022-12-07T12:16:50.207Z</time>
      </trkpt>
      <trkpt lat="51.683528" lon="7.270466">
        <ele>85.690438</ele>
        <time>2022-12-07T12:17:13.258Z</time>
      </trkpt>
      <trkpt lat="51.683535" lon="7.270312">
        <ele>85.780002</ele>
        <time>2022-12-07T12:17:22.855Z</time>
      </trkpt>
      <trkpt lat="51.683592" lon="7.270229">
        <ele>85.851844</ele>
        <time>2022-12-07T12:17:30.901Z</time>
      </trkpt>
      <trkpt lat="51.683938" lon="7.270012">
        <ele>84.979422</ele>
        <time>2022-12-07T12:18:09.316Z</time>
      </trkpt>
      <trkpt lat="51.684659" lon="7.269608">
        <ele>82.854669</ele>
        <time>2022-12-07T12:19:30.644Z</time>
      </trkpt>
      <trkpt lat="51.684713" lon="7.269745">
        <ele>82.574483</ele>
        <time>2022-12-07T12:19:41.272Z</time>
      </trkpt>
      <trkpt lat="51.685046" lon="7.269213">
        <ele>81.269741</ele>
        <time>2022-12-07T12:20:32.001Z</time>
      </trkpt>
      <trkpt lat="51.685582" lon="7.268513">
        <ele>80.885366</ele>
        <time>2022-12-07T12:21:45.076Z</time>
      </trkpt>
      <trkpt lat="51.685610" lon="7.268611">
        <ele>80.885366</ele>
        <time>2022-12-07T12:21:52.401Z</time>
      </trkpt>
      <trkpt lat="51.685819" lon="7.268681">
        <ele>80.885366</ele>
        <time>2022-12-07T12:22:14.329Z</time>
      </trkpt>
      <trkpt lat="51.685876" lon="7.268733">
        <ele>80.885366</ele>
        <time>2022-12-07T12:22:21.047Z</time>
      </trkpt>
      <trkpt lat="51.686160" lon="7.269373">
        <ele>80.885366</ele>
        <time>2022-12-07T12:23:11.556Z</time>
      </trkpt>
      <trkpt lat="51.686222" lon="7.269305">
        <ele>80.885366</ele>
        <time>2022-12-07T12:23:19.200Z</time>
      </trkpt>
      <trkpt lat="51.686363" lon="7.269149">
        <ele>80.885366</ele>
        <time>2022-12-07T12:23:36.466Z</time>
      </trkpt>
      <trkpt lat="51.686464" lon="7.269032">
        <ele>80.885366</ele>
        <time>2022-12-07T12:23:49.382Z</time>
      </trkpt>
    </trkseg>
  </trk>
</gpx>