<?xml version='1.0' encoding='UTF-8'?>
<gpx version="1.1" creator="https://www.komoot.de" xmlns="http://www.topografix.com/GPX/1/1" xmlns:xsi="http://www.w3.org/2001/XMLSchema-instance" xsi:schemaLocation="http://www.topografix.com/GPX/1/1 http://www.topografix.com/GPX/1/1/gpx.xsd">
  <metadata>
    <name>Datteln Süden</name>
    <author>
      <link href="https://www.komoot.de">
        <text>komoot</text>
        <type>text/html</type>
      </link>
    </author>
  </metadata>
  <trk>
    <name>Datteln Süden</name>
    <trkseg>
      <trkpt lat="51.608968" lon="7.315252">
        <ele>61.750408</ele>
        <time>2023-01-27T09:04:43.178Z</time>
      </trkpt>
      <trkpt lat="51.608940" lon="7.316042">
        <ele>61.750408</ele>
        <time>2023-01-27T09:05:33.645Z</time>
      </trkpt>
      <trkpt lat="51.610292" lon="7.315522">
        <ele>62.030097</ele>
        <time>2023-01-27T09:07:55.053Z</time>
      </trkpt>
      <trkpt lat="51.610642" lon="7.315384">
        <ele>62.132715</ele>
        <time>2023-01-27T09:08:31.450Z</time>
      </trkpt>
      <trkpt lat="51.610740" lon="7.315343">
        <ele>62.161550</ele>
        <time>2023-01-27T09:08:41.582Z</time>
      </trkpt>
      <trkpt lat="51.610764" lon="7.315443">
        <ele>62.180509</ele>
        <time>2023-01-27T09:08:48.283Z</time>
      </trkpt>
      <trkpt lat="51.610764" lon="7.315443">
        <ele>62.180509</ele>
        <time>2023-01-27T09:08:48.289Z</time>
      </trkpt>
      <trkpt lat="51.610967" lon="7.315326">
        <ele>62.241911</ele>
        <time>2023-01-27T09:09:09.885Z</time>
      </trkpt>
      <trkpt lat="51.611914" lon="7.316507">
        <ele>62.478147</ele>
        <time>2023-01-27T09:11:09.981Z</time>
      </trkpt>
      <trkpt lat="51.612389" lon="7.317056">
        <ele>62.590152</ele>
        <time>2023-01-27T09:12:09.461Z</time>
      </trkpt>
      <trkpt lat="51.613573" lon="7.318292">
        <ele>63.318275</ele>
        <time>2023-01-27T09:14:34.053Z</time>
      </trkpt>
      <trkpt lat="51.615623" lon="7.320290">
        <ele>63.905283</ele>
        <time>2023-01-27T09:18:35.734Z</time>
      </trkpt>
      <trkpt lat="51.615946" lon="7.320883">
        <ele>63.916651</ele>
        <time>2023-01-27T09:19:25.005Z</time>
      </trkpt>
      <trkpt lat="51.615903" lon="7.320881">
        <ele>63.917650</ele>
        <time>2023-01-27T09:19:29.394Z</time>
      </trkpt>
      <trkpt lat="51.615946" lon="7.320883">
        <ele>63.918648</ele>
        <time>2023-01-27T09:19:33.784Z</time>
      </trkpt>
      <trkpt lat="51.616081" lon="7.320907">
        <ele>63.921801</ele>
        <time>2023-01-27T09:19:47.372Z</time>
      </trkpt>
      <trkpt lat="51.616177" lon="7.320988">
        <ele>63.924316</ele>
        <time>2023-01-27T09:19:58.305Z</time>
      </trkpt>
      <trkpt lat="51.616235" lon="7.321101">
        <ele>63.926429</ele>
        <time>2023-01-27T09:20:07.447Z</time>
      </trkpt>
      <trkpt lat="51.616575" lon="7.322831">
        <ele>64.124168</ele>
        <time>2023-01-27T09:22:00.677Z</time>
      </trkpt>
      <trkpt lat="51.616588" lon="7.322971">
        <ele>64.168087</ele>
        <time>2023-01-27T09:22:09.613Z</time>
      </trkpt>
      <trkpt lat="51.616574" lon="7.323172">
        <ele>64.230839</ele>
        <time>2023-01-27T09:22:22.385Z</time>
      </trkpt>
      <trkpt lat="51.616415" lon="7.324240">
        <ele>64.571585</ele>
        <time>2023-01-27T09:23:32.306Z</time>
      </trkpt>
      <trkpt lat="51.616389" lon="7.324292">
        <ele>64.592299</ele>
        <time>2023-01-27T09:23:36.567Z</time>
      </trkpt>
      <trkpt lat="51.616370" lon="7.324330">
        <ele>64.607436</ele>
        <time>2023-01-27T09:23:39.750Z</time>
      </trkpt>
      <trkpt lat="51.616216" lon="7.324411">
        <ele>64.688385</ele>
        <time>2023-01-27T09:23:56.334Z</time>
      </trkpt>
      <trkpt lat="51.616036" lon="7.324492">
        <ele>64.781771</ele>
        <time>2023-01-27T09:24:15.405Z</time>
      </trkpt>
      <trkpt lat="51.615939" lon="7.324604">
        <ele>64.841408</ele>
        <time>2023-01-27T09:24:27.648Z</time>
      </trkpt>
      <trkpt lat="51.615930" lon="7.324708">
        <ele>64.867442</ele>
        <time>2023-01-27T09:24:34.337Z</time>
      </trkpt>
      <trkpt lat="51.615980" lon="7.324956">
        <ele>64.931280</ele>
        <time>2023-01-27T09:24:50.824Z</time>
      </trkpt>
      <trkpt lat="51.616251" lon="7.326187">
        <ele>65.251046</ele>
        <time>2023-01-27T09:26:13.447Z</time>
      </trkpt>
      <trkpt lat="51.616207" lon="7.326206">
        <ele>65.269008</ele>
        <time>2023-01-27T09:26:18.074Z</time>
      </trkpt>
      <trkpt lat="51.616145" lon="7.326405">
        <ele>65.323518</ele>
        <time>2023-01-27T09:26:32.076Z</time>
      </trkpt>
      <trkpt lat="51.616125" lon="7.326469">
        <ele>65.341059</ele>
        <time>2023-01-27T09:26:36.552Z</time>
      </trkpt>
      <trkpt lat="51.616091" lon="7.326487">
        <ele>65.355171</ele>
        <time>2023-01-27T09:26:40.224Z</time>
      </trkpt>
      <trkpt lat="51.616077" lon="7.326563">
        <ele>65.374580</ele>
        <time>2023-01-27T09:26:45.202Z</time>
      </trkpt>
      <trkpt lat="51.616028" lon="7.326830">
        <ele>65.442744</ele>
        <time>2023-01-27T09:27:02.548Z</time>
      </trkpt>
      <trkpt lat="51.615993" lon="7.327079">
        <ele>65.505249</ele>
        <time>2023-01-27T09:27:18.596Z</time>
      </trkpt>
      <trkpt lat="51.616019" lon="7.327168">
        <ele>65.529330</ele>
        <time>2023-01-27T09:27:24.814Z</time>
      </trkpt>
      <trkpt lat="51.615961" lon="7.327553">
        <ele>65.610267</ele>
        <time>2023-01-27T09:27:49.471Z</time>
      </trkpt>
      <trkpt lat="51.615954" lon="7.327888">
        <ele>65.674568</ele>
        <time>2023-01-27T09:28:10.313Z</time>
      </trkpt>
      <trkpt lat="51.615908" lon="7.328288">
        <ele>65.752605</ele>
        <time>2023-01-27T09:28:35.652Z</time>
      </trkpt>
      <trkpt lat="51.615574" lon="7.331207">
        <ele>66.788300</ele>
        <time>2023-01-27T09:31:42.913Z</time>
      </trkpt>
      <trkpt lat="51.615534" lon="7.331752">
        <ele>67.122797</ele>
        <time>2023-01-27T09:32:18.362Z</time>
      </trkpt>
      <trkpt lat="51.615527" lon="7.331844">
        <ele>67.179291</ele>
        <time>2023-01-27T09:32:24.336Z</time>
      </trkpt>
      <trkpt lat="51.615554" lon="7.331908">
        <ele>67.226452</ele>
        <time>2023-01-27T09:32:29.447Z</time>
      </trkpt>
      <trkpt lat="51.615554" lon="7.331908">
        <ele>67.226452</ele>
        <time>2023-01-27T09:32:29.674Z</time>
      </trkpt>
      <trkpt lat="51.615499" lon="7.332912">
        <ele>67.840780</ele>
        <time>2023-01-27T09:33:34.910Z</time>
      </trkpt>
      <trkpt lat="51.615521" lon="7.332939">
        <ele>67.867931</ele>
        <time>2023-01-27T09:33:37.756Z</time>
      </trkpt>
      <trkpt lat="51.615653" lon="7.332533">
        <ele>68.281602</ele>
        <time>2023-01-27T09:34:08.073Z</time>
      </trkpt>
      <trkpt lat="51.615654" lon="7.332447">
        <ele>68.359744</ele>
        <time>2023-01-27T09:34:13.694Z</time>
      </trkpt>
      <trkpt lat="51.615655" lon="7.332430">
        <ele>68.375258</ele>
        <time>2023-01-27T09:34:14.821Z</time>
      </trkpt>
      <trkpt lat="51.615696" lon="7.332344">
        <ele>68.473759</ele>
        <time>2023-01-27T09:34:21.998Z</time>
      </trkpt>
      <trkpt lat="51.616040" lon="7.332451">
        <ele>68.986362</ele>
        <time>2023-01-27T09:34:59.379Z</time>
      </trkpt>
      <trkpt lat="51.616059" lon="7.332475">
        <ele>69.021691</ele>
        <time>2023-01-27T09:35:02.135Z</time>
      </trkpt>
      <trkpt lat="51.615995" lon="7.333035">
        <ele>69.538980</ele>
        <time>2023-01-27T09:35:39.436Z</time>
      </trkpt>
      <trkpt lat="51.616215" lon="7.333321">
        <ele>69.952639</ele>
        <time>2023-01-27T09:36:09.265Z</time>
      </trkpt>
      <trkpt lat="51.616430" lon="7.332878">
        <ele>70.463439</ele>
        <time>2023-01-27T09:36:45.963Z</time>
      </trkpt>
      <trkpt lat="51.616871" lon="7.331971">
        <ele>70.460838</ele>
        <time>2023-01-27T09:37:59.097Z</time>
      </trkpt>
      <trkpt lat="51.616897" lon="7.331888">
        <ele>70.457131</ele>
        <time>2023-01-27T09:38:04.944Z</time>
      </trkpt>
      <trkpt lat="51.616906" lon="7.331815">
        <ele>70.454164</ele>
        <time>2023-01-27T09:38:09.531Z</time>
      </trkpt>
      <trkpt lat="51.616954" lon="7.331169">
        <ele>70.428221</ele>
        <time>2023-01-27T09:38:50.118Z</time>
      </trkpt>
      <trkpt lat="51.617033" lon="7.330722">
        <ele>70.409689</ele>
        <time>2023-01-27T09:39:19.444Z</time>
      </trkpt>
      <trkpt lat="51.617213" lon="7.330295">
        <ele>70.380760</ele>
        <time>2023-01-27T09:39:52.264Z</time>
      </trkpt>
      <trkpt lat="51.617381" lon="7.329999">
        <ele>69.966392</ele>
        <time>2023-01-27T09:40:18.003Z</time>
      </trkpt>
      <trkpt lat="51.617610" lon="7.329750">
        <ele>69.506593</ele>
        <time>2023-01-27T09:40:46.673Z</time>
      </trkpt>
      <trkpt lat="51.617768" lon="7.329648">
        <ele>69.223328</ele>
        <time>2023-01-27T09:41:04.327Z</time>
      </trkpt>
      <trkpt lat="51.617846" lon="7.329627">
        <ele>69.091727</ele>
        <time>2023-01-27T09:41:12.592Z</time>
      </trkpt>
      <trkpt lat="51.617912" lon="7.329605">
        <ele>68.979568</ele>
        <time>2023-01-27T09:41:19.581Z</time>
      </trkpt>
      <trkpt lat="51.617992" lon="7.329555">
        <ele>68.836767</ele>
        <time>2023-01-27T09:41:28.512Z</time>
      </trkpt>
      <trkpt lat="51.618079" lon="7.329329">
        <ele>68.562015</ele>
        <time>2023-01-27T09:41:45.712Z</time>
      </trkpt>
      <trkpt lat="51.618584" lon="7.328432">
        <ele>67.346632</ele>
        <time>2023-01-27T09:43:03.834Z</time>
      </trkpt>
      <trkpt lat="51.618611" lon="7.328389">
        <ele>67.309865</ele>
        <time>2023-01-27T09:43:07.783Z</time>
      </trkpt>
      <trkpt lat="51.618819" lon="7.328068">
        <ele>67.030925</ele>
        <time>2023-01-27T09:43:37.476Z</time>
      </trkpt>
      <trkpt lat="51.619329" lon="7.327102">
        <ele>66.268597</ele>
        <time>2023-01-27T09:44:57.920Z</time>
      </trkpt>
      <trkpt lat="51.619712" lon="7.326277">
        <ele>65.650832</ele>
        <time>2023-01-27T09:46:02.673Z</time>
      </trkpt>
      <trkpt lat="51.619845" lon="7.325865">
        <ele>65.450850</ele>
        <time>2023-01-27T09:46:31.548Z</time>
      </trkpt>
      <trkpt lat="51.619922" lon="7.325497">
        <ele>65.283610</ele>
        <time>2023-01-27T09:46:55.778Z</time>
      </trkpt>
      <trkpt lat="51.619928" lon="7.325044">
        <ele>65.088477</ele>
        <time>2023-01-27T09:47:24.533Z</time>
      </trkpt>
      <trkpt lat="51.619897" lon="7.324843">
        <ele>64.999284</ele>
        <time>2023-01-27T09:47:37.727Z</time>
      </trkpt>
      <trkpt lat="51.619801" lon="7.324672">
        <ele>64.900000</ele>
        <time>2023-01-27T09:47:52.656Z</time>
      </trkpt>
      <trkpt lat="51.618999" lon="7.323891">
        <ele>64.358451</ele>
        <time>2023-01-27T09:49:28.135Z</time>
      </trkpt>
      <trkpt lat="51.618688" lon="7.323504">
        <ele>64.274058</ele>
        <time>2023-01-27T09:50:08.098Z</time>
      </trkpt>
      <trkpt lat="51.618609" lon="7.323630">
        <ele>64.250183</ele>
        <time>2023-01-27T09:50:19.626Z</time>
      </trkpt>
      <trkpt lat="51.618597" lon="7.323469">
        <ele>64.228564</ele>
        <time>2023-01-27T09:50:29.778Z</time>
      </trkpt>
      <trkpt lat="51.618650" lon="7.323332">
        <ele>64.207042</ele>
        <time>2023-01-27T09:50:39.790Z</time>
      </trkpt>
      <trkpt lat="51.618892" lon="7.322698">
        <ele>64.107817</ele>
        <time>2023-01-27T09:51:26.476Z</time>
      </trkpt>
      <trkpt lat="51.618970" lon="7.322372">
        <ele>64.061237</ele>
        <time>2023-01-27T09:51:48.530Z</time>
      </trkpt>
      <trkpt lat="51.618984" lon="7.322156">
        <ele>64.032282</ele>
        <time>2023-01-27T09:52:02.135Z</time>
      </trkpt>
      <trkpt lat="51.618966" lon="7.322007">
        <ele>64.056451</ele>
        <time>2023-01-27T09:52:11.747Z</time>
      </trkpt>
      <trkpt lat="51.618901" lon="7.321717">
        <ele>64.221928</ele>
        <time>2023-01-27T09:52:31.056Z</time>
      </trkpt>
      <trkpt lat="51.618836" lon="7.321454">
        <ele>64.373855</ele>
        <time>2023-01-27T09:52:49.244Z</time>
      </trkpt>
      <trkpt lat="51.618797" lon="7.321139">
        <ele>64.546248</ele>
        <time>2023-01-27T09:53:09.696Z</time>
      </trkpt>
      <trkpt lat="51.618802" lon="7.320800">
        <ele>64.728245</ele>
        <time>2023-01-27T09:53:31.592Z</time>
      </trkpt>
      <trkpt lat="51.618836" lon="7.320418">
        <ele>64.935365</ele>
        <time>2023-01-27T09:53:56.573Z</time>
      </trkpt>
      <trkpt lat="51.618933" lon="7.319844">
        <ele>65.254644</ele>
        <time>2023-01-27T09:54:35.232Z</time>
      </trkpt>
      <trkpt lat="51.619015" lon="7.319605">
        <ele>65.401199</ele>
        <time>2023-01-27T09:54:52.817Z</time>
      </trkpt>
      <trkpt lat="51.619118" lon="7.319435">
        <ele>65.528683</ele>
        <time>2023-01-27T09:55:08.137Z</time>
      </trkpt>
      <trkpt lat="51.618921" lon="7.319325">
        <ele>65.617841</ele>
        <time>2023-01-27T09:55:29.551Z</time>
      </trkpt>
      <trkpt lat="51.618703" lon="7.319183">
        <ele>65.682174</ele>
        <time>2023-01-27T09:55:53.720Z</time>
      </trkpt>
      <trkpt lat="51.618594" lon="7.319112">
        <ele>65.714341</ele>
        <time>2023-01-27T09:56:05.701Z</time>
      </trkpt>
      <trkpt lat="51.618328" lon="7.318933">
        <ele>65.793210</ele>
        <time>2023-01-27T09:56:34.921Z</time>
      </trkpt>
      <trkpt lat="51.618205" lon="7.318854">
        <ele>65.829437</ele>
        <time>2023-01-27T09:56:48.196Z</time>
      </trkpt>
      <trkpt lat="51.617962" lon="7.318697">
        <ele>65.901067</ele>
        <time>2023-01-27T09:57:14.508Z</time>
      </trkpt>
      <trkpt lat="51.617951" lon="7.318690">
        <ele>65.904303</ele>
        <time>2023-01-27T09:57:15.691Z</time>
      </trkpt>
      <trkpt lat="51.616988" lon="7.318067">
        <ele>65.863820</ele>
        <time>2023-01-27T09:58:59.565Z</time>
      </trkpt>
      <trkpt lat="51.617004" lon="7.317845">
        <ele>65.799562</ele>
        <time>2023-01-27T09:59:13.564Z</time>
      </trkpt>
      <trkpt lat="51.617098" lon="7.316555">
        <ele>65.426115</ele>
        <time>2023-01-27T10:00:34.996Z</time>
      </trkpt>
      <trkpt lat="51.617200" lon="7.315147">
        <ele>64.804848</ele>
        <time>2023-01-27T10:02:05.035Z</time>
      </trkpt>
      <trkpt lat="51.617354" lon="7.312958">
        <ele>63.569068</ele>
        <time>2023-01-27T10:04:24.743Z</time>
      </trkpt>
      <trkpt lat="51.617351" lon="7.312864">
        <ele>63.552754</ele>
        <time>2023-01-27T10:04:30.820Z</time>
      </trkpt>
      <trkpt lat="51.617152" lon="7.307949">
        <ele>63.391512</ele>
        <time>2023-01-27T10:09:37.597Z</time>
      </trkpt>
      <trkpt lat="51.617174" lon="7.307802">
        <ele>63.413303</ele>
        <time>2023-01-27T10:09:47.302Z</time>
      </trkpt>
      <trkpt lat="51.617219" lon="7.307722">
        <ele>63.428860</ele>
        <time>2023-01-27T10:09:54.194Z</time>
      </trkpt>
      <trkpt lat="51.618185" lon="7.307756">
        <ele>64.457008</ele>
        <time>2023-01-27T10:11:34.763Z</time>
      </trkpt>
      <trkpt lat="51.618480" lon="7.307510">
        <ele>64.925134</ele>
        <time>2023-01-27T10:12:10.133Z</time>
      </trkpt>
      <trkpt lat="51.619611" lon="7.307492">
        <ele>66.390284</ele>
        <time>2023-01-27T10:14:10.058Z</time>
      </trkpt>
      <trkpt lat="51.620056" lon="7.307657">
        <ele>66.864662</ele>
        <time>2023-01-27T10:14:57.721Z</time>
      </trkpt>
      <trkpt lat="51.620060" lon="7.308133">
        <ele>67.171706</ele>
        <time>2023-01-27T10:15:28.243Z</time>
      </trkpt>
      <trkpt lat="51.620085" lon="7.308210">
        <ele>67.227751</ele>
        <time>2023-01-27T10:15:33.895Z</time>
      </trkpt>
      <trkpt lat="51.620093" lon="7.308232">
        <ele>67.244195</ele>
        <time>2023-01-27T10:15:35.491Z</time>
      </trkpt>
      <trkpt lat="51.621434" lon="7.308922">
        <ele>68.372779</ele>
        <time>2023-01-27T10:17:59.128Z</time>
      </trkpt>
      <trkpt lat="51.624460" lon="7.309862">
        <ele>70.430261</ele>
        <time>2023-01-27T10:23:14.838Z</time>
      </trkpt>
      <trkpt lat="51.624595" lon="7.309938">
        <ele>70.536538</ele>
        <time>2023-01-27T10:23:29.634Z</time>
      </trkpt>
      <trkpt lat="51.624621" lon="7.309853">
        <ele>70.580255</ele>
        <time>2023-01-27T10:23:35.712Z</time>
      </trkpt>
      <trkpt lat="51.624693" lon="7.309006">
        <ele>70.974672</ele>
        <time>2023-01-27T10:24:30.708Z</time>
      </trkpt>
      <trkpt lat="51.624638" lon="7.308669">
        <ele>71.135433</ele>
        <time>2023-01-27T10:24:52.886Z</time>
      </trkpt>
      <trkpt lat="51.624568" lon="7.308528">
        <ele>71.218727</ele>
        <time>2023-01-27T10:25:04.480Z</time>
      </trkpt>
      <trkpt lat="51.624558" lon="7.308515">
        <ele>71.228277</ele>
        <time>2023-01-27T10:25:05.853Z</time>
      </trkpt>
      <trkpt lat="51.624434" lon="7.308356">
        <ele>71.346061</ele>
        <time>2023-01-27T10:25:21.990Z</time>
      </trkpt>
      <trkpt lat="51.623936" lon="7.307887">
        <ele>71.587569</ele>
        <time>2023-01-27T10:26:21.262Z</time>
      </trkpt>
      <trkpt lat="51.623863" lon="7.307748">
        <ele>71.594253</ele>
        <time>2023-01-27T10:26:32.689Z</time>
      </trkpt>
      <trkpt lat="51.623650" lon="7.307016">
        <ele>71.623935</ele>
        <time>2023-01-27T10:27:23.074Z</time>
      </trkpt>
      <trkpt lat="51.623527" lon="7.306673">
        <ele>71.638479</ele>
        <time>2023-01-27T10:27:47.877Z</time>
      </trkpt>
      <trkpt lat="51.623385" lon="7.306269">
        <ele>71.655525</ele>
        <time>2023-01-27T10:28:16.965Z</time>
      </trkpt>
      <trkpt lat="51.623297" lon="7.305908">
        <ele>71.669765</ele>
        <time>2023-01-27T10:28:41.169Z</time>
      </trkpt>
      <trkpt lat="51.623219" lon="7.305466">
        <ele>71.665033</ele>
        <time>2023-01-27T10:29:09.843Z</time>
      </trkpt>
      <trkpt lat="51.622907" lon="7.304115">
        <ele>71.589187</ele>
        <time>2023-01-27T10:30:39.451Z</time>
      </trkpt>
      <trkpt lat="51.622895" lon="7.304011">
        <ele>71.583621</ele>
        <time>2023-01-27T10:30:46.076Z</time>
      </trkpt>
      <trkpt lat="51.622968" lon="7.303234">
        <ele>71.542271</ele>
        <time>2023-01-27T10:31:35.035Z</time>
      </trkpt>
      <trkpt lat="51.622973" lon="7.302883">
        <ele>71.522434</ele>
        <time>2023-01-27T10:31:56.848Z</time>
      </trkpt>
      <trkpt lat="51.622886" lon="7.302310">
        <ele>71.463512</ele>
        <time>2023-01-27T10:32:33.565Z</time>
      </trkpt>
      <trkpt lat="51.622834" lon="7.302113">
        <ele>71.442129</ele>
        <time>2023-01-27T10:32:46.855Z</time>
      </trkpt>
      <trkpt lat="51.622515" lon="7.302354">
        <ele>71.385439</ele>
        <time>2023-01-27T10:33:22.181Z</time>
      </trkpt>
      <trkpt lat="51.622336" lon="7.302381">
        <ele>71.356514</ele>
        <time>2023-01-27T10:33:40.175Z</time>
      </trkpt>
      <trkpt lat="51.621694" lon="7.302477">
        <ele>71.252776</ele>
        <time>2023-01-27T10:34:45.126Z</time>
      </trkpt>
      <trkpt lat="51.620494" lon="7.302586">
        <ele>70.880165</ele>
        <time>2023-01-27T10:36:46.498Z</time>
      </trkpt>
      <trkpt lat="51.620515" lon="7.301912">
        <ele>70.744307</ele>
        <time>2023-01-27T10:37:28.677Z</time>
      </trkpt>
      <trkpt lat="51.620558" lon="7.300550">
        <ele>70.767010</ele>
        <time>2023-01-27T10:38:53.496Z</time>
      </trkpt>
      <trkpt lat="51.620584" lon="7.300205">
        <ele>70.810717</ele>
        <time>2023-01-27T10:39:15.193Z</time>
      </trkpt>
      <trkpt lat="51.620588" lon="7.300167">
        <ele>70.815564</ele>
        <time>2023-01-27T10:39:17.601Z</time>
      </trkpt>
      <trkpt lat="51.620590" lon="7.300027">
        <ele>70.833175</ele>
        <time>2023-01-27T10:39:26.310Z</time>
      </trkpt>
      <trkpt lat="51.620601" lon="7.298170">
        <ele>71.096490</ele>
        <time>2023-01-27T10:41:23.139Z</time>
      </trkpt>
      <trkpt lat="51.620600" lon="7.297289">
        <ele>71.273668</ele>
        <time>2023-01-27T10:42:18.720Z</time>
      </trkpt>
      <trkpt lat="51.620596" lon="7.295849">
        <ele>71.563269</ele>
        <time>2023-01-27T10:43:49.221Z</time>
      </trkpt>
      <trkpt lat="51.620609" lon="7.294254">
        <ele>71.697458</ele>
        <time>2023-01-27T10:45:29.047Z</time>
      </trkpt>
      <trkpt lat="51.620595" lon="7.293302">
        <ele>71.763311</ele>
        <time>2023-01-27T10:46:28.438Z</time>
      </trkpt>
      <trkpt lat="51.620591" lon="7.290708">
        <ele>71.729027</ele>
        <time>2023-01-27T10:49:09.706Z</time>
      </trkpt>
      <trkpt lat="51.620614" lon="7.285296">
        <ele>71.320130</ele>
        <time>2023-01-27T10:54:47.150Z</time>
      </trkpt>
      <trkpt lat="51.620308" lon="7.285300">
        <ele>71.300699</ele>
        <time>2023-01-27T10:55:18.002Z</time>
      </trkpt>
      <trkpt lat="51.620308" lon="7.285300">
        <ele>71.300699</ele>
        <time>2023-01-27T10:55:18.118Z</time>
      </trkpt>
      <trkpt lat="51.620308" lon="7.285300">
        <ele>71.300699</ele>
        <time>2023-01-27T10:55:18.118Z</time>
      </trkpt>
      <trkpt lat="51.619552" lon="7.285284">
        <ele>71.366036</ele>
        <time>2023-01-27T10:56:33.781Z</time>
      </trkpt>
      <trkpt lat="51.618796" lon="7.285268">
        <ele>71.596737</ele>
        <time>2023-01-27T10:57:49.445Z</time>
      </trkpt>
      <trkpt lat="51.618040" lon="7.285252">
        <ele>71.829331</ele>
        <time>2023-01-27T10:59:05.109Z</time>
      </trkpt>
      <trkpt lat="51.617284" lon="7.285236">
        <ele>72.128309</ele>
        <time>2023-01-27T11:00:20.774Z</time>
      </trkpt>
      <trkpt lat="51.616528" lon="7.285220">
        <ele>72.427287</ele>
        <time>2023-01-27T11:01:36.438Z</time>
      </trkpt>
      <trkpt lat="51.615835" lon="7.285206">
        <ele>72.404329</ele>
        <time>2023-01-27T11:02:45.802Z</time>
      </trkpt>
      <trkpt lat="51.615839" lon="7.284967">
        <ele>72.359892</ele>
        <time>2023-01-27T11:03:00.770Z</time>
      </trkpt>
      <trkpt lat="51.615806" lon="7.283341">
        <ele>72.057518</ele>
        <time>2023-01-27T11:04:42.474Z</time>
      </trkpt>
      <trkpt lat="51.615284" lon="7.283567">
        <ele>71.640942</ele>
        <time>2023-01-27T11:05:37.519Z</time>
      </trkpt>
      <trkpt lat="51.615137" lon="7.283599">
        <ele>71.481327</ele>
        <time>2023-01-27T11:05:52.746Z</time>
      </trkpt>
      <trkpt lat="51.615045" lon="7.283564">
        <ele>71.379608</ele>
        <time>2023-01-27T11:06:02.577Z</time>
      </trkpt>
      <trkpt lat="51.614442" lon="7.282786">
        <ele>70.548213</ele>
        <time>2023-01-27T11:07:21.731Z</time>
      </trkpt>
      <trkpt lat="51.614347" lon="7.282698">
        <ele>70.430287</ele>
        <time>2023-01-27T11:07:33.010Z</time>
      </trkpt>
      <trkpt lat="51.614260" lon="7.282664">
        <ele>70.333955</ele>
        <time>2023-01-27T11:07:42.104Z</time>
      </trkpt>
      <trkpt lat="51.614125" lon="7.282651">
        <ele>70.188432</ele>
        <time>2023-01-27T11:07:56.189Z</time>
      </trkpt>
      <trkpt lat="51.613682" lon="7.282609">
        <ele>69.867366</ele>
        <time>2023-01-27T11:08:41.672Z</time>
      </trkpt>
      <trkpt lat="51.613151" lon="7.282213">
        <ele>69.521091</ele>
        <time>2023-01-27T11:09:41.066Z</time>
      </trkpt>
      <trkpt lat="51.612696" lon="7.281976">
        <ele>69.238113</ele>
        <time>2023-01-27T11:10:29.591Z</time>
      </trkpt>
      <trkpt lat="51.612617" lon="7.282167">
        <ele>69.153784</ele>
        <time>2023-01-27T11:10:44.158Z</time>
      </trkpt>
      <trkpt lat="51.612390" lon="7.283323">
        <ele>68.964411</ele>
        <time>2023-01-27T11:11:59.654Z</time>
      </trkpt>
      <trkpt lat="51.612358" lon="7.283649">
        <ele>68.951783</ele>
        <time>2023-01-27T11:12:20.300Z</time>
      </trkpt>
      <trkpt lat="51.612392" lon="7.285204">
        <ele>68.892252</ele>
        <time>2023-01-27T11:13:57.450Z</time>
      </trkpt>
      <trkpt lat="51.612438" lon="7.285963">
        <ele>68.679530</ele>
        <time>2023-01-27T11:14:45.160Z</time>
      </trkpt>
      <trkpt lat="51.612503" lon="7.286750">
        <ele>68.374324</ele>
        <time>2023-01-27T11:15:35.110Z</time>
      </trkpt>
      <trkpt lat="51.612657" lon="7.288614">
        <ele>67.587929</ele>
        <time>2023-01-27T11:17:33.958Z</time>
      </trkpt>
      <trkpt lat="51.612612" lon="7.289245">
        <ele>67.212826</ele>
        <time>2023-01-27T11:18:14.110Z</time>
      </trkpt>
      <trkpt lat="51.613373" lon="7.291958">
        <ele>65.696592</ele>
        <time>2023-01-27T11:21:23.025Z</time>
      </trkpt>
      <trkpt lat="51.613247" lon="7.291980">
        <ele>65.624280</ele>
        <time>2023-01-27T11:21:35.974Z</time>
      </trkpt>
      <trkpt lat="51.612743" lon="7.292369">
        <ele>65.305392</ele>
        <time>2023-01-27T11:22:32.520Z</time>
      </trkpt>
      <trkpt lat="51.612552" lon="7.292573">
        <ele>65.174624</ele>
        <time>2023-01-27T11:22:55.663Z</time>
      </trkpt>
      <trkpt lat="51.612626" lon="7.294877">
        <ele>65.192473</ele>
        <time>2023-01-27T11:25:20.046Z</time>
      </trkpt>
      <trkpt lat="51.612486" lon="7.294911">
        <ele>65.211529</ele>
        <time>2023-01-27T11:25:34.379Z</time>
      </trkpt>
      <trkpt lat="51.612626" lon="7.294877">
        <ele>65.230584</ele>
        <time>2023-01-27T11:25:49.226Z</time>
      </trkpt>
      <trkpt lat="51.612650" lon="7.295274">
        <ele>65.263921</ele>
        <time>2023-01-27T11:26:14.125Z</time>
      </trkpt>
      <trkpt lat="51.612693" lon="7.295552">
        <ele>65.229827</ele>
        <time>2023-01-27T11:26:32.266Z</time>
      </trkpt>
      <trkpt lat="51.612753" lon="7.295852">
        <ele>65.136138</ele>
        <time>2023-01-27T11:26:52.156Z</time>
      </trkpt>
      <trkpt lat="51.612871" lon="7.296287">
        <ele>64.995031</ele>
        <time>2023-01-27T11:27:21.886Z</time>
      </trkpt>
      <trkpt lat="51.613101" lon="7.297067">
        <ele>64.738356</ele>
        <time>2023-01-27T11:28:15.981Z</time>
      </trkpt>
      <trkpt lat="51.613104" lon="7.297219">
        <ele>64.693150</ele>
        <time>2023-01-27T11:28:25.539Z</time>
      </trkpt>
      <trkpt lat="51.613103" lon="7.297239">
        <ele>64.687186</ele>
        <time>2023-01-27T11:28:26.834Z</time>
      </trkpt>
      <trkpt lat="51.613152" lon="7.297251">
        <ele>64.663460</ele>
        <time>2023-01-27T11:28:32.017Z</time>
      </trkpt>
      <trkpt lat="51.613290" lon="7.297596">
        <ele>64.541471</ele>
        <time>2023-01-27T11:28:57.806Z</time>
      </trkpt>
      <trkpt lat="51.613798" lon="7.299094">
        <ele>64.039409</ele>
        <time>2023-01-27T11:30:45.931Z</time>
      </trkpt>
      <trkpt lat="51.614403" lon="7.300981">
        <ele>63.647773</ele>
        <time>2023-01-27T11:32:58.423Z</time>
      </trkpt>
      <trkpt lat="51.614414" lon="7.301544">
        <ele>63.739869</ele>
        <time>2023-01-27T11:33:33.582Z</time>
      </trkpt>
      <trkpt lat="51.614413" lon="7.302356">
        <ele>63.872630</ele>
        <time>2023-01-27T11:34:24.442Z</time>
      </trkpt>
      <trkpt lat="51.614472" lon="7.302358">
        <ele>63.888169</ele>
        <time>2023-01-27T11:34:30.583Z</time>
      </trkpt>
      <trkpt lat="51.614413" lon="7.302356">
        <ele>63.903707</ele>
        <time>2023-01-27T11:34:36.562Z</time>
      </trkpt>
      <trkpt lat="51.612716" lon="7.302325">
        <ele>64.852033</ele>
        <time>2023-01-27T11:37:30.373Z</time>
      </trkpt>
      <trkpt lat="51.612498" lon="7.302315">
        <ele>65.001795</ele>
        <time>2023-01-27T11:37:52.947Z</time>
      </trkpt>
      <trkpt lat="51.612060" lon="7.302315">
        <ele>65.284166</ele>
        <time>2023-01-27T11:38:38.140Z</time>
      </trkpt>
      <trkpt lat="51.611736" lon="7.302304">
        <ele>65.364099</ele>
        <time>2023-01-27T11:39:11.471Z</time>
      </trkpt>
      <trkpt lat="51.611320" lon="7.302298">
        <ele>65.466709</ele>
        <time>2023-01-27T11:39:53.916Z</time>
      </trkpt>
      <trkpt lat="51.611335" lon="7.303362">
        <ele>65.629722</ele>
        <time>2023-01-27T11:41:00.426Z</time>
      </trkpt>
      <trkpt lat="51.611339" lon="7.303618">
        <ele>65.668945</ele>
        <time>2023-01-27T11:41:16.426Z</time>
      </trkpt>
      <trkpt lat="51.611350" lon="7.304228">
        <ele>65.696812</ele>
        <time>2023-01-27T11:41:54.746Z</time>
      </trkpt>
      <trkpt lat="51.611354" lon="7.304544">
        <ele>65.674539</ele>
        <time>2023-01-27T11:42:14.570Z</time>
      </trkpt>
      <trkpt lat="51.611365" lon="7.305589">
        <ele>65.600887</ele>
        <time>2023-01-27T11:43:20.138Z</time>
      </trkpt>
      <trkpt lat="51.611337" lon="7.306509">
        <ele>65.535977</ele>
        <time>2023-01-27T11:44:17.723Z</time>
      </trkpt>
      <trkpt lat="51.611791" lon="7.308833">
        <ele>66.561716</ele>
        <time>2023-01-27T11:46:53.961Z</time>
      </trkpt>
      <trkpt lat="51.611807" lon="7.308919">
        <ele>66.606204</ele>
        <time>2023-01-27T11:46:59.945Z</time>
      </trkpt>
      <trkpt lat="51.612260" lon="7.311685">
        <ele>67.074274</ele>
        <time>2023-01-27T11:50:03.092Z</time>
      </trkpt>
      <trkpt lat="51.612265" lon="7.311888">
        <ele>67.086036</ele>
        <time>2023-01-27T11:50:16.034Z</time>
      </trkpt>
      <trkpt lat="51.612077" lon="7.313729">
        <ele>65.300846</ele>
        <time>2023-01-27T11:52:17.066Z</time>
      </trkpt>
      <trkpt lat="51.612002" lon="7.314469">
        <ele>64.286434</ele>
        <time>2023-01-27T11:53:06.614Z</time>
      </trkpt>
      <trkpt lat="51.612218" lon="7.314680">
        <ele>63.736024</ele>
        <time>2023-01-27T11:53:33.221Z</time>
      </trkpt>
      <trkpt lat="51.612270" lon="7.314792">
        <ele>63.546827</ele>
        <time>2023-01-27T11:53:42.377Z</time>
      </trkpt>
      <trkpt lat="51.612277" lon="7.314945">
        <ele>63.339269</ele>
        <time>2023-01-27T11:53:52.280Z</time>
      </trkpt>
      <trkpt lat="51.612261" lon="7.315174">
        <ele>63.135549</ele>
        <time>2023-01-27T11:54:07.208Z</time>
      </trkpt>
      <trkpt lat="51.611967" lon="7.315122">
        <ele>62.900281</ele>
        <time>2023-01-27T11:54:37.719Z</time>
      </trkpt>
      <trkpt lat="51.611535" lon="7.315122">
        <ele>62.556647</ele>
        <time>2023-01-27T11:55:21.873Z</time>
      </trkpt>
      <trkpt lat="51.611272" lon="7.315175">
        <ele>62.345812</ele>
        <time>2023-01-27T11:55:48.627Z</time>
      </trkpt>
      <trkpt lat="51.610835" lon="7.315308">
        <ele>61.992046</ele>
        <time>2023-01-27T11:56:33.297Z</time>
      </trkpt>
      <trkpt lat="51.610740" lon="7.315343">
        <ele>61.914526</ele>
        <time>2023-01-27T11:56:43.184Z</time>
      </trkpt>
      <trkpt lat="51.610642" lon="7.315384">
        <ele>61.833984</ele>
        <time>2023-01-27T11:56:53.365Z</time>
      </trkpt>
      <trkpt lat="51.610292" lon="7.315522">
        <ele>61.766957</ele>
        <time>2023-01-27T11:57:29.476Z</time>
      </trkpt>
      <trkpt lat="51.608940" lon="7.316042">
        <ele>61.766957</ele>
        <time>2023-01-27T11:59:49.096Z</time>
      </trkpt>
      <trkpt lat="51.608968" lon="7.315252">
        <ele>61.766957</ele>
        <time>2023-01-27T12:00:39.054Z</time>
      </trkpt>
      <trkpt lat="51.608992" lon="7.315183">
        <ele>61.766957</ele>
        <time>2023-01-27T12:00:44.059Z</time>
      </trkpt>
    </trkseg>
  </trk>
</gpx>