<?xml version="1.0"?>
<gpx xmlns="http://www.topografix.com/GPX/1/1" xmlns:xsi="http://www.w3.org/2001/XMLSchema-instance" version="1.1" creator="AllTrails.com" xsi:schemaLocation="http://www.topografix.com/GPX/1/1 http://www.topografix.com/GPX/1/1/gpx.xsd">
  <metadata>
    <name><![CDATA[Karte – 24. Januar 2022 16:37 Uhr]]></name>
    <desc><![CDATA[]]></desc>
    <link href="http://www.alltrails.com">
      <text>AllTrails, LLC</text>
    </link>
    <bounds minlat="51.5485" minlon="8.55864" maxlat="51.60848" maxlon="8.65231"/>
  </metadata>
  <trk>
    <name><![CDATA[Karte – 24. Januar 2022 16:37 Uhr]]></name>
    <src>AllTrails</src>
    <trkseg>
      <trkpt lat="51.55233" lon="8.55927">
        <ele>244.88</ele>
      </trkpt>
      <trkpt lat="51.55247" lon="8.55918">
        <ele>246.59</ele>
      </trkpt>
      <trkpt lat="51.55233" lon="8.55866">
        <ele>245.29</ele>
      </trkpt>
      <trkpt lat="51.55233" lon="8.55864">
        <ele>245.2</ele>
      </trkpt>
      <trkpt lat="51.55236" lon="8.55864">
        <ele>244.73</ele>
      </trkpt>
      <trkpt lat="51.55252" lon="8.55865">
        <ele>242.4</ele>
      </trkpt>
      <trkpt lat="51.55262" lon="8.55867">
        <ele>241.24</ele>
      </trkpt>
      <trkpt lat="51.55263" lon="8.55867">
        <ele>241.09</ele>
      </trkpt>
      <trkpt lat="51.5528" lon="8.55869">
        <ele>239.16</ele>
      </trkpt>
      <trkpt lat="51.5531" lon="8.5587">
        <ele>238.91</ele>
      </trkpt>
      <trkpt lat="51.55331" lon="8.55871">
        <ele>235.79</ele>
      </trkpt>
      <trkpt lat="51.55347" lon="8.55872">
        <ele>237.15</ele>
      </trkpt>
      <trkpt lat="51.55361" lon="8.55873">
        <ele>238.84</ele>
      </trkpt>
      <trkpt lat="51.55386" lon="8.55873">
        <ele>233.48</ele>
      </trkpt>
      <trkpt lat="51.55406" lon="8.55871">
        <ele>228.22</ele>
      </trkpt>
      <trkpt lat="51.55414" lon="8.5587">
        <ele>225.99</ele>
      </trkpt>
      <trkpt lat="51.55444" lon="8.55867">
        <ele>220.49</ele>
      </trkpt>
      <trkpt lat="51.55468" lon="8.55875">
        <ele>218.46</ele>
      </trkpt>
      <trkpt lat="51.55474" lon="8.55876">
        <ele>218.37</ele>
      </trkpt>
      <trkpt lat="51.55476" lon="8.55878">
        <ele>218.89</ele>
      </trkpt>
      <trkpt lat="51.55476" lon="8.55878">
        <ele>218.89</ele>
      </trkpt>
      <trkpt lat="51.55476" lon="8.55878">
        <ele>218.89</ele>
      </trkpt>
      <trkpt lat="51.55485" lon="8.55883">
        <ele>220.63</ele>
      </trkpt>
      <trkpt lat="51.55487" lon="8.55889">
        <ele>221.61</ele>
      </trkpt>
      <trkpt lat="51.55487" lon="8.559">
        <ele>222.56</ele>
      </trkpt>
      <trkpt lat="51.55482" lon="8.55998">
        <ele>223.4</ele>
      </trkpt>
      <trkpt lat="51.55478" lon="8.56069">
        <ele>227.0</ele>
      </trkpt>
      <trkpt lat="51.55476" lon="8.56105">
        <ele>227.09</ele>
      </trkpt>
      <trkpt lat="51.55474" lon="8.56111">
        <ele>227.0</ele>
      </trkpt>
      <trkpt lat="51.55469" lon="8.56116">
        <ele>226.1</ele>
      </trkpt>
      <trkpt lat="51.55431" lon="8.56125">
        <ele>222.24</ele>
      </trkpt>
      <trkpt lat="51.55413" lon="8.5613">
        <ele>221.91</ele>
      </trkpt>
      <trkpt lat="51.55391" lon="8.56138">
        <ele>220.23</ele>
      </trkpt>
      <trkpt lat="51.55392" lon="8.56148">
        <ele>219.42</ele>
      </trkpt>
      <trkpt lat="51.55392" lon="8.56164">
        <ele>218.2</ele>
      </trkpt>
      <trkpt lat="51.55391" lon="8.56172">
        <ele>217.62</ele>
      </trkpt>
      <trkpt lat="51.5539" lon="8.56209">
        <ele>216.0</ele>
      </trkpt>
      <trkpt lat="51.55391" lon="8.56235">
        <ele>216.82</ele>
      </trkpt>
      <trkpt lat="51.55392" lon="8.56262">
        <ele>218.0</ele>
      </trkpt>
      <trkpt lat="51.55403" lon="8.56345">
        <ele>215.03</ele>
      </trkpt>
      <trkpt lat="51.55413" lon="8.56427">
        <ele>213.29</ele>
      </trkpt>
      <trkpt lat="51.55417" lon="8.56456">
        <ele>219.21</ele>
      </trkpt>
      <trkpt lat="51.55433" lon="8.56558">
        <ele>232.46</ele>
      </trkpt>
      <trkpt lat="51.55433" lon="8.5656">
        <ele>232.69</ele>
      </trkpt>
      <trkpt lat="51.55443" lon="8.56618">
        <ele>235.8</ele>
      </trkpt>
      <trkpt lat="51.55444" lon="8.56622">
        <ele>235.94</ele>
      </trkpt>
      <trkpt lat="51.55447" lon="8.56663">
        <ele>237.14</ele>
      </trkpt>
      <trkpt lat="51.55447" lon="8.56714">
        <ele>242.34</ele>
      </trkpt>
      <trkpt lat="51.55449" lon="8.5677">
        <ele>245.81</ele>
      </trkpt>
      <trkpt lat="51.55452" lon="8.56815">
        <ele>247.45</ele>
      </trkpt>
      <trkpt lat="51.55453" lon="8.56861">
        <ele>246.08</ele>
      </trkpt>
      <trkpt lat="51.55443" lon="8.5695">
        <ele>255.42</ele>
      </trkpt>
      <trkpt lat="51.55433" lon="8.57039">
        <ele>262.3</ele>
      </trkpt>
      <trkpt lat="51.55421" lon="8.57107">
        <ele>263.84</ele>
      </trkpt>
      <trkpt lat="51.55417" lon="8.57126">
        <ele>263.46</ele>
      </trkpt>
      <trkpt lat="51.55393" lon="8.57228">
        <ele>259.38</ele>
      </trkpt>
      <trkpt lat="51.55385" lon="8.5727">
        <ele>257.17</ele>
      </trkpt>
      <trkpt lat="51.55374" lon="8.57334">
        <ele>263.73</ele>
      </trkpt>
      <trkpt lat="51.55366" lon="8.57382">
        <ele>271.08</ele>
      </trkpt>
      <trkpt lat="51.55342" lon="8.5751">
        <ele>277.25</ele>
      </trkpt>
      <trkpt lat="51.55326" lon="8.57581">
        <ele>279.97</ele>
      </trkpt>
      <trkpt lat="51.5531" lon="8.57652">
        <ele>285.48</ele>
      </trkpt>
      <trkpt lat="51.55294" lon="8.57723">
        <ele>289.4</ele>
      </trkpt>
      <trkpt lat="51.55278" lon="8.57794">
        <ele>289.99</ele>
      </trkpt>
      <trkpt lat="51.55274" lon="8.57809">
        <ele>289.63</ele>
      </trkpt>
      <trkpt lat="51.55253" lon="8.57875">
        <ele>293.68</ele>
      </trkpt>
      <trkpt lat="51.55233" lon="8.57942">
        <ele>304.99</ele>
      </trkpt>
      <trkpt lat="51.55212" lon="8.58008">
        <ele>308.0</ele>
      </trkpt>
      <trkpt lat="51.55191" lon="8.58074">
        <ele>310.41</ele>
      </trkpt>
      <trkpt lat="51.55166" lon="8.58147">
        <ele>309.2</ele>
      </trkpt>
      <trkpt lat="51.55142" lon="8.58221">
        <ele>310.99</ele>
      </trkpt>
      <trkpt lat="51.55117" lon="8.58294">
        <ele>315.66</ele>
      </trkpt>
      <trkpt lat="51.55092" lon="8.58367">
        <ele>317.66</ele>
      </trkpt>
      <trkpt lat="51.55084" lon="8.58385">
        <ele>317.1</ele>
      </trkpt>
      <trkpt lat="51.55069" lon="8.58408">
        <ele>318.03</ele>
      </trkpt>
      <trkpt lat="51.55037" lon="8.58458">
        <ele>320.34</ele>
      </trkpt>
      <trkpt lat="51.55004" lon="8.58509">
        <ele>322.43</ele>
      </trkpt>
      <trkpt lat="51.54972" lon="8.58559">
        <ele>323.73</ele>
      </trkpt>
      <trkpt lat="51.5494" lon="8.58609">
        <ele>322.6</ele>
      </trkpt>
      <trkpt lat="51.54907" lon="8.5866">
        <ele>325.04</ele>
      </trkpt>
      <trkpt lat="51.54875" lon="8.5871">
        <ele>332.4</ele>
      </trkpt>
      <trkpt lat="51.5485" lon="8.58823">
        <ele>343.2</ele>
      </trkpt>
      <trkpt lat="51.54856" lon="8.58899">
        <ele>346.71</ele>
      </trkpt>
      <trkpt lat="51.54863" lon="8.58976">
        <ele>341.9</ele>
      </trkpt>
      <trkpt lat="51.54869" lon="8.59052">
        <ele>343.4</ele>
      </trkpt>
      <trkpt lat="51.54875" lon="8.59129">
        <ele>343.29</ele>
      </trkpt>
      <trkpt lat="51.54881" lon="8.59205">
        <ele>346.97</ele>
      </trkpt>
      <trkpt lat="51.54888" lon="8.59282">
        <ele>344.28</ele>
      </trkpt>
      <trkpt lat="51.54894" lon="8.59358">
        <ele>343.33</ele>
      </trkpt>
      <trkpt lat="51.549" lon="8.59435">
        <ele>344.88</ele>
      </trkpt>
      <trkpt lat="51.54906" lon="8.59511">
        <ele>341.63</ele>
      </trkpt>
      <trkpt lat="51.54913" lon="8.59588">
        <ele>344.57</ele>
      </trkpt>
      <trkpt lat="51.54919" lon="8.59664">
        <ele>342.68</ele>
      </trkpt>
      <trkpt lat="51.54925" lon="8.59738">
        <ele>345.87</ele>
      </trkpt>
      <trkpt lat="51.54932" lon="8.59813">
        <ele>347.67</ele>
      </trkpt>
      <trkpt lat="51.54938" lon="8.59887">
        <ele>349.08</ele>
      </trkpt>
      <trkpt lat="51.54945" lon="8.59962">
        <ele>348.8</ele>
      </trkpt>
      <trkpt lat="51.54951" lon="8.60036">
        <ele>347.42</ele>
      </trkpt>
      <trkpt lat="51.54958" lon="8.60111">
        <ele>342.94</ele>
      </trkpt>
      <trkpt lat="51.54964" lon="8.60185">
        <ele>336.17</ele>
      </trkpt>
      <trkpt lat="51.54971" lon="8.6026">
        <ele>337.01</ele>
      </trkpt>
      <trkpt lat="51.54977" lon="8.60334">
        <ele>341.45</ele>
      </trkpt>
      <trkpt lat="51.54984" lon="8.60409">
        <ele>345.85</ele>
      </trkpt>
      <trkpt lat="51.5499" lon="8.60483">
        <ele>350.3</ele>
      </trkpt>
      <trkpt lat="51.55001" lon="8.60505">
        <ele>348.17</ele>
      </trkpt>
      <trkpt lat="51.55008" lon="8.60521">
        <ele>348.54</ele>
      </trkpt>
      <trkpt lat="51.55022" lon="8.60559">
        <ele>350.22</ele>
      </trkpt>
      <trkpt lat="51.55022" lon="8.60559">
        <ele>350.22</ele>
      </trkpt>
      <trkpt lat="51.55022" lon="8.60559">
        <ele>350.22</ele>
      </trkpt>
      <trkpt lat="51.55027" lon="8.6057">
        <ele>351.03</ele>
      </trkpt>
      <trkpt lat="51.55057" lon="8.60642">
        <ele>356.43</ele>
      </trkpt>
      <trkpt lat="51.55086" lon="8.60714">
        <ele>360.52</ele>
      </trkpt>
      <trkpt lat="51.55118" lon="8.60791">
        <ele>360.85</ele>
      </trkpt>
      <trkpt lat="51.55151" lon="8.60869">
        <ele>365.34</ele>
      </trkpt>
      <trkpt lat="51.55181" lon="8.60944">
        <ele>365.52</ele>
      </trkpt>
      <trkpt lat="51.55211" lon="8.61018">
        <ele>364.46</ele>
      </trkpt>
      <trkpt lat="51.5524" lon="8.61093">
        <ele>364.99</ele>
      </trkpt>
      <trkpt lat="51.5527" lon="8.61167">
        <ele>371.86</ele>
      </trkpt>
      <trkpt lat="51.55299" lon="8.61237">
        <ele>367.59</ele>
      </trkpt>
      <trkpt lat="51.55327" lon="8.61308">
        <ele>365.95</ele>
      </trkpt>
      <trkpt lat="51.55356" lon="8.61378">
        <ele>362.48</ele>
      </trkpt>
      <trkpt lat="51.55384" lon="8.61448">
        <ele>361.66</ele>
      </trkpt>
      <trkpt lat="51.55401" lon="8.6152">
        <ele>370.14</ele>
      </trkpt>
      <trkpt lat="51.55417" lon="8.61591">
        <ele>376.68</ele>
      </trkpt>
      <trkpt lat="51.55434" lon="8.61663">
        <ele>374.0</ele>
      </trkpt>
      <trkpt lat="51.55451" lon="8.61735">
        <ele>371.05</ele>
      </trkpt>
      <trkpt lat="51.55467" lon="8.61806">
        <ele>366.87</ele>
      </trkpt>
      <trkpt lat="51.55484" lon="8.61878">
        <ele>367.81</ele>
      </trkpt>
      <trkpt lat="51.555" lon="8.61949">
        <ele>364.84</ele>
      </trkpt>
      <trkpt lat="51.55517" lon="8.62021">
        <ele>361.49</ele>
      </trkpt>
      <trkpt lat="51.55536" lon="8.62101">
        <ele>363.96</ele>
      </trkpt>
      <trkpt lat="51.55555" lon="8.62182">
        <ele>368.12</ele>
      </trkpt>
      <trkpt lat="51.55575" lon="8.62262">
        <ele>365.3</ele>
      </trkpt>
      <trkpt lat="51.55594" lon="8.62343">
        <ele>362.21</ele>
      </trkpt>
      <trkpt lat="51.55613" lon="8.62423">
        <ele>363.06</ele>
      </trkpt>
      <trkpt lat="51.55628" lon="8.62494">
        <ele>363.26</ele>
      </trkpt>
      <trkpt lat="51.55644" lon="8.62566">
        <ele>365.15</ele>
      </trkpt>
      <trkpt lat="51.55659" lon="8.62637">
        <ele>360.22</ele>
      </trkpt>
      <trkpt lat="51.55675" lon="8.62708">
        <ele>352.54</ele>
      </trkpt>
      <trkpt lat="51.5569" lon="8.62779">
        <ele>353.78</ele>
      </trkpt>
      <trkpt lat="51.55705" lon="8.62851">
        <ele>354.25</ele>
      </trkpt>
      <trkpt lat="51.55721" lon="8.62922">
        <ele>360.13</ele>
      </trkpt>
      <trkpt lat="51.55736" lon="8.62993">
        <ele>364.36</ele>
      </trkpt>
      <trkpt lat="51.55742" lon="8.63041">
        <ele>364.8</ele>
      </trkpt>
      <trkpt lat="51.55758" lon="8.63091">
        <ele>362.89</ele>
      </trkpt>
      <trkpt lat="51.55764" lon="8.6312">
        <ele>362.36</ele>
      </trkpt>
      <trkpt lat="51.55777" lon="8.63147">
        <ele>365.83</ele>
      </trkpt>
      <trkpt lat="51.55785" lon="8.63147">
        <ele>365.96</ele>
      </trkpt>
      <trkpt lat="51.55825" lon="8.63098">
        <ele>372.14</ele>
      </trkpt>
      <trkpt lat="51.55865" lon="8.63049">
        <ele>370.73</ele>
      </trkpt>
      <trkpt lat="51.55906" lon="8.63001">
        <ele>367.94</ele>
      </trkpt>
      <trkpt lat="51.55946" lon="8.62952">
        <ele>359.18</ele>
      </trkpt>
      <trkpt lat="51.55986" lon="8.62903">
        <ele>358.99</ele>
      </trkpt>
      <trkpt lat="51.56012" lon="8.62912">
        <ele>361.75</ele>
      </trkpt>
      <trkpt lat="51.56051" lon="8.62954">
        <ele>374.43</ele>
      </trkpt>
      <trkpt lat="51.56089" lon="8.62995">
        <ele>377.82</ele>
      </trkpt>
      <trkpt lat="51.56128" lon="8.63036">
        <ele>367.79</ele>
      </trkpt>
      <trkpt lat="51.56166" lon="8.63078">
        <ele>357.19</ele>
      </trkpt>
      <trkpt lat="51.56175" lon="8.63099">
        <ele>357.56</ele>
      </trkpt>
      <trkpt lat="51.56175" lon="8.63117">
        <ele>358.49</ele>
      </trkpt>
      <trkpt lat="51.56168" lon="8.63183">
        <ele>363.84</ele>
      </trkpt>
      <trkpt lat="51.56166" lon="8.63193">
        <ele>363.22</ele>
      </trkpt>
      <trkpt lat="51.56166" lon="8.63193">
        <ele>363.22</ele>
      </trkpt>
      <trkpt lat="51.56166" lon="8.63193">
        <ele>363.22</ele>
      </trkpt>
      <trkpt lat="51.56153" lon="8.63264">
        <ele>362.42</ele>
      </trkpt>
      <trkpt lat="51.56141" lon="8.63334">
        <ele>359.17</ele>
      </trkpt>
      <trkpt lat="51.56128" lon="8.63405">
        <ele>356.7</ele>
      </trkpt>
      <trkpt lat="51.56116" lon="8.63475">
        <ele>351.13</ele>
      </trkpt>
      <trkpt lat="51.56103" lon="8.63546">
        <ele>348.3</ele>
      </trkpt>
      <trkpt lat="51.56113" lon="8.63555">
        <ele>348.0</ele>
      </trkpt>
      <trkpt lat="51.56128" lon="8.63561">
        <ele>348.2</ele>
      </trkpt>
      <trkpt lat="51.56136" lon="8.63577">
        <ele>348.77</ele>
      </trkpt>
      <trkpt lat="51.56138" lon="8.63666">
        <ele>348.0</ele>
      </trkpt>
      <trkpt lat="51.5615" lon="8.63761">
        <ele>346.44</ele>
      </trkpt>
      <trkpt lat="51.56156" lon="8.63763">
        <ele>346.1</ele>
      </trkpt>
      <trkpt lat="51.56201" lon="8.63781">
        <ele>347.51</ele>
      </trkpt>
      <trkpt lat="51.56246" lon="8.63798">
        <ele>341.11</ele>
      </trkpt>
      <trkpt lat="51.56292" lon="8.63794">
        <ele>338.75</ele>
      </trkpt>
      <trkpt lat="51.56338" lon="8.6379">
        <ele>340.3</ele>
      </trkpt>
      <trkpt lat="51.56384" lon="8.63786">
        <ele>334.79</ele>
      </trkpt>
      <trkpt lat="51.5643" lon="8.63783">
        <ele>323.92</ele>
      </trkpt>
      <trkpt lat="51.56475" lon="8.63779">
        <ele>317.15</ele>
      </trkpt>
      <trkpt lat="51.56521" lon="8.63775">
        <ele>319.61</ele>
      </trkpt>
      <trkpt lat="51.56567" lon="8.63771">
        <ele>310.64</ele>
      </trkpt>
      <trkpt lat="51.56613" lon="8.63767">
        <ele>318.65</ele>
      </trkpt>
      <trkpt lat="51.56663" lon="8.63743">
        <ele>322.81</ele>
      </trkpt>
      <trkpt lat="51.56714" lon="8.63718">
        <ele>324.1</ele>
      </trkpt>
      <trkpt lat="51.56764" lon="8.63693">
        <ele>317.11</ele>
      </trkpt>
      <trkpt lat="51.56814" lon="8.63669">
        <ele>307.57</ele>
      </trkpt>
      <trkpt lat="51.56864" lon="8.63657">
        <ele>309.92</ele>
      </trkpt>
      <trkpt lat="51.56913" lon="8.63644">
        <ele>307.19</ele>
      </trkpt>
      <trkpt lat="51.56963" lon="8.63632">
        <ele>307.48</ele>
      </trkpt>
      <trkpt lat="51.57013" lon="8.6362">
        <ele>301.79</ele>
      </trkpt>
      <trkpt lat="51.57063" lon="8.63608">
        <ele>288.96</ele>
      </trkpt>
      <trkpt lat="51.57112" lon="8.63595">
        <ele>285.37</ele>
      </trkpt>
      <trkpt lat="51.57162" lon="8.63583">
        <ele>286.35</ele>
      </trkpt>
      <trkpt lat="51.57209" lon="8.63585">
        <ele>287.43</ele>
      </trkpt>
      <trkpt lat="51.57257" lon="8.63588">
        <ele>283.13</ele>
      </trkpt>
      <trkpt lat="51.57304" lon="8.63591">
        <ele>289.04</ele>
      </trkpt>
      <trkpt lat="51.57351" lon="8.63593">
        <ele>294.86</ele>
      </trkpt>
      <trkpt lat="51.57403" lon="8.63585">
        <ele>290.09</ele>
      </trkpt>
      <trkpt lat="51.57455" lon="8.63576">
        <ele>287.36</ele>
      </trkpt>
      <trkpt lat="51.57507" lon="8.63568">
        <ele>288.58</ele>
      </trkpt>
      <trkpt lat="51.57596" lon="8.63587">
        <ele>309.11</ele>
      </trkpt>
      <trkpt lat="51.5764" lon="8.63622">
        <ele>310.76</ele>
      </trkpt>
      <trkpt lat="51.57685" lon="8.63657">
        <ele>302.26</ele>
      </trkpt>
      <trkpt lat="51.57729" lon="8.63692">
        <ele>290.58</ele>
      </trkpt>
      <trkpt lat="51.57773" lon="8.63727">
        <ele>281.29</ele>
      </trkpt>
      <trkpt lat="51.57818" lon="8.63763">
        <ele>281.94</ele>
      </trkpt>
      <trkpt lat="51.57862" lon="8.63798">
        <ele>283.74</ele>
      </trkpt>
      <trkpt lat="51.57906" lon="8.63833">
        <ele>283.73</ele>
      </trkpt>
      <trkpt lat="51.5795" lon="8.63868">
        <ele>287.2</ele>
      </trkpt>
      <trkpt lat="51.57995" lon="8.63903">
        <ele>275.18</ele>
      </trkpt>
      <trkpt lat="51.58039" lon="8.63938">
        <ele>270.5</ele>
      </trkpt>
      <trkpt lat="51.58055" lon="8.63934">
        <ele>265.19</ele>
      </trkpt>
      <trkpt lat="51.58073" lon="8.63925">
        <ele>264.37</ele>
      </trkpt>
      <trkpt lat="51.58115" lon="8.63878">
        <ele>261.07</ele>
      </trkpt>
      <trkpt lat="51.58156" lon="8.6383">
        <ele>256.36</ele>
      </trkpt>
      <trkpt lat="51.58198" lon="8.63783">
        <ele>250.51</ele>
      </trkpt>
      <trkpt lat="51.58239" lon="8.63735">
        <ele>245.29</ele>
      </trkpt>
      <trkpt lat="51.58311" lon="8.63719">
        <ele>248.28</ele>
      </trkpt>
      <trkpt lat="51.58376" lon="8.6373">
        <ele>252.34</ele>
      </trkpt>
      <trkpt lat="51.58427" lon="8.63762">
        <ele>269.78</ele>
      </trkpt>
      <trkpt lat="51.58477" lon="8.63793">
        <ele>282.99</ele>
      </trkpt>
      <trkpt lat="51.58525" lon="8.63844">
        <ele>277.43</ele>
      </trkpt>
      <trkpt lat="51.58572" lon="8.63894">
        <ele>270.04</ele>
      </trkpt>
      <trkpt lat="51.58631" lon="8.63944">
        <ele>253.59</ele>
      </trkpt>
      <trkpt lat="51.58674" lon="8.63967">
        <ele>242.38</ele>
      </trkpt>
      <trkpt lat="51.58689" lon="8.63973">
        <ele>241.38</ele>
      </trkpt>
      <trkpt lat="51.58739" lon="8.63983">
        <ele>245.98</ele>
      </trkpt>
      <trkpt lat="51.58789" lon="8.63992">
        <ele>237.32</ele>
      </trkpt>
      <trkpt lat="51.58829" lon="8.63991">
        <ele>241.57</ele>
      </trkpt>
      <trkpt lat="51.58854" lon="8.6398">
        <ele>243.02</ele>
      </trkpt>
      <trkpt lat="51.58891" lon="8.63964">
        <ele>245.18</ele>
      </trkpt>
      <trkpt lat="51.58939" lon="8.63943">
        <ele>234.06</ele>
      </trkpt>
      <trkpt lat="51.58987" lon="8.63922">
        <ele>225.53</ele>
      </trkpt>
      <trkpt lat="51.59047" lon="8.6392">
        <ele>221.73</ele>
      </trkpt>
      <trkpt lat="51.5909" lon="8.63928">
        <ele>225.42</ele>
      </trkpt>
      <trkpt lat="51.59115" lon="8.63939">
        <ele>230.44</ele>
      </trkpt>
      <trkpt lat="51.59161" lon="8.63958">
        <ele>226.53</ele>
      </trkpt>
      <trkpt lat="51.59208" lon="8.63976">
        <ele>217.85</ele>
      </trkpt>
      <trkpt lat="51.59254" lon="8.63994">
        <ele>216.4</ele>
      </trkpt>
      <trkpt lat="51.593" lon="8.64013">
        <ele>219.99</ele>
      </trkpt>
      <trkpt lat="51.59328" lon="8.64015">
        <ele>218.76</ele>
      </trkpt>
      <trkpt lat="51.59381" lon="8.63991">
        <ele>220.6</ele>
      </trkpt>
      <trkpt lat="51.59433" lon="8.63967">
        <ele>218.82</ele>
      </trkpt>
      <trkpt lat="51.59496" lon="8.63955">
        <ele>224.52</ele>
      </trkpt>
      <trkpt lat="51.59549" lon="8.63961">
        <ele>221.87</ele>
      </trkpt>
      <trkpt lat="51.5961" lon="8.63988">
        <ele>210.52</ele>
      </trkpt>
      <trkpt lat="51.59672" lon="8.64015">
        <ele>205.14</ele>
      </trkpt>
      <trkpt lat="51.59711" lon="8.64033">
        <ele>209.18</ele>
      </trkpt>
      <trkpt lat="51.59772" lon="8.64045">
        <ele>203.05</ele>
      </trkpt>
      <trkpt lat="51.59799" lon="8.64039">
        <ele>200.72</ele>
      </trkpt>
      <trkpt lat="51.59843" lon="8.64021">
        <ele>202.17</ele>
      </trkpt>
      <trkpt lat="51.59888" lon="8.64003">
        <ele>199.23</ele>
      </trkpt>
      <trkpt lat="51.59932" lon="8.63984">
        <ele>189.48</ele>
      </trkpt>
      <trkpt lat="51.59976" lon="8.63966">
        <ele>194.24</ele>
      </trkpt>
      <trkpt lat="51.60016" lon="8.63903">
        <ele>198.88</ele>
      </trkpt>
      <trkpt lat="51.60036" lon="8.63805">
        <ele>199.56</ele>
      </trkpt>
      <trkpt lat="51.60055" lon="8.63707">
        <ele>190.55</ele>
      </trkpt>
      <trkpt lat="51.6006" lon="8.63659">
        <ele>185.47</ele>
      </trkpt>
      <trkpt lat="51.60072" lon="8.63649">
        <ele>188.91</ele>
      </trkpt>
      <trkpt lat="51.60109" lon="8.63627">
        <ele>190.82</ele>
      </trkpt>
      <trkpt lat="51.60121" lon="8.63626">
        <ele>190.04</ele>
      </trkpt>
      <trkpt lat="51.60137" lon="8.63635">
        <ele>189.18</ele>
      </trkpt>
      <trkpt lat="51.60139" lon="8.63634">
        <ele>189.0</ele>
      </trkpt>
      <trkpt lat="51.60141" lon="8.63633">
        <ele>189.03</ele>
      </trkpt>
      <trkpt lat="51.60147" lon="8.63629">
        <ele>188.98</ele>
      </trkpt>
      <trkpt lat="51.60166" lon="8.63676">
        <ele>195.65</ele>
      </trkpt>
      <trkpt lat="51.60169" lon="8.63675">
        <ele>194.7</ele>
      </trkpt>
      <trkpt lat="51.60184" lon="8.63672">
        <ele>190.15</ele>
      </trkpt>
      <trkpt lat="51.60192" lon="8.6367">
        <ele>187.99</ele>
      </trkpt>
      <trkpt lat="51.60241" lon="8.63688">
        <ele>180.83</ele>
      </trkpt>
      <trkpt lat="51.6029" lon="8.63705">
        <ele>177.57</ele>
      </trkpt>
      <trkpt lat="51.60328" lon="8.63725">
        <ele>182.26</ele>
      </trkpt>
      <trkpt lat="51.6035" lon="8.63734">
        <ele>180.01</ele>
      </trkpt>
      <trkpt lat="51.60358" lon="8.63748">
        <ele>181.0</ele>
      </trkpt>
      <trkpt lat="51.6037" lon="8.63824">
        <ele>189.35</ele>
      </trkpt>
      <trkpt lat="51.60382" lon="8.639">
        <ele>195.9</ele>
      </trkpt>
      <trkpt lat="51.60394" lon="8.63977">
        <ele>193.15</ele>
      </trkpt>
      <trkpt lat="51.60405" lon="8.64053">
        <ele>189.62</ele>
      </trkpt>
      <trkpt lat="51.60417" lon="8.64129">
        <ele>185.01</ele>
      </trkpt>
      <trkpt lat="51.60429" lon="8.64205">
        <ele>182.83</ele>
      </trkpt>
      <trkpt lat="51.60441" lon="8.64285">
        <ele>179.13</ele>
      </trkpt>
      <trkpt lat="51.60452" lon="8.64364">
        <ele>176.67</ele>
      </trkpt>
      <trkpt lat="51.60464" lon="8.64444">
        <ele>179.87</ele>
      </trkpt>
      <trkpt lat="51.60475" lon="8.64511">
        <ele>176.71</ele>
      </trkpt>
      <trkpt lat="51.60474" lon="8.64528">
        <ele>175.11</ele>
      </trkpt>
      <trkpt lat="51.60471" lon="8.64548">
        <ele>173.71</ele>
      </trkpt>
      <trkpt lat="51.6046" lon="8.64571">
        <ele>173.62</ele>
      </trkpt>
      <trkpt lat="51.60425" lon="8.64621">
        <ele>177.23</ele>
      </trkpt>
      <trkpt lat="51.60435" lon="8.6464">
        <ele>174.65</ele>
      </trkpt>
      <trkpt lat="51.60455" lon="8.64666">
        <ele>177.05</ele>
      </trkpt>
      <trkpt lat="51.60459" lon="8.64677">
        <ele>175.62</ele>
      </trkpt>
      <trkpt lat="51.60463" lon="8.64694">
        <ele>174.65</ele>
      </trkpt>
      <trkpt lat="51.6048" lon="8.64795">
        <ele>174.96</ele>
      </trkpt>
      <trkpt lat="51.6048" lon="8.64795">
        <ele>174.96</ele>
      </trkpt>
      <trkpt lat="51.6048" lon="8.64795">
        <ele>174.96</ele>
      </trkpt>
      <trkpt lat="51.60483" lon="8.6481">
        <ele>175.39</ele>
      </trkpt>
      <trkpt lat="51.60485" lon="8.64822">
        <ele>176.24</ele>
      </trkpt>
      <trkpt lat="51.6049" lon="8.64843">
        <ele>178.51</ele>
      </trkpt>
      <trkpt lat="51.60495" lon="8.64863">
        <ele>180.73</ele>
      </trkpt>
      <trkpt lat="51.6049" lon="8.64871">
        <ele>180.89</ele>
      </trkpt>
      <trkpt lat="51.60493" lon="8.64909">
        <ele>184.35</ele>
      </trkpt>
      <trkpt lat="51.60501" lon="8.64961">
        <ele>193.47</ele>
      </trkpt>
      <trkpt lat="51.60504" lon="8.64968">
        <ele>194.66</ele>
      </trkpt>
      <trkpt lat="51.60525" lon="8.65024">
        <ele>207.0</ele>
      </trkpt>
      <trkpt lat="51.6053" lon="8.65038">
        <ele>209.32</ele>
      </trkpt>
      <trkpt lat="51.60532" lon="8.65051">
        <ele>211.47</ele>
      </trkpt>
      <trkpt lat="51.60532" lon="8.65055">
        <ele>212.28</ele>
      </trkpt>
      <trkpt lat="51.60532" lon="8.65057">
        <ele>212.42</ele>
      </trkpt>
      <trkpt lat="51.60536" lon="8.65058">
        <ele>211.92</ele>
      </trkpt>
      <trkpt lat="51.60542" lon="8.65058">
        <ele>211.13</ele>
      </trkpt>
      <trkpt lat="51.60572" lon="8.65092">
        <ele>212.12</ele>
      </trkpt>
      <trkpt lat="51.60576" lon="8.65095">
        <ele>212.24</ele>
      </trkpt>
      <trkpt lat="51.60579" lon="8.65096">
        <ele>212.15</ele>
      </trkpt>
      <trkpt lat="51.60583" lon="8.65098">
        <ele>212.2</ele>
      </trkpt>
      <trkpt lat="51.60587" lon="8.65105">
        <ele>213.43</ele>
      </trkpt>
      <trkpt lat="51.60585" lon="8.65112">
        <ele>215.16</ele>
      </trkpt>
      <trkpt lat="51.6059" lon="8.65114">
        <ele>215.49</ele>
      </trkpt>
      <trkpt lat="51.60597" lon="8.6513">
        <ele>219.27</ele>
      </trkpt>
      <trkpt lat="51.60599" lon="8.65137">
        <ele>220.96</ele>
      </trkpt>
      <trkpt lat="51.60602" lon="8.65154">
        <ele>223.14</ele>
      </trkpt>
      <trkpt lat="51.60602" lon="8.65154">
        <ele>223.14</ele>
      </trkpt>
      <trkpt lat="51.60602" lon="8.65154">
        <ele>223.14</ele>
      </trkpt>
      <trkpt lat="51.60608" lon="8.65183">
        <ele>225.92</ele>
      </trkpt>
      <trkpt lat="51.60615" lon="8.65213">
        <ele>230.01</ele>
      </trkpt>
      <trkpt lat="51.6062" lon="8.65217">
        <ele>230.08</ele>
      </trkpt>
      <trkpt lat="51.6063" lon="8.65226">
        <ele>229.27</ele>
      </trkpt>
      <trkpt lat="51.6064" lon="8.6523">
        <ele>227.51</ele>
      </trkpt>
      <trkpt lat="51.60643" lon="8.65231">
        <ele>226.9</ele>
      </trkpt>
      <trkpt lat="51.60655" lon="8.65225">
        <ele>224.94</ele>
      </trkpt>
      <trkpt lat="51.60655" lon="8.65225">
        <ele>224.94</ele>
      </trkpt>
      <trkpt lat="51.60655" lon="8.65225">
        <ele>224.94</ele>
      </trkpt>
      <trkpt lat="51.60661" lon="8.65222">
        <ele>224.02</ele>
      </trkpt>
      <trkpt lat="51.60669" lon="8.65215">
        <ele>222.58</ele>
      </trkpt>
      <trkpt lat="51.60675" lon="8.65211">
        <ele>221.5</ele>
      </trkpt>
      <trkpt lat="51.60684" lon="8.65204">
        <ele>219.88</ele>
      </trkpt>
      <trkpt lat="51.60692" lon="8.65189">
        <ele>217.85</ele>
      </trkpt>
      <trkpt lat="51.60691" lon="8.65181">
        <ele>217.17</ele>
      </trkpt>
      <trkpt lat="51.60685" lon="8.6516">
        <ele>215.42</ele>
      </trkpt>
      <trkpt lat="51.60683" lon="8.6515">
        <ele>213.95</ele>
      </trkpt>
      <trkpt lat="51.60683" lon="8.6515">
        <ele>213.95</ele>
      </trkpt>
      <trkpt lat="51.60683" lon="8.6515">
        <ele>213.95</ele>
      </trkpt>
      <trkpt lat="51.60682" lon="8.65148">
        <ele>213.81</ele>
      </trkpt>
      <trkpt lat="51.60682" lon="8.65144">
        <ele>213.08</ele>
      </trkpt>
      <trkpt lat="51.60683" lon="8.6514">
        <ele>212.09</ele>
      </trkpt>
      <trkpt lat="51.60683" lon="8.6514">
        <ele>212.09</ele>
      </trkpt>
      <trkpt lat="51.60683" lon="8.6514">
        <ele>212.09</ele>
      </trkpt>
      <trkpt lat="51.60682" lon="8.65144">
        <ele>213.08</ele>
      </trkpt>
      <trkpt lat="51.60682" lon="8.65148">
        <ele>213.81</ele>
      </trkpt>
      <trkpt lat="51.60683" lon="8.6515">
        <ele>213.95</ele>
      </trkpt>
      <trkpt lat="51.60685" lon="8.6516">
        <ele>215.42</ele>
      </trkpt>
      <trkpt lat="51.60691" lon="8.65181">
        <ele>217.17</ele>
      </trkpt>
      <trkpt lat="51.60692" lon="8.65189">
        <ele>217.85</ele>
      </trkpt>
      <trkpt lat="51.60684" lon="8.65204">
        <ele>219.88</ele>
      </trkpt>
      <trkpt lat="51.60675" lon="8.65211">
        <ele>221.5</ele>
      </trkpt>
      <trkpt lat="51.60669" lon="8.65215">
        <ele>222.58</ele>
      </trkpt>
      <trkpt lat="51.60661" lon="8.65222">
        <ele>224.02</ele>
      </trkpt>
      <trkpt lat="51.60643" lon="8.65231">
        <ele>226.9</ele>
      </trkpt>
      <trkpt lat="51.6064" lon="8.6523">
        <ele>227.51</ele>
      </trkpt>
      <trkpt lat="51.6063" lon="8.65226">
        <ele>229.27</ele>
      </trkpt>
      <trkpt lat="51.6062" lon="8.65217">
        <ele>230.08</ele>
      </trkpt>
      <trkpt lat="51.60615" lon="8.65213">
        <ele>230.01</ele>
      </trkpt>
      <trkpt lat="51.60608" lon="8.65183">
        <ele>225.92</ele>
      </trkpt>
      <trkpt lat="51.60599" lon="8.65137">
        <ele>220.96</ele>
      </trkpt>
      <trkpt lat="51.60597" lon="8.6513">
        <ele>219.27</ele>
      </trkpt>
      <trkpt lat="51.6059" lon="8.65114">
        <ele>215.49</ele>
      </trkpt>
      <trkpt lat="51.60585" lon="8.65112">
        <ele>215.16</ele>
      </trkpt>
      <trkpt lat="51.60587" lon="8.65105">
        <ele>213.43</ele>
      </trkpt>
      <trkpt lat="51.60583" lon="8.65098">
        <ele>212.2</ele>
      </trkpt>
      <trkpt lat="51.60579" lon="8.65096">
        <ele>212.15</ele>
      </trkpt>
      <trkpt lat="51.60576" lon="8.65095">
        <ele>212.24</ele>
      </trkpt>
      <trkpt lat="51.60572" lon="8.65092">
        <ele>212.12</ele>
      </trkpt>
      <trkpt lat="51.60542" lon="8.65058">
        <ele>211.13</ele>
      </trkpt>
      <trkpt lat="51.60536" lon="8.65058">
        <ele>211.92</ele>
      </trkpt>
      <trkpt lat="51.60532" lon="8.65057">
        <ele>212.42</ele>
      </trkpt>
      <trkpt lat="51.60532" lon="8.65055">
        <ele>212.28</ele>
      </trkpt>
      <trkpt lat="51.60532" lon="8.65051">
        <ele>211.47</ele>
      </trkpt>
      <trkpt lat="51.6053" lon="8.65038">
        <ele>209.32</ele>
      </trkpt>
      <trkpt lat="51.60525" lon="8.65024">
        <ele>207.0</ele>
      </trkpt>
      <trkpt lat="51.60504" lon="8.64968">
        <ele>194.66</ele>
      </trkpt>
      <trkpt lat="51.60501" lon="8.64961">
        <ele>193.47</ele>
      </trkpt>
      <trkpt lat="51.60504" lon="8.64964">
        <ele>193.79</ele>
      </trkpt>
      <trkpt lat="51.60515" lon="8.64973">
        <ele>194.58</ele>
      </trkpt>
      <trkpt lat="51.60536" lon="8.64994">
        <ele>198.37</ele>
      </trkpt>
      <trkpt lat="51.60551" lon="8.65011">
        <ele>198.19</ele>
      </trkpt>
      <trkpt lat="51.60556" lon="8.65012">
        <ele>197.03</ele>
      </trkpt>
      <trkpt lat="51.60562" lon="8.65011">
        <ele>195.12</ele>
      </trkpt>
      <trkpt lat="51.60574" lon="8.65011">
        <ele>191.67</ele>
      </trkpt>
      <trkpt lat="51.60589" lon="8.65006">
        <ele>187.1</ele>
      </trkpt>
      <trkpt lat="51.60597" lon="8.65004">
        <ele>185.33</ele>
      </trkpt>
      <trkpt lat="51.60613" lon="8.65006">
        <ele>182.97</ele>
      </trkpt>
      <trkpt lat="51.60623" lon="8.64944">
        <ele>169.96</ele>
      </trkpt>
      <trkpt lat="51.60623" lon="8.64936">
        <ele>169.22</ele>
      </trkpt>
      <trkpt lat="51.60623" lon="8.64928">
        <ele>168.48</ele>
      </trkpt>
      <trkpt lat="51.6062" lon="8.64907">
        <ele>167.72</ele>
      </trkpt>
      <trkpt lat="51.60614" lon="8.64847">
        <ele>170.76</ele>
      </trkpt>
      <trkpt lat="51.60614" lon="8.64824">
        <ele>172.39</ele>
      </trkpt>
      <trkpt lat="51.60614" lon="8.64822">
        <ele>172.55</ele>
      </trkpt>
      <trkpt lat="51.60619" lon="8.64798">
        <ele>173.39</ele>
      </trkpt>
      <trkpt lat="51.60625" lon="8.64788">
        <ele>173.32</ele>
      </trkpt>
      <trkpt lat="51.60629" lon="8.6478">
        <ele>173.57</ele>
      </trkpt>
      <trkpt lat="51.60638" lon="8.64762">
        <ele>172.85</ele>
      </trkpt>
      <trkpt lat="51.60639" lon="8.64759">
        <ele>172.65</ele>
      </trkpt>
      <trkpt lat="51.60647" lon="8.64708">
        <ele>170.88</ele>
      </trkpt>
      <trkpt lat="51.60639" lon="8.64685">
        <ele>169.33</ele>
      </trkpt>
      <trkpt lat="51.60637" lon="8.6465">
        <ele>167.9</ele>
      </trkpt>
      <trkpt lat="51.60636" lon="8.64617">
        <ele>167.19</ele>
      </trkpt>
      <trkpt lat="51.60648" lon="8.64573">
        <ele>167.4</ele>
      </trkpt>
      <trkpt lat="51.6067" lon="8.64519">
        <ele>168.4</ele>
      </trkpt>
      <trkpt lat="51.6069" lon="8.64483">
        <ele>170.23</ele>
      </trkpt>
      <trkpt lat="51.6072" lon="8.64428">
        <ele>168.99</ele>
      </trkpt>
      <trkpt lat="51.60728" lon="8.64413">
        <ele>168.97</ele>
      </trkpt>
      <trkpt lat="51.6074" lon="8.64389">
        <ele>168.21</ele>
      </trkpt>
      <trkpt lat="51.60775" lon="8.64321">
        <ele>171.86</ele>
      </trkpt>
      <trkpt lat="51.60806" lon="8.6425">
        <ele>178.18</ele>
      </trkpt>
      <trkpt lat="51.60829" lon="8.64188">
        <ele>181.27</ele>
      </trkpt>
      <trkpt lat="51.60847" lon="8.64096">
        <ele>181.36</ele>
      </trkpt>
      <trkpt lat="51.60848" lon="8.64053">
        <ele>181.86</ele>
      </trkpt>
      <trkpt lat="51.60844" lon="8.64023">
        <ele>187.85</ele>
      </trkpt>
      <trkpt lat="51.60836" lon="8.63991">
        <ele>191.23</ele>
      </trkpt>
      <trkpt lat="51.60808" lon="8.63927">
        <ele>188.57</ele>
      </trkpt>
      <trkpt lat="51.6078" lon="8.63854">
        <ele>182.85</ele>
      </trkpt>
      <trkpt lat="51.6077" lon="8.63829">
        <ele>182.03</ele>
      </trkpt>
      <trkpt lat="51.60765" lon="8.63816">
        <ele>182.53</ele>
      </trkpt>
      <trkpt lat="51.60748" lon="8.63766">
        <ele>183.64</ele>
      </trkpt>
      <trkpt lat="51.60709" lon="8.63688">
        <ele>196.4</ele>
      </trkpt>
      <trkpt lat="51.60697" lon="8.63668">
        <ele>199.94</ele>
      </trkpt>
      <trkpt lat="51.60688" lon="8.63658">
        <ele>199.09</ele>
      </trkpt>
      <trkpt lat="51.60674" lon="8.63651">
        <ele>196.55</ele>
      </trkpt>
      <trkpt lat="51.60674" lon="8.63651">
        <ele>196.55</ele>
      </trkpt>
      <trkpt lat="51.60674" lon="8.63651">
        <ele>196.55</ele>
      </trkpt>
      <trkpt lat="51.60631" lon="8.63629">
        <ele>185.59</ele>
      </trkpt>
      <trkpt lat="51.60588" lon="8.63607">
        <ele>184.18</ele>
      </trkpt>
      <trkpt lat="51.60545" lon="8.63585">
        <ele>180.94</ele>
      </trkpt>
      <trkpt lat="51.60501" lon="8.63564">
        <ele>185.23</ele>
      </trkpt>
      <trkpt lat="51.60458" lon="8.63542">
        <ele>175.79</ele>
      </trkpt>
      <trkpt lat="51.60415" lon="8.6352">
        <ele>182.53</ele>
      </trkpt>
      <trkpt lat="51.60365" lon="8.63496">
        <ele>190.84</ele>
      </trkpt>
      <trkpt lat="51.60316" lon="8.63471">
        <ele>190.62</ele>
      </trkpt>
      <trkpt lat="51.60266" lon="8.63447">
        <ele>180.77</ele>
      </trkpt>
      <trkpt lat="51.6024" lon="8.63428">
        <ele>178.74</ele>
      </trkpt>
      <trkpt lat="51.60226" lon="8.634">
        <ele>177.57</ele>
      </trkpt>
      <trkpt lat="51.60219" lon="8.63379">
        <ele>179.26</ele>
      </trkpt>
      <trkpt lat="51.60215" lon="8.63355">
        <ele>181.32</ele>
      </trkpt>
      <trkpt lat="51.6021" lon="8.6331">
        <ele>183.02</ele>
      </trkpt>
      <trkpt lat="51.60207" lon="8.63286">
        <ele>183.76</ele>
      </trkpt>
      <trkpt lat="51.60199" lon="8.6324">
        <ele>182.39</ele>
      </trkpt>
      <trkpt lat="51.60192" lon="8.63218">
        <ele>181.15</ele>
      </trkpt>
      <trkpt lat="51.60192" lon="8.63218">
        <ele>181.15</ele>
      </trkpt>
      <trkpt lat="51.60192" lon="8.63218">
        <ele>181.15</ele>
      </trkpt>
      <trkpt lat="51.60189" lon="8.6321">
        <ele>179.86</ele>
      </trkpt>
      <trkpt lat="51.60185" lon="8.63188">
        <ele>176.69</ele>
      </trkpt>
      <trkpt lat="51.60184" lon="8.63181">
        <ele>175.37</ele>
      </trkpt>
      <trkpt lat="51.60185" lon="8.63162">
        <ele>173.1</ele>
      </trkpt>
      <trkpt lat="51.60204" lon="8.63091">
        <ele>173.46</ele>
      </trkpt>
      <trkpt lat="51.60237" lon="8.62998">
        <ele>185.98</ele>
      </trkpt>
      <trkpt lat="51.60274" lon="8.62922">
        <ele>178.36</ele>
      </trkpt>
      <trkpt lat="51.6029" lon="8.62879">
        <ele>179.61</ele>
      </trkpt>
      <trkpt lat="51.603" lon="8.62835">
        <ele>181.3</ele>
      </trkpt>
      <trkpt lat="51.6031" lon="8.62782">
        <ele>179.36</ele>
      </trkpt>
      <trkpt lat="51.60318" lon="8.62736">
        <ele>179.64</ele>
      </trkpt>
      <trkpt lat="51.60326" lon="8.62686">
        <ele>179.09</ele>
      </trkpt>
      <trkpt lat="51.6033" lon="8.62646">
        <ele>179.52</ele>
      </trkpt>
      <trkpt lat="51.60329" lon="8.62624">
        <ele>180.7</ele>
      </trkpt>
      <trkpt lat="51.60326" lon="8.62605">
        <ele>181.68</ele>
      </trkpt>
      <trkpt lat="51.60297" lon="8.62512">
        <ele>182.15</ele>
      </trkpt>
      <trkpt lat="51.60289" lon="8.62477">
        <ele>182.25</ele>
      </trkpt>
      <trkpt lat="51.60244" lon="8.6243">
        <ele>188.71</ele>
      </trkpt>
      <trkpt lat="51.60194" lon="8.62402">
        <ele>184.04</ele>
      </trkpt>
      <trkpt lat="51.6016" lon="8.62388">
        <ele>183.3</ele>
      </trkpt>
      <trkpt lat="51.60144" lon="8.62378">
        <ele>178.33</ele>
      </trkpt>
      <trkpt lat="51.60131" lon="8.62368">
        <ele>179.68</ele>
      </trkpt>
      <trkpt lat="51.60131" lon="8.62368">
        <ele>179.68</ele>
      </trkpt>
      <trkpt lat="51.60131" lon="8.62368">
        <ele>179.68</ele>
      </trkpt>
      <trkpt lat="51.60126" lon="8.62387">
        <ele>177.16</ele>
      </trkpt>
      <trkpt lat="51.6011" lon="8.62444">
        <ele>175.1</ele>
      </trkpt>
      <trkpt lat="51.60098" lon="8.62471">
        <ele>175.49</ele>
      </trkpt>
      <trkpt lat="51.60092" lon="8.62482">
        <ele>175.91</ele>
      </trkpt>
      <trkpt lat="51.60086" lon="8.62494">
        <ele>176.05</ele>
      </trkpt>
      <trkpt lat="51.60078" lon="8.62506">
        <ele>176.62</ele>
      </trkpt>
      <trkpt lat="51.60066" lon="8.62522">
        <ele>178.21</ele>
      </trkpt>
      <trkpt lat="51.60049" lon="8.62544">
        <ele>180.48</ele>
      </trkpt>
      <trkpt lat="51.60032" lon="8.62558">
        <ele>180.55</ele>
      </trkpt>
      <trkpt lat="51.59967" lon="8.62576">
        <ele>175.23</ele>
      </trkpt>
      <trkpt lat="51.59961" lon="8.6258">
        <ele>176.02</ele>
      </trkpt>
      <trkpt lat="51.59955" lon="8.62577">
        <ele>175.99</ele>
      </trkpt>
      <trkpt lat="51.59942" lon="8.62574">
        <ele>176.33</ele>
      </trkpt>
      <trkpt lat="51.59926" lon="8.62581">
        <ele>177.83</ele>
      </trkpt>
      <trkpt lat="51.59926" lon="8.62581">
        <ele>177.83</ele>
      </trkpt>
      <trkpt lat="51.59926" lon="8.62581">
        <ele>177.83</ele>
      </trkpt>
      <trkpt lat="51.59925" lon="8.62582">
        <ele>178.1</ele>
      </trkpt>
      <trkpt lat="51.599" lon="8.62595">
        <ele>180.08</ele>
      </trkpt>
      <trkpt lat="51.59866" lon="8.62609">
        <ele>180.87</ele>
      </trkpt>
      <trkpt lat="51.59844" lon="8.62616">
        <ele>179.7</ele>
      </trkpt>
      <trkpt lat="51.59821" lon="8.62621">
        <ele>176.51</ele>
      </trkpt>
      <trkpt lat="51.59798" lon="8.62621">
        <ele>171.26</ele>
      </trkpt>
      <trkpt lat="51.59774" lon="8.62619">
        <ele>167.22</ele>
      </trkpt>
      <trkpt lat="51.5971" lon="8.62615">
        <ele>174.86</ele>
      </trkpt>
      <trkpt lat="51.59694" lon="8.6261">
        <ele>171.96</ele>
      </trkpt>
      <trkpt lat="51.59681" lon="8.62589">
        <ele>168.51</ele>
      </trkpt>
      <trkpt lat="51.59659" lon="8.62588">
        <ele>166.12</ele>
      </trkpt>
      <trkpt lat="51.59631" lon="8.62598">
        <ele>169.11</ele>
      </trkpt>
      <trkpt lat="51.59616" lon="8.62601">
        <ele>170.51</ele>
      </trkpt>
      <trkpt lat="51.59585" lon="8.62592">
        <ele>179.34</ele>
      </trkpt>
      <trkpt lat="51.59541" lon="8.62564">
        <ele>192.04</ele>
      </trkpt>
      <trkpt lat="51.59455" lon="8.62502">
        <ele>198.36</ele>
      </trkpt>
      <trkpt lat="51.59407" lon="8.62441">
        <ele>192.52</ele>
      </trkpt>
      <trkpt lat="51.59389" lon="8.62403">
        <ele>186.52</ele>
      </trkpt>
      <trkpt lat="51.59423" lon="8.6233">
        <ele>184.17</ele>
      </trkpt>
      <trkpt lat="51.59425" lon="8.62311">
        <ele>183.76</ele>
      </trkpt>
      <trkpt lat="51.59402" lon="8.62105">
        <ele>183.03</ele>
      </trkpt>
      <trkpt lat="51.59443" lon="8.61892">
        <ele>190.41</ele>
      </trkpt>
      <trkpt lat="51.59458" lon="8.61881">
        <ele>190.99</ele>
      </trkpt>
      <trkpt lat="51.59464" lon="8.61882">
        <ele>191.1</ele>
      </trkpt>
      <trkpt lat="51.59472" lon="8.61894">
        <ele>190.45</ele>
      </trkpt>
      <trkpt lat="51.59477" lon="8.61892">
        <ele>190.21</ele>
      </trkpt>
      <trkpt lat="51.59485" lon="8.61878">
        <ele>189.29</ele>
      </trkpt>
      <trkpt lat="51.59485" lon="8.61878">
        <ele>189.29</ele>
      </trkpt>
      <trkpt lat="51.59485" lon="8.61878">
        <ele>189.29</ele>
      </trkpt>
      <trkpt lat="51.59484" lon="8.6187">
        <ele>189.25</ele>
      </trkpt>
      <trkpt lat="51.59481" lon="8.61858">
        <ele>189.38</ele>
      </trkpt>
      <trkpt lat="51.59465" lon="8.61833">
        <ele>189.21</ele>
      </trkpt>
      <trkpt lat="51.59428" lon="8.61779">
        <ele>188.61</ele>
      </trkpt>
      <trkpt lat="51.59428" lon="8.61779">
        <ele>188.61</ele>
      </trkpt>
      <trkpt lat="51.59428" lon="8.61779">
        <ele>188.61</ele>
      </trkpt>
      <trkpt lat="51.59399" lon="8.61737">
        <ele>194.92</ele>
      </trkpt>
      <trkpt lat="51.59395" lon="8.6173">
        <ele>196.08</ele>
      </trkpt>
      <trkpt lat="51.59392" lon="8.61719">
        <ele>197.08</ele>
      </trkpt>
      <trkpt lat="51.59438" lon="8.61644">
        <ele>192.53</ele>
      </trkpt>
      <trkpt lat="51.59451" lon="8.61631">
        <ele>187.4</ele>
      </trkpt>
      <trkpt lat="51.59474" lon="8.61619">
        <ele>183.41</ele>
      </trkpt>
      <trkpt lat="51.59497" lon="8.61612">
        <ele>175.17</ele>
      </trkpt>
      <trkpt lat="51.595" lon="8.61606">
        <ele>174.18</ele>
      </trkpt>
      <trkpt lat="51.59497" lon="8.61602">
        <ele>175.2</ele>
      </trkpt>
      <trkpt lat="51.59442" lon="8.61589">
        <ele>177.0</ele>
      </trkpt>
      <trkpt lat="51.59361" lon="8.61571">
        <ele>194.59</ele>
      </trkpt>
      <trkpt lat="51.59349" lon="8.61558">
        <ele>198.05</ele>
      </trkpt>
      <trkpt lat="51.59343" lon="8.61532">
        <ele>196.7</ele>
      </trkpt>
      <trkpt lat="51.59324" lon="8.61349">
        <ele>193.9</ele>
      </trkpt>
      <trkpt lat="51.59324" lon="8.61349">
        <ele>193.9</ele>
      </trkpt>
      <trkpt lat="51.59324" lon="8.61349">
        <ele>193.9</ele>
      </trkpt>
      <trkpt lat="51.5932" lon="8.61315">
        <ele>198.01</ele>
      </trkpt>
      <trkpt lat="51.59313" lon="8.61296">
        <ele>201.42</ele>
      </trkpt>
      <trkpt lat="51.59263" lon="8.6126">
        <ele>193.7</ele>
      </trkpt>
      <trkpt lat="51.59239" lon="8.61241">
        <ele>185.62</ele>
      </trkpt>
      <trkpt lat="51.59189" lon="8.61199">
        <ele>190.36</ele>
      </trkpt>
      <trkpt lat="51.59179" lon="8.6119">
        <ele>192.78</ele>
      </trkpt>
      <trkpt lat="51.59173" lon="8.61187">
        <ele>193.86</ele>
      </trkpt>
      <trkpt lat="51.59158" lon="8.61189">
        <ele>192.32</ele>
      </trkpt>
      <trkpt lat="51.59158" lon="8.61184">
        <ele>192.15</ele>
      </trkpt>
      <trkpt lat="51.59157" lon="8.61177">
        <ele>191.56</ele>
      </trkpt>
      <trkpt lat="51.59155" lon="8.61173">
        <ele>190.67</ele>
      </trkpt>
      <trkpt lat="51.59149" lon="8.61163">
        <ele>188.09</ele>
      </trkpt>
      <trkpt lat="51.59145" lon="8.61155">
        <ele>186.75</ele>
      </trkpt>
      <trkpt lat="51.59126" lon="8.61007">
        <ele>188.72</ele>
      </trkpt>
      <trkpt lat="51.59126" lon="8.61007">
        <ele>188.72</ele>
      </trkpt>
      <trkpt lat="51.59126" lon="8.61007">
        <ele>188.72</ele>
      </trkpt>
      <trkpt lat="51.59116" lon="8.60929">
        <ele>188.35</ele>
      </trkpt>
      <trkpt lat="51.59073" lon="8.6064">
        <ele>190.63</ele>
      </trkpt>
      <trkpt lat="51.59061" lon="8.6059">
        <ele>189.85</ele>
      </trkpt>
      <trkpt lat="51.59046" lon="8.6053">
        <ele>192.12</ele>
      </trkpt>
      <trkpt lat="51.59022" lon="8.60458">
        <ele>195.52</ele>
      </trkpt>
      <trkpt lat="51.58973" lon="8.6034">
        <ele>180.91</ele>
      </trkpt>
      <trkpt lat="51.58962" lon="8.60325">
        <ele>179.8</ele>
      </trkpt>
      <trkpt lat="51.58947" lon="8.60321">
        <ele>181.28</ele>
      </trkpt>
      <trkpt lat="51.58938" lon="8.60315">
        <ele>182.34</ele>
      </trkpt>
      <trkpt lat="51.5893" lon="8.60304">
        <ele>184.15</ele>
      </trkpt>
      <trkpt lat="51.58891" lon="8.60252">
        <ele>197.25</ele>
      </trkpt>
      <trkpt lat="51.58844" lon="8.60173">
        <ele>202.35</ele>
      </trkpt>
      <trkpt lat="51.58806" lon="8.60091">
        <ele>202.28</ele>
      </trkpt>
      <trkpt lat="51.58746" lon="8.59926">
        <ele>194.39</ele>
      </trkpt>
      <trkpt lat="51.58684" lon="8.59706">
        <ele>189.68</ele>
      </trkpt>
      <trkpt lat="51.58667" lon="8.5963">
        <ele>192.7</ele>
      </trkpt>
      <trkpt lat="51.58653" lon="8.59549">
        <ele>190.79</ele>
      </trkpt>
      <trkpt lat="51.58635" lon="8.5949">
        <ele>189.33</ele>
      </trkpt>
      <trkpt lat="51.58673" lon="8.5946">
        <ele>190.27</ele>
      </trkpt>
      <trkpt lat="51.58684" lon="8.59453">
        <ele>192.31</ele>
      </trkpt>
      <trkpt lat="51.5869" lon="8.59451">
        <ele>193.4</ele>
      </trkpt>
      <trkpt lat="51.58696" lon="8.59449">
        <ele>194.34</ele>
      </trkpt>
      <trkpt lat="51.58709" lon="8.59447">
        <ele>195.71</ele>
      </trkpt>
      <trkpt lat="51.58716" lon="8.59447">
        <ele>196.49</ele>
      </trkpt>
      <trkpt lat="51.5872" lon="8.59447">
        <ele>196.94</ele>
      </trkpt>
      <trkpt lat="51.58719" lon="8.59436">
        <ele>195.78</ele>
      </trkpt>
      <trkpt lat="51.58707" lon="8.59391">
        <ele>190.73</ele>
      </trkpt>
      <trkpt lat="51.58679" lon="8.59264">
        <ele>189.88</ele>
      </trkpt>
      <trkpt lat="51.58661" lon="8.59237">
        <ele>191.03</ele>
      </trkpt>
      <trkpt lat="51.58644" lon="8.5921">
        <ele>188.03</ele>
      </trkpt>
      <trkpt lat="51.58628" lon="8.59176">
        <ele>185.58</ele>
      </trkpt>
      <trkpt lat="51.58612" lon="8.59123">
        <ele>184.27</ele>
      </trkpt>
      <trkpt lat="51.58584" lon="8.59053">
        <ele>191.0</ele>
      </trkpt>
      <trkpt lat="51.58557" lon="8.58982">
        <ele>187.77</ele>
      </trkpt>
      <trkpt lat="51.58552" lon="8.58966">
        <ele>189.65</ele>
      </trkpt>
      <trkpt lat="51.58565" lon="8.58955">
        <ele>190.92</ele>
      </trkpt>
      <trkpt lat="51.58613" lon="8.58924">
        <ele>192.54</ele>
      </trkpt>
      <trkpt lat="51.58673" lon="8.58893">
        <ele>188.66</ele>
      </trkpt>
      <trkpt lat="51.58676" lon="8.58889">
        <ele>188.66</ele>
      </trkpt>
      <trkpt lat="51.58675" lon="8.58883">
        <ele>188.55</ele>
      </trkpt>
      <trkpt lat="51.58652" lon="8.58773">
        <ele>189.03</ele>
      </trkpt>
      <trkpt lat="51.58642" lon="8.58732">
        <ele>188.26</ele>
      </trkpt>
      <trkpt lat="51.58631" lon="8.58693">
        <ele>186.67</ele>
      </trkpt>
      <trkpt lat="51.58621" lon="8.58657">
        <ele>184.15</ele>
      </trkpt>
      <trkpt lat="51.58633" lon="8.58652">
        <ele>187.19</ele>
      </trkpt>
      <trkpt lat="51.58643" lon="8.58649">
        <ele>189.41</ele>
      </trkpt>
      <trkpt lat="51.58648" lon="8.58648">
        <ele>190.11</ele>
      </trkpt>
      <trkpt lat="51.58664" lon="8.58648">
        <ele>192.02</ele>
      </trkpt>
      <trkpt lat="51.58664" lon="8.58648">
        <ele>192.02</ele>
      </trkpt>
      <trkpt lat="51.58664" lon="8.58648">
        <ele>192.02</ele>
      </trkpt>
      <trkpt lat="51.58664" lon="8.58648">
        <ele>192.02</ele>
      </trkpt>
      <trkpt lat="51.5868" lon="8.58649">
        <ele>194.02</ele>
      </trkpt>
      <trkpt lat="51.58707" lon="8.58658">
        <ele>194.96</ele>
      </trkpt>
      <trkpt lat="51.58705" lon="8.58616">
        <ele>196.75</ele>
      </trkpt>
      <trkpt lat="51.58685" lon="8.58525">
        <ele>199.35</ele>
      </trkpt>
      <trkpt lat="51.58723" lon="8.58481">
        <ele>204.89</ele>
      </trkpt>
      <trkpt lat="51.58706" lon="8.58424">
        <ele>216.98</ele>
      </trkpt>
      <trkpt lat="51.58705" lon="8.58422">
        <ele>217.06</ele>
      </trkpt>
      <trkpt lat="51.58693" lon="8.58387">
        <ele>226.21</ele>
      </trkpt>
      <trkpt lat="51.58693" lon="8.58387">
        <ele>226.21</ele>
      </trkpt>
      <trkpt lat="51.58693" lon="8.58387">
        <ele>226.21</ele>
      </trkpt>
      <trkpt lat="51.58672" lon="8.58328">
        <ele>241.65</ele>
      </trkpt>
      <trkpt lat="51.5867" lon="8.583">
        <ele>242.74</ele>
      </trkpt>
      <trkpt lat="51.58674" lon="8.58279">
        <ele>242.22</ele>
      </trkpt>
      <trkpt lat="51.58652" lon="8.58201">
        <ele>240.29</ele>
      </trkpt>
      <trkpt lat="51.58629" lon="8.58123">
        <ele>238.94</ele>
      </trkpt>
      <trkpt lat="51.58608" lon="8.58026">
        <ele>243.49</ele>
      </trkpt>
      <trkpt lat="51.58597" lon="8.57943">
        <ele>241.98</ele>
      </trkpt>
      <trkpt lat="51.58597" lon="8.57865">
        <ele>243.25</ele>
      </trkpt>
      <trkpt lat="51.58602" lon="8.57837">
        <ele>245.23</ele>
      </trkpt>
      <trkpt lat="51.5861" lon="8.57807">
        <ele>247.82</ele>
      </trkpt>
      <trkpt lat="51.58627" lon="8.57774">
        <ele>248.7</ele>
      </trkpt>
      <trkpt lat="51.58597" lon="8.57717">
        <ele>251.56</ele>
      </trkpt>
      <trkpt lat="51.58567" lon="8.57661">
        <ele>255.5</ele>
      </trkpt>
      <trkpt lat="51.58536" lon="8.57604">
        <ele>259.74</ele>
      </trkpt>
      <trkpt lat="51.58506" lon="8.57547">
        <ele>260.39</ele>
      </trkpt>
      <trkpt lat="51.58474" lon="8.57486">
        <ele>255.38</ele>
      </trkpt>
      <trkpt lat="51.58442" lon="8.57424">
        <ele>259.95</ele>
      </trkpt>
      <trkpt lat="51.58409" lon="8.57363">
        <ele>254.99</ele>
      </trkpt>
      <trkpt lat="51.58377" lon="8.57301">
        <ele>247.0</ele>
      </trkpt>
      <trkpt lat="51.58345" lon="8.5724">
        <ele>244.26</ele>
      </trkpt>
      <trkpt lat="51.58315" lon="8.57182">
        <ele>245.71</ele>
      </trkpt>
      <trkpt lat="51.58285" lon="8.57124">
        <ele>251.07</ele>
      </trkpt>
      <trkpt lat="51.58254" lon="8.57066">
        <ele>255.19</ele>
      </trkpt>
      <trkpt lat="51.58224" lon="8.57008">
        <ele>258.31</ele>
      </trkpt>
      <trkpt lat="51.58194" lon="8.5695">
        <ele>255.25</ele>
      </trkpt>
      <trkpt lat="51.5816" lon="8.56886">
        <ele>253.77</ele>
      </trkpt>
      <trkpt lat="51.58126" lon="8.56822">
        <ele>252.61</ele>
      </trkpt>
      <trkpt lat="51.58092" lon="8.56758">
        <ele>248.47</ele>
      </trkpt>
      <trkpt lat="51.58078" lon="8.56774">
        <ele>249.24</ele>
      </trkpt>
      <trkpt lat="51.58033" lon="8.5683">
        <ele>236.65</ele>
      </trkpt>
      <trkpt lat="51.58021" lon="8.56836">
        <ele>234.24</ele>
      </trkpt>
      <trkpt lat="51.58019" lon="8.56858">
        <ele>233.77</ele>
      </trkpt>
      <trkpt lat="51.58051" lon="8.56938">
        <ele>236.71</ele>
      </trkpt>
      <trkpt lat="51.58051" lon="8.56938">
        <ele>236.71</ele>
      </trkpt>
      <trkpt lat="51.58051" lon="8.56938">
        <ele>236.71</ele>
      </trkpt>
      <trkpt lat="51.58051" lon="8.56938">
        <ele>236.71</ele>
      </trkpt>
      <trkpt lat="51.58146" lon="8.57115">
        <ele>236.98</ele>
      </trkpt>
      <trkpt lat="51.58188" lon="8.57223">
        <ele>227.77</ele>
      </trkpt>
      <trkpt lat="51.58237" lon="8.57426">
        <ele>228.5</ele>
      </trkpt>
      <trkpt lat="51.58251" lon="8.5749">
        <ele>228.95</ele>
      </trkpt>
      <trkpt lat="51.5825" lon="8.57571">
        <ele>220.33</ele>
      </trkpt>
      <trkpt lat="51.5826" lon="8.57622">
        <ele>218.05</ele>
      </trkpt>
      <trkpt lat="51.58265" lon="8.57646">
        <ele>216.78</ele>
      </trkpt>
      <trkpt lat="51.5826" lon="8.57662">
        <ele>211.71</ele>
      </trkpt>
      <trkpt lat="51.58248" lon="8.57664">
        <ele>207.2</ele>
      </trkpt>
      <trkpt lat="51.58199" lon="8.5756">
        <ele>207.36</ele>
      </trkpt>
      <trkpt lat="51.58193" lon="8.57546">
        <ele>207.15</ele>
      </trkpt>
      <trkpt lat="51.58189" lon="8.57536">
        <ele>207.06</ele>
      </trkpt>
      <trkpt lat="51.58169" lon="8.57513">
        <ele>206.27</ele>
      </trkpt>
      <trkpt lat="51.58147" lon="8.57475">
        <ele>206.46</ele>
      </trkpt>
      <trkpt lat="51.58145" lon="8.57472">
        <ele>206.68</ele>
      </trkpt>
      <trkpt lat="51.58136" lon="8.57448">
        <ele>207.11</ele>
      </trkpt>
      <trkpt lat="51.58134" lon="8.57443">
        <ele>207.11</ele>
      </trkpt>
      <trkpt lat="51.58134" lon="8.57443">
        <ele>207.11</ele>
      </trkpt>
      <trkpt lat="51.58134" lon="8.57443">
        <ele>207.11</ele>
      </trkpt>
      <trkpt lat="51.58122" lon="8.57408">
        <ele>208.46</ele>
      </trkpt>
      <trkpt lat="51.58109" lon="8.57376">
        <ele>207.7</ele>
      </trkpt>
      <trkpt lat="51.58037" lon="8.57212">
        <ele>208.21</ele>
      </trkpt>
      <trkpt lat="51.57994" lon="8.57111">
        <ele>202.5</ele>
      </trkpt>
      <trkpt lat="51.57948" lon="8.57011">
        <ele>205.92</ele>
      </trkpt>
      <trkpt lat="51.57906" lon="8.56908">
        <ele>215.94</ele>
      </trkpt>
      <trkpt lat="51.57885" lon="8.56861">
        <ele>217.03</ele>
      </trkpt>
      <trkpt lat="51.57871" lon="8.56822">
        <ele>216.66</ele>
      </trkpt>
      <trkpt lat="51.57848" lon="8.56763">
        <ele>213.28</ele>
      </trkpt>
      <trkpt lat="51.57841" lon="8.56736">
        <ele>211.85</ele>
      </trkpt>
      <trkpt lat="51.57831" lon="8.56694">
        <ele>209.96</ele>
      </trkpt>
      <trkpt lat="51.57806" lon="8.56552">
        <ele>206.48</ele>
      </trkpt>
      <trkpt lat="51.57775" lon="8.56386">
        <ele>209.77</ele>
      </trkpt>
      <trkpt lat="51.57771" lon="8.56368">
        <ele>211.13</ele>
      </trkpt>
      <trkpt lat="51.57745" lon="8.56268">
        <ele>212.91</ele>
      </trkpt>
      <trkpt lat="51.57737" lon="8.56219">
        <ele>213.79</ele>
      </trkpt>
      <trkpt lat="51.57735" lon="8.56211">
        <ele>213.41</ele>
      </trkpt>
      <trkpt lat="51.57724" lon="8.56173">
        <ele>211.38</ele>
      </trkpt>
      <trkpt lat="51.57721" lon="8.56166">
        <ele>211.01</ele>
      </trkpt>
      <trkpt lat="51.57718" lon="8.56158">
        <ele>211.52</ele>
      </trkpt>
      <trkpt lat="51.57713" lon="8.56144">
        <ele>212.57</ele>
      </trkpt>
      <trkpt lat="51.57709" lon="8.56134">
        <ele>213.44</ele>
      </trkpt>
      <trkpt lat="51.57703" lon="8.56119">
        <ele>214.65</ele>
      </trkpt>
      <trkpt lat="51.57691" lon="8.56094">
        <ele>217.71</ele>
      </trkpt>
      <trkpt lat="51.57683" lon="8.56082">
        <ele>219.0</ele>
      </trkpt>
      <trkpt lat="51.57674" lon="8.5607">
        <ele>220.19</ele>
      </trkpt>
      <trkpt lat="51.57663" lon="8.56059">
        <ele>220.87</ele>
      </trkpt>
      <trkpt lat="51.57655" lon="8.5605">
        <ele>221.04</ele>
      </trkpt>
      <trkpt lat="51.57632" lon="8.56019">
        <ele>220.8</ele>
      </trkpt>
      <trkpt lat="51.57626" lon="8.56009">
        <ele>221.12</ele>
      </trkpt>
      <trkpt lat="51.57609" lon="8.55988">
        <ele>222.08</ele>
      </trkpt>
      <trkpt lat="51.57599" lon="8.55974">
        <ele>224.56</ele>
      </trkpt>
      <trkpt lat="51.57585" lon="8.5596">
        <ele>225.88</ele>
      </trkpt>
      <trkpt lat="51.57574" lon="8.55952">
        <ele>226.34</ele>
      </trkpt>
      <trkpt lat="51.5755" lon="8.55936">
        <ele>226.96</ele>
      </trkpt>
      <trkpt lat="51.57529" lon="8.55926">
        <ele>221.34</ele>
      </trkpt>
      <trkpt lat="51.57521" lon="8.55922">
        <ele>217.94</ele>
      </trkpt>
      <trkpt lat="51.57506" lon="8.55919">
        <ele>209.95</ele>
      </trkpt>
      <trkpt lat="51.57491" lon="8.55917">
        <ele>205.32</ele>
      </trkpt>
      <trkpt lat="51.57474" lon="8.55919">
        <ele>202.05</ele>
      </trkpt>
      <trkpt lat="51.57456" lon="8.55926">
        <ele>195.54</ele>
      </trkpt>
      <trkpt lat="51.57436" lon="8.55932">
        <ele>192.46</ele>
      </trkpt>
      <trkpt lat="51.57409" lon="8.55932">
        <ele>195.77</ele>
      </trkpt>
      <trkpt lat="51.57394" lon="8.55935">
        <ele>197.35</ele>
      </trkpt>
      <trkpt lat="51.57379" lon="8.55941">
        <ele>199.06</ele>
      </trkpt>
      <trkpt lat="51.57363" lon="8.55949">
        <ele>201.6</ele>
      </trkpt>
      <trkpt lat="51.57348" lon="8.5596">
        <ele>201.53</ele>
      </trkpt>
      <trkpt lat="51.57334" lon="8.55972">
        <ele>201.02</ele>
      </trkpt>
      <trkpt lat="51.5731" lon="8.55991">
        <ele>197.42</ele>
      </trkpt>
      <trkpt lat="51.5729" lon="8.56005">
        <ele>197.16</ele>
      </trkpt>
      <trkpt lat="51.57273" lon="8.56019">
        <ele>195.1</ele>
      </trkpt>
      <trkpt lat="51.57263" lon="8.56026">
        <ele>194.15</ele>
      </trkpt>
      <trkpt lat="51.57245" lon="8.56042">
        <ele>193.93</ele>
      </trkpt>
      <trkpt lat="51.57231" lon="8.56057">
        <ele>193.77</ele>
      </trkpt>
      <trkpt lat="51.57222" lon="8.56069">
        <ele>194.48</ele>
      </trkpt>
      <trkpt lat="51.57208" lon="8.56088">
        <ele>194.32</ele>
      </trkpt>
      <trkpt lat="51.5709" lon="8.56254">
        <ele>201.34</ele>
      </trkpt>
      <trkpt lat="51.57077" lon="8.5627">
        <ele>200.12</ele>
      </trkpt>
      <trkpt lat="51.56762" lon="8.56606">
        <ele>206.81</ele>
      </trkpt>
      <trkpt lat="51.56738" lon="8.56631">
        <ele>209.52</ele>
      </trkpt>
      <trkpt lat="51.56684" lon="8.56689">
        <ele>215.35</ele>
      </trkpt>
      <trkpt lat="51.56647" lon="8.56708">
        <ele>222.98</ele>
      </trkpt>
      <trkpt lat="51.56461" lon="8.56757">
        <ele>215.29</ele>
      </trkpt>
      <trkpt lat="51.56422" lon="8.56759">
        <ele>215.07</ele>
      </trkpt>
      <trkpt lat="51.56377" lon="8.56753">
        <ele>215.47</ele>
      </trkpt>
      <trkpt lat="51.56363" lon="8.56751">
        <ele>210.67</ele>
      </trkpt>
      <trkpt lat="51.56328" lon="8.56736">
        <ele>213.8</ele>
      </trkpt>
      <trkpt lat="51.56295" lon="8.56723">
        <ele>216.33</ele>
      </trkpt>
      <trkpt lat="51.56253" lon="8.56678">
        <ele>218.82</ele>
      </trkpt>
      <trkpt lat="51.56137" lon="8.56525">
        <ele>211.77</ele>
      </trkpt>
      <trkpt lat="51.56126" lon="8.5651">
        <ele>214.86</ele>
      </trkpt>
      <trkpt lat="51.56111" lon="8.56488">
        <ele>214.26</ele>
      </trkpt>
      <trkpt lat="51.56105" lon="8.56473">
        <ele>211.66</ele>
      </trkpt>
      <trkpt lat="51.56086" lon="8.56428">
        <ele>211.83</ele>
      </trkpt>
      <trkpt lat="51.55986" lon="8.5654">
        <ele>215.65</ele>
      </trkpt>
      <trkpt lat="51.55976" lon="8.56552">
        <ele>215.26</ele>
      </trkpt>
      <trkpt lat="51.55958" lon="8.56571">
        <ele>212.66</ele>
      </trkpt>
      <trkpt lat="51.55951" lon="8.56571">
        <ele>212.61</ele>
      </trkpt>
      <trkpt lat="51.55926" lon="8.56543">
        <ele>214.95</ele>
      </trkpt>
      <trkpt lat="51.55916" lon="8.56512">
        <ele>214.76</ele>
      </trkpt>
      <trkpt lat="51.55914" lon="8.56511">
        <ele>215.05</ele>
      </trkpt>
      <trkpt lat="51.55914" lon="8.56511">
        <ele>215.05</ele>
      </trkpt>
      <trkpt lat="51.55914" lon="8.56511">
        <ele>215.05</ele>
      </trkpt>
      <trkpt lat="51.55856" lon="8.5646">
        <ele>219.8</ele>
      </trkpt>
      <trkpt lat="51.55847" lon="8.5646">
        <ele>221.34</ele>
      </trkpt>
      <trkpt lat="51.55827" lon="8.56482">
        <ele>228.12</ele>
      </trkpt>
      <trkpt lat="51.55815" lon="8.56458">
        <ele>227.41</ele>
      </trkpt>
      <trkpt lat="51.55801" lon="8.56421">
        <ele>219.36</ele>
      </trkpt>
      <trkpt lat="51.55771" lon="8.5627">
        <ele>219.22</ele>
      </trkpt>
      <trkpt lat="51.55771" lon="8.5627">
        <ele>219.22</ele>
      </trkpt>
      <trkpt lat="51.55771" lon="8.5627">
        <ele>219.22</ele>
      </trkpt>
      <trkpt lat="51.55767" lon="8.56246">
        <ele>220.08</ele>
      </trkpt>
      <trkpt lat="51.55747" lon="8.56183">
        <ele>227.47</ele>
      </trkpt>
      <trkpt lat="51.55741" lon="8.56156">
        <ele>227.24</ele>
      </trkpt>
      <trkpt lat="51.55737" lon="8.56133">
        <ele>226.37</ele>
      </trkpt>
      <trkpt lat="51.55732" lon="8.56121">
        <ele>225.6</ele>
      </trkpt>
      <trkpt lat="51.55725" lon="8.5612">
        <ele>225.16</ele>
      </trkpt>
      <trkpt lat="51.55722" lon="8.56108">
        <ele>225.06</ele>
      </trkpt>
      <trkpt lat="51.55716" lon="8.56092">
        <ele>224.19</ele>
      </trkpt>
      <trkpt lat="51.55708" lon="8.56079">
        <ele>222.42</ele>
      </trkpt>
      <trkpt lat="51.557" lon="8.56065">
        <ele>220.8</ele>
      </trkpt>
      <trkpt lat="51.55689" lon="8.56055">
        <ele>218.24</ele>
      </trkpt>
      <trkpt lat="51.55686" lon="8.56053">
        <ele>217.32</ele>
      </trkpt>
      <trkpt lat="51.55686" lon="8.56053">
        <ele>217.32</ele>
      </trkpt>
      <trkpt lat="51.55686" lon="8.56053">
        <ele>217.32</ele>
      </trkpt>
      <trkpt lat="51.55676" lon="8.56046">
        <ele>214.48</ele>
      </trkpt>
      <trkpt lat="51.55659" lon="8.56036">
        <ele>212.41</ele>
      </trkpt>
      <trkpt lat="51.55656" lon="8.56034">
        <ele>212.55</ele>
      </trkpt>
      <trkpt lat="51.55625" lon="8.56021">
        <ele>215.37</ele>
      </trkpt>
      <trkpt lat="51.55607" lon="8.56012">
        <ele>218.28</ele>
      </trkpt>
      <trkpt lat="51.55595" lon="8.56008">
        <ele>219.0</ele>
      </trkpt>
      <trkpt lat="51.55579" lon="8.56001">
        <ele>220.55</ele>
      </trkpt>
      <trkpt lat="51.5557" lon="8.55997">
        <ele>222.24</ele>
      </trkpt>
      <trkpt lat="51.55557" lon="8.55991">
        <ele>224.76</ele>
      </trkpt>
      <trkpt lat="51.55552" lon="8.55982">
        <ele>225.91</ele>
      </trkpt>
      <trkpt lat="51.55549" lon="8.55975">
        <ele>226.51</ele>
      </trkpt>
      <trkpt lat="51.55544" lon="8.55982">
        <ele>225.82</ele>
      </trkpt>
      <trkpt lat="51.55536" lon="8.55989">
        <ele>225.33</ele>
      </trkpt>
      <trkpt lat="51.55527" lon="8.55993">
        <ele>225.26</ele>
      </trkpt>
      <trkpt lat="51.55504" lon="8.55997">
        <ele>225.69</ele>
      </trkpt>
      <trkpt lat="51.55482" lon="8.55998">
        <ele>223.4</ele>
      </trkpt>
      <trkpt lat="51.55439" lon="8.55998">
        <ele>228.47</ele>
      </trkpt>
      <trkpt lat="51.55429" lon="8.55998">
        <ele>231.84</ele>
      </trkpt>
      <trkpt lat="51.55403" lon="8.55998">
        <ele>237.44</ele>
      </trkpt>
      <trkpt lat="51.55396" lon="8.55998">
        <ele>238.18</ele>
      </trkpt>
      <trkpt lat="51.55382" lon="8.55998">
        <ele>240.11</ele>
      </trkpt>
      <trkpt lat="51.55359" lon="8.55999">
        <ele>243.94</ele>
      </trkpt>
      <trkpt lat="51.55343" lon="8.55999">
        <ele>244.55</ele>
      </trkpt>
      <trkpt lat="51.55291" lon="8.55995">
        <ele>241.72</ele>
      </trkpt>
      <trkpt lat="51.55291" lon="8.55995">
        <ele>241.72</ele>
      </trkpt>
      <trkpt lat="51.55291" lon="8.55995">
        <ele>241.72</ele>
      </trkpt>
      <trkpt lat="51.55274" lon="8.55993">
        <ele>242.08</ele>
      </trkpt>
      <trkpt lat="51.55256" lon="8.55988">
        <ele>242.83</ele>
      </trkpt>
      <trkpt lat="51.55242" lon="8.55986">
        <ele>242.57</ele>
      </trkpt>
      <trkpt lat="51.55233" lon="8.55985">
        <ele>242.14</ele>
      </trkpt>
      <trkpt lat="51.55218" lon="8.55986">
        <ele>241.5</ele>
      </trkpt>
      <trkpt lat="51.55198" lon="8.5599">
        <ele>241.36</ele>
      </trkpt>
      <trkpt lat="51.55188" lon="8.55992">
        <ele>241.62</ele>
      </trkpt>
      <trkpt lat="51.55188" lon="8.55992">
        <ele>241.62</ele>
      </trkpt>
      <trkpt lat="51.55188" lon="8.55992">
        <ele>241.62</ele>
      </trkpt>
      <trkpt lat="51.55198" lon="8.5599">
        <ele>241.36</ele>
      </trkpt>
      <trkpt lat="51.55218" lon="8.55986">
        <ele>241.5</ele>
      </trkpt>
      <trkpt lat="51.55233" lon="8.55985">
        <ele>242.14</ele>
      </trkpt>
      <trkpt lat="51.55236" lon="8.55979">
        <ele>242.63</ele>
      </trkpt>
      <trkpt lat="51.55249" lon="8.55927">
        <ele>246.17</ele>
      </trkpt>
      <trkpt lat="51.55246" lon="8.55916">
        <ele>246.57</ele>
      </trkpt>
    </trkseg>
  </trk>
</gpx>
