<?xml version="1.0"?>
<gpx xmlns="http://www.topografix.com/GPX/1/1" xmlns:xsi="http://www.w3.org/2001/XMLSchema-instance" version="1.1" creator="AllTrails.com" xsi:schemaLocation="http://www.topografix.com/GPX/1/1 http://www.topografix.com/GPX/1/1/gpx.xsd">
  <metadata>
    <name><![CDATA[PW Nk Schönes Schwalmtal 20 Km]]></name>
    <desc><![CDATA[]]></desc>
    <link href="http://www.alltrails.com">
      <text>AllTrails, LLC</text>
    </link>
    <bounds minlat="51.1586" minlon="6.21824" maxlat="51.2016" maxlon="6.28792"/>
  </metadata>
  <trk>
    <name><![CDATA[PW Nk Schönes Schwalmtal 20 Km]]></name>
    <src>AllTrails</src>
    <trkseg>
      <trkpt lat="51.2004" lon="6.21824">
        <ele>46.22</ele>
      </trkpt>
      <trkpt lat="51.20018" lon="6.21841">
        <ele>45.89</ele>
      </trkpt>
      <trkpt lat="51.19983" lon="6.21874">
        <ele>45.31</ele>
      </trkpt>
      <trkpt lat="51.19965" lon="6.21886">
        <ele>46.13</ele>
      </trkpt>
      <trkpt lat="51.19936" lon="6.21918">
        <ele>46.47</ele>
      </trkpt>
      <trkpt lat="51.19896" lon="6.21938">
        <ele>44.63</ele>
      </trkpt>
      <trkpt lat="51.19885" lon="6.21944">
        <ele>44.85</ele>
      </trkpt>
      <trkpt lat="51.19863" lon="6.21975">
        <ele>52.64</ele>
      </trkpt>
      <trkpt lat="51.19853" lon="6.21989">
        <ele>54.95</ele>
      </trkpt>
      <trkpt lat="51.19827" lon="6.21987">
        <ele>58.03</ele>
      </trkpt>
      <trkpt lat="51.19821" lon="6.21992">
        <ele>58.05</ele>
      </trkpt>
      <trkpt lat="51.19816" lon="6.21997">
        <ele>57.81</ele>
      </trkpt>
      <trkpt lat="51.19816" lon="6.22019">
        <ele>57.49</ele>
      </trkpt>
      <trkpt lat="51.19691" lon="6.22162">
        <ele>57.83</ele>
      </trkpt>
      <trkpt lat="51.19652" lon="6.22198">
        <ele>58.16</ele>
      </trkpt>
      <trkpt lat="51.19599" lon="6.2223">
        <ele>59.84</ele>
      </trkpt>
      <trkpt lat="51.19576" lon="6.22187">
        <ele>57.72</ele>
      </trkpt>
      <trkpt lat="51.1953" lon="6.22248">
        <ele>54.61</ele>
      </trkpt>
      <trkpt lat="51.19373" lon="6.22421">
        <ele>49.01</ele>
      </trkpt>
      <trkpt lat="51.19301" lon="6.22417">
        <ele>49.15</ele>
      </trkpt>
      <trkpt lat="51.19264" lon="6.22422">
        <ele>48.91</ele>
      </trkpt>
      <trkpt lat="51.19242" lon="6.22426">
        <ele>48.24</ele>
      </trkpt>
      <trkpt lat="51.19224" lon="6.22428">
        <ele>49.46</ele>
      </trkpt>
      <trkpt lat="51.1911" lon="6.22399">
        <ele>57.54</ele>
      </trkpt>
      <trkpt lat="51.1909" lon="6.224">
        <ele>59.12</ele>
      </trkpt>
      <trkpt lat="51.19059" lon="6.22433">
        <ele>61.81</ele>
      </trkpt>
      <trkpt lat="51.19036" lon="6.22458">
        <ele>60.81</ele>
      </trkpt>
      <trkpt lat="51.1902" lon="6.2247">
        <ele>59.96</ele>
      </trkpt>
      <trkpt lat="51.19" lon="6.22469">
        <ele>57.88</ele>
      </trkpt>
      <trkpt lat="51.18972" lon="6.2246">
        <ele>54.57</ele>
      </trkpt>
      <trkpt lat="51.18944" lon="6.22454">
        <ele>55.59</ele>
      </trkpt>
      <trkpt lat="51.18915" lon="6.22455">
        <ele>51.27</ele>
      </trkpt>
      <trkpt lat="51.18889" lon="6.22459">
        <ele>47.54</ele>
      </trkpt>
      <trkpt lat="51.18834" lon="6.22467">
        <ele>47.21</ele>
      </trkpt>
      <trkpt lat="51.18779" lon="6.22472">
        <ele>48.91</ele>
      </trkpt>
      <trkpt lat="51.18726" lon="6.22475">
        <ele>51.91</ele>
      </trkpt>
      <trkpt lat="51.18694" lon="6.22486">
        <ele>51.95</ele>
      </trkpt>
      <trkpt lat="51.1868" lon="6.22495">
        <ele>50.77</ele>
      </trkpt>
      <trkpt lat="51.18672" lon="6.22504">
        <ele>50.75</ele>
      </trkpt>
      <trkpt lat="51.18661" lon="6.22525">
        <ele>50.64</ele>
      </trkpt>
      <trkpt lat="51.18647" lon="6.22542">
        <ele>48.86</ele>
      </trkpt>
      <trkpt lat="51.1867" lon="6.2257">
        <ele>59.96</ele>
      </trkpt>
      <trkpt lat="51.18701" lon="6.22607">
        <ele>65.58</ele>
      </trkpt>
      <trkpt lat="51.18721" lon="6.22636">
        <ele>64.89</ele>
      </trkpt>
      <trkpt lat="51.18666" lon="6.22807">
        <ele>58.1</ele>
      </trkpt>
      <trkpt lat="51.1864" lon="6.22936">
        <ele>60.35</ele>
      </trkpt>
      <trkpt lat="51.18345" lon="6.23633">
        <ele>63.32</ele>
      </trkpt>
      <trkpt lat="51.18228" lon="6.23905">
        <ele>65.75</ele>
      </trkpt>
      <trkpt lat="51.18219" lon="6.2392">
        <ele>65.12</ele>
      </trkpt>
      <trkpt lat="51.18114" lon="6.24041">
        <ele>58.16</ele>
      </trkpt>
      <trkpt lat="51.18161" lon="6.24154">
        <ele>63.11</ele>
      </trkpt>
      <trkpt lat="51.1818" lon="6.24212">
        <ele>58.61</ele>
      </trkpt>
      <trkpt lat="51.18221" lon="6.24293">
        <ele>53.5</ele>
      </trkpt>
      <trkpt lat="51.18262" lon="6.24374">
        <ele>49.37</ele>
      </trkpt>
      <trkpt lat="51.18231" lon="6.24402">
        <ele>48.72</ele>
      </trkpt>
      <trkpt lat="51.18234" lon="6.24414">
        <ele>48.11</ele>
      </trkpt>
      <trkpt lat="51.18209" lon="6.2444">
        <ele>47.75</ele>
      </trkpt>
      <trkpt lat="51.18242" lon="6.2447">
        <ele>48.39</ele>
      </trkpt>
      <trkpt lat="51.18279" lon="6.24499">
        <ele>51.05</ele>
      </trkpt>
      <trkpt lat="51.1831" lon="6.24538">
        <ele>56.21</ele>
      </trkpt>
      <trkpt lat="51.18284" lon="6.2463">
        <ele>58.05</ele>
      </trkpt>
      <trkpt lat="51.1853" lon="6.25044">
        <ele>52.32</ele>
      </trkpt>
      <trkpt lat="51.18378" lon="6.25371">
        <ele>45.14</ele>
      </trkpt>
      <trkpt lat="51.18283" lon="6.25535">
        <ele>47.35</ele>
      </trkpt>
      <trkpt lat="51.18237" lon="6.25608">
        <ele>44.64</ele>
      </trkpt>
      <trkpt lat="51.18222" lon="6.25615">
        <ele>45.02</ele>
      </trkpt>
      <trkpt lat="51.18206" lon="6.2562">
        <ele>46.75</ele>
      </trkpt>
      <trkpt lat="51.18183" lon="6.25618">
        <ele>47.8</ele>
      </trkpt>
      <trkpt lat="51.18123" lon="6.2565">
        <ele>49.4</ele>
      </trkpt>
      <trkpt lat="51.18065" lon="6.25723">
        <ele>48.38</ele>
      </trkpt>
      <trkpt lat="51.1801" lon="6.25826">
        <ele>52.09</ele>
      </trkpt>
      <trkpt lat="51.18077" lon="6.25904">
        <ele>58.81</ele>
      </trkpt>
      <trkpt lat="51.18183" lon="6.26">
        <ele>59.12</ele>
      </trkpt>
      <trkpt lat="51.18234" lon="6.26053">
        <ele>59.69</ele>
      </trkpt>
      <trkpt lat="51.18281" lon="6.26126">
        <ele>61.39</ele>
      </trkpt>
      <trkpt lat="51.18224" lon="6.2623">
        <ele>44.07</ele>
      </trkpt>
      <trkpt lat="51.18189" lon="6.26294">
        <ele>44.44</ele>
      </trkpt>
      <trkpt lat="51.18111" lon="6.26407">
        <ele>50.95</ele>
      </trkpt>
      <trkpt lat="51.18079" lon="6.26436">
        <ele>51.97</ele>
      </trkpt>
      <trkpt lat="51.18023" lon="6.26513">
        <ele>47.99</ele>
      </trkpt>
      <trkpt lat="51.17991" lon="6.26532">
        <ele>47.48</ele>
      </trkpt>
      <trkpt lat="51.17951" lon="6.26543">
        <ele>45.39</ele>
      </trkpt>
      <trkpt lat="51.17922" lon="6.26544">
        <ele>46.28</ele>
      </trkpt>
      <trkpt lat="51.17898" lon="6.26559">
        <ele>46.54</ele>
      </trkpt>
      <trkpt lat="51.17778" lon="6.26742">
        <ele>48.74</ele>
      </trkpt>
      <trkpt lat="51.17769" lon="6.26759">
        <ele>49.13</ele>
      </trkpt>
      <trkpt lat="51.17722" lon="6.26922">
        <ele>47.58</ele>
      </trkpt>
      <trkpt lat="51.17717" lon="6.27014">
        <ele>56.15</ele>
      </trkpt>
      <trkpt lat="51.1771" lon="6.27056">
        <ele>55.67</ele>
      </trkpt>
      <trkpt lat="51.17677" lon="6.27148">
        <ele>49.95</ele>
      </trkpt>
      <trkpt lat="51.17634" lon="6.27247">
        <ele>49.82</ele>
      </trkpt>
      <trkpt lat="51.17653" lon="6.27415">
        <ele>49.54</ele>
      </trkpt>
      <trkpt lat="51.17653" lon="6.27448">
        <ele>49.43</ele>
      </trkpt>
      <trkpt lat="51.17645" lon="6.27479">
        <ele>49.33</ele>
      </trkpt>
      <trkpt lat="51.17617" lon="6.27538">
        <ele>47.27</ele>
      </trkpt>
      <trkpt lat="51.17584" lon="6.27617">
        <ele>46.52</ele>
      </trkpt>
      <trkpt lat="51.17549" lon="6.27668">
        <ele>47.51</ele>
      </trkpt>
      <trkpt lat="51.17512" lon="6.27711">
        <ele>41.39</ele>
      </trkpt>
      <trkpt lat="51.1749" lon="6.27715">
        <ele>40.34</ele>
      </trkpt>
      <trkpt lat="51.17404" lon="6.27699">
        <ele>43.71</ele>
      </trkpt>
      <trkpt lat="51.17315" lon="6.27708">
        <ele>53.0</ele>
      </trkpt>
      <trkpt lat="51.17266" lon="6.27683">
        <ele>53.15</ele>
      </trkpt>
      <trkpt lat="51.17252" lon="6.2762">
        <ele>52.02</ele>
      </trkpt>
      <trkpt lat="51.17218" lon="6.27626">
        <ele>52.86</ele>
      </trkpt>
      <trkpt lat="51.17182" lon="6.27621">
        <ele>52.51</ele>
      </trkpt>
      <trkpt lat="51.17141" lon="6.27608">
        <ele>53.98</ele>
      </trkpt>
      <trkpt lat="51.17086" lon="6.27561">
        <ele>56.86</ele>
      </trkpt>
      <trkpt lat="51.17054" lon="6.27535">
        <ele>55.96</ele>
      </trkpt>
      <trkpt lat="51.17024" lon="6.27519">
        <ele>54.77</ele>
      </trkpt>
      <trkpt lat="51.16971" lon="6.27472">
        <ele>54.93</ele>
      </trkpt>
      <trkpt lat="51.16938" lon="6.27447">
        <ele>54.35</ele>
      </trkpt>
      <trkpt lat="51.169" lon="6.27436">
        <ele>52.04</ele>
      </trkpt>
      <trkpt lat="51.16802" lon="6.27445">
        <ele>51.76</ele>
      </trkpt>
      <trkpt lat="51.16734" lon="6.27403">
        <ele>53.73</ele>
      </trkpt>
      <trkpt lat="51.1666" lon="6.27367">
        <ele>52.49</ele>
      </trkpt>
      <trkpt lat="51.16636" lon="6.27362">
        <ele>51.82</ele>
      </trkpt>
      <trkpt lat="51.16609" lon="6.27365">
        <ele>50.11</ele>
      </trkpt>
      <trkpt lat="51.16599" lon="6.27355">
        <ele>50.44</ele>
      </trkpt>
      <trkpt lat="51.16514" lon="6.271">
        <ele>58.71</ele>
      </trkpt>
      <trkpt lat="51.16521" lon="6.2706">
        <ele>60.56</ele>
      </trkpt>
      <trkpt lat="51.16499" lon="6.27058">
        <ele>59.89</ele>
      </trkpt>
      <trkpt lat="51.16476" lon="6.27067">
        <ele>60.55</ele>
      </trkpt>
      <trkpt lat="51.16442" lon="6.27089">
        <ele>60.87</ele>
      </trkpt>
      <trkpt lat="51.16425" lon="6.27085">
        <ele>61.6</ele>
      </trkpt>
      <trkpt lat="51.16368" lon="6.27028">
        <ele>58.98</ele>
      </trkpt>
      <trkpt lat="51.16353" lon="6.27021">
        <ele>57.49</ele>
      </trkpt>
      <trkpt lat="51.16333" lon="6.27187">
        <ele>58.18</ele>
      </trkpt>
      <trkpt lat="51.16325" lon="6.27225">
        <ele>61.9</ele>
      </trkpt>
      <trkpt lat="51.16289" lon="6.27298">
        <ele>68.72</ele>
      </trkpt>
      <trkpt lat="51.16228" lon="6.27417">
        <ele>56.05</ele>
      </trkpt>
      <trkpt lat="51.16099" lon="6.27215">
        <ele>61.89</ele>
      </trkpt>
      <trkpt lat="51.16092" lon="6.27231">
        <ele>59.42</ele>
      </trkpt>
      <trkpt lat="51.16068" lon="6.27225">
        <ele>58.18</ele>
      </trkpt>
      <trkpt lat="51.16079" lon="6.27251">
        <ele>57.22</ele>
      </trkpt>
      <trkpt lat="51.16074" lon="6.27315">
        <ele>50.45</ele>
      </trkpt>
      <trkpt lat="51.16059" lon="6.27375">
        <ele>50.19</ele>
      </trkpt>
      <trkpt lat="51.15999" lon="6.27465">
        <ele>52.98</ele>
      </trkpt>
      <trkpt lat="51.1586" lon="6.27691">
        <ele>59.12</ele>
      </trkpt>
      <trkpt lat="51.15866" lon="6.277">
        <ele>58.45</ele>
      </trkpt>
      <trkpt lat="51.15916" lon="6.27713">
        <ele>60.29</ele>
      </trkpt>
      <trkpt lat="51.1595" lon="6.2773">
        <ele>61.01</ele>
      </trkpt>
      <trkpt lat="51.16018" lon="6.27758">
        <ele>66.6</ele>
      </trkpt>
      <trkpt lat="51.16038" lon="6.27755">
        <ele>67.91</ele>
      </trkpt>
      <trkpt lat="51.16068" lon="6.27748">
        <ele>70.51</ele>
      </trkpt>
      <trkpt lat="51.16094" lon="6.27728">
        <ele>67.7</ele>
      </trkpt>
      <trkpt lat="51.1611" lon="6.27678">
        <ele>65.74</ele>
      </trkpt>
      <trkpt lat="51.16144" lon="6.27575">
        <ele>59.2</ele>
      </trkpt>
      <trkpt lat="51.16164" lon="6.27542">
        <ele>58.34</ele>
      </trkpt>
      <trkpt lat="51.16195" lon="6.27527">
        <ele>59.98</ele>
      </trkpt>
      <trkpt lat="51.16235" lon="6.2752">
        <ele>63.46</ele>
      </trkpt>
      <trkpt lat="51.16241" lon="6.2753">
        <ele>65.59</ele>
      </trkpt>
      <trkpt lat="51.16255" lon="6.27565">
        <ele>70.76</ele>
      </trkpt>
      <trkpt lat="51.16273" lon="6.2765">
        <ele>72.15</ele>
      </trkpt>
      <trkpt lat="51.16273" lon="6.277">
        <ele>72.91</ele>
      </trkpt>
      <trkpt lat="51.16289" lon="6.27741">
        <ele>72.87</ele>
      </trkpt>
      <trkpt lat="51.16306" lon="6.27786">
        <ele>75.67</ele>
      </trkpt>
      <trkpt lat="51.16341" lon="6.27834">
        <ele>75.1</ele>
      </trkpt>
      <trkpt lat="51.16401" lon="6.27923">
        <ele>75.31</ele>
      </trkpt>
      <trkpt lat="51.16422" lon="6.27979">
        <ele>74.24</ele>
      </trkpt>
      <trkpt lat="51.16434" lon="6.28053">
        <ele>78.16</ele>
      </trkpt>
      <trkpt lat="51.16445" lon="6.28108">
        <ele>77.87</ele>
      </trkpt>
      <trkpt lat="51.16465" lon="6.28059">
        <ele>76.49</ele>
      </trkpt>
      <trkpt lat="51.16477" lon="6.27996">
        <ele>75.2</ele>
      </trkpt>
      <trkpt lat="51.16491" lon="6.27961">
        <ele>74.81</ele>
      </trkpt>
      <trkpt lat="51.16512" lon="6.27928">
        <ele>74.19</ele>
      </trkpt>
      <trkpt lat="51.16527" lon="6.27918">
        <ele>75.89</ele>
      </trkpt>
      <trkpt lat="51.16543" lon="6.27917">
        <ele>75.99</ele>
      </trkpt>
      <trkpt lat="51.16572" lon="6.27927">
        <ele>73.92</ele>
      </trkpt>
      <trkpt lat="51.16595" lon="6.27964">
        <ele>75.16</ele>
      </trkpt>
      <trkpt lat="51.16654" lon="6.28137">
        <ele>73.24</ele>
      </trkpt>
      <trkpt lat="51.16669" lon="6.27959">
        <ele>75.87</ele>
      </trkpt>
      <trkpt lat="51.16684" lon="6.27938">
        <ele>75.29</ele>
      </trkpt>
      <trkpt lat="51.16706" lon="6.27934">
        <ele>72.56</ele>
      </trkpt>
      <trkpt lat="51.16783" lon="6.2795">
        <ele>66.99</ele>
      </trkpt>
      <trkpt lat="51.16801" lon="6.27963">
        <ele>67.17</ele>
      </trkpt>
      <trkpt lat="51.16847" lon="6.28009">
        <ele>71.81</ele>
      </trkpt>
      <trkpt lat="51.16875" lon="6.28037">
        <ele>73.17</ele>
      </trkpt>
      <trkpt lat="51.16923" lon="6.28101">
        <ele>72.85</ele>
      </trkpt>
      <trkpt lat="51.16974" lon="6.28124">
        <ele>71.37</ele>
      </trkpt>
      <trkpt lat="51.17033" lon="6.28124">
        <ele>72.49</ele>
      </trkpt>
      <trkpt lat="51.17081" lon="6.28154">
        <ele>74.05</ele>
      </trkpt>
      <trkpt lat="51.17131" lon="6.28186">
        <ele>66.62</ele>
      </trkpt>
      <trkpt lat="51.17087" lon="6.28233">
        <ele>73.28</ele>
      </trkpt>
      <trkpt lat="51.17044" lon="6.28287">
        <ele>71.64</ele>
      </trkpt>
      <trkpt lat="51.17003" lon="6.28357">
        <ele>66.59</ele>
      </trkpt>
      <trkpt lat="51.17039" lon="6.28409">
        <ele>73.6</ele>
      </trkpt>
      <trkpt lat="51.17062" lon="6.2838">
        <ele>71.19</ele>
      </trkpt>
      <trkpt lat="51.17099" lon="6.28376">
        <ele>66.6</ele>
      </trkpt>
      <trkpt lat="51.17142" lon="6.28354">
        <ele>69.9</ele>
      </trkpt>
      <trkpt lat="51.17188" lon="6.28333">
        <ele>75.29</ele>
      </trkpt>
      <trkpt lat="51.17229" lon="6.28317">
        <ele>74.38</ele>
      </trkpt>
      <trkpt lat="51.17256" lon="6.28298">
        <ele>75.97</ele>
      </trkpt>
      <trkpt lat="51.17279" lon="6.28257">
        <ele>77.82</ele>
      </trkpt>
      <trkpt lat="51.17295" lon="6.28231">
        <ele>75.68</ele>
      </trkpt>
      <trkpt lat="51.17309" lon="6.28222">
        <ele>74.5</ele>
      </trkpt>
      <trkpt lat="51.17322" lon="6.28202">
        <ele>72.33</ele>
      </trkpt>
      <trkpt lat="51.1734" lon="6.28202">
        <ele>70.83</ele>
      </trkpt>
      <trkpt lat="51.17366" lon="6.28218">
        <ele>71.23</ele>
      </trkpt>
      <trkpt lat="51.17391" lon="6.28201">
        <ele>72.71</ele>
      </trkpt>
      <trkpt lat="51.17405" lon="6.28192">
        <ele>70.69</ele>
      </trkpt>
      <trkpt lat="51.17416" lon="6.28213">
        <ele>69.75</ele>
      </trkpt>
      <trkpt lat="51.17424" lon="6.28243">
        <ele>70.97</ele>
      </trkpt>
      <trkpt lat="51.17446" lon="6.28284">
        <ele>70.97</ele>
      </trkpt>
      <trkpt lat="51.17467" lon="6.28332">
        <ele>70.56</ele>
      </trkpt>
      <trkpt lat="51.17475" lon="6.28346">
        <ele>69.37</ele>
      </trkpt>
      <trkpt lat="51.17478" lon="6.28381">
        <ele>66.93</ele>
      </trkpt>
      <trkpt lat="51.17512" lon="6.28383">
        <ele>63.94</ele>
      </trkpt>
      <trkpt lat="51.17524" lon="6.28379">
        <ele>62.5</ele>
      </trkpt>
      <trkpt lat="51.17545" lon="6.28383">
        <ele>64.22</ele>
      </trkpt>
      <trkpt lat="51.17641" lon="6.28417">
        <ele>69.22</ele>
      </trkpt>
      <trkpt lat="51.17631" lon="6.2844">
        <ele>67.31</ele>
      </trkpt>
      <trkpt lat="51.17629" lon="6.28516">
        <ele>68.95</ele>
      </trkpt>
      <trkpt lat="51.17637" lon="6.2856">
        <ele>73.67</ele>
      </trkpt>
      <trkpt lat="51.17655" lon="6.28615">
        <ele>71.26</ele>
      </trkpt>
      <trkpt lat="51.17689" lon="6.28675">
        <ele>71.97</ele>
      </trkpt>
      <trkpt lat="51.17688" lon="6.28721">
        <ele>71.3</ele>
      </trkpt>
      <trkpt lat="51.17777" lon="6.28748">
        <ele>84.03</ele>
      </trkpt>
      <trkpt lat="51.17838" lon="6.28769">
        <ele>80.53</ele>
      </trkpt>
      <trkpt lat="51.1786" lon="6.28792">
        <ele>79.96</ele>
      </trkpt>
      <trkpt lat="51.17858" lon="6.28708">
        <ele>77.43</ele>
      </trkpt>
      <trkpt lat="51.17871" lon="6.28654">
        <ele>70.33</ele>
      </trkpt>
      <trkpt lat="51.17896" lon="6.28572">
        <ele>61.0</ele>
      </trkpt>
      <trkpt lat="51.17966" lon="6.28398">
        <ele>60.56</ele>
      </trkpt>
      <trkpt lat="51.18053" lon="6.28246">
        <ele>56.79</ele>
      </trkpt>
      <trkpt lat="51.1807" lon="6.28134">
        <ele>67.88</ele>
      </trkpt>
      <trkpt lat="51.18082" lon="6.2794">
        <ele>72.96</ele>
      </trkpt>
      <trkpt lat="51.18074" lon="6.27835">
        <ele>68.69</ele>
      </trkpt>
      <trkpt lat="51.18069" lon="6.27629">
        <ele>63.71</ele>
      </trkpt>
      <trkpt lat="51.18075" lon="6.2758">
        <ele>66.66</ele>
      </trkpt>
      <trkpt lat="51.18089" lon="6.2753">
        <ele>63.29</ele>
      </trkpt>
      <trkpt lat="51.18101" lon="6.27502">
        <ele>60.13</ele>
      </trkpt>
      <trkpt lat="51.18115" lon="6.27482">
        <ele>56.87</ele>
      </trkpt>
      <trkpt lat="51.18137" lon="6.27463">
        <ele>52.72</ele>
      </trkpt>
      <trkpt lat="51.18176" lon="6.27439">
        <ele>48.61</ele>
      </trkpt>
      <trkpt lat="51.18199" lon="6.27421">
        <ele>50.9</ele>
      </trkpt>
      <trkpt lat="51.18239" lon="6.27363">
        <ele>54.35</ele>
      </trkpt>
      <trkpt lat="51.18284" lon="6.27246">
        <ele>60.9</ele>
      </trkpt>
      <trkpt lat="51.18347" lon="6.27068">
        <ele>60.39</ele>
      </trkpt>
      <trkpt lat="51.18381" lon="6.26908">
        <ele>59.76</ele>
      </trkpt>
      <trkpt lat="51.18418" lon="6.26812">
        <ele>64.4</ele>
      </trkpt>
      <trkpt lat="51.18443" lon="6.26774">
        <ele>62.14</ele>
      </trkpt>
      <trkpt lat="51.18482" lon="6.26738">
        <ele>57.42</ele>
      </trkpt>
      <trkpt lat="51.1853" lon="6.26702">
        <ele>45.93</ele>
      </trkpt>
      <trkpt lat="51.18636" lon="6.26605">
        <ele>40.91</ele>
      </trkpt>
      <trkpt lat="51.18656" lon="6.26613">
        <ele>43.16</ele>
      </trkpt>
      <trkpt lat="51.18704" lon="6.26616">
        <ele>46.38</ele>
      </trkpt>
      <trkpt lat="51.18729" lon="6.26602">
        <ele>48.64</ele>
      </trkpt>
      <trkpt lat="51.18747" lon="6.2657">
        <ele>52.14</ele>
      </trkpt>
      <trkpt lat="51.18763" lon="6.26529">
        <ele>55.34</ele>
      </trkpt>
      <trkpt lat="51.18798" lon="6.26325">
        <ele>56.34</ele>
      </trkpt>
      <trkpt lat="51.18806" lon="6.26239">
        <ele>59.14</ele>
      </trkpt>
      <trkpt lat="51.18815" lon="6.26109">
        <ele>57.69</ele>
      </trkpt>
      <trkpt lat="51.18833" lon="6.25973">
        <ele>59.93</ele>
      </trkpt>
      <trkpt lat="51.18857" lon="6.25932">
        <ele>59.06</ele>
      </trkpt>
      <trkpt lat="51.1878" lon="6.2583">
        <ele>56.28</ele>
      </trkpt>
      <trkpt lat="51.18733" lon="6.25778">
        <ele>56.4</ele>
      </trkpt>
      <trkpt lat="51.18782" lon="6.25666">
        <ele>58.36</ele>
      </trkpt>
      <trkpt lat="51.18802" lon="6.25604">
        <ele>50.42</ele>
      </trkpt>
      <trkpt lat="51.18812" lon="6.25555">
        <ele>46.08</ele>
      </trkpt>
      <trkpt lat="51.18855" lon="6.25409">
        <ele>46.3</ele>
      </trkpt>
      <trkpt lat="51.18928" lon="6.25262">
        <ele>35.74</ele>
      </trkpt>
      <trkpt lat="51.19005" lon="6.25094">
        <ele>50.06</ele>
      </trkpt>
      <trkpt lat="51.19142" lon="6.25214">
        <ele>47.16</ele>
      </trkpt>
      <trkpt lat="51.19122" lon="6.25282">
        <ele>44.6</ele>
      </trkpt>
      <trkpt lat="51.19112" lon="6.25309">
        <ele>44.4</ele>
      </trkpt>
      <trkpt lat="51.19112" lon="6.25308">
        <ele>44.33</ele>
      </trkpt>
      <trkpt lat="51.19121" lon="6.25282">
        <ele>44.39</ele>
      </trkpt>
      <trkpt lat="51.19142" lon="6.25214">
        <ele>47.16</ele>
      </trkpt>
      <trkpt lat="51.19005" lon="6.25095">
        <ele>49.97</ele>
      </trkpt>
      <trkpt lat="51.19044" lon="6.25009">
        <ele>56.33</ele>
      </trkpt>
      <trkpt lat="51.19057" lon="6.24973">
        <ele>58.11</ele>
      </trkpt>
      <trkpt lat="51.19076" lon="6.24788">
        <ele>55.15</ele>
      </trkpt>
      <trkpt lat="51.19076" lon="6.2473">
        <ele>52.26</ele>
      </trkpt>
      <trkpt lat="51.19081" lon="6.2468">
        <ele>49.32</ele>
      </trkpt>
      <trkpt lat="51.19089" lon="6.24648">
        <ele>48.53</ele>
      </trkpt>
      <trkpt lat="51.19137" lon="6.24514">
        <ele>48.77</ele>
      </trkpt>
      <trkpt lat="51.19152" lon="6.24382">
        <ele>48.28</ele>
      </trkpt>
      <trkpt lat="51.1916" lon="6.24344">
        <ele>48.18</ele>
      </trkpt>
      <trkpt lat="51.19166" lon="6.24314">
        <ele>51.06</ele>
      </trkpt>
      <trkpt lat="51.19178" lon="6.24297">
        <ele>54.92</ele>
      </trkpt>
      <trkpt lat="51.19196" lon="6.24287">
        <ele>58.21</ele>
      </trkpt>
      <trkpt lat="51.19218" lon="6.24282">
        <ele>60.88</ele>
      </trkpt>
      <trkpt lat="51.19233" lon="6.24269">
        <ele>60.29</ele>
      </trkpt>
      <trkpt lat="51.19237" lon="6.24251">
        <ele>59.87</ele>
      </trkpt>
      <trkpt lat="51.19229" lon="6.2424">
        <ele>60.76</ele>
      </trkpt>
      <trkpt lat="51.19232" lon="6.24228">
        <ele>59.76</ele>
      </trkpt>
      <trkpt lat="51.19229" lon="6.24213">
        <ele>59.38</ele>
      </trkpt>
      <trkpt lat="51.19232" lon="6.24198">
        <ele>57.23</ele>
      </trkpt>
      <trkpt lat="51.19256" lon="6.24154">
        <ele>48.13</ele>
      </trkpt>
      <trkpt lat="51.19264" lon="6.24152">
        <ele>47.17</ele>
      </trkpt>
      <trkpt lat="51.19277" lon="6.24166">
        <ele>46.14</ele>
      </trkpt>
      <trkpt lat="51.19287" lon="6.24141">
        <ele>46.03</ele>
      </trkpt>
      <trkpt lat="51.19293" lon="6.24108">
        <ele>44.48</ele>
      </trkpt>
      <trkpt lat="51.19295" lon="6.24067">
        <ele>41.55</ele>
      </trkpt>
      <trkpt lat="51.19297" lon="6.2404">
        <ele>39.58</ele>
      </trkpt>
      <trkpt lat="51.193" lon="6.2402">
        <ele>38.34</ele>
      </trkpt>
      <trkpt lat="51.19301" lon="6.23999">
        <ele>35.79</ele>
      </trkpt>
      <trkpt lat="51.19305" lon="6.23976">
        <ele>35.15</ele>
      </trkpt>
      <trkpt lat="51.19303" lon="6.23966">
        <ele>34.24</ele>
      </trkpt>
      <trkpt lat="51.1929" lon="6.23963">
        <ele>31.49</ele>
      </trkpt>
      <trkpt lat="51.19279" lon="6.23975">
        <ele>29.37</ele>
      </trkpt>
      <trkpt lat="51.19273" lon="6.23964">
        <ele>29.0</ele>
      </trkpt>
      <trkpt lat="51.19325" lon="6.23904">
        <ele>39.37</ele>
      </trkpt>
      <trkpt lat="51.19383" lon="6.2385">
        <ele>39.62</ele>
      </trkpt>
      <trkpt lat="51.19614" lon="6.23643">
        <ele>38.28</ele>
      </trkpt>
      <trkpt lat="51.19675" lon="6.23582">
        <ele>47.65</ele>
      </trkpt>
      <trkpt lat="51.19698" lon="6.23556">
        <ele>47.76</ele>
      </trkpt>
      <trkpt lat="51.19808" lon="6.23369">
        <ele>43.98</ele>
      </trkpt>
      <trkpt lat="51.19827" lon="6.23326">
        <ele>46.34</ele>
      </trkpt>
      <trkpt lat="51.19857" lon="6.23209">
        <ele>44.59</ele>
      </trkpt>
      <trkpt lat="51.19915" lon="6.2299">
        <ele>41.8</ele>
      </trkpt>
      <trkpt lat="51.19927" lon="6.22941">
        <ele>47.41</ele>
      </trkpt>
      <trkpt lat="51.1994" lon="6.22926">
        <ele>50.41</ele>
      </trkpt>
      <trkpt lat="51.19966" lon="6.22922">
        <ele>51.42</ele>
      </trkpt>
      <trkpt lat="51.19988" lon="6.229">
        <ele>52.26</ele>
      </trkpt>
      <trkpt lat="51.20007" lon="6.22871">
        <ele>48.37</ele>
      </trkpt>
      <trkpt lat="51.20016" lon="6.22848">
        <ele>44.43</ele>
      </trkpt>
      <trkpt lat="51.20026" lon="6.22821">
        <ele>42.52</ele>
      </trkpt>
      <trkpt lat="51.20133" lon="6.22732">
        <ele>55.93</ele>
      </trkpt>
      <trkpt lat="51.2016" lon="6.22712">
        <ele>57.78</ele>
      </trkpt>
      <trkpt lat="51.20115" lon="6.22583">
        <ele>64.69</ele>
      </trkpt>
      <trkpt lat="51.2007" lon="6.22453">
        <ele>53.14</ele>
      </trkpt>
      <trkpt lat="51.20075" lon="6.22448">
        <ele>52.96</ele>
      </trkpt>
      <trkpt lat="51.20088" lon="6.22428">
        <ele>52.66</ele>
      </trkpt>
      <trkpt lat="51.20089" lon="6.22409">
        <ele>52.26</ele>
      </trkpt>
      <trkpt lat="51.20013" lon="6.22219">
        <ele>52.36</ele>
      </trkpt>
      <trkpt lat="51.19991" lon="6.22149">
        <ele>51.01</ele>
      </trkpt>
      <trkpt lat="51.19969" lon="6.22041">
        <ele>50.48</ele>
      </trkpt>
      <trkpt lat="51.19954" lon="6.2198">
        <ele>48.86</ele>
      </trkpt>
      <trkpt lat="51.19936" lon="6.21917">
        <ele>46.41</ele>
      </trkpt>
      <trkpt lat="51.19966" lon="6.21886">
        <ele>46.1</ele>
      </trkpt>
      <trkpt lat="51.19983" lon="6.21874">
        <ele>45.31</ele>
      </trkpt>
      <trkpt lat="51.20018" lon="6.21841">
        <ele>45.89</ele>
      </trkpt>
      <trkpt lat="51.2004" lon="6.21824">
        <ele>46.22</ele>
      </trkpt>
    </trkseg>
  </trk>
</gpx>

