<?xml version='1.0' encoding='UTF-8'?>
<gpx version="1.1" creator="https://www.komoot.de" xmlns="http://www.topografix.com/GPX/1/1" xmlns:xsi="http://www.w3.org/2001/XMLSchema-instance" xsi:schemaLocation="http://www.topografix.com/GPX/1/1 http://www.topografix.com/GPX/1/1/gpx.xsd">
  <metadata>
    <name>DVV PW "Aystetten im Naturpark Westliche Wälder" Digitalisierung am 09.07.2024</name>
    <author>
      <link href="https://www.komoot.de">
        <text>komoot</text>
        <type>text/html</type>
      </link>
    </author>
  </metadata>
  <trk>
    <name>DVV PW "Aystetten im Naturpark Westliche Wälder" Digitalisierung am 09.07.2024</name>
    <trkseg>
      <trkpt lat="48.404876" lon="10.774804">
        <ele>479.038158</ele>
        <time>2024-07-11T07:19:46.856Z</time>
      </trkpt>
      <trkpt lat="48.404984" lon="10.775295">
        <ele>479.038158</ele>
        <time>2024-07-11T07:20:22.681Z</time>
      </trkpt>
      <trkpt lat="48.404387" lon="10.775485">
        <ele>479.284087</ele>
        <time>2024-07-11T07:21:27.352Z</time>
      </trkpt>
      <trkpt lat="48.404324" lon="10.775130">
        <ele>480.390170</ele>
        <time>2024-07-11T07:21:53.727Z</time>
      </trkpt>
      <trkpt lat="48.404233" lon="10.774840">
        <ele>481.355683</ele>
        <time>2024-07-11T07:22:16.826Z</time>
      </trkpt>
      <trkpt lat="48.404154" lon="10.774618">
        <ele>482.113860</ele>
        <time>2024-07-11T07:22:35.634Z</time>
      </trkpt>
      <trkpt lat="48.404059" lon="10.774488">
        <ele>482.695802</ele>
        <time>2024-07-11T07:22:50.522Z</time>
      </trkpt>
      <trkpt lat="48.404010" lon="10.774447">
        <ele>482.949947</ele>
        <time>2024-07-11T07:22:57.028Z</time>
      </trkpt>
      <trkpt lat="48.403924" lon="10.774364">
        <ele>483.413049</ele>
        <time>2024-07-11T07:23:09.286Z</time>
      </trkpt>
      <trkpt lat="48.403832" lon="10.774275">
        <ele>483.908801</ele>
        <time>2024-07-11T07:23:22.488Z</time>
      </trkpt>
      <trkpt lat="48.403767" lon="10.774160">
        <ele>484.363425</ele>
        <time>2024-07-11T07:23:34.512Z</time>
      </trkpt>
      <trkpt lat="48.403677" lon="10.773680">
        <ele>485.864780</ele>
        <time>2024-07-11T07:24:14.419Z</time>
      </trkpt>
      <trkpt lat="48.403643" lon="10.773622">
        <ele>486.097685</ele>
        <time>2024-07-11T07:24:20.667Z</time>
      </trkpt>
      <trkpt lat="48.403497" lon="10.773530">
        <ele>486.815250</ele>
        <time>2024-07-11T07:24:40.306Z</time>
      </trkpt>
      <trkpt lat="48.403383" lon="10.773529">
        <ele>487.386764</ele>
        <time>2024-07-11T07:24:53.817Z</time>
      </trkpt>
      <trkpt lat="48.403162" lon="10.773588">
        <ele>488.804886</ele>
        <time>2024-07-11T07:25:21.694Z</time>
      </trkpt>
      <trkpt lat="48.403117" lon="10.773599">
        <ele>489.092932</ele>
        <time>2024-07-11T07:25:27.250Z</time>
      </trkpt>
      <trkpt lat="48.402863" lon="10.773696">
        <ele>490.748574</ele>
        <time>2024-07-11T07:25:59.202Z</time>
      </trkpt>
      <trkpt lat="48.402797" lon="10.773746">
        <ele>491.215358</ele>
        <time>2024-07-11T07:26:08.582Z</time>
      </trkpt>
      <trkpt lat="48.402456" lon="10.773681">
        <ele>493.387106</ele>
        <time>2024-07-11T07:26:50.815Z</time>
      </trkpt>
      <trkpt lat="48.402392" lon="10.773574">
        <ele>493.991236</ele>
        <time>2024-07-11T07:27:02.210Z</time>
      </trkpt>
      <trkpt lat="48.402227" lon="10.773209">
        <ele>495.843553</ele>
        <time>2024-07-11T07:27:38.277Z</time>
      </trkpt>
      <trkpt lat="48.401765" lon="10.772141">
        <ele>500.433302</ele>
        <time>2024-07-11T07:29:19.900Z</time>
      </trkpt>
      <trkpt lat="48.401579" lon="10.771742">
        <ele>501.890116</ele>
        <time>2024-07-11T07:29:57.439Z</time>
      </trkpt>
      <trkpt lat="48.401442" lon="10.771457">
        <ele>502.941525</ele>
        <time>2024-07-11T07:30:24.313Z</time>
      </trkpt>
      <trkpt lat="48.401031" lon="10.771308">
        <ele>504.844191</ele>
        <time>2024-07-11T07:31:12.888Z</time>
      </trkpt>
      <trkpt lat="48.400771" lon="10.771210">
        <ele>506.050490</ele>
        <time>2024-07-11T07:31:43.533Z</time>
      </trkpt>
      <trkpt lat="48.400408" lon="10.771006">
        <ele>507.204370</ele>
        <time>2024-07-11T07:32:26.762Z</time>
      </trkpt>
      <trkpt lat="48.400316" lon="10.770895">
        <ele>507.460626</ele>
        <time>2024-07-11T07:32:39.857Z</time>
      </trkpt>
      <trkpt lat="48.400266" lon="10.770738">
        <ele>507.711947</ele>
        <time>2024-07-11T07:32:52.326Z</time>
      </trkpt>
      <trkpt lat="48.400287" lon="10.770484">
        <ele>508.081381</ele>
        <time>2024-07-11T07:33:10.268Z</time>
      </trkpt>
      <trkpt lat="48.400353" lon="10.770377">
        <ele>508.292181</ele>
        <time>2024-07-11T07:33:20.740Z</time>
      </trkpt>
      <trkpt lat="48.400852" lon="10.770088">
        <ele>509.454398</ele>
        <time>2024-07-11T07:34:18.377Z</time>
      </trkpt>
      <trkpt lat="48.401041" lon="10.769785">
        <ele>510.054451</ele>
        <time>2024-07-11T07:34:47.488Z</time>
      </trkpt>
      <trkpt lat="48.401114" lon="10.769452">
        <ele>510.560590</ele>
        <time>2024-07-11T07:35:11.847Z</time>
      </trkpt>
      <trkpt lat="48.401103" lon="10.769191">
        <ele>510.877030</ele>
        <time>2024-07-11T07:35:29.849Z</time>
      </trkpt>
      <trkpt lat="48.400983" lon="10.768405">
        <ele>511.851519</ele>
        <time>2024-07-11T07:36:24.937Z</time>
      </trkpt>
      <trkpt lat="48.400877" lon="10.767955">
        <ele>512.428452</ele>
        <time>2024-07-11T07:36:58.003Z</time>
      </trkpt>
      <trkpt lat="48.400766" lon="10.767675">
        <ele>512.822493</ele>
        <time>2024-07-11T07:37:20.862Z</time>
      </trkpt>
      <trkpt lat="48.400322" lon="10.767246">
        <ele>513.782510</ele>
        <time>2024-07-11T07:38:18.650Z</time>
      </trkpt>
      <trkpt lat="48.399852" lon="10.767007">
        <ele>515.723999</ele>
        <time>2024-07-11T07:39:15.007Z</time>
      </trkpt>
      <trkpt lat="48.398990" lon="10.767200">
        <ele>519.251356</ele>
        <time>2024-07-11T07:40:55.648Z</time>
      </trkpt>
      <trkpt lat="48.398627" lon="10.767136">
        <ele>520.730661</ele>
        <time>2024-07-11T07:41:37.779Z</time>
      </trkpt>
      <trkpt lat="48.398534" lon="10.766803">
        <ele>521.594434</ele>
        <time>2024-07-11T07:42:05.251Z</time>
      </trkpt>
      <trkpt lat="48.398634" lon="10.766417">
        <ele>522.504000</ele>
        <time>2024-07-11T07:42:36.807Z</time>
      </trkpt>
      <trkpt lat="48.398612" lon="10.765912">
        <ele>523.614958</ele>
        <time>2024-07-11T07:43:14.790Z</time>
      </trkpt>
      <trkpt lat="48.398228" lon="10.765569">
        <ele>525.091057</ele>
        <time>2024-07-11T07:44:04.607Z</time>
      </trkpt>
      <trkpt lat="48.397936" lon="10.764711">
        <ele>527.147837</ele>
        <time>2024-07-11T07:45:14.439Z</time>
      </trkpt>
      <trkpt lat="48.397345" lon="10.763573">
        <ele>529.002303</ele>
        <time>2024-07-11T07:46:57.105Z</time>
      </trkpt>
      <trkpt lat="48.397157" lon="10.762883">
        <ele>529.959648</ele>
        <time>2024-07-11T07:47:50.192Z</time>
      </trkpt>
      <trkpt lat="48.396583" lon="10.762484">
        <ele>530.911058</ele>
        <time>2024-07-11T07:48:56.778Z</time>
      </trkpt>
      <trkpt lat="48.396643" lon="10.763291">
        <ele>531.513064</ele>
        <time>2024-07-11T07:49:53.002Z</time>
      </trkpt>
      <trkpt lat="48.397021" lon="10.764826">
        <ele>532.660201</ele>
        <time>2024-07-11T07:51:45.362Z</time>
      </trkpt>
      <trkpt lat="48.397167" lon="10.765420">
        <ele>532.953768</ele>
        <time>2024-07-11T07:52:28.660Z</time>
      </trkpt>
      <trkpt lat="48.397490" lon="10.767284">
        <ele>533.827080</ele>
        <time>2024-07-11T07:54:39.726Z</time>
      </trkpt>
      <trkpt lat="48.398408" lon="10.772573">
        <ele>535.243860</ele>
        <time>2024-07-11T08:00:47.159Z</time>
      </trkpt>
      <trkpt lat="48.398676" lon="10.773866">
        <ele>535.760835</ele>
        <time>2024-07-11T08:02:20.311Z</time>
      </trkpt>
      <trkpt lat="48.399281" lon="10.774388">
        <ele>536.161633</ele>
        <time>2024-07-11T08:03:31.776Z</time>
      </trkpt>
      <trkpt lat="48.399782" lon="10.774754">
        <ele>535.056238</ele>
        <time>2024-07-11T08:04:27.479Z</time>
      </trkpt>
      <trkpt lat="48.400372" lon="10.775473">
        <ele>533.073302</ele>
        <time>2024-07-11T08:05:45.630Z</time>
      </trkpt>
      <trkpt lat="48.400529" lon="10.775665">
        <ele>532.544906</ele>
        <time>2024-07-11T08:06:07.567Z</time>
      </trkpt>
      <trkpt lat="48.400873" lon="10.776213">
        <ele>530.611807</ele>
        <time>2024-07-11T08:07:03.950Z</time>
      </trkpt>
      <trkpt lat="48.401051" lon="10.776382">
        <ele>528.871277</ele>
        <time>2024-07-11T08:07:28.380Z</time>
      </trkpt>
      <trkpt lat="48.401230" lon="10.776514">
        <ele>527.222651</ele>
        <time>2024-07-11T08:07:51.748Z</time>
      </trkpt>
      <trkpt lat="48.401342" lon="10.776532">
        <ele>526.290926</ele>
        <time>2024-07-11T08:08:04.872Z</time>
      </trkpt>
      <trkpt lat="48.401446" lon="10.776482">
        <ele>525.387876</ele>
        <time>2024-07-11T08:08:17.739Z</time>
      </trkpt>
      <trkpt lat="48.401586" lon="10.776475">
        <ele>524.229156</ele>
        <time>2024-07-11T08:08:34.477Z</time>
      </trkpt>
      <trkpt lat="48.401926" lon="10.776677">
        <ele>521.205793</ele>
        <time>2024-07-11T08:09:18.055Z</time>
      </trkpt>
      <trkpt lat="48.402398" lon="10.777076">
        <ele>516.728549</ele>
        <time>2024-07-11T08:10:22.200Z</time>
      </trkpt>
      <trkpt lat="48.402515" lon="10.777286">
        <ele>515.643060</ele>
        <time>2024-07-11T08:10:43.255Z</time>
      </trkpt>
      <trkpt lat="48.402738" lon="10.778383">
        <ele>511.201475</ele>
        <time>2024-07-11T08:12:08.556Z</time>
      </trkpt>
      <trkpt lat="48.402723" lon="10.778569">
        <ele>510.476098</ele>
        <time>2024-07-11T08:12:22.247Z</time>
      </trkpt>
      <trkpt lat="48.402624" lon="10.778728">
        <ele>509.632181</ele>
        <time>2024-07-11T08:12:38.244Z</time>
      </trkpt>
      <trkpt lat="48.402419" lon="10.778774">
        <ele>508.423550</ele>
        <time>2024-07-11T08:13:01.091Z</time>
      </trkpt>
      <trkpt lat="48.402231" lon="10.778735">
        <ele>507.316896</ele>
        <time>2024-07-11T08:13:21.937Z</time>
      </trkpt>
      <trkpt lat="48.402100" lon="10.778661">
        <ele>506.501028</ele>
        <time>2024-07-11T08:13:37.350Z</time>
      </trkpt>
      <trkpt lat="48.401984" lon="10.778634">
        <ele>506.021340</ele>
        <time>2024-07-11T08:13:50.309Z</time>
      </trkpt>
      <trkpt lat="48.401904" lon="10.778650">
        <ele>505.832887</ele>
        <time>2024-07-11T08:13:59.270Z</time>
      </trkpt>
      <trkpt lat="48.401829" lon="10.778707">
        <ele>505.636717</ele>
        <time>2024-07-11T08:14:08.502Z</time>
      </trkpt>
      <trkpt lat="48.401719" lon="10.778953">
        <ele>505.176899</ele>
        <time>2024-07-11T08:14:29.524Z</time>
      </trkpt>
      <trkpt lat="48.401722" lon="10.779137">
        <ele>504.891552</ele>
        <time>2024-07-11T08:14:42.601Z</time>
      </trkpt>
      <trkpt lat="48.401773" lon="10.779308">
        <ele>504.600924</ele>
        <time>2024-07-11T08:14:55.579Z</time>
      </trkpt>
      <trkpt lat="48.402184" lon="10.780114">
        <ele>503.025318</ele>
        <time>2024-07-11T08:16:04.809Z</time>
      </trkpt>
      <trkpt lat="48.402241" lon="10.780338">
        <ele>502.653412</ele>
        <time>2024-07-11T08:16:20.955Z</time>
      </trkpt>
      <trkpt lat="48.402292" lon="10.780536">
        <ele>502.324157</ele>
        <time>2024-07-11T08:16:35.524Z</time>
      </trkpt>
      <trkpt lat="48.402379" lon="10.781881">
        <ele>500.461209</ele>
        <time>2024-07-11T08:18:08.371Z</time>
      </trkpt>
      <trkpt lat="48.402342" lon="10.782699">
        <ele>499.360756</ele>
        <time>2024-07-11T08:19:04.772Z</time>
      </trkpt>
      <trkpt lat="48.402343" lon="10.783338">
        <ele>498.503096</ele>
        <time>2024-07-11T08:19:48.914Z</time>
      </trkpt>
      <trkpt lat="48.402275" lon="10.783873">
        <ele>497.267420</ele>
        <time>2024-07-11T08:20:28.041Z</time>
      </trkpt>
      <trkpt lat="48.402169" lon="10.784256">
        <ele>496.199277</ele>
        <time>2024-07-11T08:20:57.969Z</time>
      </trkpt>
      <trkpt lat="48.402059" lon="10.784535">
        <ele>495.363985</ele>
        <time>2024-07-11T08:21:21.473Z</time>
      </trkpt>
      <trkpt lat="48.402049" lon="10.784798">
        <ele>494.685867</ele>
        <time>2024-07-11T08:21:40.522Z</time>
      </trkpt>
      <trkpt lat="48.402179" lon="10.785222">
        <ele>493.483647</ele>
        <time>2024-07-11T08:22:14.325Z</time>
      </trkpt>
      <trkpt lat="48.402397" lon="10.785426">
        <ele>492.488544</ele>
        <time>2024-07-11T08:22:42.266Z</time>
      </trkpt>
      <trkpt lat="48.402576" lon="10.785492">
        <ele>491.774005</ele>
        <time>2024-07-11T08:23:02.247Z</time>
      </trkpt>
      <trkpt lat="48.402793" lon="10.785009">
        <ele>490.716676</ele>
        <time>2024-07-11T08:23:43.848Z</time>
      </trkpt>
      <trkpt lat="48.403012" lon="10.784767">
        <ele>490.098453</ele>
        <time>2024-07-11T08:24:12.697Z</time>
      </trkpt>
      <trkpt lat="48.403211" lon="10.784208">
        <ele>489.139974</ele>
        <time>2024-07-11T08:24:57.156Z</time>
      </trkpt>
      <trkpt lat="48.403464" lon="10.782939">
        <ele>487.177320</ele>
        <time>2024-07-11T08:26:27.224Z</time>
      </trkpt>
      <trkpt lat="48.403620" lon="10.781377">
        <ele>485.603810</ele>
        <time>2024-07-11T08:28:15.407Z</time>
      </trkpt>
      <trkpt lat="48.403605" lon="10.781097">
        <ele>485.323979</ele>
        <time>2024-07-11T08:28:34.371Z</time>
      </trkpt>
      <trkpt lat="48.403588" lon="10.780800">
        <ele>485.027023</ele>
        <time>2024-07-11T08:28:54.572Z</time>
      </trkpt>
      <trkpt lat="48.403591" lon="10.780641">
        <ele>484.868570</ele>
        <time>2024-07-11T08:29:05.405Z</time>
      </trkpt>
      <trkpt lat="48.403595" lon="10.780533">
        <ele>484.760817</ele>
        <time>2024-07-11T08:29:12.768Z</time>
      </trkpt>
      <trkpt lat="48.403659" lon="10.779813">
        <ele>483.926479</ele>
        <time>2024-07-11T08:30:03.675Z</time>
      </trkpt>
      <trkpt lat="48.403698" lon="10.779447">
        <ele>483.478256</ele>
        <time>2024-07-11T08:30:29.444Z</time>
      </trkpt>
      <trkpt lat="48.403707" lon="10.779367">
        <ele>483.380143</ele>
        <time>2024-07-11T08:30:35.216Z</time>
      </trkpt>
      <trkpt lat="48.403783" lon="10.778640">
        <ele>482.490242</ele>
        <time>2024-07-11T08:31:25.750Z</time>
      </trkpt>
      <trkpt lat="48.403836" lon="10.778455">
        <ele>482.246605</ele>
        <time>2024-07-11T08:31:39.590Z</time>
      </trkpt>
      <trkpt lat="48.403987" lon="10.778204">
        <ele>481.837027</ele>
        <time>2024-07-11T08:32:02.707Z</time>
      </trkpt>
      <trkpt lat="48.403999" lon="10.778189">
        <ele>481.808625</ele>
        <time>2024-07-11T08:32:04.310Z</time>
      </trkpt>
      <trkpt lat="48.404041" lon="10.778148">
        <ele>481.717467</ele>
        <time>2024-07-11T08:32:09.528Z</time>
      </trkpt>
      <trkpt lat="48.404161" lon="10.778023">
        <ele>481.451730</ele>
        <time>2024-07-11T08:32:24.487Z</time>
      </trkpt>
      <trkpt lat="48.404363" lon="10.777810">
        <ele>481.016205</ele>
        <time>2024-07-11T08:32:49.854Z</time>
      </trkpt>
      <trkpt lat="48.404371" lon="10.777751">
        <ele>480.946972</ele>
        <time>2024-07-11T08:32:53.900Z</time>
      </trkpt>
      <trkpt lat="48.404387" lon="10.777637">
        <ele>480.813009</ele>
        <time>2024-07-11T08:33:01.917Z</time>
      </trkpt>
      <trkpt lat="48.404422" lon="10.777414">
        <ele>480.549557</ele>
        <time>2024-07-11T08:33:17.778Z</time>
      </trkpt>
      <trkpt lat="48.404431" lon="10.777283">
        <ele>480.398141</ele>
        <time>2024-07-11T08:33:27.086Z</time>
      </trkpt>
      <trkpt lat="48.404437" lon="10.776998">
        <ele>480.070310</ele>
        <time>2024-07-11T08:33:46.973Z</time>
      </trkpt>
      <trkpt lat="48.404435" lon="10.776542">
        <ele>479.546033</ele>
        <time>2024-07-11T08:34:19.089Z</time>
      </trkpt>
      <trkpt lat="48.404434" lon="10.776324">
        <ele>479.295392</ele>
        <time>2024-07-11T08:34:34.283Z</time>
      </trkpt>
      <trkpt lat="48.404432" lon="10.776267">
        <ele>479.229767</ele>
        <time>2024-07-11T08:34:38.295Z</time>
      </trkpt>
      <trkpt lat="48.404387" lon="10.775485">
        <ele>478.327326</ele>
        <time>2024-07-11T08:35:31.890Z</time>
      </trkpt>
      <trkpt lat="48.404984" lon="10.775295">
        <ele>478.163921</ele>
        <time>2024-07-11T08:36:33.384Z</time>
      </trkpt>
      <trkpt lat="48.404876" lon="10.774804">
        <ele>478.163921</ele>
        <time>2024-07-11T08:37:08.082Z</time>
      </trkpt>
      <trkpt lat="48.404826" lon="10.774576">
        <ele>478.163921</ele>
        <time>2024-07-11T08:37:24.159Z</time>
      </trkpt>
    </trkseg>
  </trk>
</gpx>