<?xml version='1.0' encoding='UTF-8'?>
<gpx version="1.1" creator="https://www.komoot.de" xmlns="http://www.topografix.com/GPX/1/1" xmlns:xsi="http://www.w3.org/2001/XMLSchema-instance" xsi:schemaLocation="http://www.topografix.com/GPX/1/1 http://www.topografix.com/GPX/1/1/gpx.xsd">
  <metadata>
    <name>Wanderung</name>
    <author>
      <link href="https://www.komoot.de">
        <text>komoot</text>
        <type>text/html</type>
      </link>
    </author>
  </metadata>
  <trk>
    <name>Wanderung</name>
    <trkseg>
      <trkpt lat="49.210920" lon="12.038284">
        <ele>347.058075</ele>
        <time>2022-11-01T09:06:41.223Z</time>
      </trkpt>
      <trkpt lat="49.211229" lon="12.038485">
        <ele>347.058075</ele>
        <time>2022-11-01T09:07:15.164Z</time>
      </trkpt>
      <trkpt lat="49.211559" lon="12.038524">
        <ele>347.058075</ele>
        <time>2022-11-01T09:07:48.522Z</time>
      </trkpt>
      <trkpt lat="49.211688" lon="12.038410">
        <ele>347.058075</ele>
        <time>2022-11-01T09:08:03.653Z</time>
      </trkpt>
      <trkpt lat="49.212164" lon="12.038201">
        <ele>346.914378</ele>
        <time>2022-11-01T09:08:53.572Z</time>
      </trkpt>
      <trkpt lat="49.213121" lon="12.037543">
        <ele>346.548073</ele>
        <time>2022-11-01T09:10:39.392Z</time>
      </trkpt>
      <trkpt lat="49.213943" lon="12.037247">
        <ele>346.622850</ele>
        <time>2022-11-01T09:12:04.331Z</time>
      </trkpt>
      <trkpt lat="49.214162" lon="12.036917">
        <ele>346.739830</ele>
        <time>2022-11-01T09:12:35.203Z</time>
      </trkpt>
      <trkpt lat="49.214714" lon="12.036325">
        <ele>346.996398</ele>
        <time>2022-11-01T09:13:43.298Z</time>
      </trkpt>
      <trkpt lat="49.214813" lon="12.036219">
        <ele>347.042388</ele>
        <time>2022-11-01T09:13:55.714Z</time>
      </trkpt>
      <trkpt lat="49.215081" lon="12.036147">
        <ele>347.615808</ele>
        <time>2022-11-01T09:14:24.169Z</time>
      </trkpt>
      <trkpt lat="49.215702" lon="12.036331">
        <ele>351.481535</ele>
        <time>2022-11-01T09:15:33.065Z</time>
      </trkpt>
      <trkpt lat="49.216874" lon="12.036694">
        <ele>359.688886</ele>
        <time>2022-11-01T09:18:04.582Z</time>
      </trkpt>
      <trkpt lat="49.217389" lon="12.036632">
        <ele>367.009205</ele>
        <time>2022-11-01T09:19:27.285Z</time>
      </trkpt>
      <trkpt lat="49.217779" lon="12.036505">
        <ele>372.659322</ele>
        <time>2022-11-01T09:20:36.485Z</time>
      </trkpt>
      <trkpt lat="49.218073" lon="12.036409">
        <ele>376.919144</ele>
        <time>2022-11-01T09:21:28.836Z</time>
      </trkpt>
      <trkpt lat="49.218208" lon="12.036300">
        <ele>379.081892</ele>
        <time>2022-11-01T09:21:54.422Z</time>
      </trkpt>
      <trkpt lat="49.218354" lon="12.036372">
        <ele>381.255464</ele>
        <time>2022-11-01T09:22:21.238Z</time>
      </trkpt>
      <trkpt lat="49.218527" lon="12.036241">
        <ele>383.854095</ele>
        <time>2022-11-01T09:22:51.917Z</time>
      </trkpt>
      <trkpt lat="49.218742" lon="12.036235">
        <ele>385.850882</ele>
        <time>2022-11-01T09:23:26.269Z</time>
      </trkpt>
      <trkpt lat="49.218763" lon="12.036341">
        <ele>386.522721</ele>
        <time>2022-11-01T09:23:36.801Z</time>
      </trkpt>
      <trkpt lat="49.218792" lon="12.036528">
        <ele>387.688453</ele>
        <time>2022-11-01T09:23:55.483Z</time>
      </trkpt>
      <trkpt lat="49.218844" lon="12.036622">
        <ele>388.435587</ele>
        <time>2022-11-01T09:24:08.437Z</time>
      </trkpt>
      <trkpt lat="49.218846" lon="12.036996">
        <ele>390.704064</ele>
        <time>2022-11-01T09:24:41.658Z</time>
      </trkpt>
      <trkpt lat="49.218775" lon="12.037248">
        <ele>392.368638</ele>
        <time>2022-11-01T09:25:07.468Z</time>
      </trkpt>
      <trkpt lat="49.218796" lon="12.037593">
        <ele>394.470216</ele>
        <time>2022-11-01T09:25:37.190Z</time>
      </trkpt>
      <trkpt lat="49.218761" lon="12.037814">
        <ele>395.849475</ele>
        <time>2022-11-01T09:25:56.509Z</time>
      </trkpt>
      <trkpt lat="49.218835" lon="12.038499">
        <ele>400.060612</ele>
        <time>2022-11-01T09:26:46.842Z</time>
      </trkpt>
      <trkpt lat="49.218940" lon="12.038727">
        <ele>400.385463</ele>
        <time>2022-11-01T09:27:06.090Z</time>
      </trkpt>
      <trkpt lat="49.218993" lon="12.038786">
        <ele>400.422506</ele>
        <time>2022-11-01T09:27:12.796Z</time>
      </trkpt>
      <trkpt lat="49.219153" lon="12.038963">
        <ele>400.534092</ele>
        <time>2022-11-01T09:27:33.416Z</time>
      </trkpt>
      <trkpt lat="49.219323" lon="12.039006">
        <ele>400.631493</ele>
        <time>2022-11-01T09:27:51.571Z</time>
      </trkpt>
      <trkpt lat="49.219377" lon="12.039020">
        <ele>400.662453</ele>
        <time>2022-11-01T09:27:57.815Z</time>
      </trkpt>
      <trkpt lat="49.219558" lon="12.039269">
        <ele>400.800006</ele>
        <time>2022-11-01T09:28:22.511Z</time>
      </trkpt>
      <trkpt lat="49.219586" lon="12.039500">
        <ele>400.886753</ele>
        <time>2022-11-01T09:28:38.787Z</time>
      </trkpt>
      <trkpt lat="49.219421" lon="12.039800">
        <ele>401.031559</ele>
        <time>2022-11-01T09:29:04.972Z</time>
      </trkpt>
      <trkpt lat="49.220088" lon="12.040349">
        <ele>400.859612</ele>
        <time>2022-11-01T09:30:21.692Z</time>
      </trkpt>
      <trkpt lat="49.220509" lon="12.040821">
        <ele>399.942772</ele>
        <time>2022-11-01T09:31:16.196Z</time>
      </trkpt>
      <trkpt lat="49.221024" lon="12.041679">
        <ele>398.605482</ele>
        <time>2022-11-01T09:32:34.428Z</time>
      </trkpt>
      <trkpt lat="49.221680" lon="12.042478">
        <ele>396.500122</ele>
        <time>2022-11-01T09:34:04.190Z</time>
      </trkpt>
      <trkpt lat="49.221910" lon="12.042589">
        <ele>395.813817</ele>
        <time>2022-11-01T09:34:29.908Z</time>
      </trkpt>
      <trkpt lat="49.222106" lon="12.042864">
        <ele>395.057235</ele>
        <time>2022-11-01T09:34:58.172Z</time>
      </trkpt>
      <trkpt lat="49.222729" lon="12.043516">
        <ele>392.931298</ele>
        <time>2022-11-01T09:36:17.515Z</time>
      </trkpt>
      <trkpt lat="49.223222" lon="12.043868">
        <ele>391.651803</ele>
        <time>2022-11-01T09:37:14.706Z</time>
      </trkpt>
      <trkpt lat="49.223442" lon="12.044186">
        <ele>390.940166</ele>
        <time>2022-11-01T09:37:46.566Z</time>
      </trkpt>
      <trkpt lat="49.223805" lon="12.044709">
        <ele>389.767761</ele>
        <time>2022-11-01T09:38:38.792Z</time>
      </trkpt>
      <trkpt lat="49.224018" lon="12.044855">
        <ele>389.218841</ele>
        <time>2022-11-01T09:39:03.324Z</time>
      </trkpt>
      <trkpt lat="49.224764" lon="12.046287">
        <ele>386.528352</ele>
        <time>2022-11-01T09:41:08.036Z</time>
      </trkpt>
      <trkpt lat="49.225229" lon="12.046726">
        <ele>385.309528</ele>
        <time>2022-11-01T09:42:05.352Z</time>
      </trkpt>
      <trkpt lat="49.225444" lon="12.046878">
        <ele>384.776110</ele>
        <time>2022-11-01T09:42:30.392Z</time>
      </trkpt>
      <trkpt lat="49.225851" lon="12.046742">
        <ele>383.360100</ele>
        <time>2022-11-01T09:43:14.226Z</time>
      </trkpt>
      <trkpt lat="49.226171" lon="12.046725">
        <ele>382.271721</ele>
        <time>2022-11-01T09:43:48.035Z</time>
      </trkpt>
      <trkpt lat="49.226535" lon="12.046807">
        <ele>381.021115</ele>
        <time>2022-11-01T09:44:27.411Z</time>
      </trkpt>
      <trkpt lat="49.226508" lon="12.046854">
        <ele>380.882160</ele>
        <time>2022-11-01T09:44:31.827Z</time>
      </trkpt>
      <trkpt lat="49.226339" lon="12.047151">
        <ele>380.007699</ele>
        <time>2022-11-01T09:44:59.981Z</time>
      </trkpt>
      <trkpt lat="49.225958" lon="12.047477">
        <ele>378.662795</ele>
        <time>2022-11-01T09:45:49.082Z</time>
      </trkpt>
      <trkpt lat="49.225521" lon="12.048009">
        <ele>378.486351</ele>
        <time>2022-11-01T09:46:47.102Z</time>
      </trkpt>
      <trkpt lat="49.224930" lon="12.048351">
        <ele>378.286673</ele>
        <time>2022-11-01T09:47:50.947Z</time>
      </trkpt>
      <trkpt lat="49.224666" lon="12.048423">
        <ele>378.201923</ele>
        <time>2022-11-01T09:48:17.843Z</time>
      </trkpt>
      <trkpt lat="49.225085" lon="12.048341">
        <ele>379.041827</ele>
        <time>2022-11-01T09:49:05.020Z</time>
      </trkpt>
      <trkpt lat="49.225882" lon="12.047922">
        <ele>385.235490</ele>
        <time>2022-11-01T09:50:48.372Z</time>
      </trkpt>
      <trkpt lat="49.225962" lon="12.047936">
        <ele>385.827323</ele>
        <time>2022-11-01T09:50:58.582Z</time>
      </trkpt>
      <trkpt lat="49.226052" lon="12.047989">
        <ele>386.536063</ele>
        <time>2022-11-01T09:51:11.564Z</time>
      </trkpt>
      <trkpt lat="49.226242" lon="12.048850">
        <ele>390.898552</ele>
        <time>2022-11-01T09:52:32.037Z</time>
      </trkpt>
      <trkpt lat="49.226353" lon="12.049377">
        <ele>394.014165</ele>
        <time>2022-11-01T09:53:18.686Z</time>
      </trkpt>
      <trkpt lat="49.226404" lon="12.049646">
        <ele>395.634901</ele>
        <time>2022-11-01T09:53:42.715Z</time>
      </trkpt>
      <trkpt lat="49.226328" lon="12.050268">
        <ele>399.296335</ele>
        <time>2022-11-01T09:54:36.997Z</time>
      </trkpt>
      <trkpt lat="49.226287" lon="12.051248">
        <ele>404.978393</ele>
        <time>2022-11-01T09:55:59.616Z</time>
      </trkpt>
      <trkpt lat="49.226331" lon="12.051494">
        <ele>406.454206</ele>
        <time>2022-11-01T09:56:21.121Z</time>
      </trkpt>
      <trkpt lat="49.226603" lon="12.051936">
        <ele>409.399565</ele>
        <time>2022-11-01T09:57:11.626Z</time>
      </trkpt>
      <trkpt lat="49.226619" lon="12.052204">
        <ele>410.629212</ele>
        <time>2022-11-01T09:57:33.853Z</time>
      </trkpt>
      <trkpt lat="49.227184" lon="12.052997">
        <ele>415.991571</ele>
        <time>2022-11-01T09:59:09.645Z</time>
      </trkpt>
      <trkpt lat="49.227631" lon="12.053882">
        <ele>420.581040</ele>
        <time>2022-11-01T10:00:37.837Z</time>
      </trkpt>
      <trkpt lat="49.228472" lon="12.055759">
        <ele>426.651185</ele>
        <time>2022-11-01T10:03:29.562Z</time>
      </trkpt>
      <trkpt lat="49.228480" lon="12.055775">
        <ele>426.704921</ele>
        <time>2022-11-01T10:03:31.281Z</time>
      </trkpt>
      <trkpt lat="49.228648" lon="12.055840">
        <ele>427.115305</ele>
        <time>2022-11-01T10:03:49.029Z</time>
      </trkpt>
      <trkpt lat="49.229202" lon="12.055625">
        <ele>426.285772</ele>
        <time>2022-11-01T10:04:46.423Z</time>
      </trkpt>
      <trkpt lat="49.229585" lon="12.055733">
        <ele>425.720515</ele>
        <time>2022-11-01T10:05:26.254Z</time>
      </trkpt>
      <trkpt lat="49.230062" lon="12.057824">
        <ele>420.164527</ele>
        <time>2022-11-01T10:08:02.453Z</time>
      </trkpt>
      <trkpt lat="49.230105" lon="12.058818">
        <ele>415.825667</ele>
        <time>2022-11-01T10:09:18.477Z</time>
      </trkpt>
      <trkpt lat="49.230188" lon="12.059065">
        <ele>414.615781</ele>
        <time>2022-11-01T10:09:40.235Z</time>
      </trkpt>
      <trkpt lat="49.230341" lon="12.059705">
        <ele>411.719318</ele>
        <time>2022-11-01T10:10:31.871Z</time>
      </trkpt>
      <trkpt lat="49.230341" lon="12.059970">
        <ele>410.653607</ele>
        <time>2022-11-01T10:10:52.895Z</time>
      </trkpt>
      <trkpt lat="49.230547" lon="12.060785">
        <ele>407.139094</ele>
        <time>2022-11-01T10:11:55.836Z</time>
      </trkpt>
      <trkpt lat="49.230778" lon="12.061398">
        <ele>404.292878</ele>
        <time>2022-11-01T10:12:48.486Z</time>
      </trkpt>
      <trkpt lat="49.230881" lon="12.061650">
        <ele>403.097313</ele>
        <time>2022-11-01T10:13:09.182Z</time>
      </trkpt>
      <trkpt lat="49.231132" lon="12.061980">
        <ele>400.965963</ele>
        <time>2022-11-01T10:13:45.638Z</time>
      </trkpt>
      <trkpt lat="49.231188" lon="12.062134">
        <ele>400.108701</ele>
        <time>2022-11-01T10:13:57.396Z</time>
      </trkpt>
      <trkpt lat="49.231306" lon="12.062225">
        <ele>399.124726</ele>
        <time>2022-11-01T10:14:12.071Z</time>
      </trkpt>
      <trkpt lat="49.231412" lon="12.062306">
        <ele>398.242442</ele>
        <time>2022-11-01T10:14:25.050Z</time>
      </trkpt>
      <trkpt lat="49.231782" lon="12.062280">
        <ele>395.483894</ele>
        <time>2022-11-01T10:15:06.680Z</time>
      </trkpt>
      <trkpt lat="49.231950" lon="12.062580">
        <ele>393.561857</ele>
        <time>2022-11-01T10:15:36.149Z</time>
      </trkpt>
      <trkpt lat="49.232062" lon="12.063482">
        <ele>389.096531</ele>
        <time>2022-11-01T10:16:45.902Z</time>
      </trkpt>
      <trkpt lat="49.232099" lon="12.064038">
        <ele>385.319443</ele>
        <time>2022-11-01T10:17:31.170Z</time>
      </trkpt>
      <trkpt lat="49.232174" lon="12.065155">
        <ele>376.525076</ele>
        <time>2022-11-01T10:19:04.310Z</time>
      </trkpt>
      <trkpt lat="49.231530" lon="12.066021">
        <ele>366.381964</ele>
        <time>2022-11-01T10:20:50.697Z</time>
      </trkpt>
      <trkpt lat="49.231333" lon="12.066374">
        <ele>364.422411</ele>
        <time>2022-11-01T10:21:26.183Z</time>
      </trkpt>
      <trkpt lat="49.231277" lon="12.066700">
        <ele>362.999888</ele>
        <time>2022-11-01T10:21:51.525Z</time>
      </trkpt>
      <trkpt lat="49.231709" lon="12.068546">
        <ele>354.822165</ele>
        <time>2022-11-01T10:24:13.343Z</time>
      </trkpt>
      <trkpt lat="49.231338" lon="12.068968">
        <ele>353.346466</ele>
        <time>2022-11-01T10:25:02.144Z</time>
      </trkpt>
      <trkpt lat="49.230895" lon="12.069298">
        <ele>351.773419</ele>
        <time>2022-11-01T10:25:54.405Z</time>
      </trkpt>
      <trkpt lat="49.230635" lon="12.069479">
        <ele>350.861440</ele>
        <time>2022-11-01T10:26:24.865Z</time>
      </trkpt>
      <trkpt lat="49.230523" lon="12.069678">
        <ele>350.313640</ele>
        <time>2022-11-01T10:26:43.174Z</time>
      </trkpt>
      <trkpt lat="49.230386" lon="12.070443">
        <ele>348.925539</ele>
        <time>2022-11-01T10:27:38.575Z</time>
      </trkpt>
      <trkpt lat="49.230357" lon="12.070500">
        <ele>348.852757</ele>
        <time>2022-11-01T10:27:43.520Z</time>
      </trkpt>
      <trkpt lat="49.230295" lon="12.070587">
        <ele>348.723045</ele>
        <time>2022-11-01T10:27:52.289Z</time>
      </trkpt>
      <trkpt lat="49.229473" lon="12.071949">
        <ele>346.854959</ele>
        <time>2022-11-01T10:29:56.931Z</time>
      </trkpt>
      <trkpt lat="49.229395" lon="12.071678">
        <ele>346.556647</ele>
        <time>2022-11-01T10:30:16.482Z</time>
      </trkpt>
      <trkpt lat="49.229519" lon="12.071447">
        <ele>346.389692</ele>
        <time>2022-11-01T10:30:36.361Z</time>
      </trkpt>
      <trkpt lat="49.229542" lon="12.071337">
        <ele>346.381617</ele>
        <time>2022-11-01T10:30:43.915Z</time>
      </trkpt>
      <trkpt lat="49.229505" lon="12.071163">
        <ele>346.368822</ele>
        <time>2022-11-01T10:30:55.936Z</time>
      </trkpt>
      <trkpt lat="49.228492" lon="12.068918">
        <ele>346.263993</ele>
        <time>2022-11-01T10:33:54.521Z</time>
      </trkpt>
      <trkpt lat="49.228166" lon="12.068547">
        <ele>346.348967</ele>
        <time>2022-11-01T10:34:35.576Z</time>
      </trkpt>
      <trkpt lat="49.227923" lon="12.067788">
        <ele>346.464454</ele>
        <time>2022-11-01T10:35:31.299Z</time>
      </trkpt>
      <trkpt lat="49.227659" lon="12.066876">
        <ele>346.584874</ele>
        <time>2022-11-01T10:36:37.100Z</time>
      </trkpt>
      <trkpt lat="49.227581" lon="12.065045">
        <ele>346.605971</ele>
        <time>2022-11-01T10:38:37.571Z</time>
      </trkpt>
      <trkpt lat="49.227569" lon="12.064258">
        <ele>346.615022</ele>
        <time>2022-11-01T10:39:29.354Z</time>
      </trkpt>
      <trkpt lat="49.227654" lon="12.063674">
        <ele>346.525502</ele>
        <time>2022-11-01T10:40:08.653Z</time>
      </trkpt>
      <trkpt lat="49.227609" lon="12.063348">
        <ele>346.475174</ele>
        <time>2022-11-01T10:40:30.482Z</time>
      </trkpt>
      <trkpt lat="49.227244" lon="12.062850">
        <ele>346.362106</ele>
        <time>2022-11-01T10:41:19.671Z</time>
      </trkpt>
      <trkpt lat="49.226858" lon="12.062850">
        <ele>346.272831</ele>
        <time>2022-11-01T10:41:58.572Z</time>
      </trkpt>
      <trkpt lat="49.226695" lon="12.062730">
        <ele>346.231001</ele>
        <time>2022-11-01T10:42:16.656Z</time>
      </trkpt>
      <trkpt lat="49.226588" lon="12.062550">
        <ele>346.199385</ele>
        <time>2022-11-01T10:42:32.664Z</time>
      </trkpt>
      <trkpt lat="49.225804" lon="12.062354">
        <ele>346.210726</ele>
        <time>2022-11-01T10:43:52.467Z</time>
      </trkpt>
      <trkpt lat="49.225003" lon="12.062473">
        <ele>346.222215</ele>
        <time>2022-11-01T10:45:13.277Z</time>
      </trkpt>
      <trkpt lat="49.224919" lon="12.062486">
        <ele>346.223420</ele>
        <time>2022-11-01T10:45:21.930Z</time>
      </trkpt>
      <trkpt lat="49.223752" lon="12.063056">
        <ele>346.428458</ele>
        <time>2022-11-01T10:47:25.512Z</time>
      </trkpt>
      <trkpt lat="49.223539" lon="12.063142">
        <ele>346.468137</ele>
        <time>2022-11-01T10:47:47.571Z</time>
      </trkpt>
      <trkpt lat="49.223292" lon="12.063125">
        <ele>346.512674</ele>
        <time>2022-11-01T10:48:12.486Z</time>
      </trkpt>
      <trkpt lat="49.223141" lon="12.062962">
        <ele>346.545954</ele>
        <time>2022-11-01T10:48:31.109Z</time>
      </trkpt>
      <trkpt lat="49.223048" lon="12.062982">
        <ele>346.558910</ele>
        <time>2022-11-01T10:48:40.836Z</time>
      </trkpt>
      <trkpt lat="49.222861" lon="12.063777">
        <ele>346.630441</ele>
        <time>2022-11-01T10:49:36.175Z</time>
      </trkpt>
      <trkpt lat="49.222485" lon="12.063309">
        <ele>346.693248</ele>
        <time>2022-11-01T10:50:25.053Z</time>
      </trkpt>
      <trkpt lat="49.222095" lon="12.062440">
        <ele>346.783929</ele>
        <time>2022-11-01T10:51:34.131Z</time>
      </trkpt>
      <trkpt lat="49.221958" lon="12.062252">
        <ele>346.862024</ele>
        <time>2022-11-01T10:51:52.517Z</time>
      </trkpt>
      <trkpt lat="49.221843" lon="12.062202">
        <ele>346.912770</ele>
        <time>2022-11-01T10:52:04.832Z</time>
      </trkpt>
      <trkpt lat="49.221752" lon="12.062097">
        <ele>346.961140</ele>
        <time>2022-11-01T10:52:16.549Z</time>
      </trkpt>
      <trkpt lat="49.221622" lon="12.061560">
        <ele>347.119921</ele>
        <time>2022-11-01T10:52:54.834Z</time>
      </trkpt>
      <trkpt lat="49.221578" lon="12.061641">
        <ele>347.149130</ele>
        <time>2022-11-01T10:53:01.794Z</time>
      </trkpt>
      <trkpt lat="49.221622" lon="12.061560">
        <ele>347.178340</ele>
        <time>2022-11-01T10:53:09.018Z</time>
      </trkpt>
      <trkpt lat="49.222104" lon="12.060561">
        <ele>347.522689</ele>
        <time>2022-11-01T10:54:31.893Z</time>
      </trkpt>
      <trkpt lat="49.222328" lon="12.060090">
        <ele>347.516045</ele>
        <time>2022-11-01T10:55:10.381Z</time>
      </trkpt>
      <trkpt lat="49.222414" lon="12.059761">
        <ele>347.495279</ele>
        <time>2022-11-01T10:55:33.617Z</time>
      </trkpt>
      <trkpt lat="49.222501" lon="12.058788">
        <ele>347.437733</ele>
        <time>2022-11-01T10:56:37.985Z</time>
      </trkpt>
      <trkpt lat="49.222501" lon="12.058376">
        <ele>347.413591</ele>
        <time>2022-11-01T10:57:05.210Z</time>
      </trkpt>
      <trkpt lat="49.222387" lon="12.057264">
        <ele>347.082055</ele>
        <time>2022-11-01T10:58:19.975Z</time>
      </trkpt>
      <trkpt lat="49.222321" lon="12.054909">
        <ele>345.996182</ele>
        <time>2022-11-01T11:00:56.571Z</time>
      </trkpt>
      <trkpt lat="49.222260" lon="12.054476">
        <ele>345.900203</ele>
        <time>2022-11-01T11:01:25.831Z</time>
      </trkpt>
      <trkpt lat="49.222057" lon="12.053799">
        <ele>345.738792</ele>
        <time>2022-11-01T11:02:14.928Z</time>
      </trkpt>
      <trkpt lat="49.221021" lon="12.051874">
        <ele>345.565876</ele>
        <time>2022-11-01T11:04:58.147Z</time>
      </trkpt>
      <trkpt lat="49.220638" lon="12.050741">
        <ele>345.696300</ele>
        <time>2022-11-01T11:06:22.188Z</time>
      </trkpt>
      <trkpt lat="49.220550" lon="12.050482">
        <ele>345.726147</ele>
        <time>2022-11-01T11:06:41.493Z</time>
      </trkpt>
      <trkpt lat="49.220423" lon="12.049451">
        <ele>346.019728</ele>
        <time>2022-11-01T11:07:51.148Z</time>
      </trkpt>
      <trkpt lat="49.220457" lon="12.048862">
        <ele>346.188659</ele>
        <time>2022-11-01T11:08:30.379Z</time>
      </trkpt>
      <trkpt lat="49.220636" lon="12.047740">
        <ele>346.517705</ele>
        <time>2022-11-01T11:09:47.194Z</time>
      </trkpt>
      <trkpt lat="49.220810" lon="12.047233">
        <ele>346.615235</ele>
        <time>2022-11-01T11:10:25.179Z</time>
      </trkpt>
      <trkpt lat="49.220950" lon="12.046467">
        <ele>346.750687</ele>
        <time>2022-11-01T11:11:17.977Z</time>
      </trkpt>
      <trkpt lat="49.220951" lon="12.045913">
        <ele>346.845027</ele>
        <time>2022-11-01T11:11:54.582Z</time>
      </trkpt>
      <trkpt lat="49.220814" lon="12.045022">
        <ele>346.981228</ele>
        <time>2022-11-01T11:12:54.460Z</time>
      </trkpt>
      <trkpt lat="49.220711" lon="12.044709">
        <ele>346.965750</ele>
        <time>2022-11-01T11:13:17.381Z</time>
      </trkpt>
      <trkpt lat="49.220570" lon="12.044494">
        <ele>346.952296</ele>
        <time>2022-11-01T11:13:37.330Z</time>
      </trkpt>
      <trkpt lat="49.218861" lon="12.042872">
        <ele>346.580596</ele>
        <time>2022-11-01T11:16:58.977Z</time>
      </trkpt>
      <trkpt lat="49.218491" lon="12.042426">
        <ele>346.390140</ele>
        <time>2022-11-01T11:17:46.628Z</time>
      </trkpt>
      <trkpt lat="49.218129" lon="12.042113">
        <ele>346.222000</ele>
        <time>2022-11-01T11:18:28.851Z</time>
      </trkpt>
      <trkpt lat="49.217965" lon="12.042183">
        <ele>346.153143</ele>
        <time>2022-11-01T11:18:46.069Z</time>
      </trkpt>
      <trkpt lat="49.217577" lon="12.041896">
        <ele>345.932428</ele>
        <time>2022-11-01T11:19:29.796Z</time>
      </trkpt>
      <trkpt lat="49.217028" lon="12.041758">
        <ele>345.641023</ele>
        <time>2022-11-01T11:20:26.321Z</time>
      </trkpt>
      <trkpt lat="49.216841" lon="12.041638">
        <ele>345.534820</ele>
        <time>2022-11-01T11:20:46.632Z</time>
      </trkpt>
      <trkpt lat="49.216669" lon="12.041528">
        <ele>345.437185</ele>
        <time>2022-11-01T11:21:05.666Z</time>
      </trkpt>
      <trkpt lat="49.216547" lon="12.041387">
        <ele>345.357119</ele>
        <time>2022-11-01T11:21:20.987Z</time>
      </trkpt>
      <trkpt lat="49.216484" lon="12.041220">
        <ele>345.291139</ele>
        <time>2022-11-01T11:21:33.820Z</time>
      </trkpt>
      <trkpt lat="49.216354" lon="12.040424">
        <ele>345.250073</ele>
        <time>2022-11-01T11:22:27.859Z</time>
      </trkpt>
      <trkpt lat="49.216186" lon="12.040069">
        <ele>345.295726</ele>
        <time>2022-11-01T11:22:56.547Z</time>
      </trkpt>
      <trkpt lat="49.216152" lon="12.039838">
        <ele>345.320386</ele>
        <time>2022-11-01T11:23:12.505Z</time>
      </trkpt>
      <trkpt lat="49.216063" lon="12.039659">
        <ele>345.343813</ele>
        <time>2022-11-01T11:23:27.168Z</time>
      </trkpt>
      <trkpt lat="49.215845" lon="12.039394">
        <ele>345.388193</ele>
        <time>2022-11-01T11:23:55.529Z</time>
      </trkpt>
      <trkpt lat="49.214760" lon="12.038445">
        <ele>345.750353</ele>
        <time>2022-11-01T11:26:02.681Z</time>
      </trkpt>
      <trkpt lat="49.213916" lon="12.038377">
        <ele>346.091227</ele>
        <time>2022-11-01T11:27:28.316Z</time>
      </trkpt>
      <trkpt lat="49.213279" lon="12.038621">
        <ele>346.468822</ele>
        <time>2022-11-01T11:28:34.893Z</time>
      </trkpt>
      <trkpt lat="49.213274" lon="12.038749">
        <ele>346.528049</ele>
        <time>2022-11-01T11:28:43.468Z</time>
      </trkpt>
      <trkpt lat="49.213279" lon="12.038621">
        <ele>346.587275</ele>
        <time>2022-11-01T11:28:51.896Z</time>
      </trkpt>
      <trkpt lat="49.212486" lon="12.039087">
        <ele>347.187867</ele>
        <time>2022-11-01T11:30:18.497Z</time>
      </trkpt>
      <trkpt lat="49.212131" lon="12.039407">
        <ele>347.480540</ele>
        <time>2022-11-01T11:31:00.987Z</time>
      </trkpt>
      <trkpt lat="49.211893" lon="12.039456">
        <ele>347.868663</ele>
        <time>2022-11-01T11:31:26.688Z</time>
      </trkpt>
      <trkpt lat="49.211647" lon="12.039522">
        <ele>348.272313</ele>
        <time>2022-11-01T11:31:53.374Z</time>
      </trkpt>
      <trkpt lat="49.211588" lon="12.039604">
        <ele>348.401110</ele>
        <time>2022-11-01T11:32:01.803Z</time>
      </trkpt>
      <trkpt lat="49.211524" lon="12.039734">
        <ele>348.572979</ele>
        <time>2022-11-01T11:32:12.948Z</time>
      </trkpt>
      <trkpt lat="49.211318" lon="12.039947">
        <ele>348.974757</ele>
        <time>2022-11-01T11:32:39.870Z</time>
      </trkpt>
      <trkpt lat="49.211196" lon="12.040030">
        <ele>349.190532</ele>
        <time>2022-11-01T11:32:54.056Z</time>
      </trkpt>
      <trkpt lat="49.211073" lon="12.040124">
        <ele>349.412725</ele>
        <time>2022-11-01T11:33:09.643Z</time>
      </trkpt>
      <trkpt lat="49.210998" lon="12.040099">
        <ele>349.536782</ele>
        <time>2022-11-01T11:33:18.037Z</time>
      </trkpt>
      <trkpt lat="49.210870" lon="12.039951">
        <ele>349.796043</ele>
        <time>2022-11-01T11:33:34.388Z</time>
      </trkpt>
      <trkpt lat="49.210810" lon="12.039913">
        <ele>349.900988</ele>
        <time>2022-11-01T11:33:41.637Z</time>
      </trkpt>
      <trkpt lat="49.210496" lon="12.039968">
        <ele>350.383939</ele>
        <time>2022-11-01T11:34:14.028Z</time>
      </trkpt>
      <trkpt lat="49.209905" lon="12.040070">
        <ele>350.342772</ele>
        <time>2022-11-01T11:35:15.945Z</time>
      </trkpt>
      <trkpt lat="49.209662" lon="12.040156">
        <ele>350.325508</ele>
        <time>2022-11-01T11:35:41.108Z</time>
      </trkpt>
      <trkpt lat="49.209612" lon="12.040185">
        <ele>350.321807</ele>
        <time>2022-11-01T11:35:46.953Z</time>
      </trkpt>
      <trkpt lat="49.209562" lon="12.039843">
        <ele>350.305959</ele>
        <time>2022-11-01T11:36:10.291Z</time>
      </trkpt>
      <trkpt lat="49.209473" lon="12.039874">
        <ele>350.299641</ele>
        <time>2022-11-01T11:36:19.805Z</time>
      </trkpt>
      <trkpt lat="49.209391" lon="12.039820">
        <ele>350.293462</ele>
        <time>2022-11-01T11:36:28.806Z</time>
      </trkpt>
      <trkpt lat="49.209420" lon="12.039744">
        <ele>350.289482</ele>
        <time>2022-11-01T11:36:34.918Z</time>
      </trkpt>
      <trkpt lat="49.209456" lon="12.039686">
        <ele>350.285864</ele>
        <time>2022-11-01T11:36:40.582Z</time>
      </trkpt>
      <trkpt lat="49.210268" lon="12.038390">
        <ele>350.260584</ele>
        <time>2022-11-01T11:38:41.797Z</time>
      </trkpt>
      <trkpt lat="49.210385" lon="12.038089">
        <ele>350.260584</ele>
        <time>2022-11-01T11:39:05.330Z</time>
      </trkpt>
      <trkpt lat="49.210378" lon="12.037933">
        <ele>350.260584</ele>
        <time>2022-11-01T11:39:15.978Z</time>
      </trkpt>
      <trkpt lat="49.210841" lon="12.038233">
        <ele>350.260584</ele>
        <time>2022-11-01T11:40:07.129Z</time>
      </trkpt>
    </trkseg>
  </trk>
</gpx>