<?xml version='1.0' encoding='UTF-8'?>
<gpx version="1.1" creator="https://www.komoot.de" xmlns="http://www.topografix.com/GPX/1/1" xmlns:xsi="http://www.w3.org/2001/XMLSchema-instance" xsi:schemaLocation="http://www.topografix.com/GPX/1/1 http://www.topografix.com/GPX/1/1/gpx.xsd">
  <metadata>
    <name>DVV PW Burglengenfeld durch das Raffa Waldgebiet</name>
    <author>
      <link href="https://www.komoot.de">
        <text>komoot</text>
        <type>text/html</type>
      </link>
    </author>
  </metadata>
  <trk>
    <name>DVV PW Burglengenfeld durch das Raffa Waldgebiet</name>
    <trkseg>
      <trkpt lat="49.197354" lon="12.057612">
        <ele>396.008210</ele>
        <time>2022-10-25T08:56:16.550Z</time>
      </trkpt>
      <trkpt lat="49.197212" lon="12.058159">
        <ele>396.008210</ele>
        <time>2022-10-25T08:56:55.055Z</time>
      </trkpt>
      <trkpt lat="49.197447" lon="12.058300">
        <ele>396.008210</ele>
        <time>2022-10-25T08:57:20.312Z</time>
      </trkpt>
      <trkpt lat="49.197532" lon="12.058470">
        <ele>396.008210</ele>
        <time>2022-10-25T08:57:34.348Z</time>
      </trkpt>
      <trkpt lat="49.197980" lon="12.057880">
        <ele>396.218359</ele>
        <time>2022-10-25T08:58:33.543Z</time>
      </trkpt>
      <trkpt lat="49.198456" lon="12.057253">
        <ele>396.499990</ele>
        <time>2022-10-25T08:59:36.787Z</time>
      </trkpt>
      <trkpt lat="49.197980" lon="12.057880">
        <ele>396.781620</ele>
        <time>2022-10-25T09:00:41.462Z</time>
      </trkpt>
      <trkpt lat="49.197532" lon="12.058470">
        <ele>397.546367</ele>
        <time>2022-10-25T09:01:43.520Z</time>
      </trkpt>
      <trkpt lat="49.197134" lon="12.058925">
        <ele>398.249196</ele>
        <time>2022-10-25T09:02:35.749Z</time>
      </trkpt>
      <trkpt lat="49.196928" lon="12.059137">
        <ele>398.600400</ele>
        <time>2022-10-25T09:03:02.005Z</time>
      </trkpt>
      <trkpt lat="49.196980" lon="12.059372">
        <ele>398.829768</ele>
        <time>2022-10-25T09:03:19.157Z</time>
      </trkpt>
      <trkpt lat="49.196977" lon="12.059741">
        <ele>399.170923</ele>
        <time>2022-10-25T09:03:44.676Z</time>
      </trkpt>
      <trkpt lat="49.196454" lon="12.060645">
        <ele>399.461022</ele>
        <time>2022-10-25T09:05:08.003Z</time>
      </trkpt>
      <trkpt lat="49.196036" lon="12.061116">
        <ele>399.541494</ele>
        <time>2022-10-25T09:06:01.172Z</time>
      </trkpt>
      <trkpt lat="49.195838" lon="12.061345">
        <ele>399.579970</ele>
        <time>2022-10-25T09:06:26.274Z</time>
      </trkpt>
      <trkpt lat="49.195732" lon="12.061420">
        <ele>399.598074</ele>
        <time>2022-10-25T09:06:38.301Z</time>
      </trkpt>
      <trkpt lat="49.195056" lon="12.061491">
        <ele>398.114483</ele>
        <time>2022-10-25T09:07:49.101Z</time>
      </trkpt>
      <trkpt lat="49.194364" lon="12.061359">
        <ele>395.577286</ele>
        <time>2022-10-25T09:09:03.828Z</time>
      </trkpt>
      <trkpt lat="49.194119" lon="12.061312">
        <ele>394.678922</ele>
        <time>2022-10-25T09:09:30.939Z</time>
      </trkpt>
      <trkpt lat="49.192561" lon="12.061087">
        <ele>387.184285</ele>
        <time>2022-10-25T09:12:24.445Z</time>
      </trkpt>
      <trkpt lat="49.191882" lon="12.061195">
        <ele>383.627190</ele>
        <time>2022-10-25T09:13:40.068Z</time>
      </trkpt>
      <trkpt lat="49.191246" lon="12.061341">
        <ele>380.995887</ele>
        <time>2022-10-25T09:14:50.732Z</time>
      </trkpt>
      <trkpt lat="49.190996" lon="12.061689">
        <ele>379.613082</ele>
        <time>2022-10-25T09:15:27.481Z</time>
      </trkpt>
      <trkpt lat="49.190328" lon="12.063123">
        <ele>375.462559</ele>
        <time>2022-10-25T09:17:30.585Z</time>
      </trkpt>
      <trkpt lat="49.189867" lon="12.063615">
        <ele>374.068004</ele>
        <time>2022-10-25T09:18:30.158Z</time>
      </trkpt>
      <trkpt lat="49.189151" lon="12.064040">
        <ele>372.162513</ele>
        <time>2022-10-25T09:19:50.323Z</time>
      </trkpt>
      <trkpt lat="49.188383" lon="12.064373">
        <ele>371.273423</ele>
        <time>2022-10-25T09:21:12.530Z</time>
      </trkpt>
      <trkpt lat="49.187230" lon="12.064583">
        <ele>370.369906</ele>
        <time>2022-10-25T09:23:10.332Z</time>
      </trkpt>
      <trkpt lat="49.186784" lon="12.064723">
        <ele>371.189688</ele>
        <time>2022-10-25T09:23:56.797Z</time>
      </trkpt>
      <trkpt lat="49.186558" lon="12.064903">
        <ele>371.648452</ele>
        <time>2022-10-25T09:24:23.089Z</time>
      </trkpt>
      <trkpt lat="49.185988" lon="12.065696">
        <ele>373.035643</ele>
        <time>2022-10-25T09:25:46.801Z</time>
      </trkpt>
      <trkpt lat="49.185517" lon="12.066522">
        <ele>375.182413</ele>
        <time>2022-10-25T09:27:07.620Z</time>
      </trkpt>
      <trkpt lat="49.185439" lon="12.066478">
        <ele>375.495025</ele>
        <time>2022-10-25T09:27:17.265Z</time>
      </trkpt>
      <trkpt lat="49.185052" lon="12.066225">
        <ele>377.077582</ele>
        <time>2022-10-25T09:28:06.807Z</time>
      </trkpt>
      <trkpt lat="49.184811" lon="12.066158">
        <ele>377.998675</ele>
        <time>2022-10-25T09:28:35.057Z</time>
      </trkpt>
      <trkpt lat="49.184349" lon="12.066365">
        <ele>379.808941</ele>
        <time>2022-10-25T09:29:29.515Z</time>
      </trkpt>
      <trkpt lat="49.183923" lon="12.066420">
        <ele>380.503506</ele>
        <time>2022-10-25T09:30:17.175Z</time>
      </trkpt>
      <trkpt lat="49.181409" lon="12.067193">
        <ele>382.272149</ele>
        <time>2022-10-25T09:34:34.378Z</time>
      </trkpt>
      <trkpt lat="49.180224" lon="12.067449">
        <ele>383.577887</ele>
        <time>2022-10-25T09:36:41.816Z</time>
      </trkpt>
      <trkpt lat="49.180153" lon="12.067450">
        <ele>383.699329</ele>
        <time>2022-10-25T09:36:49.311Z</time>
      </trkpt>
      <trkpt lat="49.179807" lon="12.067700">
        <ele>384.353810</ele>
        <time>2022-10-25T09:37:31.402Z</time>
      </trkpt>
      <trkpt lat="49.179559" lon="12.067879">
        <ele>384.822827</ele>
        <time>2022-10-25T09:38:01.762Z</time>
      </trkpt>
      <trkpt lat="49.179450" lon="12.067937">
        <ele>385.020215</ele>
        <time>2022-10-25T09:38:13.572Z</time>
      </trkpt>
      <trkpt lat="49.179559" lon="12.067879">
        <ele>385.217603</ele>
        <time>2022-10-25T09:38:26.352Z</time>
      </trkpt>
      <trkpt lat="49.179288" lon="12.066440">
        <ele>384.996030</ele>
        <time>2022-10-25T09:40:04.810Z</time>
      </trkpt>
      <trkpt lat="49.179023" lon="12.065577">
        <ele>384.089531</ele>
        <time>2022-10-25T09:41:09.561Z</time>
      </trkpt>
      <trkpt lat="49.178574" lon="12.064908">
        <ele>383.172467</ele>
        <time>2022-10-25T09:42:16.152Z</time>
      </trkpt>
      <trkpt lat="49.177895" lon="12.064169">
        <ele>381.870130</ele>
        <time>2022-10-25T09:43:44.613Z</time>
      </trkpt>
      <trkpt lat="49.177421" lon="12.063497">
        <ele>380.860125</ele>
        <time>2022-10-25T09:44:50.917Z</time>
      </trkpt>
      <trkpt lat="49.176942" lon="12.062499">
        <ele>381.683557</ele>
        <time>2022-10-25T09:46:14.433Z</time>
      </trkpt>
      <trkpt lat="49.176398" lon="12.061142">
        <ele>384.075749</ele>
        <time>2022-10-25T09:48:09.633Z</time>
      </trkpt>
      <trkpt lat="49.175882" lon="12.060744">
        <ele>385.702405</ele>
        <time>2022-10-25T09:49:14.837Z</time>
      </trkpt>
      <trkpt lat="49.175593" lon="12.060365">
        <ele>386.892243</ele>
        <time>2022-10-25T09:49:57.587Z</time>
      </trkpt>
      <trkpt lat="49.175348" lon="12.059729">
        <ele>388.400665</ele>
        <time>2022-10-25T09:50:51.481Z</time>
      </trkpt>
      <trkpt lat="49.174986" lon="12.058509">
        <ele>390.699640</ele>
        <time>2022-10-25T09:52:26.981Z</time>
      </trkpt>
      <trkpt lat="49.174738" lon="12.057894">
        <ele>391.488031</ele>
        <time>2022-10-25T09:53:18.082Z</time>
      </trkpt>
      <trkpt lat="49.174146" lon="12.056889">
        <ele>392.964020</ele>
        <time>2022-10-25T09:54:50.810Z</time>
      </trkpt>
      <trkpt lat="49.173876" lon="12.056316">
        <ele>393.267489</ele>
        <time>2022-10-25T09:55:38.436Z</time>
      </trkpt>
      <trkpt lat="49.173565" lon="12.055691">
        <ele>393.377302</ele>
        <time>2022-10-25T09:56:29.893Z</time>
      </trkpt>
      <trkpt lat="49.173346" lon="12.055022">
        <ele>393.481906</ele>
        <time>2022-10-25T09:57:18.860Z</time>
      </trkpt>
      <trkpt lat="49.173277" lon="12.054300">
        <ele>393.583913</ele>
        <time>2022-10-25T09:58:06.786Z</time>
      </trkpt>
      <trkpt lat="49.173083" lon="12.053656">
        <ele>393.680993</ele>
        <time>2022-10-25T09:58:53.443Z</time>
      </trkpt>
      <trkpt lat="49.172812" lon="12.053000">
        <ele>393.787234</ele>
        <time>2022-10-25T09:59:44.639Z</time>
      </trkpt>
      <trkpt lat="49.172835" lon="12.052402">
        <ele>393.869248</ele>
        <time>2022-10-25T10:00:24.387Z</time>
      </trkpt>
      <trkpt lat="49.172922" lon="12.051930">
        <ele>393.936389</ele>
        <time>2022-10-25T10:00:57.000Z</time>
      </trkpt>
      <trkpt lat="49.172876" lon="12.051472">
        <ele>394.064839</ele>
        <time>2022-10-25T10:01:27.936Z</time>
      </trkpt>
      <trkpt lat="49.172253" lon="12.049993">
        <ele>394.700208</ele>
        <time>2022-10-25T10:03:25.603Z</time>
      </trkpt>
      <trkpt lat="49.171565" lon="12.049035">
        <ele>394.920002</ele>
        <time>2022-10-25T10:05:00.412Z</time>
      </trkpt>
      <trkpt lat="49.170614" lon="12.047525">
        <ele>394.762004</ele>
        <time>2022-10-25T10:07:18.100Z</time>
      </trkpt>
      <trkpt lat="49.170401" lon="12.046843">
        <ele>394.046240</ele>
        <time>2022-10-25T10:08:08.556Z</time>
      </trkpt>
      <trkpt lat="49.170377" lon="12.046949">
        <ele>393.940008</ele>
        <time>2022-10-25T10:08:15.977Z</time>
      </trkpt>
      <trkpt lat="49.170401" lon="12.046843">
        <ele>393.833776</ele>
        <time>2022-10-25T10:08:23.460Z</time>
      </trkpt>
      <trkpt lat="49.170409" lon="12.046679">
        <ele>393.678035</ele>
        <time>2022-10-25T10:08:34.606Z</time>
      </trkpt>
      <trkpt lat="49.170594" lon="12.045495">
        <ele>392.525202</ele>
        <time>2022-10-25T10:09:57.093Z</time>
      </trkpt>
      <trkpt lat="49.170788" lon="12.044934">
        <ele>391.691214</ele>
        <time>2022-10-25T10:10:40.547Z</time>
      </trkpt>
      <trkpt lat="49.171152" lon="12.044140">
        <ele>390.049774</ele>
        <time>2022-10-25T10:11:47.401Z</time>
      </trkpt>
      <trkpt lat="49.171637" lon="12.042638">
        <ele>387.281816</ele>
        <time>2022-10-25T10:13:43.397Z</time>
      </trkpt>
      <trkpt lat="49.172365" lon="12.041616">
        <ele>385.218419</ele>
        <time>2022-10-25T10:15:27.166Z</time>
      </trkpt>
      <trkpt lat="49.172611" lon="12.041139">
        <ele>384.389005</ele>
        <time>2022-10-25T10:16:08.361Z</time>
      </trkpt>
      <trkpt lat="49.172981" lon="12.040194">
        <ele>383.430295</ele>
        <time>2022-10-25T10:17:22.299Z</time>
      </trkpt>
      <trkpt lat="49.173415" lon="12.038794">
        <ele>382.564902</ele>
        <time>2022-10-25T10:19:05.092Z</time>
      </trkpt>
      <trkpt lat="49.173517" lon="12.038684">
        <ele>382.458281</ele>
        <time>2022-10-25T10:19:17.696Z</time>
      </trkpt>
      <trkpt lat="49.174152" lon="12.038361">
        <ele>381.994991</ele>
        <time>2022-10-25T10:20:25.557Z</time>
      </trkpt>
      <trkpt lat="49.174568" lon="12.038242">
        <ele>381.735376</ele>
        <time>2022-10-25T10:21:08.426Z</time>
      </trkpt>
      <trkpt lat="49.174946" lon="12.038250">
        <ele>381.503473</ele>
        <time>2022-10-25T10:21:46.847Z</time>
      </trkpt>
      <trkpt lat="49.176165" lon="12.039046">
        <ele>380.884296</ele>
        <time>2022-10-25T10:24:01.077Z</time>
      </trkpt>
      <trkpt lat="49.176389" lon="12.039057">
        <ele>380.802661</ele>
        <time>2022-10-25T10:24:23.767Z</time>
      </trkpt>
      <trkpt lat="49.178178" lon="12.038735">
        <ele>380.756062</ele>
        <time>2022-10-25T10:27:24.474Z</time>
      </trkpt>
      <trkpt lat="49.178291" lon="12.038714">
        <ele>380.783644</ele>
        <time>2022-10-25T10:27:35.884Z</time>
      </trkpt>
      <trkpt lat="49.178926" lon="12.040318">
        <ele>381.795787</ele>
        <time>2022-10-25T10:29:41.867Z</time>
      </trkpt>
      <trkpt lat="49.179419" lon="12.041781">
        <ele>383.465870</ele>
        <time>2022-10-25T10:31:36.570Z</time>
      </trkpt>
      <trkpt lat="49.179611" lon="12.042312">
        <ele>384.203815</ele>
        <time>2022-10-25T10:32:19.630Z</time>
      </trkpt>
      <trkpt lat="49.180786" lon="12.045625">
        <ele>388.389894</ele>
        <time>2022-10-25T10:36:44.306Z</time>
      </trkpt>
      <trkpt lat="49.180901" lon="12.045927">
        <ele>388.611379</ele>
        <time>2022-10-25T10:37:07.439Z</time>
      </trkpt>
      <trkpt lat="49.181528" lon="12.047657">
        <ele>388.882065</ele>
        <time>2022-10-25T10:39:17.179Z</time>
      </trkpt>
      <trkpt lat="49.182138" lon="12.049384">
        <ele>388.002991</ele>
        <time>2022-10-25T10:41:27.983Z</time>
      </trkpt>
      <trkpt lat="49.183998" lon="12.054341">
        <ele>384.513807</ele>
        <time>2022-10-25T10:47:51.495Z</time>
      </trkpt>
      <trkpt lat="49.184025" lon="12.054224">
        <ele>384.659667</ele>
        <time>2022-10-25T10:47:59.704Z</time>
      </trkpt>
      <trkpt lat="49.183998" lon="12.054341">
        <ele>384.805527</ele>
        <time>2022-10-25T10:48:08.160Z</time>
      </trkpt>
      <trkpt lat="49.184795" lon="12.053608">
        <ele>386.477980</ele>
        <time>2022-10-25T10:49:47.309Z</time>
      </trkpt>
      <trkpt lat="49.185574" lon="12.052588">
        <ele>389.616834</ele>
        <time>2022-10-25T10:51:44.125Z</time>
      </trkpt>
      <trkpt lat="49.185915" lon="12.052051">
        <ele>391.648856</ele>
        <time>2022-10-25T10:52:41.261Z</time>
      </trkpt>
      <trkpt lat="49.186488" lon="12.051907">
        <ele>394.060067</ele>
        <time>2022-10-25T10:53:48.483Z</time>
      </trkpt>
      <trkpt lat="49.186947" lon="12.051791">
        <ele>395.497118</ele>
        <time>2022-10-25T10:54:41.973Z</time>
      </trkpt>
      <trkpt lat="49.188984" lon="12.051559">
        <ele>398.560535</ele>
        <time>2022-10-25T10:58:20.800Z</time>
      </trkpt>
      <trkpt lat="49.190329" lon="12.051063">
        <ele>396.862091</ele>
        <time>2022-10-25T11:00:46.232Z</time>
      </trkpt>
      <trkpt lat="49.190806" lon="12.050892">
        <ele>395.796194</ele>
        <time>2022-10-25T11:01:39.067Z</time>
      </trkpt>
      <trkpt lat="49.190583" lon="12.049714">
        <ele>394.052350</ele>
        <time>2022-10-25T11:03:02.898Z</time>
      </trkpt>
      <trkpt lat="49.190557" lon="12.049577">
        <ele>393.849503</ele>
        <time>2022-10-25T11:03:12.928Z</time>
      </trkpt>
      <trkpt lat="49.190601" lon="12.049608">
        <ele>393.744113</ele>
        <time>2022-10-25T11:03:17.797Z</time>
      </trkpt>
      <trkpt lat="49.190781" lon="12.049575">
        <ele>393.349692</ele>
        <time>2022-10-25T11:03:36.183Z</time>
      </trkpt>
      <trkpt lat="49.190797" lon="12.049574">
        <ele>393.314852</ele>
        <time>2022-10-25T11:03:37.837Z</time>
      </trkpt>
      <trkpt lat="49.191071" lon="12.050754">
        <ele>393.485273</ele>
        <time>2022-10-25T11:05:00.509Z</time>
      </trkpt>
      <trkpt lat="49.191702" lon="12.050510">
        <ele>393.727566</ele>
        <time>2022-10-25T11:06:07.742Z</time>
      </trkpt>
      <trkpt lat="49.192065" lon="12.050456">
        <ele>393.863341</ele>
        <time>2022-10-25T11:06:46.982Z</time>
      </trkpt>
      <trkpt lat="49.192390" lon="12.050467">
        <ele>394.224051</ele>
        <time>2022-10-25T11:07:21.213Z</time>
      </trkpt>
      <trkpt lat="49.192873" lon="12.050618">
        <ele>394.791592</ele>
        <time>2022-10-25T11:08:12.276Z</time>
      </trkpt>
      <trkpt lat="49.192865" lon="12.050685">
        <ele>394.842834</ele>
        <time>2022-10-25T11:08:17.025Z</time>
      </trkpt>
      <trkpt lat="49.192963" lon="12.050726">
        <ele>394.959798</ele>
        <time>2022-10-25T11:08:27.569Z</time>
      </trkpt>
      <trkpt lat="49.193205" lon="12.050800">
        <ele>395.243908</ele>
        <time>2022-10-25T11:08:53.231Z</time>
      </trkpt>
      <trkpt lat="49.193273" lon="12.050818">
        <ele>395.323356</ele>
        <time>2022-10-25T11:09:00.406Z</time>
      </trkpt>
      <trkpt lat="49.193548" lon="12.050828">
        <ele>395.640039</ele>
        <time>2022-10-25T11:09:28.744Z</time>
      </trkpt>
      <trkpt lat="49.193869" lon="12.050736">
        <ele>396.034853</ele>
        <time>2022-10-25T11:10:02.414Z</time>
      </trkpt>
      <trkpt lat="49.194243" lon="12.051633">
        <ele>397.035029</ele>
        <time>2022-10-25T11:11:15.065Z</time>
      </trkpt>
      <trkpt lat="49.194773" lon="12.052579">
        <ele>398.206316</ele>
        <time>2022-10-25T11:12:41.007Z</time>
      </trkpt>
      <trkpt lat="49.194917" lon="12.053456">
        <ele>399.117992</ele>
        <time>2022-10-25T11:13:44.273Z</time>
      </trkpt>
      <trkpt lat="49.195066" lon="12.053832">
        <ele>399.579564</ele>
        <time>2022-10-25T11:14:15.257Z</time>
      </trkpt>
      <trkpt lat="49.195256" lon="12.054278">
        <ele>400.138407</ele>
        <time>2022-10-25T11:14:52.387Z</time>
      </trkpt>
      <trkpt lat="49.195417" lon="12.054483">
        <ele>400.474831</ele>
        <time>2022-10-25T11:15:14.359Z</time>
      </trkpt>
      <trkpt lat="49.195472" lon="12.054488">
        <ele>400.563331</ele>
        <time>2022-10-25T11:15:20.527Z</time>
      </trkpt>
      <trkpt lat="49.195604" lon="12.054248">
        <ele>400.892599</ele>
        <time>2022-10-25T11:15:41.838Z</time>
      </trkpt>
      <trkpt lat="49.195636" lon="12.054189">
        <ele>400.973081</ele>
        <time>2022-10-25T11:15:47.058Z</time>
      </trkpt>
      <trkpt lat="49.196128" lon="12.054699">
        <ele>401.276466</ele>
        <time>2022-10-25T11:16:49.107Z</time>
      </trkpt>
      <trkpt lat="49.196343" lon="12.054844">
        <ele>401.172816</ele>
        <time>2022-10-25T11:17:13.177Z</time>
      </trkpt>
      <trkpt lat="49.198005" lon="12.055964">
        <ele>400.623294</ele>
        <time>2022-10-25T11:20:19.375Z</time>
      </trkpt>
      <trkpt lat="49.197963" lon="12.056413">
        <ele>400.623294</ele>
        <time>2022-10-25T11:20:50.349Z</time>
      </trkpt>
      <trkpt lat="49.198018" lon="12.056594">
        <ele>400.623294</ele>
        <time>2022-10-25T11:21:04.048Z</time>
      </trkpt>
      <trkpt lat="49.197975" lon="12.056570">
        <ele>400.623294</ele>
        <time>2022-10-25T11:21:08.711Z</time>
      </trkpt>
      <trkpt lat="49.198018" lon="12.056594">
        <ele>400.623294</ele>
        <time>2022-10-25T11:21:13.627Z</time>
      </trkpt>
      <trkpt lat="49.197958" lon="12.056813">
        <ele>400.623294</ele>
        <time>2022-10-25T11:21:29.735Z</time>
      </trkpt>
      <trkpt lat="49.197746" lon="12.057536">
        <ele>400.623294</ele>
        <time>2022-10-25T11:22:23.344Z</time>
      </trkpt>
      <trkpt lat="49.197690" lon="12.057779">
        <ele>400.623294</ele>
        <time>2022-10-25T11:22:40.868Z</time>
      </trkpt>
      <trkpt lat="49.197614" lon="12.057758">
        <ele>400.623294</ele>
        <time>2022-10-25T11:22:48.860Z</time>
      </trkpt>
      <trkpt lat="49.197478" lon="12.057677">
        <ele>400.623294</ele>
        <time>2022-10-25T11:23:03.874Z</time>
      </trkpt>
      <trkpt lat="49.197416" lon="12.057644">
        <ele>400.623294</ele>
        <time>2022-10-25T11:23:10.698Z</time>
      </trkpt>
    </trkseg>
  </trk>
</gpx>