<?xml version='1.0' encoding='UTF-8'?>
<gpx version="1.1" creator="https://www.komoot.de" xmlns="http://www.topografix.com/GPX/1/1" xmlns:xsi="http://www.w3.org/2001/XMLSchema-instance" xsi:schemaLocation="http://www.topografix.com/GPX/1/1 http://www.topografix.com/GPX/1/1/gpx.xsd">
  <metadata>
    <name>DVV PW Burglengenfeld durch das Raffa Waldgebiet</name>
    <author>
      <link href="https://www.komoot.de">
        <text>komoot</text>
        <type>text/html</type>
      </link>
    </author>
  </metadata>
  <trk>
    <name>DVV PW Burglengenfeld durch das Raffa Waldgebiet</name>
    <trkseg>
      <trkpt lat="49.197376" lon="12.057522">
        <ele>396.308198</ele>
        <time>2022-10-25T09:03:27.075Z</time>
      </trkpt>
      <trkpt lat="49.197354" lon="12.057612">
        <ele>396.308198</ele>
        <time>2022-10-25T09:03:33.354Z</time>
      </trkpt>
      <trkpt lat="49.197478" lon="12.057677">
        <ele>396.308198</ele>
        <time>2022-10-25T09:03:46.535Z</time>
      </trkpt>
      <trkpt lat="49.197614" lon="12.057758">
        <ele>396.308198</ele>
        <time>2022-10-25T09:04:01.285Z</time>
      </trkpt>
      <trkpt lat="49.197690" lon="12.057779">
        <ele>396.308198</ele>
        <time>2022-10-25T09:04:09.059Z</time>
      </trkpt>
      <trkpt lat="49.197690" lon="12.057779">
        <ele>396.308198</ele>
        <time>2022-10-25T09:04:09.086Z</time>
      </trkpt>
      <trkpt lat="49.197770" lon="12.057840">
        <ele>396.308198</ele>
        <time>2022-10-25T09:04:18.031Z</time>
      </trkpt>
      <trkpt lat="49.197865" lon="12.057855">
        <ele>396.308198</ele>
        <time>2022-10-25T09:04:27.589Z</time>
      </trkpt>
      <trkpt lat="49.197956" lon="12.057838">
        <ele>396.308198</ele>
        <time>2022-10-25T09:04:36.763Z</time>
      </trkpt>
      <trkpt lat="49.198038" lon="12.057747">
        <ele>396.308198</ele>
        <time>2022-10-25T09:04:46.900Z</time>
      </trkpt>
      <trkpt lat="49.198115" lon="12.057662">
        <ele>396.308198</ele>
        <time>2022-10-25T09:04:56.402Z</time>
      </trkpt>
      <trkpt lat="49.198186" lon="12.057550">
        <ele>396.380473</ele>
        <time>2022-10-25T09:05:06.606Z</time>
      </trkpt>
      <trkpt lat="49.198253" lon="12.057438">
        <ele>396.458028</ele>
        <time>2022-10-25T09:05:16.536Z</time>
      </trkpt>
      <trkpt lat="49.198313" lon="12.057322">
        <ele>396.533590</ele>
        <time>2022-10-25T09:05:26.211Z</time>
      </trkpt>
      <trkpt lat="49.198387" lon="12.057225">
        <ele>396.609747</ele>
        <time>2022-10-25T09:05:35.961Z</time>
      </trkpt>
      <trkpt lat="49.198480" lon="12.057296">
        <ele>396.690981</ele>
        <time>2022-10-25T09:05:46.363Z</time>
      </trkpt>
      <trkpt lat="49.198474" lon="12.057451">
        <ele>396.770286</ele>
        <time>2022-10-25T09:05:56.516Z</time>
      </trkpt>
      <trkpt lat="49.198415" lon="12.057584">
        <ele>396.852389</ele>
        <time>2022-10-25T09:06:07.029Z</time>
      </trkpt>
      <trkpt lat="49.198348" lon="12.057677">
        <ele>396.923091</ele>
        <time>2022-10-25T09:06:16.081Z</time>
      </trkpt>
      <trkpt lat="49.198288" lon="12.057787">
        <ele>396.996274</ele>
        <time>2022-10-25T09:06:25.451Z</time>
      </trkpt>
      <trkpt lat="49.198215" lon="12.057889">
        <ele>397.073538</ele>
        <time>2022-10-25T09:06:35.344Z</time>
      </trkpt>
      <trkpt lat="49.198231" lon="12.057914">
        <ele>397.091411</ele>
        <time>2022-10-25T09:06:37.661Z</time>
      </trkpt>
      <trkpt lat="49.198155" lon="12.058028">
        <ele>397.174591</ele>
        <time>2022-10-25T09:06:49.041Z</time>
      </trkpt>
      <trkpt lat="49.197103" lon="12.059161">
        <ele>398.513874</ele>
        <time>2022-10-25T09:09:03.877Z</time>
      </trkpt>
      <trkpt lat="49.197013" lon="12.059320">
        <ele>398.698275</ele>
        <time>2022-10-25T09:09:18.407Z</time>
      </trkpt>
      <trkpt lat="49.196980" lon="12.059372">
        <ele>398.761817</ele>
        <time>2022-10-25T09:09:23.438Z</time>
      </trkpt>
      <trkpt lat="49.196977" lon="12.059741">
        <ele>399.085310</ele>
        <time>2022-10-25T09:09:48.839Z</time>
      </trkpt>
      <trkpt lat="49.196454" lon="12.060645">
        <ele>400.112458</ele>
        <time>2022-10-25T09:11:12.100Z</time>
      </trkpt>
      <trkpt lat="49.196328" lon="12.060786">
        <ele>399.932287</ele>
        <time>2022-10-25T09:11:28.257Z</time>
      </trkpt>
      <trkpt lat="49.196036" lon="12.061116">
        <ele>399.513301</ele>
        <time>2022-10-25T09:12:05.444Z</time>
      </trkpt>
      <trkpt lat="49.195838" lon="12.061345">
        <ele>399.226831</ele>
        <time>2022-10-25T09:12:30.555Z</time>
      </trkpt>
      <trkpt lat="49.195732" lon="12.061420">
        <ele>399.092036</ele>
        <time>2022-10-25T09:12:42.573Z</time>
      </trkpt>
      <trkpt lat="49.195056" lon="12.061491">
        <ele>398.309933</ele>
        <time>2022-10-25T09:13:53.375Z</time>
      </trkpt>
      <trkpt lat="49.194364" lon="12.061359">
        <ele>395.858861</ele>
        <time>2022-10-25T09:15:08.122Z</time>
      </trkpt>
      <trkpt lat="49.194119" lon="12.061312">
        <ele>394.714328</ele>
        <time>2022-10-25T09:15:35.233Z</time>
      </trkpt>
      <trkpt lat="49.192561" lon="12.061087">
        <ele>387.273281</ele>
        <time>2022-10-25T09:18:28.740Z</time>
      </trkpt>
      <trkpt lat="49.191882" lon="12.061195">
        <ele>383.846085</ele>
        <time>2022-10-25T09:19:44.362Z</time>
      </trkpt>
      <trkpt lat="49.191246" lon="12.061341">
        <ele>380.637555</ele>
        <time>2022-10-25T09:20:55.026Z</time>
      </trkpt>
      <trkpt lat="49.190996" lon="12.061689">
        <ele>379.456012</ele>
        <time>2022-10-25T09:21:31.775Z</time>
      </trkpt>
      <trkpt lat="49.190328" lon="12.063123">
        <ele>375.432541</ele>
        <time>2022-10-25T09:23:34.879Z</time>
      </trkpt>
      <trkpt lat="49.189867" lon="12.063615">
        <ele>373.893452</ele>
        <time>2022-10-25T09:24:34.452Z</time>
      </trkpt>
      <trkpt lat="49.189151" lon="12.064040">
        <ele>372.440466</ele>
        <time>2022-10-25T09:25:54.617Z</time>
      </trkpt>
      <trkpt lat="49.188383" lon="12.064373">
        <ele>370.987848</ele>
        <time>2022-10-25T09:27:16.825Z</time>
      </trkpt>
      <trkpt lat="49.187230" lon="12.064583">
        <ele>370.812662</ele>
        <time>2022-10-25T09:29:14.626Z</time>
      </trkpt>
      <trkpt lat="49.186784" lon="12.064723">
        <ele>370.743971</ele>
        <time>2022-10-25T09:30:01.092Z</time>
      </trkpt>
      <trkpt lat="49.186558" lon="12.064903">
        <ele>371.036953</ele>
        <time>2022-10-25T09:30:27.384Z</time>
      </trkpt>
      <trkpt lat="49.185988" lon="12.065696">
        <ele>373.337274</ele>
        <time>2022-10-25T09:31:51.095Z</time>
      </trkpt>
      <trkpt lat="49.185517" lon="12.066522">
        <ele>375.476485</ele>
        <time>2022-10-25T09:33:11.914Z</time>
      </trkpt>
      <trkpt lat="49.185439" lon="12.066478">
        <ele>375.724705</ele>
        <time>2022-10-25T09:33:21.559Z</time>
      </trkpt>
      <trkpt lat="49.185052" lon="12.066225">
        <ele>377.092816</ele>
        <time>2022-10-25T09:34:11.274Z</time>
      </trkpt>
      <trkpt lat="49.184811" lon="12.066158">
        <ele>377.915895</ele>
        <time>2022-10-25T09:34:39.780Z</time>
      </trkpt>
      <trkpt lat="49.184349" lon="12.066365">
        <ele>379.533530</ele>
        <time>2022-10-25T09:35:35.014Z</time>
      </trkpt>
      <trkpt lat="49.183923" lon="12.066420">
        <ele>380.970081</ele>
        <time>2022-10-25T09:36:23.697Z</time>
      </trkpt>
      <trkpt lat="49.181659" lon="12.067117">
        <ele>382.842350</ele>
        <time>2022-10-25T09:40:16.370Z</time>
      </trkpt>
      <trkpt lat="49.181409" lon="12.067193">
        <ele>383.006294</ele>
        <time>2022-10-25T09:40:42.209Z</time>
      </trkpt>
      <trkpt lat="49.180224" lon="12.067449">
        <ele>383.776048</ele>
        <time>2022-10-25T09:42:45.804Z</time>
      </trkpt>
      <trkpt lat="49.180153" lon="12.067450">
        <ele>383.821717</ele>
        <time>2022-10-25T09:42:53.008Z</time>
      </trkpt>
      <trkpt lat="49.179807" lon="12.067700">
        <ele>383.771841</ele>
        <time>2022-10-25T09:43:33.037Z</time>
      </trkpt>
      <trkpt lat="49.179559" lon="12.067879">
        <ele>383.648146</ele>
        <time>2022-10-25T09:44:02.232Z</time>
      </trkpt>
      <trkpt lat="49.178067" lon="12.068685">
        <ele>382.191984</ele>
        <time>2022-10-25T09:46:44.231Z</time>
      </trkpt>
      <trkpt lat="49.177647" lon="12.068823">
        <ele>381.026965</ele>
        <time>2022-10-25T09:47:30.080Z</time>
      </trkpt>
      <trkpt lat="49.177193" lon="12.069120">
        <ele>379.687852</ele>
        <time>2022-10-25T09:48:22.768Z</time>
      </trkpt>
      <trkpt lat="49.176540" lon="12.069665">
        <ele>377.645153</ele>
        <time>2022-10-25T09:49:42.222Z</time>
      </trkpt>
      <trkpt lat="49.175523" lon="12.070676">
        <ele>374.199859</ele>
        <time>2022-10-25T09:51:50.991Z</time>
      </trkpt>
      <trkpt lat="49.175314" lon="12.070726">
        <ele>373.598967</ele>
        <time>2022-10-25T09:52:13.313Z</time>
      </trkpt>
      <trkpt lat="49.174630" lon="12.070691">
        <ele>372.409933</ele>
        <time>2022-10-25T09:53:24.804Z</time>
      </trkpt>
      <trkpt lat="49.174251" lon="12.070626">
        <ele>371.894395</ele>
        <time>2022-10-25T09:54:04.530Z</time>
      </trkpt>
      <trkpt lat="49.173135" lon="12.070108">
        <ele>370.834749</ele>
        <time>2022-10-25T09:56:03.122Z</time>
      </trkpt>
      <trkpt lat="49.172783" lon="12.070008">
        <ele>371.073336</ele>
        <time>2022-10-25T09:56:39.877Z</time>
      </trkpt>
      <trkpt lat="49.172186" lon="12.070175">
        <ele>371.477780</ele>
        <time>2022-10-25T09:57:43.093Z</time>
      </trkpt>
      <trkpt lat="49.171902" lon="12.070303">
        <ele>371.675086</ele>
        <time>2022-10-25T09:58:14.119Z</time>
      </trkpt>
      <trkpt lat="49.171374" lon="12.070542">
        <ele>371.793265</ele>
        <time>2022-10-25T09:59:11.557Z</time>
      </trkpt>
      <trkpt lat="49.170989" lon="12.070841">
        <ele>371.681839</ele>
        <time>2022-10-25T09:59:55.796Z</time>
      </trkpt>
      <trkpt lat="49.170545" lon="12.071420">
        <ele>371.531269</ele>
        <time>2022-10-25T10:00:54.229Z</time>
      </trkpt>
      <trkpt lat="49.169149" lon="12.073805">
        <ele>367.949749</ele>
        <time>2022-10-25T10:04:32.843Z</time>
      </trkpt>
      <trkpt lat="49.168398" lon="12.074719">
        <ele>365.711802</ele>
        <time>2022-10-25T10:06:14.190Z</time>
      </trkpt>
      <trkpt lat="49.167558" lon="12.075516">
        <ele>363.363543</ele>
        <time>2022-10-25T10:07:58.285Z</time>
      </trkpt>
      <trkpt lat="49.167212" lon="12.075824">
        <ele>362.971947</ele>
        <time>2022-10-25T10:08:39.805Z</time>
      </trkpt>
      <trkpt lat="49.167458" lon="12.075911">
        <ele>362.800205</ele>
        <time>2022-10-25T10:09:05.561Z</time>
      </trkpt>
      <trkpt lat="49.167451" lon="12.076095">
        <ele>362.718235</ele>
        <time>2022-10-25T10:09:18.024Z</time>
      </trkpt>
      <trkpt lat="49.167307" lon="12.076568">
        <ele>362.486187</ele>
        <time>2022-10-25T10:09:52.729Z</time>
      </trkpt>
      <trkpt lat="49.167324" lon="12.076950">
        <ele>362.315903</ele>
        <time>2022-10-25T10:10:17.967Z</time>
      </trkpt>
      <trkpt lat="49.166653" lon="12.079090">
        <ele>363.510953</ele>
        <time>2022-10-25T10:12:56.744Z</time>
      </trkpt>
      <trkpt lat="49.166530" lon="12.079433">
        <ele>363.886453</ele>
        <time>2022-10-25T10:13:24.971Z</time>
      </trkpt>
      <trkpt lat="49.166410" lon="12.079619">
        <ele>364.137268</ele>
        <time>2022-10-25T10:13:43.545Z</time>
      </trkpt>
      <trkpt lat="49.166340" lon="12.079679">
        <ele>364.255067</ele>
        <time>2022-10-25T10:13:52.352Z</time>
      </trkpt>
      <trkpt lat="49.166253" lon="12.079753">
        <ele>364.401207</ele>
        <time>2022-10-25T10:14:03.302Z</time>
      </trkpt>
      <trkpt lat="49.166007" lon="12.080329">
        <ele>365.066899</ele>
        <time>2022-10-25T10:14:52.330Z</time>
      </trkpt>
      <trkpt lat="49.165950" lon="12.080463">
        <ele>365.222165</ele>
        <time>2022-10-25T10:15:03.716Z</time>
      </trkpt>
      <trkpt lat="49.165843" lon="12.080711">
        <ele>365.510749</ele>
        <time>2022-10-25T10:15:24.930Z</time>
      </trkpt>
      <trkpt lat="49.165573" lon="12.081083">
        <ele>366.050558</ele>
        <time>2022-10-25T10:16:04.051Z</time>
      </trkpt>
      <trkpt lat="49.165060" lon="12.080578">
        <ele>366.956783</ele>
        <time>2022-10-25T10:17:07.445Z</time>
      </trkpt>
      <trkpt lat="49.165020" lon="12.080669">
        <ele>367.063283</ele>
        <time>2022-10-25T10:17:14.922Z</time>
      </trkpt>
      <trkpt lat="49.164874" lon="12.080546">
        <ele>367.250858</ele>
        <time>2022-10-25T10:17:31.687Z</time>
      </trkpt>
      <trkpt lat="49.164721" lon="12.080417">
        <ele>366.906025</ele>
        <time>2022-10-25T10:17:49.253Z</time>
      </trkpt>
      <trkpt lat="49.164344" lon="12.080118">
        <ele>366.067822</ele>
        <time>2022-10-25T10:18:32.950Z</time>
      </trkpt>
      <trkpt lat="49.163859" lon="12.079477">
        <ele>364.802622</ele>
        <time>2022-10-25T10:19:40.748Z</time>
      </trkpt>
      <trkpt lat="49.163735" lon="12.079287">
        <ele>364.456169</ele>
        <time>2022-10-25T10:19:59.470Z</time>
      </trkpt>
      <trkpt lat="49.163626" lon="12.079113">
        <ele>364.145180</ele>
        <time>2022-10-25T10:20:16.251Z</time>
      </trkpt>
      <trkpt lat="49.163393" lon="12.078739">
        <ele>363.503837</ele>
        <time>2022-10-25T10:20:52.159Z</time>
      </trkpt>
      <trkpt lat="49.163128" lon="12.078374">
        <ele>362.869474</ele>
        <time>2022-10-25T10:21:29.790Z</time>
      </trkpt>
      <trkpt lat="49.162810" lon="12.078031">
        <ele>362.177298</ele>
        <time>2022-10-25T10:22:10.501Z</time>
      </trkpt>
      <trkpt lat="49.162655" lon="12.077866">
        <ele>361.841375</ele>
        <time>2022-10-25T10:22:30.155Z</time>
      </trkpt>
      <trkpt lat="49.162712" lon="12.077676">
        <ele>361.598232</ele>
        <time>2022-10-25T10:22:44.233Z</time>
      </trkpt>
      <trkpt lat="49.162954" lon="12.077131">
        <ele>360.831990</ele>
        <time>2022-10-25T10:23:28.305Z</time>
      </trkpt>
      <trkpt lat="49.163170" lon="12.076901">
        <ele>360.571852</ele>
        <time>2022-10-25T10:23:54.952Z</time>
      </trkpt>
      <trkpt lat="49.163282" lon="12.076782">
        <ele>360.622734</ele>
        <time>2022-10-25T10:24:08.624Z</time>
      </trkpt>
      <trkpt lat="49.163311" lon="12.076613">
        <ele>360.665360</ele>
        <time>2022-10-25T10:24:20.125Z</time>
      </trkpt>
      <trkpt lat="49.163225" lon="12.076004">
        <ele>360.817362</ele>
        <time>2022-10-25T10:25:01.399Z</time>
      </trkpt>
      <trkpt lat="49.163208" lon="12.075885">
        <ele>360.847078</ele>
        <time>2022-10-25T10:25:09.496Z</time>
      </trkpt>
      <trkpt lat="49.163415" lon="12.075709">
        <ele>360.935442</ele>
        <time>2022-10-25T10:25:33.764Z</time>
      </trkpt>
      <trkpt lat="49.163983" lon="12.075673">
        <ele>361.147541</ele>
        <time>2022-10-25T10:26:32.259Z</time>
      </trkpt>
      <trkpt lat="49.164578" lon="12.075523">
        <ele>361.774488</ele>
        <time>2022-10-25T10:27:34.765Z</time>
      </trkpt>
      <trkpt lat="49.164855" lon="12.075494">
        <ele>362.129391</ele>
        <time>2022-10-25T10:28:03.607Z</time>
      </trkpt>
      <trkpt lat="49.165366" lon="12.075307">
        <ele>362.801014</ele>
        <time>2022-10-25T10:28:58.364Z</time>
      </trkpt>
      <trkpt lat="49.165723" lon="12.074767">
        <ele>363.442845</ele>
        <time>2022-10-25T10:29:51.547Z</time>
      </trkpt>
      <trkpt lat="49.166077" lon="12.073980">
        <ele>364.978495</ele>
        <time>2022-10-25T10:30:58.103Z</time>
      </trkpt>
      <trkpt lat="49.167598" lon="12.071129">
        <ele>371.679627</ele>
        <time>2022-10-25T10:35:23.686Z</time>
      </trkpt>
      <trkpt lat="49.167958" lon="12.070731">
        <ele>373.020418</ele>
        <time>2022-10-25T10:36:13.048Z</time>
      </trkpt>
      <trkpt lat="49.167958" lon="12.069957">
        <ele>374.516857</ele>
        <time>2022-10-25T10:37:09.373Z</time>
      </trkpt>
      <trkpt lat="49.167877" lon="12.069569">
        <ele>375.295901</ele>
        <time>2022-10-25T10:37:38.938Z</time>
      </trkpt>
      <trkpt lat="49.167865" lon="12.068698">
        <ele>376.962250</ele>
        <time>2022-10-25T10:38:42.119Z</time>
      </trkpt>
      <trkpt lat="49.167928" lon="12.068376">
        <ele>377.605128</ele>
        <time>2022-10-25T10:39:06.382Z</time>
      </trkpt>
      <trkpt lat="49.168244" lon="12.067829">
        <ele>378.972891</ele>
        <time>2022-10-25T10:39:58.363Z</time>
      </trkpt>
      <trkpt lat="49.168576" lon="12.066780">
        <ele>380.886308</ele>
        <time>2022-10-25T10:41:21.302Z</time>
      </trkpt>
      <trkpt lat="49.168616" lon="12.066118">
        <ele>381.977812</ele>
        <time>2022-10-25T10:42:09.072Z</time>
      </trkpt>
      <trkpt lat="49.168563" lon="12.064486">
        <ele>383.516307</ele>
        <time>2022-10-25T10:44:05.307Z</time>
      </trkpt>
      <trkpt lat="49.167724" lon="12.064118">
        <ele>383.840839</ele>
        <time>2022-10-25T10:45:34.340Z</time>
      </trkpt>
      <trkpt lat="49.167317" lon="12.063821">
        <ele>383.725903</ele>
        <time>2022-10-25T10:46:21.186Z</time>
      </trkpt>
      <trkpt lat="49.166795" lon="12.063793">
        <ele>381.460525</ele>
        <time>2022-10-25T10:47:17.128Z</time>
      </trkpt>
      <trkpt lat="49.166425" lon="12.063835">
        <ele>379.851369</ele>
        <time>2022-10-25T10:47:57.536Z</time>
      </trkpt>
      <trkpt lat="49.165737" lon="12.064153">
        <ele>376.734119</ele>
        <time>2022-10-25T10:49:17.704Z</time>
      </trkpt>
      <trkpt lat="49.165381" lon="12.064401">
        <ele>375.031763</ele>
        <time>2022-10-25T10:50:01.493Z</time>
      </trkpt>
      <trkpt lat="49.165062" lon="12.064366">
        <ele>373.637775</ele>
        <time>2022-10-25T10:50:37.210Z</time>
      </trkpt>
      <trkpt lat="49.164722" lon="12.064203">
        <ele>372.084721</ele>
        <time>2022-10-25T10:51:16.088Z</time>
      </trkpt>
      <trkpt lat="49.163287" lon="12.063517">
        <ele>366.115521</ele>
        <time>2022-10-25T10:53:56.805Z</time>
      </trkpt>
      <trkpt lat="49.162649" lon="12.063447">
        <ele>363.906099</ele>
        <time>2022-10-25T10:55:05.190Z</time>
      </trkpt>
      <trkpt lat="49.161387" lon="12.064189">
        <ele>359.733605</ele>
        <time>2022-10-25T10:57:30.571Z</time>
      </trkpt>
      <trkpt lat="49.161258" lon="12.064309">
        <ele>359.301666</ele>
        <time>2022-10-25T10:57:46.453Z</time>
      </trkpt>
      <trkpt lat="49.161198" lon="12.064493">
        <ele>358.917040</ele>
        <time>2022-10-25T10:58:01.056Z</time>
      </trkpt>
      <trkpt lat="49.160965" lon="12.062976">
        <ele>356.865755</ele>
        <time>2022-10-25T10:59:47.362Z</time>
      </trkpt>
      <trkpt lat="49.160838" lon="12.061661">
        <ele>356.558712</ele>
        <time>2022-10-25T11:01:14.742Z</time>
      </trkpt>
      <trkpt lat="49.160855" lon="12.060934">
        <ele>356.390677</ele>
        <time>2022-10-25T11:02:03.162Z</time>
      </trkpt>
      <trkpt lat="49.161167" lon="12.057448">
        <ele>358.622408</ele>
        <time>2022-10-25T11:06:02.293Z</time>
      </trkpt>
      <trkpt lat="49.161279" lon="12.056468">
        <ele>359.349505</ele>
        <time>2022-10-25T11:07:10.355Z</time>
      </trkpt>
      <trkpt lat="49.161507" lon="12.055846">
        <ele>359.870645</ele>
        <time>2022-10-25T11:07:58.833Z</time>
      </trkpt>
      <trkpt lat="49.161923" lon="12.055149">
        <ele>360.451553</ele>
        <time>2022-10-25T11:09:02.863Z</time>
      </trkpt>
      <trkpt lat="49.162891" lon="12.053527">
        <ele>361.580738</ele>
        <time>2022-10-25T11:11:30.273Z</time>
      </trkpt>
      <trkpt lat="49.162985" lon="12.053315">
        <ele>361.731191</ele>
        <time>2022-10-25T11:11:47.357Z</time>
      </trkpt>
      <trkpt lat="49.163213" lon="12.052183">
        <ele>362.449282</ele>
        <time>2022-10-25T11:13:06.585Z</time>
      </trkpt>
      <trkpt lat="49.162963" lon="12.051734">
        <ele>362.806798</ele>
        <time>2022-10-25T11:13:46.373Z</time>
      </trkpt>
      <trkpt lat="49.162824" lon="12.051392">
        <ele>363.050921</ele>
        <time>2022-10-25T11:14:13.629Z</time>
      </trkpt>
      <trkpt lat="49.162815" lon="12.051256">
        <ele>363.133793</ele>
        <time>2022-10-25T11:14:22.878Z</time>
      </trkpt>
      <trkpt lat="49.162886" lon="12.050709">
        <ele>363.824555</ele>
        <time>2022-10-25T11:15:01.242Z</time>
      </trkpt>
      <trkpt lat="49.163314" lon="12.049280">
        <ele>366.486813</ele>
        <time>2022-10-25T11:16:52.453Z</time>
      </trkpt>
      <trkpt lat="49.163321" lon="12.048927">
        <ele>367.084998</ele>
        <time>2022-10-25T11:17:18.102Z</time>
      </trkpt>
      <trkpt lat="49.162973" lon="12.046628">
        <ele>372.675365</ele>
        <time>2022-10-25T11:20:14.508Z</time>
      </trkpt>
      <trkpt lat="49.162583" lon="12.045176">
        <ele>375.743054</ele>
        <time>2022-10-25T11:22:11.195Z</time>
      </trkpt>
      <trkpt lat="49.162079" lon="12.044126">
        <ele>377.264703</ele>
        <time>2022-10-25T11:23:42.308Z</time>
      </trkpt>
      <trkpt lat="49.161913" lon="12.043579">
        <ele>377.969197</ele>
        <time>2022-10-25T11:24:22.463Z</time>
      </trkpt>
      <trkpt lat="49.161862" lon="12.041775">
        <ele>376.835662</ele>
        <time>2022-10-25T11:26:23.139Z</time>
      </trkpt>
      <trkpt lat="49.161718" lon="12.040813">
        <ele>376.034895</ele>
        <time>2022-10-25T11:27:30.831Z</time>
      </trkpt>
      <trkpt lat="49.161537" lon="12.040095">
        <ele>375.681879</ele>
        <time>2022-10-25T11:28:22.938Z</time>
      </trkpt>
      <trkpt lat="49.161242" lon="12.039289">
        <ele>375.321605</ele>
        <time>2022-10-25T11:29:24.540Z</time>
      </trkpt>
      <trkpt lat="49.161170" lon="12.038738">
        <ele>375.102437</ele>
        <time>2022-10-25T11:30:01.396Z</time>
      </trkpt>
      <trkpt lat="49.161126" lon="12.038752">
        <ele>375.075630</ele>
        <time>2022-10-25T11:30:06.266Z</time>
      </trkpt>
      <trkpt lat="49.160416" lon="12.038986">
        <ele>375.319814</ele>
        <time>2022-10-25T11:31:20.150Z</time>
      </trkpt>
      <trkpt lat="49.160090" lon="12.037498">
        <ele>376.611254</ele>
        <time>2022-10-25T11:33:06.923Z</time>
      </trkpt>
      <trkpt lat="49.160028" lon="12.037529">
        <ele>376.693342</ele>
        <time>2022-10-25T11:33:13.553Z</time>
      </trkpt>
      <trkpt lat="49.160028" lon="12.037529">
        <ele>376.693342</ele>
        <time>2022-10-25T11:33:13.619Z</time>
      </trkpt>
      <trkpt lat="49.160028" lon="12.037529">
        <ele>376.693342</ele>
        <time>2022-10-25T11:33:13.619Z</time>
      </trkpt>
      <trkpt lat="49.160654" lon="12.037371">
        <ele>378.074442</ele>
        <time>2022-10-25T11:34:17.130Z</time>
      </trkpt>
      <trkpt lat="49.161335" lon="12.037236">
        <ele>380.306607</ele>
        <time>2022-10-25T11:35:25.903Z</time>
      </trkpt>
      <trkpt lat="49.161326" lon="12.034919">
        <ele>384.669945</ele>
        <time>2022-10-25T11:38:17.290Z</time>
      </trkpt>
      <trkpt lat="49.161099" lon="12.033563">
        <ele>386.906034</ele>
        <time>2022-10-25T11:39:57.582Z</time>
      </trkpt>
      <trkpt lat="49.160453" lon="12.032184">
        <ele>385.904117</ele>
        <time>2022-10-25T11:41:50.596Z</time>
      </trkpt>
      <trkpt lat="49.160122" lon="12.030891">
        <ele>384.452353</ele>
        <time>2022-10-25T11:43:27.079Z</time>
      </trkpt>
      <trkpt lat="49.159485" lon="12.029067">
        <ele>381.735179</ele>
        <time>2022-10-25T11:45:49.419Z</time>
      </trkpt>
      <trkpt lat="49.159323" lon="12.028109">
        <ele>381.038547</ele>
        <time>2022-10-25T11:46:55.200Z</time>
      </trkpt>
      <trkpt lat="49.159178" lon="12.025930">
        <ele>381.890759</ele>
        <time>2022-10-25T11:49:23.245Z</time>
      </trkpt>
      <trkpt lat="49.159168" lon="12.025300">
        <ele>382.199467</ele>
        <time>2022-10-25T11:50:06.465Z</time>
      </trkpt>
      <trkpt lat="49.159259" lon="12.024516">
        <ele>382.628414</ele>
        <time>2022-10-25T11:51:00.930Z</time>
      </trkpt>
      <trkpt lat="49.159401" lon="12.023184">
        <ele>383.355441</ele>
        <time>2022-10-25T11:52:31.223Z</time>
      </trkpt>
      <trkpt lat="49.159386" lon="12.022751">
        <ele>383.393749</ele>
        <time>2022-10-25T11:52:59.967Z</time>
      </trkpt>
      <trkpt lat="49.159027" lon="12.021667">
        <ele>383.112372</ele>
        <time>2022-10-25T11:54:19.565Z</time>
      </trkpt>
      <trkpt lat="49.158263" lon="12.020377">
        <ele>382.494792</ele>
        <time>2022-10-25T11:56:15.714Z</time>
      </trkpt>
      <trkpt lat="49.157921" lon="12.019000">
        <ele>381.464564</ele>
        <time>2022-10-25T11:57:54.693Z</time>
      </trkpt>
      <trkpt lat="49.158258" lon="12.018828">
        <ele>381.084594</ele>
        <time>2022-10-25T11:58:31.110Z</time>
      </trkpt>
      <trkpt lat="49.158576" lon="12.017659">
        <ele>380.973540</ele>
        <time>2022-10-25T11:59:55.022Z</time>
      </trkpt>
      <trkpt lat="49.158889" lon="12.017031">
        <ele>381.038620</ele>
        <time>2022-10-25T12:00:47.646Z</time>
      </trkpt>
      <trkpt lat="49.159139" lon="12.015935">
        <ele>381.235556</ele>
        <time>2022-10-25T12:02:04.918Z</time>
      </trkpt>
      <trkpt lat="49.159345" lon="12.015435">
        <ele>381.598272</ele>
        <time>2022-10-25T12:02:45.619Z</time>
      </trkpt>
      <trkpt lat="49.159423" lon="12.014853">
        <ele>381.962915</ele>
        <time>2022-10-25T12:03:26.915Z</time>
      </trkpt>
      <trkpt lat="49.159210" lon="12.014294">
        <ele>382.360010</ele>
        <time>2022-10-25T12:04:11.186Z</time>
      </trkpt>
      <trkpt lat="49.159745" lon="12.013900">
        <ele>382.646459</ele>
        <time>2022-10-25T12:05:11.585Z</time>
      </trkpt>
      <trkpt lat="49.159969" lon="12.013698">
        <ele>382.292857</ele>
        <time>2022-10-25T12:05:37.740Z</time>
      </trkpt>
      <trkpt lat="49.159881" lon="12.012670">
        <ele>381.370956</ele>
        <time>2022-10-25T12:06:47.071Z</time>
      </trkpt>
      <trkpt lat="49.159832" lon="12.011640">
        <ele>380.452653</ele>
        <time>2022-10-25T12:07:57.373Z</time>
      </trkpt>
      <trkpt lat="49.159892" lon="12.009636">
        <ele>377.478751</ele>
        <time>2022-10-25T12:10:18.359Z</time>
      </trkpt>
      <trkpt lat="49.159863" lon="12.008472">
        <ele>376.693099</ele>
        <time>2022-10-25T12:11:35.683Z</time>
      </trkpt>
      <trkpt lat="49.159684" lon="12.008341">
        <ele>377.168863</ele>
        <time>2022-10-25T12:11:55.575Z</time>
      </trkpt>
      <trkpt lat="49.159863" lon="12.008472">
        <ele>377.644628</ele>
        <time>2022-10-25T12:12:17.037Z</time>
      </trkpt>
      <trkpt lat="49.159767" lon="12.006317">
        <ele>381.094321</ele>
        <time>2022-10-25T12:14:56.076Z</time>
      </trkpt>
      <trkpt lat="49.159873" lon="12.005509">
        <ele>382.542288</ele>
        <time>2022-10-25T12:15:58.257Z</time>
      </trkpt>
      <trkpt lat="49.160095" lon="12.003814">
        <ele>385.295304</ele>
        <time>2022-10-25T12:18:00.257Z</time>
      </trkpt>
      <trkpt lat="49.159666" lon="12.000728">
        <ele>383.376145</ele>
        <time>2022-10-25T12:21:30.579Z</time>
      </trkpt>
      <trkpt lat="49.158947" lon="12.000453">
        <ele>381.157035</ele>
        <time>2022-10-25T12:22:49.125Z</time>
      </trkpt>
      <trkpt lat="49.159439" lon="11.997389">
        <ele>373.660689</ele>
        <time>2022-10-25T12:26:33.714Z</time>
      </trkpt>
      <trkpt lat="49.159590" lon="11.997449">
        <ele>373.042220</ele>
        <time>2022-10-25T12:26:50.404Z</time>
      </trkpt>
      <trkpt lat="49.159725" lon="11.997317">
        <ele>372.407006</ele>
        <time>2022-10-25T12:27:07.787Z</time>
      </trkpt>
      <trkpt lat="49.159989" lon="11.996208">
        <ele>371.139998</ele>
        <time>2022-10-25T12:28:29.428Z</time>
      </trkpt>
      <trkpt lat="49.160110" lon="11.994867">
        <ele>370.076400</ele>
        <time>2022-10-25T12:29:59.354Z</time>
      </trkpt>
      <trkpt lat="49.161296" lon="11.994133">
        <ele>371.794497</ele>
        <time>2022-10-25T12:32:12.155Z</time>
      </trkpt>
      <trkpt lat="49.161988" lon="11.993645">
        <ele>373.323242</ele>
        <time>2022-10-25T12:33:37.463Z</time>
      </trkpt>
      <trkpt lat="49.162224" lon="11.993479">
        <ele>374.062153</ele>
        <time>2022-10-25T12:34:06.986Z</time>
      </trkpt>
      <trkpt lat="49.162334" lon="11.994056">
        <ele>375.210180</ele>
        <time>2022-10-25T12:34:51.562Z</time>
      </trkpt>
      <trkpt lat="49.162677" lon="11.995627">
        <ele>378.373824</ele>
        <time>2022-10-25T12:36:51.632Z</time>
      </trkpt>
      <trkpt lat="49.163315" lon="11.997399">
        <ele>379.077641</ele>
        <time>2022-10-25T12:39:07.370Z</time>
      </trkpt>
      <trkpt lat="49.163509" lon="11.997939">
        <ele>379.226299</ele>
        <time>2022-10-25T12:39:48.527Z</time>
      </trkpt>
      <trkpt lat="49.163675" lon="11.998159">
        <ele>379.259035</ele>
        <time>2022-10-25T12:40:11.181Z</time>
      </trkpt>
      <trkpt lat="49.163866" lon="11.998411">
        <ele>379.155950</ele>
        <time>2022-10-25T12:40:36.930Z</time>
      </trkpt>
      <trkpt lat="49.164255" lon="11.999376">
        <ele>378.853029</ele>
        <time>2022-10-25T12:41:52.237Z</time>
      </trkpt>
      <trkpt lat="49.164688" lon="12.000559">
        <ele>378.695248</ele>
        <time>2022-10-25T12:43:21.089Z</time>
      </trkpt>
      <trkpt lat="49.164794" lon="12.000856">
        <ele>378.920068</ele>
        <time>2022-10-25T12:43:43.939Z</time>
      </trkpt>
      <trkpt lat="49.165016" lon="12.001448">
        <ele>379.373510</ele>
        <time>2022-10-25T12:44:30.216Z</time>
      </trkpt>
      <trkpt lat="49.165210" lon="12.002424">
        <ele>380.051299</ele>
        <time>2022-10-25T12:45:40.301Z</time>
      </trkpt>
      <trkpt lat="49.165446" lon="12.003330">
        <ele>380.526608</ele>
        <time>2022-10-25T12:46:47.718Z</time>
      </trkpt>
      <trkpt lat="49.165632" lon="12.003947">
        <ele>380.736102</ele>
        <time>2022-10-25T12:47:33.831Z</time>
      </trkpt>
      <trkpt lat="49.165886" lon="12.004865">
        <ele>381.043459</ele>
        <time>2022-10-25T12:48:39.597Z</time>
      </trkpt>
      <trkpt lat="49.166243" lon="12.005438">
        <ele>381.251563</ele>
        <time>2022-10-25T12:49:32.481Z</time>
      </trkpt>
      <trkpt lat="49.167035" lon="12.007651">
        <ele>381.580303</ele>
        <time>2022-10-25T12:52:17.821Z</time>
      </trkpt>
      <trkpt lat="49.167055" lon="12.007810">
        <ele>381.797262</ele>
        <time>2022-10-25T12:52:28.876Z</time>
      </trkpt>
      <trkpt lat="49.167130" lon="12.007902">
        <ele>382.028528</ele>
        <time>2022-10-25T12:52:39.836Z</time>
      </trkpt>
      <trkpt lat="49.168029" lon="12.010149">
        <ele>385.909336</ele>
        <time>2022-10-25T12:55:51.531Z</time>
      </trkpt>
      <trkpt lat="49.168956" lon="12.012823">
        <ele>385.516714</ele>
        <time>2022-10-25T12:59:11.639Z</time>
      </trkpt>
      <trkpt lat="49.169399" lon="12.013966">
        <ele>384.377334</ele>
        <time>2022-10-25T13:00:42.156Z</time>
      </trkpt>
      <trkpt lat="49.169835" lon="12.014974">
        <ele>383.511900</ele>
        <time>2022-10-25T13:02:03.267Z</time>
      </trkpt>
      <trkpt lat="49.170285" lon="12.016331">
        <ele>383.346143</ele>
        <time>2022-10-25T13:03:43.733Z</time>
      </trkpt>
      <trkpt lat="49.170899" lon="12.018128">
        <ele>384.363813</ele>
        <time>2022-10-25T13:05:59.122Z</time>
      </trkpt>
      <trkpt lat="49.171938" lon="12.021106">
        <ele>389.601231</ele>
        <time>2022-10-25T13:09:58.529Z</time>
      </trkpt>
      <trkpt lat="49.173713" lon="12.019603">
        <ele>396.297275</ele>
        <time>2022-10-25T13:13:51.188Z</time>
      </trkpt>
      <trkpt lat="49.174050" lon="12.019736">
        <ele>397.484533</ele>
        <time>2022-10-25T13:14:28.945Z</time>
      </trkpt>
      <trkpt lat="49.174181" lon="12.019874">
        <ele>397.962378</ele>
        <time>2022-10-25T13:14:45.760Z</time>
      </trkpt>
      <trkpt lat="49.174279" lon="12.020274">
        <ele>397.912933</ele>
        <time>2022-10-25T13:15:14.973Z</time>
      </trkpt>
      <trkpt lat="49.174351" lon="12.020564">
        <ele>397.877026</ele>
        <time>2022-10-25T13:15:35.665Z</time>
      </trkpt>
      <trkpt lat="49.173962" lon="12.020928">
        <ele>397.796286</ele>
        <time>2022-10-25T13:16:21.331Z</time>
      </trkpt>
      <trkpt lat="49.173854" lon="12.021142">
        <ele>397.764994</ele>
        <time>2022-10-25T13:16:39.340Z</time>
      </trkpt>
      <trkpt lat="49.173719" lon="12.022139">
        <ele>397.647139</ele>
        <time>2022-10-25T13:17:48.172Z</time>
      </trkpt>
      <trkpt lat="49.173260" lon="12.022870">
        <ele>396.702795</ele>
        <time>2022-10-25T13:18:56.369Z</time>
      </trkpt>
      <trkpt lat="49.173065" lon="12.022933">
        <ele>396.418709</ele>
        <time>2022-10-25T13:19:17.178Z</time>
      </trkpt>
      <trkpt lat="49.172898" lon="12.023085">
        <ele>396.141711</ele>
        <time>2022-10-25T13:19:37.187Z</time>
      </trkpt>
      <trkpt lat="49.172842" lon="12.023318">
        <ele>395.910371</ele>
        <time>2022-10-25T13:19:54.050Z</time>
      </trkpt>
      <trkpt lat="49.172847" lon="12.023602">
        <ele>395.645616</ele>
        <time>2022-10-25T13:20:13.029Z</time>
      </trkpt>
      <trkpt lat="49.172791" lon="12.023447">
        <ele>395.480584</ele>
        <time>2022-10-25T13:20:25.587Z</time>
      </trkpt>
      <trkpt lat="49.172847" lon="12.023602">
        <ele>395.315551</ele>
        <time>2022-10-25T13:20:37.977Z</time>
      </trkpt>
      <trkpt lat="49.173534" lon="12.025550">
        <ele>394.047685</ele>
        <time>2022-10-25T13:23:06.567Z</time>
      </trkpt>
      <trkpt lat="49.174181" lon="12.027382">
        <ele>393.338338</ele>
        <time>2022-10-25T13:25:23.576Z</time>
      </trkpt>
      <trkpt lat="49.174506" lon="12.028142">
        <ele>393.131932</ele>
        <time>2022-10-25T13:26:23.120Z</time>
      </trkpt>
      <trkpt lat="49.175781" lon="12.031723">
        <ele>389.401503</ele>
        <time>2022-10-25T13:30:58.578Z</time>
      </trkpt>
      <trkpt lat="49.175876" lon="12.031983">
        <ele>389.075466</ele>
        <time>2022-10-25T13:31:19.231Z</time>
      </trkpt>
      <trkpt lat="49.178291" lon="12.038714">
        <ele>381.587825</ele>
        <time>2022-10-25T13:39:58.430Z</time>
      </trkpt>
      <trkpt lat="49.178926" lon="12.040318">
        <ele>381.872515</ele>
        <time>2022-10-25T13:42:02.898Z</time>
      </trkpt>
      <trkpt lat="49.179419" lon="12.041781">
        <ele>383.532372</ele>
        <time>2022-10-25T13:43:57.617Z</time>
      </trkpt>
      <trkpt lat="49.179611" lon="12.042312">
        <ele>384.298160</ele>
        <time>2022-10-25T13:44:40.676Z</time>
      </trkpt>
      <trkpt lat="49.180786" lon="12.045625">
        <ele>388.814389</ele>
        <time>2022-10-25T13:49:05.352Z</time>
      </trkpt>
      <trkpt lat="49.180901" lon="12.045927">
        <ele>388.831556</ele>
        <time>2022-10-25T13:49:28.485Z</time>
      </trkpt>
      <trkpt lat="49.181528" lon="12.047657">
        <ele>388.928713</ele>
        <time>2022-10-25T13:51:38.225Z</time>
      </trkpt>
      <trkpt lat="49.182138" lon="12.049384">
        <ele>387.898723</ele>
        <time>2022-10-25T13:53:49.029Z</time>
      </trkpt>
      <trkpt lat="49.183998" lon="12.054341">
        <ele>384.698421</ele>
        <time>2022-10-25T14:00:12.541Z</time>
      </trkpt>
      <trkpt lat="49.184025" lon="12.054224">
        <ele>384.677060</ele>
        <time>2022-10-25T14:00:20.750Z</time>
      </trkpt>
      <trkpt lat="49.183998" lon="12.054341">
        <ele>384.655698</ele>
        <time>2022-10-25T14:00:29.206Z</time>
      </trkpt>
      <trkpt lat="49.184795" lon="12.053608">
        <ele>386.337100</ele>
        <time>2022-10-25T14:02:08.355Z</time>
      </trkpt>
      <trkpt lat="49.185574" lon="12.052588">
        <ele>389.781685</ele>
        <time>2022-10-25T14:04:05.171Z</time>
      </trkpt>
      <trkpt lat="49.185915" lon="12.052051">
        <ele>391.505397</ele>
        <time>2022-10-25T14:05:02.307Z</time>
      </trkpt>
      <trkpt lat="49.186488" lon="12.051907">
        <ele>393.643003</ele>
        <time>2022-10-25T14:06:09.529Z</time>
      </trkpt>
      <trkpt lat="49.186947" lon="12.051791">
        <ele>395.355580</ele>
        <time>2022-10-25T14:07:03.019Z</time>
      </trkpt>
      <trkpt lat="49.188984" lon="12.051559">
        <ele>399.188379</ele>
        <time>2022-10-25T14:10:41.846Z</time>
      </trkpt>
      <trkpt lat="49.190329" lon="12.051063">
        <ele>397.704107</ele>
        <time>2022-10-25T14:13:05.312Z</time>
      </trkpt>
      <trkpt lat="49.190806" lon="12.050892">
        <ele>396.910096</ele>
        <time>2022-10-25T14:13:56.675Z</time>
      </trkpt>
      <trkpt lat="49.191028" lon="12.050916">
        <ele>396.580359</ele>
        <time>2022-10-25T14:14:19.820Z</time>
      </trkpt>
      <trkpt lat="49.191466" lon="12.050660">
        <ele>396.219664</ele>
        <time>2022-10-25T14:15:08.699Z</time>
      </trkpt>
      <trkpt lat="49.192061" lon="12.050526">
        <ele>395.757004</ele>
        <time>2022-10-25T14:16:09.937Z</time>
      </trkpt>
      <trkpt lat="49.192065" lon="12.050456">
        <ele>395.721677</ele>
        <time>2022-10-25T14:16:14.725Z</time>
      </trkpt>
      <trkpt lat="49.192390" lon="12.050467">
        <ele>395.471596</ele>
        <time>2022-10-25T14:16:47.232Z</time>
      </trkpt>
      <trkpt lat="49.192873" lon="12.050618">
        <ele>395.370334</ele>
        <time>2022-10-25T14:17:37.502Z</time>
      </trkpt>
      <trkpt lat="49.192865" lon="12.050685">
        <ele>395.408042</ele>
        <time>2022-10-25T14:17:42.370Z</time>
      </trkpt>
      <trkpt lat="49.192963" lon="12.050726">
        <ele>395.494112</ele>
        <time>2022-10-25T14:17:52.799Z</time>
      </trkpt>
      <trkpt lat="49.193205" lon="12.050800">
        <ele>395.703181</ele>
        <time>2022-10-25T14:18:18.195Z</time>
      </trkpt>
      <trkpt lat="49.193273" lon="12.050818">
        <ele>395.761645</ele>
        <time>2022-10-25T14:18:25.266Z</time>
      </trkpt>
      <trkpt lat="49.193548" lon="12.050828">
        <ele>395.994683</ele>
        <time>2022-10-25T14:18:53.293Z</time>
      </trkpt>
      <trkpt lat="49.193869" lon="12.050736">
        <ele>396.271353</ele>
        <time>2022-10-25T14:19:26.753Z</time>
      </trkpt>
      <trkpt lat="49.193890" lon="12.050786">
        <ele>396.304259</ele>
        <time>2022-10-25T14:19:31.094Z</time>
      </trkpt>
      <trkpt lat="49.194243" lon="12.051633">
        <ele>396.966053</ele>
        <time>2022-10-25T14:20:39.409Z</time>
      </trkpt>
      <trkpt lat="49.194773" lon="12.052579">
        <ele>398.306413</ele>
        <time>2022-10-25T14:22:05.563Z</time>
      </trkpt>
      <trkpt lat="49.194917" lon="12.053456">
        <ele>399.279095</ele>
        <time>2022-10-25T14:23:08.496Z</time>
      </trkpt>
      <trkpt lat="49.195066" lon="12.053832">
        <ele>399.736576</ele>
        <time>2022-10-25T14:23:39.462Z</time>
      </trkpt>
      <trkpt lat="49.195256" lon="12.054278">
        <ele>400.102812</ele>
        <time>2022-10-25T14:24:16.592Z</time>
      </trkpt>
      <trkpt lat="49.195417" lon="12.054483">
        <ele>400.323285</ele>
        <time>2022-10-25T14:24:38.563Z</time>
      </trkpt>
      <trkpt lat="49.195472" lon="12.054488">
        <ele>400.381283</ele>
        <time>2022-10-25T14:24:44.730Z</time>
      </trkpt>
      <trkpt lat="49.195582" lon="12.054287">
        <ele>400.561630</ele>
        <time>2022-10-25T14:25:02.563Z</time>
      </trkpt>
      <trkpt lat="49.195636" lon="12.054189">
        <ele>400.649810</ele>
        <time>2022-10-25T14:25:11.261Z</time>
      </trkpt>
      <trkpt lat="49.196128" lon="12.054699">
        <ele>401.275351</ele>
        <time>2022-10-25T14:26:13.313Z</time>
      </trkpt>
      <trkpt lat="49.196343" lon="12.054844">
        <ele>401.522676</ele>
        <time>2022-10-25T14:26:37.380Z</time>
      </trkpt>
      <trkpt lat="49.198005" lon="12.055964">
        <ele>399.769725</ele>
        <time>2022-10-25T14:29:43.601Z</time>
      </trkpt>
      <trkpt lat="49.197963" lon="12.056413">
        <ele>399.708263</ele>
        <time>2022-10-25T14:30:14.541Z</time>
      </trkpt>
      <trkpt lat="49.198018" lon="12.056594">
        <ele>399.708263</ele>
        <time>2022-10-25T14:30:28.218Z</time>
      </trkpt>
      <trkpt lat="49.197982" lon="12.056574">
        <ele>399.708263</ele>
        <time>2022-10-25T14:30:32.108Z</time>
      </trkpt>
      <trkpt lat="49.198018" lon="12.056594">
        <ele>399.708263</ele>
        <time>2022-10-25T14:30:36.250Z</time>
      </trkpt>
      <trkpt lat="49.197958" lon="12.056813">
        <ele>399.708263</ele>
        <time>2022-10-25T14:30:52.313Z</time>
      </trkpt>
      <trkpt lat="49.197746" lon="12.057536">
        <ele>399.708263</ele>
        <time>2022-10-25T14:31:45.890Z</time>
      </trkpt>
      <trkpt lat="49.197690" lon="12.057779">
        <ele>399.708263</ele>
        <time>2022-10-25T14:32:03.384Z</time>
      </trkpt>
      <trkpt lat="49.197614" lon="12.057758">
        <ele>399.708263</ele>
        <time>2022-10-25T14:32:11.315Z</time>
      </trkpt>
      <trkpt lat="49.197478" lon="12.057677">
        <ele>399.708263</ele>
        <time>2022-10-25T14:32:26.337Z</time>
      </trkpt>
      <trkpt lat="49.197354" lon="12.057612">
        <ele>399.708263</ele>
        <time>2022-10-25T14:32:39.913Z</time>
      </trkpt>
      <trkpt lat="49.197376" lon="12.057522">
        <ele>399.708263</ele>
        <time>2022-10-25T14:32:46.298Z</time>
      </trkpt>
    </trkseg>
  </trk>
</gpx>