<?xml version='1.0' encoding='UTF-8'?>
<gpx version="1.1" creator="https://www.komoot.de" xmlns="http://www.topografix.com/GPX/1/1" xmlns:xsi="http://www.w3.org/2001/XMLSchema-instance" xsi:schemaLocation="http://www.topografix.com/GPX/1/1 http://www.topografix.com/GPX/1/1/gpx.xsd">
  <metadata>
    <name>DVV PW Burglengenfeld durch das Raffa Waldgebiet</name>
    <author>
      <link href="https://www.komoot.de">
        <text>komoot</text>
        <type>text/html</type>
      </link>
    </author>
  </metadata>
  <trk>
    <name>DVV PW Burglengenfeld durch das Raffa Waldgebiet</name>
    <trkseg>
      <trkpt lat="49.197376" lon="12.057522">
        <ele>396.308198</ele>
        <time>2022-10-25T08:49:52.545Z</time>
      </trkpt>
      <trkpt lat="49.197354" lon="12.057612">
        <ele>396.308198</ele>
        <time>2022-10-25T08:49:58.824Z</time>
      </trkpt>
      <trkpt lat="49.197418" lon="12.057646">
        <ele>396.308198</ele>
        <time>2022-10-25T08:50:05.712Z</time>
      </trkpt>
      <trkpt lat="49.197478" lon="12.057677">
        <ele>396.308198</ele>
        <time>2022-10-25T08:50:12.020Z</time>
      </trkpt>
      <trkpt lat="49.197614" lon="12.057758">
        <ele>396.308198</ele>
        <time>2022-10-25T08:50:26.770Z</time>
      </trkpt>
      <trkpt lat="49.197690" lon="12.057779">
        <ele>396.308198</ele>
        <time>2022-10-25T08:50:34.544Z</time>
      </trkpt>
      <trkpt lat="49.197690" lon="12.057779">
        <ele>396.308198</ele>
        <time>2022-10-25T08:50:34.571Z</time>
      </trkpt>
      <trkpt lat="49.197770" lon="12.057840">
        <ele>396.308198</ele>
        <time>2022-10-25T08:50:43.516Z</time>
      </trkpt>
      <trkpt lat="49.197865" lon="12.057855">
        <ele>396.308198</ele>
        <time>2022-10-25T08:50:53.073Z</time>
      </trkpt>
      <trkpt lat="49.197956" lon="12.057838">
        <ele>396.308198</ele>
        <time>2022-10-25T08:51:02.248Z</time>
      </trkpt>
      <trkpt lat="49.198038" lon="12.057747">
        <ele>396.308198</ele>
        <time>2022-10-25T08:51:12.385Z</time>
      </trkpt>
      <trkpt lat="49.198115" lon="12.057662">
        <ele>396.308198</ele>
        <time>2022-10-25T08:51:21.886Z</time>
      </trkpt>
      <trkpt lat="49.198186" lon="12.057550">
        <ele>396.380474</ele>
        <time>2022-10-25T08:51:32.091Z</time>
      </trkpt>
      <trkpt lat="49.198253" lon="12.057438">
        <ele>396.458029</ele>
        <time>2022-10-25T08:51:42.021Z</time>
      </trkpt>
      <trkpt lat="49.198313" lon="12.057322">
        <ele>396.533590</ele>
        <time>2022-10-25T08:51:51.696Z</time>
      </trkpt>
      <trkpt lat="49.198387" lon="12.057225">
        <ele>396.609747</ele>
        <time>2022-10-25T08:52:01.446Z</time>
      </trkpt>
      <trkpt lat="49.198480" lon="12.057296">
        <ele>396.690982</ele>
        <time>2022-10-25T08:52:11.848Z</time>
      </trkpt>
      <trkpt lat="49.198474" lon="12.057451">
        <ele>396.770286</ele>
        <time>2022-10-25T08:52:22.001Z</time>
      </trkpt>
      <trkpt lat="49.198415" lon="12.057584">
        <ele>396.852390</ele>
        <time>2022-10-25T08:52:32.514Z</time>
      </trkpt>
      <trkpt lat="49.198348" lon="12.057677">
        <ele>396.923091</ele>
        <time>2022-10-25T08:52:41.566Z</time>
      </trkpt>
      <trkpt lat="49.198288" lon="12.057787">
        <ele>396.996274</ele>
        <time>2022-10-25T08:52:50.936Z</time>
      </trkpt>
      <trkpt lat="49.198215" lon="12.057889">
        <ele>397.073538</ele>
        <time>2022-10-25T08:53:00.829Z</time>
      </trkpt>
      <trkpt lat="49.198231" lon="12.057914">
        <ele>397.091411</ele>
        <time>2022-10-25T08:53:03.146Z</time>
      </trkpt>
      <trkpt lat="49.198155" lon="12.058028">
        <ele>397.174591</ele>
        <time>2022-10-25T08:53:14.525Z</time>
      </trkpt>
      <trkpt lat="49.197103" lon="12.059161">
        <ele>398.513875</ele>
        <time>2022-10-25T08:55:29.362Z</time>
      </trkpt>
      <trkpt lat="49.197013" lon="12.059320">
        <ele>398.698275</ele>
        <time>2022-10-25T08:55:43.891Z</time>
      </trkpt>
      <trkpt lat="49.196980" lon="12.059372">
        <ele>398.761817</ele>
        <time>2022-10-25T08:55:48.923Z</time>
      </trkpt>
      <trkpt lat="49.196977" lon="12.059741">
        <ele>399.085311</ele>
        <time>2022-10-25T08:56:14.324Z</time>
      </trkpt>
      <trkpt lat="49.196454" lon="12.060645">
        <ele>400.112456</ele>
        <time>2022-10-25T08:57:37.585Z</time>
      </trkpt>
      <trkpt lat="49.196328" lon="12.060786">
        <ele>399.932285</ele>
        <time>2022-10-25T08:57:53.742Z</time>
      </trkpt>
      <trkpt lat="49.196036" lon="12.061116">
        <ele>399.513300</ele>
        <time>2022-10-25T08:58:30.929Z</time>
      </trkpt>
      <trkpt lat="49.195838" lon="12.061345">
        <ele>399.226830</ele>
        <time>2022-10-25T08:58:56.040Z</time>
      </trkpt>
      <trkpt lat="49.195732" lon="12.061420">
        <ele>399.092036</ele>
        <time>2022-10-25T08:59:08.058Z</time>
      </trkpt>
      <trkpt lat="49.195056" lon="12.061491">
        <ele>398.309935</ele>
        <time>2022-10-25T09:00:18.860Z</time>
      </trkpt>
      <trkpt lat="49.194364" lon="12.061359">
        <ele>395.858861</ele>
        <time>2022-10-25T09:01:33.607Z</time>
      </trkpt>
      <trkpt lat="49.194119" lon="12.061312">
        <ele>394.714327</ele>
        <time>2022-10-25T09:02:00.718Z</time>
      </trkpt>
      <trkpt lat="49.192561" lon="12.061087">
        <ele>387.273281</ele>
        <time>2022-10-25T09:04:54.224Z</time>
      </trkpt>
      <trkpt lat="49.191882" lon="12.061195">
        <ele>383.846085</ele>
        <time>2022-10-25T09:06:09.847Z</time>
      </trkpt>
      <trkpt lat="49.191246" lon="12.061341">
        <ele>380.637556</ele>
        <time>2022-10-25T09:07:20.510Z</time>
      </trkpt>
      <trkpt lat="49.190996" lon="12.061689">
        <ele>379.456012</ele>
        <time>2022-10-25T09:07:57.260Z</time>
      </trkpt>
      <trkpt lat="49.190328" lon="12.063123">
        <ele>375.432541</ele>
        <time>2022-10-25T09:10:00.364Z</time>
      </trkpt>
      <trkpt lat="49.189867" lon="12.063615">
        <ele>373.893453</ele>
        <time>2022-10-25T09:10:59.937Z</time>
      </trkpt>
      <trkpt lat="49.189151" lon="12.064040">
        <ele>372.440466</ele>
        <time>2022-10-25T09:12:20.102Z</time>
      </trkpt>
      <trkpt lat="49.188383" lon="12.064373">
        <ele>370.987849</ele>
        <time>2022-10-25T09:13:42.310Z</time>
      </trkpt>
      <trkpt lat="49.187230" lon="12.064583">
        <ele>370.812661</ele>
        <time>2022-10-25T09:15:40.111Z</time>
      </trkpt>
      <trkpt lat="49.186784" lon="12.064723">
        <ele>370.743969</ele>
        <time>2022-10-25T09:16:26.577Z</time>
      </trkpt>
      <trkpt lat="49.186558" lon="12.064903">
        <ele>371.042033</ele>
        <time>2022-10-25T09:16:52.869Z</time>
      </trkpt>
      <trkpt lat="49.185988" lon="12.065696">
        <ele>373.379380</ele>
        <time>2022-10-25T09:18:16.580Z</time>
      </trkpt>
      <trkpt lat="49.185517" lon="12.066522">
        <ele>375.553024</ele>
        <time>2022-10-25T09:19:37.399Z</time>
      </trkpt>
      <trkpt lat="49.185439" lon="12.066478">
        <ele>375.805239</ele>
        <time>2022-10-25T09:19:47.044Z</time>
      </trkpt>
      <trkpt lat="49.185052" lon="12.066225">
        <ele>377.413628</ele>
        <time>2022-10-25T09:20:37.011Z</time>
      </trkpt>
      <trkpt lat="49.184811" lon="12.066158">
        <ele>378.429431</ele>
        <time>2022-10-25T09:21:05.906Z</time>
      </trkpt>
      <trkpt lat="49.184349" lon="12.066365">
        <ele>380.425833</ele>
        <time>2022-10-25T09:22:02.064Z</time>
      </trkpt>
      <trkpt lat="49.183923" lon="12.066420">
        <ele>382.198751</ele>
        <time>2022-10-25T09:22:51.163Z</time>
      </trkpt>
      <trkpt lat="49.183849" lon="12.066443">
        <ele>382.511901</ele>
        <time>2022-10-25T09:22:59.265Z</time>
      </trkpt>
      <trkpt lat="49.183923" lon="12.066420">
        <ele>382.825051</ele>
        <time>2022-10-25T09:23:09.420Z</time>
      </trkpt>
      <trkpt lat="49.183712" lon="12.065371">
        <ele>384.280444</ele>
        <time>2022-10-25T09:24:27.177Z</time>
      </trkpt>
      <trkpt lat="49.183579" lon="12.064731">
        <ele>384.821722</ele>
        <time>2022-10-25T09:25:13.933Z</time>
      </trkpt>
      <trkpt lat="49.183377" lon="12.063476">
        <ele>385.853180</ele>
        <time>2022-10-25T09:26:38.602Z</time>
      </trkpt>
      <trkpt lat="49.183206" lon="12.061117">
        <ele>385.368814</ele>
        <time>2022-10-25T09:29:14.405Z</time>
      </trkpt>
      <trkpt lat="49.183225" lon="12.059273">
        <ele>384.231824</ele>
        <time>2022-10-25T09:31:17.355Z</time>
      </trkpt>
      <trkpt lat="49.183186" lon="12.058552">
        <ele>383.711395</ele>
        <time>2022-10-25T09:32:06.221Z</time>
      </trkpt>
      <trkpt lat="49.183247" lon="12.057258">
        <ele>383.096735</ele>
        <time>2022-10-25T09:33:33.603Z</time>
      </trkpt>
      <trkpt lat="49.183998" lon="12.054341">
        <ele>383.711174</ele>
        <time>2022-10-25T09:36:58.737Z</time>
      </trkpt>
      <trkpt lat="49.184025" lon="12.054224">
        <ele>383.843099</ele>
        <time>2022-10-25T09:37:07.246Z</time>
      </trkpt>
      <trkpt lat="49.183998" lon="12.054341">
        <ele>383.975024</ele>
        <time>2022-10-25T09:37:15.998Z</time>
      </trkpt>
      <trkpt lat="49.184795" lon="12.053608">
        <ele>385.564417</ele>
        <time>2022-10-25T09:38:57.504Z</time>
      </trkpt>
      <trkpt lat="49.185574" lon="12.052588">
        <ele>389.754167</ele>
        <time>2022-10-25T09:40:54.626Z</time>
      </trkpt>
      <trkpt lat="49.185915" lon="12.052051">
        <ele>391.753802</ele>
        <time>2022-10-25T09:41:51.761Z</time>
      </trkpt>
      <trkpt lat="49.186488" lon="12.051907">
        <ele>393.795123</ele>
        <time>2022-10-25T09:42:58.984Z</time>
      </trkpt>
      <trkpt lat="49.186947" lon="12.051791">
        <ele>395.225880</ele>
        <time>2022-10-25T09:43:52.473Z</time>
      </trkpt>
      <trkpt lat="49.188984" lon="12.051559">
        <ele>398.346411</ele>
        <time>2022-10-25T09:47:31.349Z</time>
      </trkpt>
      <trkpt lat="49.190329" lon="12.051063">
        <ele>396.695249</ele>
        <time>2022-10-25T09:49:57.225Z</time>
      </trkpt>
      <trkpt lat="49.190757" lon="12.050910">
        <ele>395.513878</ele>
        <time>2022-10-25T09:50:44.778Z</time>
      </trkpt>
      <trkpt lat="49.190806" lon="12.050892">
        <ele>395.378432</ele>
        <time>2022-10-25T09:50:50.362Z</time>
      </trkpt>
      <trkpt lat="49.190557" lon="12.049577">
        <ele>393.493668</ele>
        <time>2022-10-25T09:52:23.864Z</time>
      </trkpt>
      <trkpt lat="49.190601" lon="12.049608">
        <ele>393.484592</ele>
        <time>2022-10-25T09:52:28.780Z</time>
      </trkpt>
      <trkpt lat="49.190781" lon="12.049575">
        <ele>393.450626</ele>
        <time>2022-10-25T09:52:47.563Z</time>
      </trkpt>
      <trkpt lat="49.190797" lon="12.049574">
        <ele>393.447626</ele>
        <time>2022-10-25T09:52:49.245Z</time>
      </trkpt>
      <trkpt lat="49.191071" lon="12.050754">
        <ele>393.294290</ele>
        <time>2022-10-25T09:54:11.555Z</time>
      </trkpt>
      <trkpt lat="49.191702" lon="12.050510">
        <ele>393.348400</ele>
        <time>2022-10-25T09:55:19.621Z</time>
      </trkpt>
      <trkpt lat="49.192065" lon="12.050456">
        <ele>393.796295</ele>
        <time>2022-10-25T09:55:58.861Z</time>
      </trkpt>
      <trkpt lat="49.192390" lon="12.050467">
        <ele>394.195520</ele>
        <time>2022-10-25T09:56:33.092Z</time>
      </trkpt>
      <trkpt lat="49.192873" lon="12.050618">
        <ele>394.800937</ele>
        <time>2022-10-25T09:57:24.154Z</time>
      </trkpt>
      <trkpt lat="49.192865" lon="12.050685">
        <ele>394.855599</ele>
        <time>2022-10-25T09:57:28.903Z</time>
      </trkpt>
      <trkpt lat="49.192963" lon="12.050726">
        <ele>394.980369</ele>
        <time>2022-10-25T09:57:39.448Z</time>
      </trkpt>
      <trkpt lat="49.193205" lon="12.050800">
        <ele>395.283441</ele>
        <time>2022-10-25T09:58:05.109Z</time>
      </trkpt>
      <trkpt lat="49.193273" lon="12.050818">
        <ele>395.368190</ele>
        <time>2022-10-25T09:58:12.285Z</time>
      </trkpt>
      <trkpt lat="49.193548" lon="12.050828">
        <ele>395.710788</ele>
        <time>2022-10-25T09:58:40.623Z</time>
      </trkpt>
      <trkpt lat="49.193869" lon="12.050736">
        <ele>396.118216</ele>
        <time>2022-10-25T09:59:14.292Z</time>
      </trkpt>
      <trkpt lat="49.194243" lon="12.051633">
        <ele>396.985685</ele>
        <time>2022-10-25T10:00:26.944Z</time>
      </trkpt>
      <trkpt lat="49.194773" lon="12.052579">
        <ele>398.145327</ele>
        <time>2022-10-25T10:01:52.886Z</time>
      </trkpt>
      <trkpt lat="49.194917" lon="12.053456">
        <ele>399.182671</ele>
        <time>2022-10-25T10:02:56.150Z</time>
      </trkpt>
      <trkpt lat="49.195066" lon="12.053832">
        <ele>399.687118</ele>
        <time>2022-10-25T10:03:27.134Z</time>
      </trkpt>
      <trkpt lat="49.195256" lon="12.054278">
        <ele>400.297872</ele>
        <time>2022-10-25T10:04:04.264Z</time>
      </trkpt>
      <trkpt lat="49.195417" lon="12.054483">
        <ele>400.665545</ele>
        <time>2022-10-25T10:04:26.239Z</time>
      </trkpt>
      <trkpt lat="49.195472" lon="12.054488">
        <ele>400.762266</ele>
        <time>2022-10-25T10:04:32.406Z</time>
      </trkpt>
      <trkpt lat="49.195615" lon="12.054228">
        <ele>400.847983</ele>
        <time>2022-10-25T10:04:55.484Z</time>
      </trkpt>
      <trkpt lat="49.195636" lon="12.054189">
        <ele>400.855031</ele>
        <time>2022-10-25T10:04:58.937Z</time>
      </trkpt>
      <trkpt lat="49.196128" lon="12.054699">
        <ele>400.981869</ele>
        <time>2022-10-25T10:06:00.984Z</time>
      </trkpt>
      <trkpt lat="49.196343" lon="12.054844">
        <ele>401.032018</ele>
        <time>2022-10-25T10:06:25.056Z</time>
      </trkpt>
      <trkpt lat="49.198005" lon="12.055964">
        <ele>401.189793</ele>
        <time>2022-10-25T10:09:31.396Z</time>
      </trkpt>
      <trkpt lat="49.197963" lon="12.056413">
        <ele>401.189793</ele>
        <time>2022-10-25T10:10:02.374Z</time>
      </trkpt>
      <trkpt lat="49.198018" lon="12.056594">
        <ele>401.189793</ele>
        <time>2022-10-25T10:10:16.074Z</time>
      </trkpt>
      <trkpt lat="49.197958" lon="12.056813">
        <ele>401.189793</ele>
        <time>2022-10-25T10:10:32.170Z</time>
      </trkpt>
      <trkpt lat="49.197746" lon="12.057536">
        <ele>401.189793</ele>
        <time>2022-10-25T10:11:25.911Z</time>
      </trkpt>
      <trkpt lat="49.197690" lon="12.057779">
        <ele>401.189793</ele>
        <time>2022-10-25T10:11:43.381Z</time>
      </trkpt>
      <trkpt lat="49.197614" lon="12.057758">
        <ele>401.189793</ele>
        <time>2022-10-25T10:11:51.331Z</time>
      </trkpt>
      <trkpt lat="49.197478" lon="12.057677">
        <ele>401.189793</ele>
        <time>2022-10-25T10:12:06.438Z</time>
      </trkpt>
      <trkpt lat="49.197418" lon="12.057646">
        <ele>401.189793</ele>
        <time>2022-10-25T10:12:12.937Z</time>
      </trkpt>
    </trkseg>
  </trk>
</gpx>