<?xml version='1.0' encoding='UTF-8'?>
<gpx version="1.1" creator="https://www.komoot.de" xmlns="http://www.topografix.com/GPX/1/1" xmlns:xsi="http://www.w3.org/2001/XMLSchema-instance" xsi:schemaLocation="http://www.topografix.com/GPX/1/1 http://www.topografix.com/GPX/1/1/gpx.xsd">
  <metadata>
    <name>Wanderung nach Moderne Windmühlen</name>
    <author>
      <link href="https://www.komoot.de">
        <text>komoot</text>
        <type>text/html</type>
      </link>
    </author>
  </metadata>
  <trk>
    <name>Wanderung nach Moderne Windmühlen</name>
    <trkseg>
      <trkpt lat="49.349599" lon="7.112426">
        <ele>293.888994</ele>
        <time>2022-10-29T09:30:46.690Z</time>
      </trkpt>
      <trkpt lat="49.349971" lon="7.112111">
        <ele>293.888994</ele>
        <time>2022-10-29T09:31:30.691Z</time>
      </trkpt>
      <trkpt lat="49.350016" lon="7.112073">
        <ele>293.888994</ele>
        <time>2022-10-29T09:31:36.087Z</time>
      </trkpt>
      <trkpt lat="49.349964" lon="7.111821">
        <ele>293.888994</ele>
        <time>2022-10-29T09:31:53.642Z</time>
      </trkpt>
      <trkpt lat="49.350265" lon="7.111676">
        <ele>293.891503</ele>
        <time>2022-10-29T09:32:26.147Z</time>
      </trkpt>
      <trkpt lat="49.350489" lon="7.111546">
        <ele>293.900807</ele>
        <time>2022-10-29T09:32:50.902Z</time>
      </trkpt>
      <trkpt lat="49.350669" lon="7.111430">
        <ele>293.908393</ele>
        <time>2022-10-29T09:33:10.706Z</time>
      </trkpt>
      <trkpt lat="49.350789" lon="7.111347">
        <ele>293.913507</ele>
        <time>2022-10-29T09:33:24.295Z</time>
      </trkpt>
      <trkpt lat="49.350763" lon="7.111212">
        <ele>293.917070</ele>
        <time>2022-10-29T09:33:33.487Z</time>
      </trkpt>
      <trkpt lat="49.350720" lon="7.110983">
        <ele>293.923102</ele>
        <time>2022-10-29T09:33:49.119Z</time>
      </trkpt>
      <trkpt lat="49.350139" lon="7.109556">
        <ele>294.348769</ele>
        <time>2022-10-29T09:35:41.701Z</time>
      </trkpt>
      <trkpt lat="49.349711" lon="7.108168">
        <ele>296.572446</ele>
        <time>2022-10-29T09:37:31.224Z</time>
      </trkpt>
      <trkpt lat="49.349196" lon="7.106988">
        <ele>298.178711</ele>
        <time>2022-10-29T09:39:12.467Z</time>
      </trkpt>
      <trkpt lat="49.348505" lon="7.105706">
        <ele>298.973502</ele>
        <time>2022-10-29T09:41:04.845Z</time>
      </trkpt>
      <trkpt lat="49.346950" lon="7.103517">
        <ele>297.663389</ele>
        <time>2022-10-29T09:44:42.055Z</time>
      </trkpt>
      <trkpt lat="49.346906" lon="7.103384">
        <ele>297.571089</ele>
        <time>2022-10-29T09:44:51.828Z</time>
      </trkpt>
      <trkpt lat="49.346901" lon="7.102978">
        <ele>298.216865</ele>
        <time>2022-10-29T09:45:18.646Z</time>
      </trkpt>
      <trkpt lat="49.346895" lon="7.102446">
        <ele>299.080338</ele>
        <time>2022-10-29T09:45:55.119Z</time>
      </trkpt>
      <trkpt lat="49.346859" lon="7.102205">
        <ele>299.481589</ele>
        <time>2022-10-29T09:46:12.461Z</time>
      </trkpt>
      <trkpt lat="49.346851" lon="7.101850">
        <ele>300.058038</ele>
        <time>2022-10-29T09:46:38.421Z</time>
      </trkpt>
      <trkpt lat="49.347098" lon="7.100920">
        <ele>301.687864</ele>
        <time>2022-10-29T09:47:52.545Z</time>
      </trkpt>
      <trkpt lat="49.347453" lon="7.099909">
        <ele>304.037860</ele>
        <time>2022-10-29T09:49:19.319Z</time>
      </trkpt>
      <trkpt lat="49.347501" lon="7.099584">
        <ele>304.753497</ele>
        <time>2022-10-29T09:49:43.761Z</time>
      </trkpt>
      <trkpt lat="49.347444" lon="7.099578">
        <ele>304.941830</ele>
        <time>2022-10-29T09:49:50.083Z</time>
      </trkpt>
      <trkpt lat="49.347501" lon="7.099584">
        <ele>305.130163</ele>
        <time>2022-10-29T09:49:55.836Z</time>
      </trkpt>
      <trkpt lat="49.347658" lon="7.099644">
        <ele>305.663487</ele>
        <time>2022-10-29T09:50:13.316Z</time>
      </trkpt>
      <trkpt lat="49.347821" lon="7.099702">
        <ele>306.215038</ele>
        <time>2022-10-29T09:50:33.215Z</time>
      </trkpt>
      <trkpt lat="49.348075" lon="7.099679">
        <ele>307.053764</ele>
        <time>2022-10-29T09:51:00.837Z</time>
      </trkpt>
      <trkpt lat="49.348347" lon="7.099654">
        <ele>307.951975</ele>
        <time>2022-10-29T09:51:30.326Z</time>
      </trkpt>
      <trkpt lat="49.348517" lon="7.099878">
        <ele>308.159382</ele>
        <time>2022-10-29T09:51:55.343Z</time>
      </trkpt>
      <trkpt lat="49.348809" lon="7.100517">
        <ele>308.588187</ele>
        <time>2022-10-29T09:52:47.628Z</time>
      </trkpt>
      <trkpt lat="49.348933" lon="7.100382">
        <ele>308.716387</ele>
        <time>2022-10-29T09:53:03.802Z</time>
      </trkpt>
      <trkpt lat="49.348995" lon="7.100090">
        <ele>308.885109</ele>
        <time>2022-10-29T09:53:24.317Z</time>
      </trkpt>
      <trkpt lat="49.349065" lon="7.099401">
        <ele>309.268202</ele>
        <time>2022-10-29T09:54:09.839Z</time>
      </trkpt>
      <trkpt lat="49.349157" lon="7.098501">
        <ele>309.034978</ele>
        <time>2022-10-29T09:55:09.753Z</time>
      </trkpt>
      <trkpt lat="49.349265" lon="7.098440">
        <ele>308.873178</ele>
        <time>2022-10-29T09:55:22.371Z</time>
      </trkpt>
      <trkpt lat="49.349517" lon="7.098073">
        <ele>308.384785</ele>
        <time>2022-10-29T09:55:58.018Z</time>
      </trkpt>
      <trkpt lat="49.349492" lon="7.097987">
        <ele>308.298528</ele>
        <time>2022-10-29T09:56:04.669Z</time>
      </trkpt>
      <trkpt lat="49.349632" lon="7.097443">
        <ele>307.762796</ele>
        <time>2022-10-29T09:56:44.446Z</time>
      </trkpt>
      <trkpt lat="49.349672" lon="7.097331">
        <ele>307.645808</ele>
        <time>2022-10-29T09:56:53.258Z</time>
      </trkpt>
      <trkpt lat="49.349745" lon="7.097130">
        <ele>307.435030</ele>
        <time>2022-10-29T09:57:09.658Z</time>
      </trkpt>
      <trkpt lat="49.349769" lon="7.097078">
        <ele>307.376661</ele>
        <time>2022-10-29T09:57:14.383Z</time>
      </trkpt>
      <trkpt lat="49.349440" lon="7.096670">
        <ele>306.656154</ele>
        <time>2022-10-29T09:58:00.238Z</time>
      </trkpt>
      <trkpt lat="49.349641" lon="7.096518">
        <ele>306.124150</ele>
        <time>2022-10-29T09:58:24.563Z</time>
      </trkpt>
      <trkpt lat="49.349682" lon="7.096487">
        <ele>306.015636</ele>
        <time>2022-10-29T09:58:29.838Z</time>
      </trkpt>
      <trkpt lat="49.350022" lon="7.095955">
        <ele>304.862915</ele>
        <time>2022-10-29T09:59:20.833Z</time>
      </trkpt>
      <trkpt lat="49.350353" lon="7.095496">
        <ele>303.803836</ele>
        <time>2022-10-29T10:00:07.203Z</time>
      </trkpt>
      <trkpt lat="49.350428" lon="7.095368">
        <ele>303.537556</ele>
        <time>2022-10-29T10:00:18.749Z</time>
      </trkpt>
      <trkpt lat="49.350494" lon="7.095254">
        <ele>303.301661</ele>
        <time>2022-10-29T10:00:29.079Z</time>
      </trkpt>
      <trkpt lat="49.350410" lon="7.094669">
        <ele>302.887965</ele>
        <time>2022-10-29T10:01:09.942Z</time>
      </trkpt>
      <trkpt lat="49.350230" lon="7.093428">
        <ele>304.082214</ele>
        <time>2022-10-29T10:02:36.050Z</time>
      </trkpt>
      <trkpt lat="49.350241" lon="7.092081">
        <ele>305.471035</ele>
        <time>2022-10-29T10:04:11.734Z</time>
      </trkpt>
      <trkpt lat="49.350211" lon="7.092045">
        <ele>305.639173</ele>
        <time>2022-10-29T10:04:18.125Z</time>
      </trkpt>
      <trkpt lat="49.350153" lon="7.091974">
        <ele>305.966735</ele>
        <time>2022-10-29T10:04:25.884Z</time>
      </trkpt>
      <trkpt lat="49.350000" lon="7.091982">
        <ele>306.642705</ele>
        <time>2022-10-29T10:04:42.509Z</time>
      </trkpt>
      <trkpt lat="49.349868" lon="7.092159">
        <ele>307.416612</ele>
        <time>2022-10-29T10:05:02.581Z</time>
      </trkpt>
      <trkpt lat="49.349608" lon="7.092760">
        <ele>309.491844</ele>
        <time>2022-10-29T10:05:56.412Z</time>
      </trkpt>
      <trkpt lat="49.349444" lon="7.092878">
        <ele>310.291595</ele>
        <time>2022-10-29T10:06:17.919Z</time>
      </trkpt>
      <trkpt lat="49.349561" lon="7.092533">
        <ele>311.410398</ele>
        <time>2022-10-29T10:06:49.191Z</time>
      </trkpt>
      <trkpt lat="49.349570" lon="7.092432">
        <ele>311.703627</ele>
        <time>2022-10-29T10:06:57.233Z</time>
      </trkpt>
      <trkpt lat="49.349604" lon="7.092070">
        <ele>312.755677</ele>
        <time>2022-10-29T10:07:25.925Z</time>
      </trkpt>
      <trkpt lat="49.349734" lon="7.091596">
        <ele>313.752068</ele>
        <time>2022-10-29T10:08:04.063Z</time>
      </trkpt>
      <trkpt lat="49.350186" lon="7.090444">
        <ele>315.762002</ele>
        <time>2022-10-29T10:09:41.262Z</time>
      </trkpt>
      <trkpt lat="49.350477" lon="7.091035">
        <ele>316.869223</ele>
        <time>2022-10-29T10:10:30.144Z</time>
      </trkpt>
      <trkpt lat="49.350491" lon="7.091086">
        <ele>316.951937</ele>
        <time>2022-10-29T10:10:33.837Z</time>
      </trkpt>
      <trkpt lat="49.350632" lon="7.091616">
        <ele>317.696492</ele>
        <time>2022-10-29T10:11:11.576Z</time>
      </trkpt>
      <trkpt lat="49.350674" lon="7.092053">
        <ele>318.194185</ele>
        <time>2022-10-29T10:11:41.489Z</time>
      </trkpt>
      <trkpt lat="49.350678" lon="7.092083">
        <ele>318.228686</ele>
        <time>2022-10-29T10:11:43.515Z</time>
      </trkpt>
      <trkpt lat="49.350768" lon="7.092769">
        <ele>319.017114</ele>
        <time>2022-10-29T10:12:30.985Z</time>
      </trkpt>
      <trkpt lat="49.351012" lon="7.093641">
        <ele>320.086385</ele>
        <time>2022-10-29T10:13:37.335Z</time>
      </trkpt>
      <trkpt lat="49.351185" lon="7.093933">
        <ele>320.739031</ele>
        <time>2022-10-29T10:14:06.402Z</time>
      </trkpt>
      <trkpt lat="49.351296" lon="7.094024">
        <ele>321.664820</ele>
        <time>2022-10-29T10:14:21.085Z</time>
      </trkpt>
      <trkpt lat="49.351500" lon="7.093519">
        <ele>324.512618</ele>
        <time>2022-10-29T10:15:09.121Z</time>
      </trkpt>
      <trkpt lat="49.352165" lon="7.092585">
        <ele>331.143749</ele>
        <time>2022-10-29T10:17:04.722Z</time>
      </trkpt>
      <trkpt lat="49.352109" lon="7.092210">
        <ele>332.987531</ele>
        <time>2022-10-29T10:17:38.350Z</time>
      </trkpt>
      <trkpt lat="49.352151" lon="7.091865">
        <ele>334.513583</ele>
        <time>2022-10-29T10:18:08.573Z</time>
      </trkpt>
      <trkpt lat="49.352151" lon="7.091859">
        <ele>334.537713</ele>
        <time>2022-10-29T10:18:09.475Z</time>
      </trkpt>
      <trkpt lat="49.352435" lon="7.091781">
        <ele>336.318889</ele>
        <time>2022-10-29T10:18:45.148Z</time>
      </trkpt>
      <trkpt lat="49.352746" lon="7.091477">
        <ele>338.595105</ele>
        <time>2022-10-29T10:19:30.095Z</time>
      </trkpt>
      <trkpt lat="49.352914" lon="7.091124">
        <ele>340.353243</ele>
        <time>2022-10-29T10:20:04.875Z</time>
      </trkpt>
      <trkpt lat="49.353141" lon="7.090838">
        <ele>342.166221</ele>
        <time>2022-10-29T10:20:40.176Z</time>
      </trkpt>
      <trkpt lat="49.353451" lon="7.089062">
        <ele>345.478035</ele>
        <time>2022-10-29T10:22:56.036Z</time>
      </trkpt>
      <trkpt lat="49.353499" lon="7.088495">
        <ele>345.803800</ele>
        <time>2022-10-29T10:23:35.146Z</time>
      </trkpt>
      <trkpt lat="49.354098" lon="7.087646">
        <ele>345.929536</ele>
        <time>2022-10-29T10:25:00.766Z</time>
      </trkpt>
      <trkpt lat="49.354175" lon="7.086974">
        <ele>344.681171</ele>
        <time>2022-10-29T10:25:49.812Z</time>
      </trkpt>
      <trkpt lat="49.354262" lon="7.086764">
        <ele>344.225831</ele>
        <time>2022-10-29T10:26:07.976Z</time>
      </trkpt>
      <trkpt lat="49.354468" lon="7.086737">
        <ele>343.645115</ele>
        <time>2022-10-29T10:26:30.244Z</time>
      </trkpt>
      <trkpt lat="49.354620" lon="7.086797">
        <ele>343.204293</ele>
        <time>2022-10-29T10:26:47.324Z</time>
      </trkpt>
      <trkpt lat="49.354738" lon="7.086958">
        <ele>342.760877</ele>
        <time>2022-10-29T10:27:03.992Z</time>
      </trkpt>
      <trkpt lat="49.354776" lon="7.086953">
        <ele>342.653752</ele>
        <time>2022-10-29T10:27:07.922Z</time>
      </trkpt>
      <trkpt lat="49.355295" lon="7.087478">
        <ele>341.666026</ele>
        <time>2022-10-29T10:28:11.846Z</time>
      </trkpt>
      <trkpt lat="49.355531" lon="7.087763">
        <ele>342.354280</ele>
        <time>2022-10-29T10:28:43.059Z</time>
      </trkpt>
      <trkpt lat="49.356107" lon="7.088244">
        <ele>343.857244</ele>
        <time>2022-10-29T10:29:56.351Z</time>
      </trkpt>
      <trkpt lat="49.356498" lon="7.088180">
        <ele>344.758563</ele>
        <time>2022-10-29T10:30:41.953Z</time>
      </trkpt>
      <trkpt lat="49.357002" lon="7.088057">
        <ele>345.071278</ele>
        <time>2022-10-29T10:31:42.172Z</time>
      </trkpt>
      <trkpt lat="49.358691" lon="7.087846">
        <ele>341.582354</ele>
        <time>2022-10-29T10:34:41.022Z</time>
      </trkpt>
      <trkpt lat="49.358747" lon="7.087839">
        <ele>341.246907</ele>
        <time>2022-10-29T10:34:48.655Z</time>
      </trkpt>
      <trkpt lat="49.359189" lon="7.087857">
        <ele>338.607073</ele>
        <time>2022-10-29T10:35:39.400Z</time>
      </trkpt>
      <trkpt lat="49.359626" lon="7.088362">
        <ele>335.341587</ele>
        <time>2022-10-29T10:36:41.400Z</time>
      </trkpt>
      <trkpt lat="49.360076" lon="7.088485">
        <ele>332.612677</ele>
        <time>2022-10-29T10:37:34.459Z</time>
      </trkpt>
      <trkpt lat="49.360014" lon="7.088616">
        <ele>331.982990</ele>
        <time>2022-10-29T10:37:46.152Z</time>
      </trkpt>
      <trkpt lat="49.360076" lon="7.088485">
        <ele>331.449736</ele>
        <time>2022-10-29T10:37:57.516Z</time>
      </trkpt>
      <trkpt lat="49.360669" lon="7.089074">
        <ele>330.628128</ele>
        <time>2022-10-29T10:39:11.855Z</time>
      </trkpt>
      <trkpt lat="49.360997" lon="7.089123">
        <ele>330.244760</ele>
        <time>2022-10-29T10:39:45.596Z</time>
      </trkpt>
      <trkpt lat="49.361636" lon="7.089368">
        <ele>329.478576</ele>
        <time>2022-10-29T10:40:53.313Z</time>
      </trkpt>
      <trkpt lat="49.361988" lon="7.089405">
        <ele>330.010612</ele>
        <time>2022-10-29T10:41:31.173Z</time>
      </trkpt>
      <trkpt lat="49.362731" lon="7.089267">
        <ele>331.765315</ele>
        <time>2022-10-29T10:42:53.319Z</time>
      </trkpt>
      <trkpt lat="49.363134" lon="7.089184">
        <ele>332.718632</ele>
        <time>2022-10-29T10:43:37.721Z</time>
      </trkpt>
      <trkpt lat="49.364431" lon="7.088925">
        <ele>335.172115</ele>
        <time>2022-10-29T10:46:00.101Z</time>
      </trkpt>
      <trkpt lat="49.364555" lon="7.088880">
        <ele>335.387130</ele>
        <time>2022-10-29T10:46:13.268Z</time>
      </trkpt>
      <trkpt lat="49.364569" lon="7.088482">
        <ele>335.825161</ele>
        <time>2022-10-29T10:46:40.121Z</time>
      </trkpt>
      <trkpt lat="49.364553" lon="7.088010">
        <ele>336.344581</ele>
        <time>2022-10-29T10:47:11.659Z</time>
      </trkpt>
      <trkpt lat="49.364428" lon="7.087485">
        <ele>336.855238</ele>
        <time>2022-10-29T10:47:49.020Z</time>
      </trkpt>
      <trkpt lat="49.364414" lon="7.087077">
        <ele>337.161461</ele>
        <time>2022-10-29T10:48:16.299Z</time>
      </trkpt>
      <trkpt lat="49.364281" lon="7.086702">
        <ele>337.481504</ele>
        <time>2022-10-29T10:48:44.952Z</time>
      </trkpt>
      <trkpt lat="49.363813" lon="7.085918">
        <ele>338.278622</ele>
        <time>2022-10-29T10:49:57.928Z</time>
      </trkpt>
      <trkpt lat="49.363575" lon="7.085704">
        <ele>338.596039</ele>
        <time>2022-10-29T10:50:26.802Z</time>
      </trkpt>
      <trkpt lat="49.363414" lon="7.085457">
        <ele>338.894489</ele>
        <time>2022-10-29T10:50:50.627Z</time>
      </trkpt>
      <trkpt lat="49.363324" lon="7.083976">
        <ele>340.272008</ele>
        <time>2022-10-29T10:52:32.177Z</time>
      </trkpt>
      <trkpt lat="49.363226" lon="7.083343">
        <ele>340.874570</ele>
        <time>2022-10-29T10:53:16.741Z</time>
      </trkpt>
      <trkpt lat="49.363079" lon="7.082743">
        <ele>341.511201</ele>
        <time>2022-10-29T10:54:00.540Z</time>
      </trkpt>
      <trkpt lat="49.362925" lon="7.082346">
        <ele>342.027677</ele>
        <time>2022-10-29T10:54:32.141Z</time>
      </trkpt>
      <trkpt lat="49.362765" lon="7.082142">
        <ele>342.384596</ele>
        <time>2022-10-29T10:54:56.035Z</time>
      </trkpt>
      <trkpt lat="49.362499" lon="7.082163">
        <ele>342.841711</ele>
        <time>2022-10-29T10:55:23.918Z</time>
      </trkpt>
      <trkpt lat="49.362250" lon="7.082061">
        <ele>343.283993</ele>
        <time>2022-10-29T10:55:52.347Z</time>
      </trkpt>
      <trkpt lat="49.362143" lon="7.081863">
        <ele>343.571568</ele>
        <time>2022-10-29T10:56:10.532Z</time>
      </trkpt>
      <trkpt lat="49.361932" lon="7.081791">
        <ele>343.942522</ele>
        <time>2022-10-29T10:56:32.701Z</time>
      </trkpt>
      <trkpt lat="49.361664" lon="7.081836">
        <ele>344.366843</ele>
        <time>2022-10-29T10:57:01.035Z</time>
      </trkpt>
      <trkpt lat="49.361591" lon="7.082120">
        <ele>344.481205</ele>
        <time>2022-10-29T10:57:21.446Z</time>
      </trkpt>
      <trkpt lat="49.361526" lon="7.082192">
        <ele>344.527301</ele>
        <time>2022-10-29T10:57:31.410Z</time>
      </trkpt>
      <trkpt lat="49.361486" lon="7.082237">
        <ele>344.555820</ele>
        <time>2022-10-29T10:57:36.896Z</time>
      </trkpt>
      <trkpt lat="49.361330" lon="7.082205">
        <ele>344.646336</ele>
        <time>2022-10-29T10:57:53.372Z</time>
      </trkpt>
      <trkpt lat="49.361273" lon="7.081960">
        <ele>344.743785</ele>
        <time>2022-10-29T10:58:12.598Z</time>
      </trkpt>
      <trkpt lat="49.361352" lon="7.081246">
        <ele>345.015059</ele>
        <time>2022-10-29T10:59:00.103Z</time>
      </trkpt>
      <trkpt lat="49.361870" lon="7.080824">
        <ele>345.352308</ele>
        <time>2022-10-29T11:00:00.961Z</time>
      </trkpt>
      <trkpt lat="49.362063" lon="7.080762">
        <ele>345.627383</ele>
        <time>2022-10-29T11:00:21.097Z</time>
      </trkpt>
      <trkpt lat="49.362108" lon="7.080748">
        <ele>345.704756</ele>
        <time>2022-10-29T11:00:25.977Z</time>
      </trkpt>
      <trkpt lat="49.362089" lon="7.080583">
        <ele>345.888652</ele>
        <time>2022-10-29T11:00:37.625Z</time>
      </trkpt>
      <trkpt lat="49.361631" lon="7.079392">
        <ele>347.406628</ele>
        <time>2022-10-29T11:02:11.644Z</time>
      </trkpt>
      <trkpt lat="49.361562" lon="7.079095">
        <ele>347.752706</ele>
        <time>2022-10-29T11:02:33.931Z</time>
      </trkpt>
      <trkpt lat="49.361601" lon="7.078877">
        <ele>348.000825</ele>
        <time>2022-10-29T11:02:50.452Z</time>
      </trkpt>
      <trkpt lat="49.361689" lon="7.078375">
        <ele>348.744134</ele>
        <time>2022-10-29T11:03:28.388Z</time>
      </trkpt>
      <trkpt lat="49.361265" lon="7.077774">
        <ele>350.776700</ele>
        <time>2022-10-29T11:04:32.503Z</time>
      </trkpt>
      <trkpt lat="49.361053" lon="7.077550">
        <ele>351.683163</ele>
        <time>2022-10-29T11:05:01.672Z</time>
      </trkpt>
      <trkpt lat="49.360645" lon="7.077371">
        <ele>353.177794</ele>
        <time>2022-10-29T11:05:49.462Z</time>
      </trkpt>
      <trkpt lat="49.360350" lon="7.077292">
        <ele>354.232569</ele>
        <time>2022-10-29T11:06:22.803Z</time>
      </trkpt>
      <trkpt lat="49.360108" lon="7.077318">
        <ele>355.087120</ele>
        <time>2022-10-29T11:06:52.205Z</time>
      </trkpt>
      <trkpt lat="49.359792" lon="7.077466">
        <ele>356.251018</ele>
        <time>2022-10-29T11:07:29.149Z</time>
      </trkpt>
      <trkpt lat="49.359313" lon="7.077961">
        <ele>358.285150</ele>
        <time>2022-10-29T11:08:33.436Z</time>
      </trkpt>
      <trkpt lat="49.359176" lon="7.078330">
        <ele>359.259744</ele>
        <time>2022-10-29T11:09:04.172Z</time>
      </trkpt>
      <trkpt lat="49.359210" lon="7.078690">
        <ele>360.094424</ele>
        <time>2022-10-29T11:09:31.520Z</time>
      </trkpt>
      <trkpt lat="49.359156" lon="7.078725">
        <ele>360.300921</ele>
        <time>2022-10-29T11:09:40.164Z</time>
      </trkpt>
      <trkpt lat="49.359210" lon="7.078690">
        <ele>360.507417</ele>
        <time>2022-10-29T11:09:47.195Z</time>
      </trkpt>
      <trkpt lat="49.359323" lon="7.079114">
        <ele>361.285711</ele>
        <time>2022-10-29T11:10:22.257Z</time>
      </trkpt>
      <trkpt lat="49.359797" lon="7.079931">
        <ele>362.349942</ele>
        <time>2022-10-29T11:11:39.128Z</time>
      </trkpt>
      <trkpt lat="49.359881" lon="7.080236">
        <ele>362.672038</ele>
        <time>2022-10-29T11:12:01.136Z</time>
      </trkpt>
      <trkpt lat="49.359934" lon="7.081200">
        <ele>363.613019</ele>
        <time>2022-10-29T11:13:05.298Z</time>
      </trkpt>
      <trkpt lat="49.359829" lon="7.082032">
        <ele>364.284147</ele>
        <time>2022-10-29T11:14:02.123Z</time>
      </trkpt>
      <trkpt lat="49.359634" lon="7.082603">
        <ele>364.767090</ele>
        <time>2022-10-29T11:14:45.421Z</time>
      </trkpt>
      <trkpt lat="49.359648" lon="7.082741">
        <ele>364.871707</ele>
        <time>2022-10-29T11:14:55.077Z</time>
      </trkpt>
      <trkpt lat="49.359031" lon="7.083382">
        <ele>365.728492</ele>
        <time>2022-10-29T11:16:13.443Z</time>
      </trkpt>
      <trkpt lat="49.358512" lon="7.083824">
        <ele>366.491278</ele>
        <time>2022-10-29T11:17:16.163Z</time>
      </trkpt>
      <trkpt lat="49.357594" lon="7.084369">
        <ele>367.782128</ele>
        <time>2022-10-29T11:18:58.938Z</time>
      </trkpt>
      <trkpt lat="49.356750" lon="7.084725">
        <ele>369.498288</ele>
        <time>2022-10-29T11:20:30.168Z</time>
      </trkpt>
      <trkpt lat="49.356464" lon="7.084959">
        <ele>370.253482</ele>
        <time>2022-10-29T11:21:05.285Z</time>
      </trkpt>
      <trkpt lat="49.356389" lon="7.084813">
        <ele>370.535711</ele>
        <time>2022-10-29T11:21:18.414Z</time>
      </trkpt>
      <trkpt lat="49.356245" lon="7.084534">
        <ele>371.076019</ele>
        <time>2022-10-29T11:21:43.685Z</time>
      </trkpt>
      <trkpt lat="49.355910" lon="7.083926">
        <ele>372.284762</ele>
        <time>2022-10-29T11:22:40.883Z</time>
      </trkpt>
      <trkpt lat="49.355774" lon="7.083286">
        <ele>374.249725</ele>
        <time>2022-10-29T11:23:30.583Z</time>
      </trkpt>
      <trkpt lat="49.355420" lon="7.082464">
        <ele>377.284388</ele>
        <time>2022-10-29T11:24:44.941Z</time>
      </trkpt>
      <trkpt lat="49.355092" lon="7.081187">
        <ele>381.572137</ele>
        <time>2022-10-29T11:26:32.117Z</time>
      </trkpt>
      <trkpt lat="49.354781" lon="7.079204">
        <ele>388.467456</ele>
        <time>2022-10-29T11:29:10.201Z</time>
      </trkpt>
      <trkpt lat="49.354833" lon="7.078065">
        <ele>390.947001</ele>
        <time>2022-10-29T11:30:36.056Z</time>
      </trkpt>
      <trkpt lat="49.354557" lon="7.077078">
        <ele>392.189882</ele>
        <time>2022-10-29T11:31:52.017Z</time>
      </trkpt>
      <trkpt lat="49.354389" lon="7.076255">
        <ele>393.187872</ele>
        <time>2022-10-29T11:32:48.245Z</time>
      </trkpt>
      <trkpt lat="49.354309" lon="7.075409">
        <ele>392.847029</ele>
        <time>2022-10-29T11:33:45.625Z</time>
      </trkpt>
      <trkpt lat="49.354304" lon="7.075347">
        <ele>392.791677</ele>
        <time>2022-10-29T11:33:49.731Z</time>
      </trkpt>
      <trkpt lat="49.354198" lon="7.074885">
        <ele>392.357690</ele>
        <time>2022-10-29T11:34:23.111Z</time>
      </trkpt>
      <trkpt lat="49.353366" lon="7.075714">
        <ele>391.008534</ele>
        <time>2022-10-29T11:36:05.549Z</time>
      </trkpt>
      <trkpt lat="49.352937" lon="7.076090">
        <ele>390.233844</ele>
        <time>2022-10-29T11:36:55.995Z</time>
      </trkpt>
      <trkpt lat="49.352694" lon="7.076216">
        <ele>389.829013</ele>
        <time>2022-10-29T11:37:22.230Z</time>
      </trkpt>
      <trkpt lat="49.352484" lon="7.076201">
        <ele>389.497197</ele>
        <time>2022-10-29T11:37:43.696Z</time>
      </trkpt>
      <trkpt lat="49.352440" lon="7.076419">
        <ele>389.262547</ele>
        <time>2022-10-29T11:37:59.197Z</time>
      </trkpt>
      <trkpt lat="49.352421" lon="7.076512">
        <ele>389.162336</ele>
        <time>2022-10-29T11:38:05.652Z</time>
      </trkpt>
      <trkpt lat="49.352324" lon="7.076745">
        <ele>388.878031</ele>
        <time>2022-10-29T11:38:24.463Z</time>
      </trkpt>
      <trkpt lat="49.352311" lon="7.076834">
        <ele>388.784253</ele>
        <time>2022-10-29T11:38:30.611Z</time>
      </trkpt>
      <trkpt lat="49.352279" lon="7.077622">
        <ele>387.668118</ele>
        <time>2022-10-29T11:39:23.867Z</time>
      </trkpt>
      <trkpt lat="49.352322" lon="7.078248">
        <ele>385.833307</ele>
        <time>2022-10-29T11:40:07.189Z</time>
      </trkpt>
      <trkpt lat="49.352316" lon="7.078976">
        <ele>383.711129</ele>
        <time>2022-10-29T11:40:58.759Z</time>
      </trkpt>
      <trkpt lat="49.352023" lon="7.079587">
        <ele>381.499607</ele>
        <time>2022-10-29T11:41:54.352Z</time>
      </trkpt>
      <trkpt lat="49.352069" lon="7.080947">
        <ele>376.554215</ele>
        <time>2022-10-29T11:43:34.144Z</time>
      </trkpt>
      <trkpt lat="49.351921" lon="7.081900">
        <ele>372.609898</ele>
        <time>2022-10-29T11:44:45.958Z</time>
      </trkpt>
      <trkpt lat="49.351922" lon="7.082352">
        <ele>370.790128</ele>
        <time>2022-10-29T11:45:19.330Z</time>
      </trkpt>
      <trkpt lat="49.352072" lon="7.083320">
        <ele>367.131025</ele>
        <time>2022-10-29T11:46:32.151Z</time>
      </trkpt>
      <trkpt lat="49.352107" lon="7.083548">
        <ele>366.337350</ele>
        <time>2022-10-29T11:46:49.398Z</time>
      </trkpt>
      <trkpt lat="49.352047" lon="7.083963">
        <ele>364.897021</ele>
        <time>2022-10-29T11:47:19.703Z</time>
      </trkpt>
      <trkpt lat="49.351693" lon="7.084241">
        <ele>362.828792</ele>
        <time>2022-10-29T11:48:02.975Z</time>
      </trkpt>
      <trkpt lat="49.350947" lon="7.084361">
        <ele>358.997188</ele>
        <time>2022-10-29T11:49:25.608Z</time>
      </trkpt>
      <trkpt lat="49.350489" lon="7.084296">
        <ele>356.846762</ele>
        <time>2022-10-29T11:50:16.736Z</time>
      </trkpt>
      <trkpt lat="49.350186" lon="7.085307">
        <ele>353.457368</ele>
        <time>2022-10-29T11:51:36.078Z</time>
      </trkpt>
      <trkpt lat="49.349990" lon="7.085629">
        <ele>352.115169</ele>
        <time>2022-10-29T11:52:07.418Z</time>
      </trkpt>
      <trkpt lat="49.349751" lon="7.085568">
        <ele>351.079544</ele>
        <time>2022-10-29T11:52:33.604Z</time>
      </trkpt>
      <trkpt lat="49.349575" lon="7.085461">
        <ele>350.574037</ele>
        <time>2022-10-29T11:52:53.867Z</time>
      </trkpt>
      <trkpt lat="49.349136" lon="7.084839">
        <ele>348.978697</ele>
        <time>2022-10-29T11:53:58.873Z</time>
      </trkpt>
      <trkpt lat="49.348266" lon="7.082586">
        <ele>345.173043</ele>
        <time>2022-10-29T11:56:54.385Z</time>
      </trkpt>
      <trkpt lat="49.348012" lon="7.081761">
        <ele>344.186363</ele>
        <time>2022-10-29T11:57:54.884Z</time>
      </trkpt>
      <trkpt lat="49.347658" lon="7.080926">
        <ele>342.527444</ele>
        <time>2022-10-29T11:59:03.394Z</time>
      </trkpt>
      <trkpt lat="49.347690" lon="7.080744">
        <ele>341.942697</ele>
        <time>2022-10-29T11:59:16.564Z</time>
      </trkpt>
      <trkpt lat="49.347678" lon="7.080573">
        <ele>341.409202</ele>
        <time>2022-10-29T11:59:28.752Z</time>
      </trkpt>
      <trkpt lat="49.347690" lon="7.080744">
        <ele>340.875707</ele>
        <time>2022-10-29T11:59:40.893Z</time>
      </trkpt>
      <trkpt lat="49.347658" lon="7.080926">
        <ele>340.290960</ele>
        <time>2022-10-29T11:59:54.348Z</time>
      </trkpt>
      <trkpt lat="49.347217" lon="7.082043">
        <ele>336.239505</ele>
        <time>2022-10-29T12:01:28.400Z</time>
      </trkpt>
      <trkpt lat="49.347084" lon="7.082670">
        <ele>334.001002</ele>
        <time>2022-10-29T12:02:17.034Z</time>
      </trkpt>
      <trkpt lat="49.346771" lon="7.084878">
        <ele>324.947862</ele>
        <time>2022-10-29T12:05:03.752Z</time>
      </trkpt>
      <trkpt lat="49.346674" lon="7.085545">
        <ele>322.624857</ele>
        <time>2022-10-29T12:05:52.447Z</time>
      </trkpt>
      <trkpt lat="49.346722" lon="7.085806">
        <ele>321.822777</ele>
        <time>2022-10-29T12:06:11.893Z</time>
      </trkpt>
      <trkpt lat="49.346785" lon="7.085983">
        <ele>321.226263</ele>
        <time>2022-10-29T12:06:26.439Z</time>
      </trkpt>
      <trkpt lat="49.347184" lon="7.087115">
        <ele>317.419776</ele>
        <time>2022-10-29T12:07:58.128Z</time>
      </trkpt>
      <trkpt lat="49.347705" lon="7.088363">
        <ele>314.797351</ele>
        <time>2022-10-29T12:09:42.276Z</time>
      </trkpt>
      <trkpt lat="49.347890" lon="7.089324">
        <ele>313.846159</ele>
        <time>2022-10-29T12:10:50.557Z</time>
      </trkpt>
      <trkpt lat="49.348055" lon="7.089643">
        <ele>313.459525</ele>
        <time>2022-10-29T12:11:17.453Z</time>
      </trkpt>
      <trkpt lat="49.348214" lon="7.089825">
        <ele>313.170533</ele>
        <time>2022-10-29T12:11:38.095Z</time>
      </trkpt>
      <trkpt lat="49.348433" lon="7.090702">
        <ele>314.420349</ele>
        <time>2022-10-29T12:12:45.820Z</time>
      </trkpt>
      <trkpt lat="49.348473" lon="7.090862">
        <ele>314.734768</ele>
        <time>2022-10-29T12:12:57.646Z</time>
      </trkpt>
      <trkpt lat="49.347906" lon="7.091125">
        <ele>316.402891</ele>
        <time>2022-10-29T12:14:04.219Z</time>
      </trkpt>
      <trkpt lat="49.347795" lon="7.091569">
        <ele>317.275413</ele>
        <time>2022-10-29T12:14:38.774Z</time>
      </trkpt>
      <trkpt lat="49.347761" lon="7.091529">
        <ele>317.396054</ele>
        <time>2022-10-29T12:14:43.649Z</time>
      </trkpt>
      <trkpt lat="49.347795" lon="7.091569">
        <ele>317.516695</ele>
        <time>2022-10-29T12:14:48.311Z</time>
      </trkpt>
      <trkpt lat="49.347969" lon="7.091768">
        <ele>318.105848</ele>
        <time>2022-10-29T12:15:12.444Z</time>
      </trkpt>
      <trkpt lat="49.348431" lon="7.093307">
        <ele>319.933538</ele>
        <time>2022-10-29T12:17:12.889Z</time>
      </trkpt>
      <trkpt lat="49.348649" lon="7.093685">
        <ele>320.478045</ele>
        <time>2022-10-29T12:17:45.906Z</time>
      </trkpt>
      <trkpt lat="49.348763" lon="7.093703">
        <ele>320.667783</ele>
        <time>2022-10-29T12:17:57.718Z</time>
      </trkpt>
      <trkpt lat="49.348905" lon="7.093900">
        <ele>320.984671</ele>
        <time>2022-10-29T12:18:17.478Z</time>
      </trkpt>
      <trkpt lat="49.349039" lon="7.094758">
        <ele>320.236672</ele>
        <time>2022-10-29T12:19:15.925Z</time>
      </trkpt>
      <trkpt lat="49.348925" lon="7.095123">
        <ele>319.833714</ele>
        <time>2022-10-29T12:19:43.180Z</time>
      </trkpt>
      <trkpt lat="49.348906" lon="7.095473">
        <ele>319.484082</ele>
        <time>2022-10-29T12:20:07.381Z</time>
      </trkpt>
      <trkpt lat="49.348978" lon="7.096029">
        <ele>318.919756</ele>
        <time>2022-10-29T12:20:45.970Z</time>
      </trkpt>
      <trkpt lat="49.348934" lon="7.095960">
        <ele>318.823635</ele>
        <time>2022-10-29T12:20:53.027Z</time>
      </trkpt>
      <trkpt lat="49.348978" lon="7.096029">
        <ele>318.727515</ele>
        <time>2022-10-29T12:21:00.030Z</time>
      </trkpt>
      <trkpt lat="49.349191" lon="7.096334">
        <ele>318.252970</ele>
        <time>2022-10-29T12:21:29.987Z</time>
      </trkpt>
      <trkpt lat="49.349248" lon="7.096917">
        <ele>316.863183</ele>
        <time>2022-10-29T12:22:10.565Z</time>
      </trkpt>
      <trkpt lat="49.349276" lon="7.097092">
        <ele>316.438368</ele>
        <time>2022-10-29T12:22:23.420Z</time>
      </trkpt>
      <trkpt lat="49.349312" lon="7.097225">
        <ele>316.098839</ele>
        <time>2022-10-29T12:22:33.570Z</time>
      </trkpt>
      <trkpt lat="49.349323" lon="7.097364">
        <ele>315.768745</ele>
        <time>2022-10-29T12:22:43.096Z</time>
      </trkpt>
      <trkpt lat="49.349215" lon="7.098076">
        <ele>314.045339</ele>
        <time>2022-10-29T12:23:34.850Z</time>
      </trkpt>
      <trkpt lat="49.349174" lon="7.098373">
        <ele>313.329628</ele>
        <time>2022-10-29T12:23:57.952Z</time>
      </trkpt>
      <trkpt lat="49.349157" lon="7.098501">
        <ele>313.021666</ele>
        <time>2022-10-29T12:24:07.576Z</time>
      </trkpt>
      <trkpt lat="49.349065" lon="7.099401">
        <ele>311.209444</ele>
        <time>2022-10-29T12:25:10.370Z</time>
      </trkpt>
      <trkpt lat="49.348995" lon="7.100090">
        <ele>310.164286</ele>
        <time>2022-10-29T12:25:57.544Z</time>
      </trkpt>
      <trkpt lat="49.348933" lon="7.100382">
        <ele>309.703976</ele>
        <time>2022-10-29T12:26:17.691Z</time>
      </trkpt>
      <trkpt lat="49.348809" lon="7.100517">
        <ele>309.354217</ele>
        <time>2022-10-29T12:26:33.909Z</time>
      </trkpt>
      <trkpt lat="49.348517" lon="7.099878">
        <ele>308.184346</ele>
        <time>2022-10-29T12:27:26.028Z</time>
      </trkpt>
      <trkpt lat="49.348347" lon="7.099654">
        <ele>307.668890</ele>
        <time>2022-10-29T12:27:50.416Z</time>
      </trkpt>
      <trkpt lat="49.348075" lon="7.099679">
        <ele>306.725280</ele>
        <time>2022-10-29T12:28:19.295Z</time>
      </trkpt>
      <trkpt lat="49.347821" lon="7.099702">
        <ele>305.838349</ele>
        <time>2022-10-29T12:28:46.050Z</time>
      </trkpt>
      <trkpt lat="49.347658" lon="7.099644">
        <ele>305.255098</ele>
        <time>2022-10-29T12:29:04.838Z</time>
      </trkpt>
      <trkpt lat="49.347501" lon="7.099584">
        <ele>304.691122</ele>
        <time>2022-10-29T12:29:21.572Z</time>
      </trkpt>
      <trkpt lat="49.347453" lon="7.099909">
        <ele>303.934354</ele>
        <time>2022-10-29T12:29:44.613Z</time>
      </trkpt>
      <trkpt lat="49.347098" lon="7.100920">
        <ele>301.349746</ele>
        <time>2022-10-29T12:31:06.347Z</time>
      </trkpt>
      <trkpt lat="49.346851" lon="7.101850">
        <ele>299.950291</ele>
        <time>2022-10-29T12:32:16.555Z</time>
      </trkpt>
      <trkpt lat="49.346854" lon="7.101973">
        <ele>299.778777</ele>
        <time>2022-10-29T12:32:25.286Z</time>
      </trkpt>
      <trkpt lat="49.346859" lon="7.102205">
        <ele>299.455321</ele>
        <time>2022-10-29T12:32:41.356Z</time>
      </trkpt>
      <trkpt lat="49.346895" lon="7.102446">
        <ele>299.110785</ele>
        <time>2022-10-29T12:32:58.221Z</time>
      </trkpt>
      <trkpt lat="49.346901" lon="7.102978">
        <ele>298.369361</ele>
        <time>2022-10-29T12:33:33.940Z</time>
      </trkpt>
      <trkpt lat="49.346906" lon="7.103384">
        <ele>297.803521</ele>
        <time>2022-10-29T12:34:00.601Z</time>
      </trkpt>
      <trkpt lat="49.346950" lon="7.103517">
        <ele>297.595666</ele>
        <time>2022-10-29T12:34:10.391Z</time>
      </trkpt>
      <trkpt lat="49.348505" lon="7.105706">
        <ele>299.092183</ele>
        <time>2022-10-29T12:37:51.959Z</time>
      </trkpt>
      <trkpt lat="49.349196" lon="7.106988">
        <ele>298.083881</ele>
        <time>2022-10-29T12:39:42.709Z</time>
      </trkpt>
      <trkpt lat="49.349711" lon="7.108168">
        <ele>296.607711</ele>
        <time>2022-10-29T12:41:20.364Z</time>
      </trkpt>
      <trkpt lat="49.350139" lon="7.109556">
        <ele>294.435344</ele>
        <time>2022-10-29T12:43:05.983Z</time>
      </trkpt>
      <trkpt lat="49.350720" lon="7.110983">
        <ele>293.778558</ele>
        <time>2022-10-29T12:44:57.367Z</time>
      </trkpt>
      <trkpt lat="49.350763" lon="7.111212">
        <ele>293.778558</ele>
        <time>2022-10-29T12:45:13.084Z</time>
      </trkpt>
      <trkpt lat="49.350789" lon="7.111347">
        <ele>293.778558</ele>
        <time>2022-10-29T12:45:22.285Z</time>
      </trkpt>
      <trkpt lat="49.350669" lon="7.111430">
        <ele>293.778558</ele>
        <time>2022-10-29T12:45:36.159Z</time>
      </trkpt>
      <trkpt lat="49.350489" lon="7.111546">
        <ele>293.778558</ele>
        <time>2022-10-29T12:45:56.166Z</time>
      </trkpt>
      <trkpt lat="49.350265" lon="7.111676">
        <ele>293.778558</ele>
        <time>2022-10-29T12:46:21.466Z</time>
      </trkpt>
      <trkpt lat="49.349964" lon="7.111821">
        <ele>293.778558</ele>
        <time>2022-10-29T12:46:54.617Z</time>
      </trkpt>
      <trkpt lat="49.350016" lon="7.112073">
        <ele>293.778558</ele>
        <time>2022-10-29T12:47:12.378Z</time>
      </trkpt>
      <trkpt lat="49.349971" lon="7.112111">
        <ele>293.778558</ele>
        <time>2022-10-29T12:47:17.923Z</time>
      </trkpt>
      <trkpt lat="49.349599" lon="7.112426">
        <ele>293.778558</ele>
        <time>2022-10-29T12:48:02.972Z</time>
      </trkpt>
    </trkseg>
  </trk>
</gpx>