<?xml version="1.0" encoding="UTF-8"?>
<gpx xmlns="http://www.topografix.com/GPX/1/1" xmlns:gpsies="https://www.gpsies.com/GPX/1/0" creator="AllTrails https://www.alltrails.com/ - Hufeisen-Wanderung" version="1.1" xmlns:xsi="http://www.w3.org/2001/XMLSchema-instance" xsi:schemaLocation="http://www.topografix.com/GPX/1/1 http://www.topografix.com/GPX/1/1/gpx.xsd https://www.gpsies.com/GPX/1/0 https://www.gpsies.com/gpsies.xsd">
  <metadata>
    <name>Hufeisen-Wanderung</name>
    <link href="https://www.gpsies.com/">
      <text>Hufeisen-Wanderung on AllTrails</text>
    </link>
    <time>2023-03-25T19:50:06Z</time>
  </metadata>
  <trk>
    <name>Hufeisen-Wanderung on AllTrails</name>
    <trkseg>
      <trkpt lat="52.44800646" lon="13.44974499">
        <ele>45.000000</ele>
      </trkpt>
      <trkpt lat="52.44778575" lon="13.44983106">
        <ele>45.000000</ele>
      </trkpt>
      <trkpt lat="52.44775421" lon="13.44995510">
        <ele>45.000000</ele>
      </trkpt>
      <trkpt lat="52.44774171" lon="13.45025132">
        <ele>46.000000</ele>
      </trkpt>
      <trkpt lat="52.44772721" lon="13.45070042">
        <ele>46.000000</ele>
      </trkpt>
      <trkpt lat="52.44779214" lon="13.45116771">
        <ele>44.000000</ele>
      </trkpt>
      <trkpt lat="52.44791376" lon="13.45168601">
        <ele>42.000000</ele>
      </trkpt>
      <trkpt lat="52.44791821" lon="13.45168694">
        <ele>42.000000</ele>
      </trkpt>
      <trkpt lat="52.44804128" lon="13.45206247">
        <ele>42.000000</ele>
      </trkpt>
      <trkpt lat="52.44810023" lon="13.45224111">
        <ele>41.000000</ele>
      </trkpt>
      <trkpt lat="52.44814155" lon="13.45251572">
        <ele>40.000000</ele>
      </trkpt>
      <trkpt lat="52.44813714" lon="13.45257494">
        <ele>40.000000</ele>
      </trkpt>
      <trkpt lat="52.44811092" lon="13.45271108">
        <ele>39.000000</ele>
      </trkpt>
      <trkpt lat="52.44811671" lon="13.45287914">
        <ele>39.000000</ele>
      </trkpt>
      <trkpt lat="52.44820282" lon="13.45344314">
        <ele>39.000000</ele>
      </trkpt>
      <trkpt lat="52.44835674" lon="13.45438572">
        <ele>37.000000</ele>
      </trkpt>
      <trkpt lat="52.44866953" lon="13.45679127">
        <ele>35.000000</ele>
      </trkpt>
      <trkpt lat="52.44876291" lon="13.45726240">
        <ele>34.000000</ele>
      </trkpt>
      <trkpt lat="52.44909253" lon="13.45807118">
        <ele>33.000000</ele>
      </trkpt>
      <trkpt lat="52.44939793" lon="13.45874018">
        <ele>33.000000</ele>
      </trkpt>
      <trkpt lat="52.44950017" lon="13.45864084">
        <ele>33.000000</ele>
      </trkpt>
      <trkpt lat="52.45120882" lon="13.46066888">
        <ele>35.000000</ele>
      </trkpt>
      <trkpt lat="52.45111296" lon="13.46089577">
        <ele>34.000000</ele>
      </trkpt>
      <trkpt lat="52.45098811" lon="13.46127700">
        <ele>33.000000</ele>
      </trkpt>
      <trkpt lat="52.45095278" lon="13.46146366">
        <ele>33.000000</ele>
      </trkpt>
      <trkpt lat="52.45088843" lon="13.46174935">
        <ele>33.000000</ele>
      </trkpt>
      <trkpt lat="52.45080154" lon="13.46190156">
        <ele>33.000000</ele>
      </trkpt>
      <trkpt lat="52.45056322" lon="13.46234253">
        <ele>33.000000</ele>
      </trkpt>
      <trkpt lat="52.45033440" lon="13.46277227">
        <ele>32.000000</ele>
      </trkpt>
      <trkpt lat="52.44986964" lon="13.46336988">
        <ele>32.000000</ele>
      </trkpt>
      <trkpt lat="52.44951619" lon="13.46388753">
        <ele>33.000000</ele>
      </trkpt>
      <trkpt lat="52.44883405" lon="13.46490765">
        <ele>32.000000</ele>
      </trkpt>
      <trkpt lat="52.44829872" lon="13.46604087">
        <ele>33.000000</ele>
      </trkpt>
      <trkpt lat="52.44691047" lon="13.46893974">
        <ele>32.000000</ele>
      </trkpt>
      <trkpt lat="52.44626199" lon="13.47019979">
        <ele>34.000000</ele>
      </trkpt>
      <trkpt lat="52.44486297" lon="13.47315023">
        <ele>35.000000</ele>
      </trkpt>
      <trkpt lat="52.44467239" lon="13.47345810">
        <ele>35.000000</ele>
      </trkpt>
      <trkpt lat="52.44451886" lon="13.47389030">
        <ele>34.000000</ele>
      </trkpt>
      <trkpt lat="52.44438436" lon="13.47413758">
        <ele>33.000000</ele>
      </trkpt>
      <trkpt lat="52.44427845" lon="13.47431435">
        <ele>33.000000</ele>
      </trkpt>
      <trkpt lat="52.44422408" lon="13.47437408">
        <ele>33.000000</ele>
      </trkpt>
      <trkpt lat="52.44416657" lon="13.47437556">
        <ele>33.000000</ele>
      </trkpt>
      <trkpt lat="52.44411059" lon="13.47431489">
        <ele>33.000000</ele>
      </trkpt>
      <trkpt lat="52.44408036" lon="13.47422016">
        <ele>33.000000</ele>
      </trkpt>
      <trkpt lat="52.44395634" lon="13.47392408">
        <ele>33.000000</ele>
      </trkpt>
      <trkpt lat="52.44388019" lon="13.47379560">
        <ele>34.000000</ele>
      </trkpt>
      <trkpt lat="52.44364492" lon="13.47342939">
        <ele>34.000000</ele>
      </trkpt>
      <trkpt lat="52.44316628" lon="13.47283483">
        <ele>33.000000</ele>
      </trkpt>
      <trkpt lat="52.44272407" lon="13.47232189">
        <ele>33.000000</ele>
      </trkpt>
      <trkpt lat="52.44265475" lon="13.47222758">
        <ele>34.000000</ele>
      </trkpt>
      <trkpt lat="52.44254339" lon="13.47213412">
        <ele>35.000000</ele>
      </trkpt>
      <trkpt lat="52.44244579" lon="13.47204724">
        <ele>35.000000</ele>
      </trkpt>
      <trkpt lat="52.44235405" lon="13.47196825">
        <ele>35.000000</ele>
      </trkpt>
      <trkpt lat="52.44208553" lon="13.47159474">
        <ele>35.000000</ele>
      </trkpt>
      <trkpt lat="52.44154677" lon="13.47088740">
        <ele>34.000000</ele>
      </trkpt>
      <trkpt lat="52.44092146" lon="13.47006510">
        <ele>34.000000</ele>
      </trkpt>
      <trkpt lat="52.44033777" lon="13.46928231">
        <ele>37.000000</ele>
      </trkpt>
      <trkpt lat="52.44016329" lon="13.46903908">
        <ele>37.000000</ele>
      </trkpt>
      <trkpt lat="52.44008646" lon="13.46892235">
        <ele>37.000000</ele>
      </trkpt>
      <trkpt lat="52.44002384" lon="13.46874659">
        <ele>37.000000</ele>
      </trkpt>
      <trkpt lat="52.43992491" lon="13.46886157">
        <ele>36.000000</ele>
      </trkpt>
      <trkpt lat="52.43983347" lon="13.46892281">
        <ele>36.000000</ele>
      </trkpt>
      <trkpt lat="52.43977032" lon="13.46889524">
        <ele>36.000000</ele>
      </trkpt>
      <trkpt lat="52.43964911" lon="13.46865864">
        <ele>36.000000</ele>
      </trkpt>
      <trkpt lat="52.43948366" lon="13.46835668">
        <ele>36.000000</ele>
      </trkpt>
      <trkpt lat="52.43939350" lon="13.46819261">
        <ele>35.000000</ele>
      </trkpt>
      <trkpt lat="52.43938158" lon="13.46809355">
        <ele>35.000000</ele>
      </trkpt>
      <trkpt lat="52.43939802" lon="13.46798898">
        <ele>35.000000</ele>
      </trkpt>
      <trkpt lat="52.43940402" lon="13.46797741">
        <ele>35.000000</ele>
      </trkpt>
      <trkpt lat="52.43942823" lon="13.46790374">
        <ele>35.000000</ele>
      </trkpt>
      <trkpt lat="52.43945889" lon="13.46779001">
        <ele>36.000000</ele>
      </trkpt>
      <trkpt lat="52.43925307" lon="13.46749281">
        <ele>36.000000</ele>
      </trkpt>
      <trkpt lat="52.43901804" lon="13.46721804">
        <ele>36.000000</ele>
      </trkpt>
      <trkpt lat="52.43896038" lon="13.46705766">
        <ele>36.000000</ele>
      </trkpt>
      <trkpt lat="52.43857274" lon="13.46651676">
        <ele>36.000000</ele>
      </trkpt>
      <trkpt lat="52.43802344" lon="13.46577695">
        <ele>35.000000</ele>
      </trkpt>
      <trkpt lat="52.43778006" lon="13.46537634">
        <ele>35.000000</ele>
      </trkpt>
      <trkpt lat="52.43768275" lon="13.46518947">
        <ele>36.000000</ele>
      </trkpt>
      <trkpt lat="52.43778009" lon="13.46504015">
        <ele>36.000000</ele>
      </trkpt>
      <trkpt lat="52.43795954" lon="13.46477887">
        <ele>37.000000</ele>
      </trkpt>
      <trkpt lat="52.43813560" lon="13.46452881">
        <ele>38.000000</ele>
      </trkpt>
      <trkpt lat="52.43821707" lon="13.46437797">
        <ele>38.000000</ele>
      </trkpt>
      <trkpt lat="52.43828060" lon="13.46425236">
        <ele>39.000000</ele>
      </trkpt>
      <trkpt lat="52.43829009" lon="13.46424423">
        <ele>39.000000</ele>
      </trkpt>
      <trkpt lat="52.43829962" lon="13.46421678">
        <ele>39.000000</ele>
      </trkpt>
      <trkpt lat="52.43836546" lon="13.46407463">
        <ele>39.000000</ele>
      </trkpt>
      <trkpt lat="52.43844127" lon="13.46378900">
        <ele>39.000000</ele>
      </trkpt>
      <trkpt lat="52.43849870" lon="13.46358609">
        <ele>39.000000</ele>
      </trkpt>
      <trkpt lat="52.43850493" lon="13.46357956">
        <ele>39.000000</ele>
      </trkpt>
      <trkpt lat="52.43853213" lon="13.46346921">
        <ele>39.000000</ele>
      </trkpt>
      <trkpt lat="52.43847190" lon="13.46333829">
        <ele>40.000000</ele>
      </trkpt>
      <trkpt lat="52.43831503" lon="13.46316998">
        <ele>41.000000</ele>
      </trkpt>
      <trkpt lat="52.43815179" lon="13.46304038">
        <ele>40.000000</ele>
      </trkpt>
      <trkpt lat="52.43795642" lon="13.46288609">
        <ele>40.000000</ele>
      </trkpt>
      <trkpt lat="52.43774466" lon="13.46277443">
        <ele>40.000000</ele>
      </trkpt>
      <trkpt lat="52.43754529" lon="13.46263961">
        <ele>41.000000</ele>
      </trkpt>
      <trkpt lat="52.43710779" lon="13.46215648">
        <ele>45.000000</ele>
      </trkpt>
      <trkpt lat="52.43665690" lon="13.46168788">
        <ele>43.000000</ele>
      </trkpt>
      <trkpt lat="52.43584677" lon="13.46087272">
        <ele>44.000000</ele>
      </trkpt>
      <trkpt lat="52.43500646" lon="13.46004437">
        <ele>44.000000</ele>
      </trkpt>
      <trkpt lat="52.43414433" lon="13.45920446">
        <ele>44.000000</ele>
      </trkpt>
      <trkpt lat="52.43346435" lon="13.45854623">
        <ele>42.000000</ele>
      </trkpt>
      <trkpt lat="52.43357108" lon="13.45837694">
        <ele>43.000000</ele>
      </trkpt>
      <trkpt lat="52.43371472" lon="13.45809326">
        <ele>44.000000</ele>
      </trkpt>
      <trkpt lat="52.43388552" lon="13.45770909">
        <ele>46.000000</ele>
      </trkpt>
      <trkpt lat="52.43403195" lon="13.45732895">
        <ele>50.000000</ele>
      </trkpt>
      <trkpt lat="52.43419423" lon="13.45679688">
        <ele>48.000000</ele>
      </trkpt>
      <trkpt lat="52.43430008" lon="13.45648259">
        <ele>45.000000</ele>
      </trkpt>
      <trkpt lat="52.43431647" lon="13.45644379">
        <ele>44.000000</ele>
      </trkpt>
      <trkpt lat="52.43407800" lon="13.45627970">
        <ele>43.000000</ele>
      </trkpt>
      <trkpt lat="52.43400121" lon="13.45615233">
        <ele>42.000000</ele>
      </trkpt>
      <trkpt lat="52.43350219" lon="13.45576487">
        <ele>41.000000</ele>
      </trkpt>
      <trkpt lat="52.43296332" lon="13.45537526">
        <ele>42.000000</ele>
      </trkpt>
      <trkpt lat="52.43275896" lon="13.45520346">
        <ele>42.000000</ele>
      </trkpt>
      <trkpt lat="52.43227862" lon="13.45481270">
        <ele>41.000000</ele>
      </trkpt>
      <trkpt lat="52.43167840" lon="13.45438518">
        <ele>46.000000</ele>
      </trkpt>
      <trkpt lat="52.43157923" lon="13.45426071">
        <ele>45.000000</ele>
      </trkpt>
      <trkpt lat="52.43147075" lon="13.45409099">
        <ele>44.000000</ele>
      </trkpt>
      <trkpt lat="52.43139316" lon="13.45394883">
        <ele>43.000000</ele>
      </trkpt>
      <trkpt lat="52.43137057" lon="13.45376058">
        <ele>42.000000</ele>
      </trkpt>
      <trkpt lat="52.43135066" lon="13.45336497">
        <ele>41.000000</ele>
      </trkpt>
      <trkpt lat="52.43137760" lon="13.45300893">
        <ele>41.000000</ele>
      </trkpt>
      <trkpt lat="52.43141467" lon="13.45271110">
        <ele>41.000000</ele>
      </trkpt>
      <trkpt lat="52.43145833" lon="13.45262419">
        <ele>41.000000</ele>
      </trkpt>
      <trkpt lat="52.43155642" lon="13.45247808">
        <ele>42.000000</ele>
      </trkpt>
      <trkpt lat="52.43164389" lon="13.45239533">
        <ele>42.000000</ele>
      </trkpt>
      <trkpt lat="52.43179544" lon="13.45234073">
        <ele>43.000000</ele>
      </trkpt>
      <trkpt lat="52.43202154" lon="13.45229626">
        <ele>42.000000</ele>
      </trkpt>
      <trkpt lat="52.43242780" lon="13.45218986">
        <ele>39.000000</ele>
      </trkpt>
      <trkpt lat="52.43241964" lon="13.45132336">
        <ele>39.000000</ele>
      </trkpt>
      <trkpt lat="52.43232889" lon="13.45102728">
        <ele>39.000000</ele>
      </trkpt>
      <trkpt lat="52.43213878" lon="13.45075958">
        <ele>41.000000</ele>
      </trkpt>
      <trkpt lat="52.43212639" lon="13.45054413">
        <ele>41.000000</ele>
      </trkpt>
      <trkpt lat="52.43197488" lon="13.44986332">
        <ele>42.000000</ele>
      </trkpt>
      <trkpt lat="52.43179845" lon="13.44894482">
        <ele>42.000000</ele>
      </trkpt>
      <trkpt lat="52.43174506" lon="13.44882598">
        <ele>42.000000</ele>
      </trkpt>
      <trkpt lat="52.43156584" lon="13.44831943">
        <ele>41.000000</ele>
      </trkpt>
      <trkpt lat="52.43136625" lon="13.44777555">
        <ele>41.000000</ele>
      </trkpt>
      <trkpt lat="52.43120139" lon="13.44715300">
        <ele>41.000000</ele>
      </trkpt>
      <trkpt lat="52.43097319" lon="13.44625689">
        <ele>41.000000</ele>
      </trkpt>
      <trkpt lat="52.43087406" lon="13.44590868">
        <ele>43.000000</ele>
      </trkpt>
      <trkpt lat="52.43065664" lon="13.44507181">
        <ele>47.000000</ele>
      </trkpt>
      <trkpt lat="52.43038253" lon="13.44405208">
        <ele>48.000000</ele>
      </trkpt>
      <trkpt lat="52.42998559" lon="13.44251552">
        <ele>47.000000</ele>
      </trkpt>
      <trkpt lat="52.43086561" lon="13.44166092">
        <ele>46.000000</ele>
      </trkpt>
      <trkpt lat="52.43197775" lon="13.44063622">
        <ele>48.000000</ele>
      </trkpt>
      <trkpt lat="52.43316546" lon="13.43953084">
        <ele>48.000000</ele>
      </trkpt>
      <trkpt lat="52.43419517" lon="13.43854571">
        <ele>50.000000</ele>
      </trkpt>
      <trkpt lat="52.43542529" lon="13.43747166">
        <ele>51.000000</ele>
      </trkpt>
      <trkpt lat="52.43697810" lon="13.43613551">
        <ele>50.000000</ele>
      </trkpt>
      <trkpt lat="52.43801722" lon="13.43518617">
        <ele>47.000000</ele>
      </trkpt>
      <trkpt lat="52.43940666" lon="13.43511035">
        <ele>46.000000</ele>
      </trkpt>
      <trkpt lat="52.44044939" lon="13.43505128">
        <ele>47.000000</ele>
      </trkpt>
      <trkpt lat="52.44045665" lon="13.43509659">
        <ele>47.000000</ele>
      </trkpt>
      <trkpt lat="52.44045667" lon="13.43523629">
        <ele>47.000000</ele>
      </trkpt>
      <trkpt lat="52.44044271" lon="13.43537996">
        <ele>47.000000</ele>
      </trkpt>
      <trkpt lat="52.44041699" lon="13.43555535">
        <ele>47.000000</ele>
      </trkpt>
      <trkpt lat="52.44037985" lon="13.43567588">
        <ele>47.000000</ele>
      </trkpt>
      <trkpt lat="52.44032989" lon="13.43580318">
        <ele>47.000000</ele>
      </trkpt>
      <trkpt lat="52.44027906" lon="13.43591394">
        <ele>46.000000</ele>
      </trkpt>
      <trkpt lat="52.44039158" lon="13.43609281">
        <ele>47.000000</ele>
      </trkpt>
      <trkpt lat="52.44040527" lon="13.43610849">
        <ele>47.000000</ele>
      </trkpt>
      <trkpt lat="52.44059248" lon="13.43635691">
        <ele>48.000000</ele>
      </trkpt>
      <trkpt lat="52.44072228" lon="13.43649884">
        <ele>48.000000</ele>
      </trkpt>
      <trkpt lat="52.44089392" lon="13.43665665">
        <ele>48.000000</ele>
      </trkpt>
      <trkpt lat="52.44106188" lon="13.43679498">
        <ele>49.000000</ele>
      </trkpt>
      <trkpt lat="52.44124842" lon="13.43689409">
        <ele>50.000000</ele>
      </trkpt>
      <trkpt lat="52.44145036" lon="13.43700959">
        <ele>49.000000</ele>
      </trkpt>
      <trkpt lat="52.44179603" lon="13.43735203">
        <ele>47.000000</ele>
      </trkpt>
      <trkpt lat="52.44208924" lon="13.43762586">
        <ele>47.000000</ele>
      </trkpt>
      <trkpt lat="52.44245439" lon="13.43803536">
        <ele>47.000000</ele>
      </trkpt>
      <trkpt lat="52.44277930" lon="13.43843870">
        <ele>48.000000</ele>
      </trkpt>
      <trkpt lat="52.44279768" lon="13.43844865">
        <ele>48.000000</ele>
      </trkpt>
      <trkpt lat="52.44297772" lon="13.43895831">
        <ele>50.000000</ele>
      </trkpt>
      <trkpt lat="52.44302187" lon="13.43938189">
        <ele>50.000000</ele>
      </trkpt>
      <trkpt lat="52.44318795" lon="13.43965507">
        <ele>51.000000</ele>
      </trkpt>
      <trkpt lat="52.44343728" lon="13.43983682">
        <ele>50.000000</ele>
      </trkpt>
      <trkpt lat="52.44361941" lon="13.43999397">
        <ele>48.000000</ele>
      </trkpt>
      <trkpt lat="52.44379188" lon="13.44014314">
        <ele>47.000000</ele>
      </trkpt>
      <trkpt lat="52.44401819" lon="13.44011417">
        <ele>46.000000</ele>
      </trkpt>
      <trkpt lat="52.44458224" lon="13.43998908">
        <ele>46.000000</ele>
      </trkpt>
      <trkpt lat="52.44483615" lon="13.43995334">
        <ele>44.000000</ele>
      </trkpt>
      <trkpt lat="52.44503694" lon="13.43995843">
        <ele>42.000000</ele>
      </trkpt>
      <trkpt lat="52.44510587" lon="13.44008991">
        <ele>42.000000</ele>
      </trkpt>
      <trkpt lat="52.44533163" lon="13.43951099">
        <ele>43.000000</ele>
      </trkpt>
      <trkpt lat="52.44565930" lon="13.43872734">
        <ele>42.000000</ele>
      </trkpt>
      <trkpt lat="52.44605947" lon="13.43789373">
        <ele>42.000000</ele>
      </trkpt>
      <trkpt lat="52.44627121" lon="13.43743095">
        <ele>44.000000</ele>
      </trkpt>
      <trkpt lat="52.44652844" lon="13.43688243">
        <ele>43.000000</ele>
      </trkpt>
      <trkpt lat="52.44677970" lon="13.43712919">
        <ele>43.000000</ele>
      </trkpt>
      <trkpt lat="52.44708837" lon="13.43752344">
        <ele>45.000000</ele>
      </trkpt>
      <trkpt lat="52.44730109" lon="13.43778878">
        <ele>48.000000</ele>
      </trkpt>
      <trkpt lat="52.44755369" lon="13.43813434">
        <ele>49.000000</ele>
      </trkpt>
      <trkpt lat="52.44780242" lon="13.43841300">
        <ele>46.000000</ele>
      </trkpt>
      <trkpt lat="52.44801747" lon="13.43865845">
        <ele>44.000000</ele>
      </trkpt>
      <trkpt lat="52.44810625" lon="13.43875451">
        <ele>43.000000</ele>
      </trkpt>
      <trkpt lat="52.44806771" lon="13.43888651">
        <ele>42.000000</ele>
      </trkpt>
      <trkpt lat="52.44800048" lon="13.43916295">
        <ele>43.000000</ele>
      </trkpt>
      <trkpt lat="52.44793686" lon="13.43937984">
        <ele>43.000000</ele>
      </trkpt>
      <trkpt lat="52.44786279" lon="13.43961706">
        <ele>44.000000</ele>
      </trkpt>
      <trkpt lat="52.44779261" lon="13.43981769">
        <ele>44.000000</ele>
      </trkpt>
      <trkpt lat="52.44773362" lon="13.44005531">
        <ele>45.000000</ele>
      </trkpt>
      <trkpt lat="52.44791069" lon="13.44022721">
        <ele>44.000000</ele>
      </trkpt>
      <trkpt lat="52.44766130" lon="13.44099564">
        <ele>44.000000</ele>
      </trkpt>
      <trkpt lat="52.44807417" lon="13.44138582">
        <ele>44.000000</ele>
      </trkpt>
      <trkpt lat="52.44861688" lon="13.44186404">
        <ele>43.000000</ele>
      </trkpt>
      <trkpt lat="52.44915072" lon="13.44217395">
        <ele>44.000000</ele>
      </trkpt>
      <trkpt lat="52.44963045" lon="13.44250114">
        <ele>41.000000</ele>
      </trkpt>
      <trkpt lat="52.45004806" lon="13.44279818">
        <ele>42.000000</ele>
      </trkpt>
      <trkpt lat="52.45029322" lon="13.44303857">
        <ele>42.000000</ele>
      </trkpt>
      <trkpt lat="52.45039522" lon="13.44322819">
        <ele>41.000000</ele>
      </trkpt>
      <trkpt lat="52.45051861" lon="13.44347077">
        <ele>41.000000</ele>
      </trkpt>
      <trkpt lat="52.45064651" lon="13.44368166">
        <ele>40.000000</ele>
      </trkpt>
      <trkpt lat="52.45081757" lon="13.44383725">
        <ele>40.000000</ele>
      </trkpt>
      <trkpt lat="52.45095984" lon="13.44388737">
        <ele>40.000000</ele>
      </trkpt>
      <trkpt lat="52.45117253" lon="13.44393245">
        <ele>41.000000</ele>
      </trkpt>
      <trkpt lat="52.45133596" lon="13.44402017">
        <ele>41.000000</ele>
      </trkpt>
      <trkpt lat="52.45153868" lon="13.44412143">
        <ele>42.000000</ele>
      </trkpt>
      <trkpt lat="52.45167731" lon="13.44424692">
        <ele>42.000000</ele>
      </trkpt>
      <trkpt lat="52.45175979" lon="13.44436653">
        <ele>43.000000</ele>
      </trkpt>
      <trkpt lat="52.45178259" lon="13.44449157">
        <ele>43.000000</ele>
      </trkpt>
      <trkpt lat="52.45175604" lon="13.44467024">
        <ele>43.000000</ele>
      </trkpt>
      <trkpt lat="52.45170716" lon="13.44476919">
        <ele>43.000000</ele>
      </trkpt>
      <trkpt lat="52.45163308" lon="13.44487081">
        <ele>43.000000</ele>
      </trkpt>
      <trkpt lat="52.45155312" lon="13.44487615">
        <ele>42.000000</ele>
      </trkpt>
      <trkpt lat="52.45151016" lon="13.44487737">
        <ele>42.000000</ele>
      </trkpt>
      <trkpt lat="52.45154238" lon="13.44531969">
        <ele>44.000000</ele>
      </trkpt>
      <trkpt lat="52.45133606" lon="13.44536885">
        <ele>44.000000</ele>
      </trkpt>
      <trkpt lat="52.45109827" lon="13.44543974">
        <ele>46.000000</ele>
      </trkpt>
      <trkpt lat="52.45074713" lon="13.44538507">
        <ele>46.000000</ele>
      </trkpt>
      <trkpt lat="52.45035609" lon="13.44529534">
        <ele>46.000000</ele>
      </trkpt>
      <trkpt lat="52.44948536" lon="13.44507236">
        <ele>44.000000</ele>
      </trkpt>
      <trkpt lat="52.44870384" lon="13.44489514">
        <ele>45.000000</ele>
      </trkpt>
      <trkpt lat="52.44843078" lon="13.44480366">
        <ele>45.000000</ele>
      </trkpt>
      <trkpt lat="52.44840566" lon="13.44504771">
        <ele>44.000000</ele>
      </trkpt>
      <trkpt lat="52.44840569" lon="13.44539118">
        <ele>43.000000</ele>
      </trkpt>
      <trkpt lat="52.44841574" lon="13.44565739">
        <ele>43.000000</ele>
      </trkpt>
      <trkpt lat="52.44842582" lon="13.44590144">
        <ele>43.000000</ele>
      </trkpt>
      <trkpt lat="52.44841327" lon="13.44614190">
        <ele>44.000000</ele>
      </trkpt>
      <trkpt lat="52.44834620" lon="13.44641107">
        <ele>44.000000</ele>
      </trkpt>
      <trkpt lat="52.44829738" lon="13.44666046">
        <ele>43.000000</ele>
      </trkpt>
      <trkpt lat="52.44824689" lon="13.44681985">
        <ele>43.000000</ele>
      </trkpt>
      <trkpt lat="52.44820187" lon="13.44695968">
        <ele>43.000000</ele>
      </trkpt>
      <trkpt lat="52.44818077" lon="13.44720809">
        <ele>42.000000</ele>
      </trkpt>
      <trkpt lat="52.44821370" lon="13.44770442">
        <ele>43.000000</ele>
      </trkpt>
      <trkpt lat="52.44828777" lon="13.44770414">
        <ele>43.000000</ele>
      </trkpt>
      <trkpt lat="52.44837339" lon="13.44774174">
        <ele>44.000000</ele>
      </trkpt>
      <trkpt lat="52.44850815" lon="13.44787084">
        <ele>45.000000</ele>
      </trkpt>
      <trkpt lat="52.44857771" lon="13.44809702">
        <ele>45.000000</ele>
      </trkpt>
      <trkpt lat="52.44861672" lon="13.44832587">
        <ele>45.000000</ele>
      </trkpt>
      <trkpt lat="52.44861183" lon="13.44853629">
        <ele>45.000000</ele>
      </trkpt>
      <trkpt lat="52.44858502" lon="13.44886492">
        <ele>42.000000</ele>
      </trkpt>
      <trkpt lat="52.44855602" lon="13.44910031">
        <ele>43.000000</ele>
      </trkpt>
      <trkpt lat="52.44851773" lon="13.44927454">
        <ele>43.000000</ele>
      </trkpt>
      <trkpt lat="52.44849166" lon="13.44937323">
        <ele>44.000000</ele>
      </trkpt>
      <trkpt lat="52.44840318" lon="13.44937857">
        <ele>43.000000</ele>
      </trkpt>
      <trkpt lat="52.44823544" lon="13.44935759">
        <ele>43.000000</ele>
      </trkpt>
      <trkpt lat="52.44824418" lon="13.44972681">
        <ele>45.000000</ele>
      </trkpt>
      <trkpt lat="52.44804337" lon="13.44974736">
        <ele>45.000000</ele>
      </trkpt>
    </trkseg>
  </trk>
</gpx>

