<?xml version="1.0" encoding="UTF-8" standalone="no" ?>
<gpx version="1.1" creator="http://www.geoplaner.com" xmlns:xsi="http://www.w3.org/2001/XMLSchema-instance" xmlns="http://www.topografix.com/GPX/1/1" xsi:schemaLocation="http://www.topografix.com/GPX/1/1 http://www.topografix.com/GPX/1/1/gpx.xsd">
<wpt lat="48.94955" lon="13.20064">
<name>WP01-A</name>
</wpt>
<wpt lat="48.94921" lon="13.2009">
<name>WP02-B</name>
</wpt>
<wpt lat="48.9482" lon="13.20064">
<name>WP03-C</name>
</wpt>
<wpt lat="48.94724" lon="13.2009">
<name>WP04-D</name>
</wpt>
<wpt lat="48.94679" lon="13.20116">
<name>WP05-E</name>
</wpt>
<wpt lat="48.94617" lon="13.20107">
<name>WP06-F</name>
</wpt>
<wpt lat="48.94577" lon="13.20064">
<name>WP07-G</name>
</wpt>
<wpt lat="48.94549" lon="13.1997">
<name>WP08-H</name>
</wpt>
<wpt lat="48.94538" lon="13.19901">
<name>WP09-I</name>
</wpt>
<wpt lat="48.94437" lon="13.19884">
<name>WP10-J</name>
</wpt>
<wpt lat="48.94476" lon="13.19781">
<name>WP11-K</name>
</wpt>
<wpt lat="48.9451" lon="13.19627">
<name>WP12-L</name>
</wpt>
<wpt lat="48.94504" lon="13.19438">
<name>WP13-M</name>
</wpt>
<wpt lat="48.94414" lon="13.19395">
<name>WP14-N</name>
</wpt>
<wpt lat="48.94346" lon="13.19343">
<name>WP15-O</name>
</wpt>
<wpt lat="48.94307" lon="13.19318">
<name>WP16-P</name>
</wpt>
<wpt lat="48.94217" lon="13.19386">
<name>WP17-Q</name>
</wpt>
<wpt lat="48.94149" lon="13.19318">
<name>WP18-R</name>
</wpt>
<wpt lat="48.94042" lon="13.19163">
<name>WP19-S</name>
</wpt>
<wpt lat="48.93958" lon="13.19069">
<name>WP20-T</name>
</wpt>
<wpt lat="48.93884" lon="13.19051">
<name>WP21-U</name>
</wpt>
<wpt lat="48.93817" lon="13.19103">
<name>WP22-V</name>
</wpt>
<wpt lat="48.93766" lon="13.19146">
<name>WP23-W</name>
</wpt>
<wpt lat="48.9371" lon="13.19103">
<name>WP24-X</name>
</wpt>
<wpt lat="48.93636" lon="13.19197">
<name>WP25-Y</name>
</wpt>
<wpt lat="48.93512" lon="13.19223">
<name>WP26-Z</name>
</wpt>
<wpt lat="48.93394" lon="13.19223">
<name>WP27</name>
</wpt>
<wpt lat="48.93264" lon="13.1918">
<name>WP28</name>
</wpt>
<wpt lat="48.93202" lon="13.1924">
<name>WP29</name>
</wpt>
<wpt lat="48.93124" lon="13.19438">
<name>WP30</name>
</wpt>
<wpt lat="48.93107" lon="13.19687">
<name>WP31</name>
</wpt>
<wpt lat="48.93146" lon="13.19867">
<name>WP32</name>
</wpt>
<wpt lat="48.9314" lon="13.19936">
<name>WP33</name>
</wpt>
<wpt lat="48.93157" lon="13.20142">
<name>WP34</name>
</wpt>
<wpt lat="48.93248" lon="13.20382">
<name>WP35</name>
</wpt>
<wpt lat="48.93281" lon="13.20751">
<name>WP36</name>
</wpt>
<wpt lat="48.93231" lon="13.21149">
<name>WP37</name>
</wpt>
<wpt lat="48.93271" lon="13.21286">
<name>WP38</name>
</wpt>
<wpt lat="48.93304" lon="13.21747">
<name>WP39</name>
</wpt>
<wpt lat="48.93338" lon="13.22108">
<name>WP40</name>
</wpt>
<wpt lat="48.93321" lon="13.22331">
<name>WP41</name>
</wpt>
<wpt lat="48.93608" lon="13.22039">
<name>WP42</name>
</wpt>
<wpt lat="48.9371" lon="13.22185">
<name>WP43</name>
</wpt>
<wpt lat="48.93766" lon="13.22503">
<name>WP44</name>
</wpt>
<wpt lat="48.93856" lon="13.22623">
<name>WP45</name>
</wpt>
<wpt lat="48.93941" lon="13.22743">
<name>WP46</name>
</wpt>
<wpt lat="48.93969" lon="13.22863">
<name>WP47</name>
</wpt>
<wpt lat="48.93929" lon="13.23069">
<name>WP48</name>
</wpt>
<wpt lat="48.94183" lon="13.23112">
<name>WP49</name>
</wpt>
<wpt lat="48.94313" lon="13.23361">
<name>WP50</name>
</wpt>
<wpt lat="48.94301" lon="13.23576">
<name>WP51</name>
</wpt>
<wpt lat="48.94572" lon="13.23499">
<name>WP52</name>
</wpt>
<wpt lat="48.94634" lon="13.23181">
<name>WP53</name>
</wpt>
<wpt lat="48.94724" lon="13.23035">
<name>WP54</name>
</wpt>
<wpt lat="48.94865" lon="13.22743">
<name>WP55</name>
</wpt>
<wpt lat="48.94955" lon="13.22597">
<name>WP56</name>
</wpt>
<wpt lat="48.95272" lon="13.2235">
<name>WP57</name>
</wpt>
<wpt lat="48.95529" lon="13.22022">
<name>WP58</name>
</wpt>
<wpt lat="48.95631" lon="13.2173">
<name>WP59</name>
</wpt>
<wpt lat="48.95569" lon="13.21704">
<name>WP60</name>
</wpt>
<wpt lat="48.95513" lon="13.21704">
<name>WP61</name>
</wpt>
<wpt lat="48.9549" lon="13.21636">
<name>WP62</name>
</wpt>
<wpt lat="48.95479" lon="13.21412">
<name>WP63</name>
</wpt>
<wpt lat="48.95496" lon="13.21163">
<name>WP64</name>
</wpt>
<wpt lat="48.95383" lon="13.21035">
<name>WP65</name>
</wpt>
<wpt lat="48.95299" lon="13.21078">
<name>WP66</name>
</wpt>
<wpt lat="48.95163" lon="13.21146">
<name>WP67</name>
</wpt>
<wpt lat="48.95034" lon="13.21052">
<name>WP68</name>
</wpt>
<wpt lat="48.95135" lon="13.20846">
<name>WP69</name>
</wpt>
<wpt lat="48.95282" lon="13.20571">
<name>WP70</name>
</wpt>
<wpt lat="48.95158" lon="13.20545">
<name>WP71</name>
</wpt>
<wpt lat="48.95062" lon="13.20425">
<name>WP72</name>
</wpt>
<wpt lat="48.95" lon="13.20339">
<name>WP73</name>
</wpt>
</gpx>