<?xml version='1.0' encoding='UTF-8'?>
<gpx version="1.1" creator="https://www.komoot.de" xmlns="http://www.topografix.com/GPX/1/1" xmlns:xsi="http://www.w3.org/2001/XMLSchema-instance" xsi:schemaLocation="http://www.topografix.com/GPX/1/1 http://www.topografix.com/GPX/1/1/gpx.xsd">
  <metadata>
    <name>Wanderung</name>
    <author>
      <link href="https://www.komoot.de">
        <text>komoot</text>
        <type>text/html</type>
      </link>
    </author>
  </metadata>
  <trk>
    <name>Wanderung</name>
    <trkseg>
      <trkpt lat="48.719857" lon="11.330666">
        <ele>374.843215</ele>
        <time>2022-10-21T07:55:01.502Z</time>
      </trkpt>
      <trkpt lat="48.719936" lon="11.331199">
        <ele>374.843215</ele>
        <time>2022-10-21T07:55:37.924Z</time>
      </trkpt>
      <trkpt lat="48.720029" lon="11.331823">
        <ele>374.843215</ele>
        <time>2022-10-21T07:56:21.541Z</time>
      </trkpt>
      <trkpt lat="48.720193" lon="11.333021">
        <ele>375.406114</ele>
        <time>2022-10-21T07:57:45.266Z</time>
      </trkpt>
      <trkpt lat="48.720364" lon="11.334166">
        <ele>376.037646</ele>
        <time>2022-10-21T07:59:04.691Z</time>
      </trkpt>
      <trkpt lat="48.720525" lon="11.335120">
        <ele>376.334796</ele>
        <time>2022-10-21T08:00:11.756Z</time>
      </trkpt>
      <trkpt lat="48.720664" lon="11.335608">
        <ele>376.362524</ele>
        <time>2022-10-21T08:00:47.842Z</time>
      </trkpt>
      <trkpt lat="48.721083" lon="11.336606">
        <ele>376.424234</ele>
        <time>2022-10-21T08:02:06.295Z</time>
      </trkpt>
      <trkpt lat="48.721514" lon="11.339971">
        <ele>375.147930</ele>
        <time>2022-10-21T08:05:55.483Z</time>
      </trkpt>
      <trkpt lat="48.721344" lon="11.340025">
        <ele>374.986841</ele>
        <time>2022-10-21T08:06:13.271Z</time>
      </trkpt>
      <trkpt lat="48.721282" lon="11.340194">
        <ele>374.868526</ele>
        <time>2022-10-21T08:06:26.457Z</time>
      </trkpt>
      <trkpt lat="48.721524" lon="11.340636">
        <ele>374.517086</ele>
        <time>2022-10-21T08:07:05.338Z</time>
      </trkpt>
      <trkpt lat="48.721543" lon="11.340808">
        <ele>374.410383</ele>
        <time>2022-10-21T08:07:17.150Z</time>
      </trkpt>
      <trkpt lat="48.721479" lon="11.341257">
        <ele>374.129324</ele>
        <time>2022-10-21T08:07:48.227Z</time>
      </trkpt>
      <trkpt lat="48.721475" lon="11.341808">
        <ele>373.792175</ele>
        <time>2022-10-21T08:08:25.283Z</time>
      </trkpt>
      <trkpt lat="48.721574" lon="11.342210">
        <ele>373.599309</ele>
        <time>2022-10-21T08:08:53.953Z</time>
      </trkpt>
      <trkpt lat="48.721856" lon="11.342741">
        <ele>373.728537</ele>
        <time>2022-10-21T08:09:39.484Z</time>
      </trkpt>
      <trkpt lat="48.721883" lon="11.342930">
        <ele>373.765197</ele>
        <time>2022-10-21T08:09:52.316Z</time>
      </trkpt>
      <trkpt lat="48.721881" lon="11.343573">
        <ele>373.887096</ele>
        <time>2022-10-21T08:10:35.256Z</time>
      </trkpt>
      <trkpt lat="48.721878" lon="11.344399">
        <ele>374.043687</ele>
        <time>2022-10-21T08:11:31.726Z</time>
      </trkpt>
      <trkpt lat="48.721811" lon="11.345402">
        <ele>374.257097</ele>
        <time>2022-10-21T08:12:41.017Z</time>
      </trkpt>
      <trkpt lat="48.721502" lon="11.347678">
        <ele>374.474280</ele>
        <time>2022-10-21T08:15:15.319Z</time>
      </trkpt>
      <trkpt lat="48.721269" lon="11.348813">
        <ele>373.601960</ele>
        <time>2022-10-21T08:16:35.757Z</time>
      </trkpt>
      <trkpt lat="48.720861" lon="11.350328">
        <ele>372.395058</ele>
        <time>2022-10-21T08:18:27.425Z</time>
      </trkpt>
      <trkpt lat="48.720300" lon="11.351895">
        <ele>371.060343</ele>
        <time>2022-10-21T08:20:28.043Z</time>
      </trkpt>
      <trkpt lat="48.719957" lon="11.352673">
        <ele>370.572292</ele>
        <time>2022-10-21T08:21:30.668Z</time>
      </trkpt>
      <trkpt lat="48.718987" lon="11.354494">
        <ele>370.064526</ele>
        <time>2022-10-21T08:24:06.037Z</time>
      </trkpt>
      <trkpt lat="48.718586" lon="11.355099">
        <ele>370.118973</ele>
        <time>2022-10-21T08:25:02.706Z</time>
      </trkpt>
      <trkpt lat="48.718516" lon="11.355102">
        <ele>370.125712</ele>
        <time>2022-10-21T08:25:09.681Z</time>
      </trkpt>
      <trkpt lat="48.718070" lon="11.355123">
        <ele>370.168652</ele>
        <time>2022-10-21T08:25:54.490Z</time>
      </trkpt>
      <trkpt lat="48.716571" lon="11.355711">
        <ele>370.417616</ele>
        <time>2022-10-21T08:28:30.426Z</time>
      </trkpt>
      <trkpt lat="48.716489" lon="11.357564">
        <ele>370.661295</ele>
        <time>2022-10-21T08:30:34.230Z</time>
      </trkpt>
      <trkpt lat="48.715122" lon="11.357382">
        <ele>370.855406</ele>
        <time>2022-10-21T08:32:52.446Z</time>
      </trkpt>
      <trkpt lat="48.715131" lon="11.357327">
        <ele>370.860694</ele>
        <time>2022-10-21T08:32:56.243Z</time>
      </trkpt>
      <trkpt lat="48.715477" lon="11.355387">
        <ele>370.831997</ele>
        <time>2022-10-21T08:35:08.995Z</time>
      </trkpt>
      <trkpt lat="48.715706" lon="11.353674">
        <ele>370.924802</ele>
        <time>2022-10-21T08:37:04.687Z</time>
      </trkpt>
      <trkpt lat="48.716108" lon="11.352542">
        <ele>371.099461</ele>
        <time>2022-10-21T08:38:30.460Z</time>
      </trkpt>
      <trkpt lat="48.716233" lon="11.351805">
        <ele>371.265782</ele>
        <time>2022-10-21T08:39:21.322Z</time>
      </trkpt>
      <trkpt lat="48.716246" lon="11.351728">
        <ele>371.306144</ele>
        <time>2022-10-21T08:39:26.702Z</time>
      </trkpt>
      <trkpt lat="48.716163" lon="11.351573">
        <ele>371.407519</ele>
        <time>2022-10-21T08:39:40.188Z</time>
      </trkpt>
      <trkpt lat="48.715250" lon="11.350811">
        <ele>372.209742</ele>
        <time>2022-10-21T08:41:27.201Z</time>
      </trkpt>
      <trkpt lat="48.715220" lon="11.350736">
        <ele>372.254282</ele>
        <time>2022-10-21T08:41:33.178Z</time>
      </trkpt>
      <trkpt lat="48.715114" lon="11.348570">
        <ele>374.050287</ele>
        <time>2022-10-21T08:44:02.446Z</time>
      </trkpt>
      <trkpt lat="48.715158" lon="11.347886">
        <ele>374.704281</ele>
        <time>2022-10-21T08:44:50.674Z</time>
      </trkpt>
      <trkpt lat="48.715164" lon="11.347798">
        <ele>374.788470</ele>
        <time>2022-10-21T08:44:57.002Z</time>
      </trkpt>
      <trkpt lat="48.716451" lon="11.348382">
        <ele>376.902956</ele>
        <time>2022-10-21T08:47:20.314Z</time>
      </trkpt>
      <trkpt lat="48.716785" lon="11.348399">
        <ele>377.439327</ele>
        <time>2022-10-21T08:47:55.804Z</time>
      </trkpt>
      <trkpt lat="48.717260" lon="11.347595">
        <ele>378.173281</ele>
        <time>2022-10-21T08:49:09.937Z</time>
      </trkpt>
      <trkpt lat="48.717391" lon="11.346863">
        <ele>378.364852</ele>
        <time>2022-10-21T08:50:00.866Z</time>
      </trkpt>
      <trkpt lat="48.717721" lon="11.346418">
        <ele>378.533948</ele>
        <time>2022-10-21T08:50:45.179Z</time>
      </trkpt>
      <trkpt lat="48.718173" lon="11.346222">
        <ele>378.713929</ele>
        <time>2022-10-21T08:51:32.419Z</time>
      </trkpt>
      <trkpt lat="48.718585" lon="11.345883">
        <ele>378.609180</ele>
        <time>2022-10-21T08:52:19.482Z</time>
      </trkpt>
      <trkpt lat="48.718832" lon="11.345241">
        <ele>378.462656</ele>
        <time>2022-10-21T08:53:08.820Z</time>
      </trkpt>
      <trkpt lat="48.719349" lon="11.345134">
        <ele>378.306726</ele>
        <time>2022-10-21T08:54:01.440Z</time>
      </trkpt>
      <trkpt lat="48.719761" lon="11.344867">
        <ele>378.154628</ele>
        <time>2022-10-21T08:54:46.661Z</time>
      </trkpt>
      <trkpt lat="48.719855" lon="11.344074">
        <ele>377.872562</ele>
        <time>2022-10-21T08:55:40.434Z</time>
      </trkpt>
      <trkpt lat="48.719834" lon="11.343364">
        <ele>377.623749</ele>
        <time>2022-10-21T08:56:27.830Z</time>
      </trkpt>
      <trkpt lat="48.719897" lon="11.342845">
        <ele>377.439003</ele>
        <time>2022-10-21T08:57:03.136Z</time>
      </trkpt>
      <trkpt lat="48.720049" lon="11.342524">
        <ele>377.300675</ele>
        <time>2022-10-21T08:57:29.498Z</time>
      </trkpt>
      <trkpt lat="48.720782" lon="11.341549">
        <ele>376.835997</ele>
        <time>2022-10-21T08:59:08.388Z</time>
      </trkpt>
      <trkpt lat="48.721062" lon="11.340791">
        <ele>376.566892</ele>
        <time>2022-10-21T09:00:06.305Z</time>
      </trkpt>
      <trkpt lat="48.721282" lon="11.340194">
        <ele>376.404895</ele>
        <time>2022-10-21T09:00:51.616Z</time>
      </trkpt>
      <trkpt lat="48.721344" lon="11.340025">
        <ele>376.415654</ele>
        <time>2022-10-21T09:01:04.427Z</time>
      </trkpt>
      <trkpt lat="48.721514" lon="11.339971">
        <ele>376.430303</ele>
        <time>2022-10-21T09:01:21.885Z</time>
      </trkpt>
      <trkpt lat="48.721083" lon="11.336606">
        <ele>376.565243</ele>
        <time>2022-10-21T09:05:09.564Z</time>
      </trkpt>
      <trkpt lat="48.720664" lon="11.335608">
        <ele>376.580086</ele>
        <time>2022-10-21T09:06:28.268Z</time>
      </trkpt>
      <trkpt lat="48.720525" lon="11.335120">
        <ele>376.442722</ele>
        <time>2022-10-21T09:07:03.956Z</time>
      </trkpt>
      <trkpt lat="48.720364" lon="11.334166">
        <ele>375.953234</ele>
        <time>2022-10-21T09:08:10.156Z</time>
      </trkpt>
      <trkpt lat="48.720193" lon="11.333021">
        <ele>375.369671</ele>
        <time>2022-10-21T09:09:28.798Z</time>
      </trkpt>
      <trkpt lat="48.720029" lon="11.331823">
        <ele>375.228001</ele>
        <time>2022-10-21T09:10:51.348Z</time>
      </trkpt>
      <trkpt lat="48.719936" lon="11.331199">
        <ele>375.228001</ele>
        <time>2022-10-21T09:11:34.421Z</time>
      </trkpt>
      <trkpt lat="48.719857" lon="11.330666">
        <ele>375.228001</ele>
        <time>2022-10-21T09:12:10.717Z</time>
      </trkpt>
      <trkpt lat="48.719835" lon="11.330521">
        <ele>375.228001</ele>
        <time>2022-10-21T09:12:20.578Z</time>
      </trkpt>
    </trkseg>
  </trk>
</gpx>