<?xml version='1.0' encoding='UTF-8'?>
<gpx version="1.1" creator="https://www.komoot.de" xmlns="http://www.topografix.com/GPX/1/1" xmlns:xsi="http://www.w3.org/2001/XMLSchema-instance" xsi:schemaLocation="http://www.topografix.com/GPX/1/1 http://www.topografix.com/GPX/1/1/gpx.xsd">
  <metadata>
    <name>IVV-PW 387 MOB München "Tiere, Technik und Planeten" 11 km</name>
    <author>
      <link href="https://www.komoot.de">
        <text>komoot</text>
        <type>text/html</type>
      </link>
    </author>
  </metadata>
  <trk>
    <name>IVV-PW 387 MOB München "Tiere, Technik und Planeten" 11 km</name>
    <trkseg>
      <trkpt lat="48.103742" lon="11.546004">
        <ele>527.157748</ele>
        <time>2024-12-16T15:49:12.977Z</time>
      </trkpt>
      <trkpt lat="48.103746" lon="11.546034">
        <ele>527.157748</ele>
        <time>2024-12-16T15:49:15.062Z</time>
      </trkpt>
      <trkpt lat="48.103577" lon="11.546081">
        <ele>527.157748</ele>
        <time>2024-12-16T15:49:32.558Z</time>
      </trkpt>
      <trkpt lat="48.103463" lon="11.546092">
        <ele>527.157748</ele>
        <time>2024-12-16T15:49:44.094Z</time>
      </trkpt>
      <trkpt lat="48.103000" lon="11.546142">
        <ele>527.157748</ele>
        <time>2024-12-16T15:50:31.347Z</time>
      </trkpt>
      <trkpt lat="48.102161" lon="11.546188">
        <ele>526.414650</ele>
        <time>2024-12-16T15:51:57.663Z</time>
      </trkpt>
      <trkpt lat="48.101870" lon="11.546284">
        <ele>526.103219</ele>
        <time>2024-12-16T15:52:28.100Z</time>
      </trkpt>
      <trkpt lat="48.101696" lon="11.546356">
        <ele>525.914547</ele>
        <time>2024-12-16T15:52:46.432Z</time>
      </trkpt>
      <trkpt lat="48.101593" lon="11.546491">
        <ele>525.771485</ele>
        <time>2024-12-16T15:53:00.245Z</time>
      </trkpt>
      <trkpt lat="48.101581" lon="11.546526">
        <ele>525.744025</ele>
        <time>2024-12-16T15:53:02.928Z</time>
      </trkpt>
      <trkpt lat="48.101510" lon="11.546668">
        <ele>525.620213</ele>
        <time>2024-12-16T15:53:14.953Z</time>
      </trkpt>
      <trkpt lat="48.101451" lon="11.546791">
        <ele>525.514512</ele>
        <time>2024-12-16T15:53:25.348Z</time>
      </trkpt>
      <trkpt lat="48.101199" lon="11.547600">
        <ele>525.088144</ele>
        <time>2024-12-16T15:54:26.595Z</time>
      </trkpt>
      <trkpt lat="48.101175" lon="11.547666">
        <ele>525.062388</ele>
        <time>2024-12-16T15:54:31.745Z</time>
      </trkpt>
      <trkpt lat="48.101143" lon="11.547754">
        <ele>525.028048</ele>
        <time>2024-12-16T15:54:38.517Z</time>
      </trkpt>
      <trkpt lat="48.101045" lon="11.547974">
        <ele>524.937414</ele>
        <time>2024-12-16T15:54:56.510Z</time>
      </trkpt>
      <trkpt lat="48.100969" lon="11.548218">
        <ele>524.845141</ele>
        <time>2024-12-16T15:55:14.767Z</time>
      </trkpt>
      <trkpt lat="48.100938" lon="11.548443">
        <ele>524.766405</ele>
        <time>2024-12-16T15:55:30.251Z</time>
      </trkpt>
      <trkpt lat="48.100718" lon="11.550992">
        <ele>524.368130</ele>
        <time>2024-12-16T15:58:22.270Z</time>
      </trkpt>
      <trkpt lat="48.100703" lon="11.551269">
        <ele>524.370827</ele>
        <time>2024-12-16T15:58:41.006Z</time>
      </trkpt>
      <trkpt lat="48.100892" lon="11.551271">
        <ele>524.373574</ele>
        <time>2024-12-16T15:59:00.038Z</time>
      </trkpt>
      <trkpt lat="48.100954" lon="11.551309">
        <ele>524.374547</ele>
        <time>2024-12-16T15:59:06.728Z</time>
      </trkpt>
      <trkpt lat="48.102014" lon="11.551795">
        <ele>524.198341</ele>
        <time>2024-12-16T16:00:57.773Z</time>
      </trkpt>
      <trkpt lat="48.102408" lon="11.552432">
        <ele>524.039335</ele>
        <time>2024-12-16T16:01:55.987Z</time>
      </trkpt>
      <trkpt lat="48.102487" lon="11.552338">
        <ele>524.011664</ele>
        <time>2024-12-16T16:02:06.073Z</time>
      </trkpt>
      <trkpt lat="48.102610" lon="11.552258">
        <ele>523.974889</ele>
        <time>2024-12-16T16:02:19.612Z</time>
      </trkpt>
      <trkpt lat="48.102785" lon="11.552381">
        <ele>523.921875</ele>
        <time>2024-12-16T16:02:38.967Z</time>
      </trkpt>
      <trkpt lat="48.102822" lon="11.552399">
        <ele>523.911207</ele>
        <time>2024-12-16T16:02:42.896Z</time>
      </trkpt>
      <trkpt lat="48.103531" lon="11.552961">
        <ele>522.828774</ele>
        <time>2024-12-16T16:04:05.337Z</time>
      </trkpt>
      <trkpt lat="48.103808" lon="11.553112">
        <ele>522.393161</ele>
        <time>2024-12-16T16:04:36.213Z</time>
      </trkpt>
      <trkpt lat="48.103876" lon="11.553119">
        <ele>522.292438</ele>
        <time>2024-12-16T16:04:43.243Z</time>
      </trkpt>
      <trkpt lat="48.104207" lon="11.553137">
        <ele>521.802983</ele>
        <time>2024-12-16T16:05:17.513Z</time>
      </trkpt>
      <trkpt lat="48.104441" lon="11.553154">
        <ele>521.456785</ele>
        <time>2024-12-16T16:05:41.915Z</time>
      </trkpt>
      <trkpt lat="48.104606" lon="11.553168">
        <ele>521.225933</ele>
        <time>2024-12-16T16:05:59.028Z</time>
      </trkpt>
      <trkpt lat="48.104979" lon="11.553202">
        <ele>521.101944</ele>
        <time>2024-12-16T16:06:37.540Z</time>
      </trkpt>
      <trkpt lat="48.105118" lon="11.553191">
        <ele>521.055759</ele>
        <time>2024-12-16T16:06:51.974Z</time>
      </trkpt>
      <trkpt lat="48.105373" lon="11.553083">
        <ele>520.967832</ele>
        <time>2024-12-16T16:07:19.288Z</time>
      </trkpt>
      <trkpt lat="48.105913" lon="11.552964">
        <ele>520.786732</ele>
        <time>2024-12-16T16:08:15.440Z</time>
      </trkpt>
      <trkpt lat="48.106272" lon="11.552825">
        <ele>520.663700</ele>
        <time>2024-12-16T16:08:53.321Z</time>
      </trkpt>
      <trkpt lat="48.106397" lon="11.552768">
        <ele>520.647008</ele>
        <time>2024-12-16T16:09:06.722Z</time>
      </trkpt>
      <trkpt lat="48.106684" lon="11.552564">
        <ele>520.763374</ele>
        <time>2024-12-16T16:09:38.994Z</time>
      </trkpt>
      <trkpt lat="48.106820" lon="11.552526">
        <ele>520.814049</ele>
        <time>2024-12-16T16:09:52.952Z</time>
      </trkpt>
      <trkpt lat="48.107630" lon="11.552479">
        <ele>521.110966</ele>
        <time>2024-12-16T16:11:14.911Z</time>
      </trkpt>
      <trkpt lat="48.107696" lon="11.552516">
        <ele>521.136779</ele>
        <time>2024-12-16T16:11:22.009Z</time>
      </trkpt>
      <trkpt lat="48.108156" lon="11.552589">
        <ele>521.316116</ele>
        <time>2024-12-16T16:12:08.606Z</time>
      </trkpt>
      <trkpt lat="48.108449" lon="11.552703">
        <ele>521.503379</ele>
        <time>2024-12-16T16:12:39.368Z</time>
      </trkpt>
      <trkpt lat="48.109025" lon="11.553240">
        <ele>521.923082</ele>
        <time>2024-12-16T16:13:49.167Z</time>
      </trkpt>
      <trkpt lat="48.109615" lon="11.553641">
        <ele>522.323873</ele>
        <time>2024-12-16T16:14:55.823Z</time>
      </trkpt>
      <trkpt lat="48.109868" lon="11.553828">
        <ele>522.474920</ele>
        <time>2024-12-16T16:15:24.636Z</time>
      </trkpt>
      <trkpt lat="48.110149" lon="11.554086">
        <ele>522.627851</ele>
        <time>2024-12-16T16:15:57.969Z</time>
      </trkpt>
      <trkpt lat="48.110614" lon="11.554525">
        <ele>522.882895</ele>
        <time>2024-12-16T16:16:53.168Z</time>
      </trkpt>
      <trkpt lat="48.111114" lon="11.555133">
        <ele>523.181727</ele>
        <time>2024-12-16T16:17:58.564Z</time>
      </trkpt>
      <trkpt lat="48.111368" lon="11.555392">
        <ele>523.382476</ele>
        <time>2024-12-16T16:18:30.389Z</time>
      </trkpt>
      <trkpt lat="48.111635" lon="11.555543">
        <ele>523.605221</ele>
        <time>2024-12-16T16:19:00.075Z</time>
      </trkpt>
      <trkpt lat="48.112089" lon="11.555799">
        <ele>523.983830</ele>
        <time>2024-12-16T16:19:51.027Z</time>
      </trkpt>
      <trkpt lat="48.112085" lon="11.556551">
        <ele>524.375707</ele>
        <time>2024-12-16T16:20:43.264Z</time>
      </trkpt>
      <trkpt lat="48.112065" lon="11.556772">
        <ele>524.491922</ele>
        <time>2024-12-16T16:20:58.511Z</time>
      </trkpt>
      <trkpt lat="48.112034" lon="11.556943">
        <ele>524.584255</ele>
        <time>2024-12-16T16:21:10.563Z</time>
      </trkpt>
      <trkpt lat="48.112034" lon="11.556943">
        <ele>524.584255</ele>
        <time>2024-12-16T16:21:10.575Z</time>
      </trkpt>
      <trkpt lat="48.112059" lon="11.557361">
        <ele>524.441018</ele>
        <time>2024-12-16T16:21:38.648Z</time>
      </trkpt>
      <trkpt lat="48.112160" lon="11.557830">
        <ele>524.117526</ele>
        <time>2024-12-16T16:22:12.307Z</time>
      </trkpt>
      <trkpt lat="48.112155" lon="11.558265">
        <ele>523.831930</ele>
        <time>2024-12-16T16:22:42.687Z</time>
      </trkpt>
      <trkpt lat="48.112189" lon="11.558474">
        <ele>523.690719</ele>
        <time>2024-12-16T16:22:57.423Z</time>
      </trkpt>
      <trkpt lat="48.112296" lon="11.558782">
        <ele>523.462803</ele>
        <time>2024-12-16T16:23:21.203Z</time>
      </trkpt>
      <trkpt lat="48.112158" lon="11.558838">
        <ele>523.322232</ele>
        <time>2024-12-16T16:23:35.799Z</time>
      </trkpt>
      <trkpt lat="48.112156" lon="11.559026">
        <ele>523.198805</ele>
        <time>2024-12-16T16:23:48.633Z</time>
      </trkpt>
      <trkpt lat="48.112298" lon="11.559071">
        <ele>523.056102</ele>
        <time>2024-12-16T16:24:03.382Z</time>
      </trkpt>
      <trkpt lat="48.112315" lon="11.559070">
        <ele>523.039375</ele>
        <time>2024-12-16T16:24:05.185Z</time>
      </trkpt>
      <trkpt lat="48.112622" lon="11.558994">
        <ele>522.784556</ele>
        <time>2024-12-16T16:24:37.136Z</time>
      </trkpt>
      <trkpt lat="48.112632" lon="11.558991">
        <ele>522.778165</ele>
        <time>2024-12-16T16:24:38.220Z</time>
      </trkpt>
      <trkpt lat="48.112629" lon="11.558972">
        <ele>522.769997</ele>
        <time>2024-12-16T16:24:39.566Z</time>
      </trkpt>
      <trkpt lat="48.112615" lon="11.558858">
        <ele>522.721501</ele>
        <time>2024-12-16T16:24:47.444Z</time>
      </trkpt>
      <trkpt lat="48.112612" lon="11.558833">
        <ele>522.710873</ele>
        <time>2024-12-16T16:24:49.234Z</time>
      </trkpt>
      <trkpt lat="48.112584" lon="11.558841">
        <ele>522.693011</ele>
        <time>2024-12-16T16:24:52.210Z</time>
      </trkpt>
      <trkpt lat="48.112583" lon="11.558717">
        <ele>522.641128</ele>
        <time>2024-12-16T16:25:00.647Z</time>
      </trkpt>
      <trkpt lat="48.112750" lon="11.558580">
        <ele>522.521810</ele>
        <time>2024-12-16T16:25:20.250Z</time>
      </trkpt>
      <trkpt lat="48.113053" lon="11.558289">
        <ele>522.296258</ele>
        <time>2024-12-16T16:25:57.088Z</time>
      </trkpt>
      <trkpt lat="48.113418" lon="11.558045">
        <ele>522.045789</ele>
        <time>2024-12-16T16:26:37.883Z</time>
      </trkpt>
      <trkpt lat="48.113782" lon="11.557938">
        <ele>521.813342</ele>
        <time>2024-12-16T16:27:15.400Z</time>
      </trkpt>
      <trkpt lat="48.114004" lon="11.557832">
        <ele>521.736472</ele>
        <time>2024-12-16T16:27:39.071Z</time>
      </trkpt>
      <trkpt lat="48.114207" lon="11.557679">
        <ele>521.717199</ele>
        <time>2024-12-16T16:28:02.110Z</time>
      </trkpt>
      <trkpt lat="48.114244" lon="11.557650">
        <ele>521.713657</ele>
        <time>2024-12-16T16:28:06.323Z</time>
      </trkpt>
      <trkpt lat="48.114258" lon="11.557640">
        <ele>521.712342</ele>
        <time>2024-12-16T16:28:07.901Z</time>
      </trkpt>
      <trkpt lat="48.114386" lon="11.557548">
        <ele>521.700301</ele>
        <time>2024-12-16T16:28:22.097Z</time>
      </trkpt>
      <trkpt lat="48.114457" lon="11.557504">
        <ele>521.693784</ele>
        <time>2024-12-16T16:28:29.781Z</time>
      </trkpt>
      <trkpt lat="48.114587" lon="11.557542">
        <ele>521.682550</ele>
        <time>2024-12-16T16:28:43.124Z</time>
      </trkpt>
      <trkpt lat="48.115148" lon="11.557856">
        <ele>521.631758</ele>
        <time>2024-12-16T16:29:43.950Z</time>
      </trkpt>
      <trkpt lat="48.115678" lon="11.558103">
        <ele>521.469953</ele>
        <time>2024-12-16T16:30:39.581Z</time>
      </trkpt>
      <trkpt lat="48.115786" lon="11.558160">
        <ele>521.349568</ele>
        <time>2024-12-16T16:30:51.238Z</time>
      </trkpt>
      <trkpt lat="48.115837" lon="11.558188">
        <ele>521.292462</ele>
        <time>2024-12-16T16:30:56.696Z</time>
      </trkpt>
      <trkpt lat="48.115922" lon="11.558234">
        <ele>521.197446</ele>
        <time>2024-12-16T16:31:05.875Z</time>
      </trkpt>
      <trkpt lat="48.116638" lon="11.558767">
        <ele>520.356861</ele>
        <time>2024-12-16T16:32:27.672Z</time>
      </trkpt>
      <trkpt lat="48.117310" lon="11.559178">
        <ele>519.555431</ele>
        <time>2024-12-16T16:33:42.656Z</time>
      </trkpt>
      <trkpt lat="48.117527" lon="11.559248">
        <ele>519.240810</ele>
        <time>2024-12-16T16:34:05.663Z</time>
      </trkpt>
      <trkpt lat="48.118006" lon="11.559975">
        <ele>518.274290</ele>
        <time>2024-12-16T16:35:16.500Z</time>
      </trkpt>
      <trkpt lat="48.118398" lon="11.560400">
        <ele>517.588414</ele>
        <time>2024-12-16T16:36:06.267Z</time>
      </trkpt>
      <trkpt lat="48.118738" lon="11.560768">
        <ele>517.101278</ele>
        <time>2024-12-16T16:36:48.921Z</time>
      </trkpt>
      <trkpt lat="48.118852" lon="11.560894">
        <ele>517.034788</ele>
        <time>2024-12-16T16:37:03.307Z</time>
      </trkpt>
      <trkpt lat="48.119087" lon="11.561152">
        <ele>516.898047</ele>
        <time>2024-12-16T16:37:33.009Z</time>
      </trkpt>
      <trkpt lat="48.119400" lon="11.561496">
        <ele>516.715852</ele>
        <time>2024-12-16T16:38:12.426Z</time>
      </trkpt>
      <trkpt lat="48.119641" lon="11.561740">
        <ele>516.579334</ele>
        <time>2024-12-16T16:38:41.746Z</time>
      </trkpt>
      <trkpt lat="48.119680" lon="11.561784">
        <ele>516.556420</ele>
        <time>2024-12-16T16:38:46.681Z</time>
      </trkpt>
      <trkpt lat="48.119836" lon="11.562006">
        <ele>516.455434</ele>
        <time>2024-12-16T16:39:08.228Z</time>
      </trkpt>
      <trkpt lat="48.120052" lon="11.562443">
        <ele>516.312704</ele>
        <time>2024-12-16T16:39:44.701Z</time>
      </trkpt>
      <trkpt lat="48.120364" lon="11.562942">
        <ele>516.333018</ele>
        <time>2024-12-16T16:40:30.450Z</time>
      </trkpt>
      <trkpt lat="48.120899" lon="11.563667">
        <ele>516.365128</ele>
        <time>2024-12-16T16:41:42.679Z</time>
      </trkpt>
      <trkpt lat="48.120978" lon="11.563688">
        <ele>516.368699</ele>
        <time>2024-12-16T16:41:50.892Z</time>
      </trkpt>
      <trkpt lat="48.121047" lon="11.563932">
        <ele>516.376572</ele>
        <time>2024-12-16T16:42:08.656Z</time>
      </trkpt>
      <trkpt lat="48.121106" lon="11.564043">
        <ele>516.380788</ele>
        <time>2024-12-16T16:42:18.124Z</time>
      </trkpt>
      <trkpt lat="48.122101" lon="11.565781">
        <ele>516.993789</ele>
        <time>2024-12-16T16:44:52.446Z</time>
      </trkpt>
      <trkpt lat="48.122164" lon="11.565831">
        <ele>517.026548</ele>
        <time>2024-12-16T16:44:59.811Z</time>
      </trkpt>
      <trkpt lat="48.122712" lon="11.566852">
        <ele>517.423079</ele>
        <time>2024-12-16T16:46:30.383Z</time>
      </trkpt>
      <trkpt lat="48.122792" lon="11.567019">
        <ele>517.484543</ele>
        <time>2024-12-16T16:46:44.816Z</time>
      </trkpt>
      <trkpt lat="48.122997" lon="11.567395">
        <ele>517.629712</ele>
        <time>2024-12-16T16:47:18.437Z</time>
      </trkpt>
      <trkpt lat="48.123063" lon="11.567527">
        <ele>517.679027</ele>
        <time>2024-12-16T16:47:29.707Z</time>
      </trkpt>
      <trkpt lat="48.123132" lon="11.567642">
        <ele>517.725264</ele>
        <time>2024-12-16T16:47:40.270Z</time>
      </trkpt>
      <trkpt lat="48.123165" lon="11.567676">
        <ele>517.743205</ele>
        <time>2024-12-16T16:47:44.354Z</time>
      </trkpt>
      <trkpt lat="48.124980" lon="11.571148">
        <ele>516.964864</ele>
        <time>2024-12-16T16:52:41.514Z</time>
      </trkpt>
      <trkpt lat="48.125022" lon="11.571226">
        <ele>516.920080</ele>
        <time>2024-12-16T16:52:48.211Z</time>
      </trkpt>
      <trkpt lat="48.125146" lon="11.571461">
        <ele>516.786212</ele>
        <time>2024-12-16T16:53:08.470Z</time>
      </trkpt>
      <trkpt lat="48.126269" lon="11.573593">
        <ele>515.658321</ele>
        <time>2024-12-16T16:56:13.147Z</time>
      </trkpt>
      <trkpt lat="48.127507" lon="11.575905">
        <ele>514.811085</ele>
        <time>2024-12-16T16:59:32.471Z</time>
      </trkpt>
      <trkpt lat="48.127623" lon="11.575989">
        <ele>514.773465</ele>
        <time>2024-12-16T16:59:45.418Z</time>
      </trkpt>
      <trkpt lat="48.127712" lon="11.576174">
        <ele>514.729021</ele>
        <time>2024-12-16T17:00:00.769Z</time>
      </trkpt>
      <trkpt lat="48.127708" lon="11.576236">
        <ele>514.716881</ele>
        <time>2024-12-16T17:00:04.986Z</time>
      </trkpt>
      <trkpt lat="48.127749" lon="11.576307">
        <ele>514.698584</ele>
        <time>2024-12-16T17:00:11.219Z</time>
      </trkpt>
      <trkpt lat="48.127805" lon="11.576409">
        <ele>514.672844</ele>
        <time>2024-12-16T17:00:20.182Z</time>
      </trkpt>
      <trkpt lat="48.127844" lon="11.576490">
        <ele>514.653379</ele>
        <time>2024-12-16T17:00:26.902Z</time>
      </trkpt>
      <trkpt lat="48.127872" lon="11.576512">
        <ele>514.644147</ele>
        <time>2024-12-16T17:00:30.060Z</time>
      </trkpt>
      <trkpt lat="48.127927" lon="11.576612">
        <ele>514.618894</ele>
        <time>2024-12-16T17:00:38.816Z</time>
      </trkpt>
      <trkpt lat="48.128051" lon="11.576846">
        <ele>514.570885</ele>
        <time>2024-12-16T17:00:58.910Z</time>
      </trkpt>
      <trkpt lat="48.129097" lon="11.579106">
        <ele>514.543594</ele>
        <time>2024-12-16T17:04:02.847Z</time>
      </trkpt>
      <trkpt lat="48.129138" lon="11.579197">
        <ele>514.591927</ele>
        <time>2024-12-16T17:04:10.335Z</time>
      </trkpt>
      <trkpt lat="48.129221" lon="11.579364">
        <ele>514.683588</ele>
        <time>2024-12-16T17:04:24.361Z</time>
      </trkpt>
      <trkpt lat="48.129309" lon="11.579542">
        <ele>514.781103</ele>
        <time>2024-12-16T17:04:39.272Z</time>
      </trkpt>
      <trkpt lat="48.129895" lon="11.580738">
        <ele>515.434243</ele>
        <time>2024-12-16T17:06:21.287Z</time>
      </trkpt>
      <trkpt lat="48.130518" lon="11.581872">
        <ele>516.666832</ele>
        <time>2024-12-16T17:08:02.840Z</time>
      </trkpt>
      <trkpt lat="48.130675" lon="11.582115">
        <ele>517.032428</ele>
        <time>2024-12-16T17:08:27.101Z</time>
      </trkpt>
      <trkpt lat="48.130887" lon="11.582485">
        <ele>517.559561</ele>
        <time>2024-12-16T17:09:02.134Z</time>
      </trkpt>
      <trkpt lat="48.130788" lon="11.582602">
        <ele>517.763781</ele>
        <time>2024-12-16T17:09:15.589Z</time>
      </trkpt>
      <trkpt lat="48.130441" lon="11.582996">
        <ele>518.468944</ele>
        <time>2024-12-16T17:10:02.141Z</time>
      </trkpt>
      <trkpt lat="48.130385" lon="11.583042">
        <ele>518.572380</ele>
        <time>2024-12-16T17:10:09.032Z</time>
      </trkpt>
      <trkpt lat="48.130631" lon="11.583556">
        <ele>518.793794</ele>
        <time>2024-12-16T17:10:54.330Z</time>
      </trkpt>
      <trkpt lat="48.130600" lon="11.583589">
        <ele>518.812551</ele>
        <time>2024-12-16T17:10:58.482Z</time>
      </trkpt>
      <trkpt lat="48.130590" lon="11.583600">
        <ele>518.818671</ele>
        <time>2024-12-16T17:10:59.733Z</time>
      </trkpt>
      <trkpt lat="48.130569" lon="11.583621">
        <ele>518.831124</ele>
        <time>2024-12-16T17:11:02.373Z</time>
      </trkpt>
      <trkpt lat="48.130460" lon="11.583754">
        <ele>518.900463</ele>
        <time>2024-12-16T17:11:16.989Z</time>
      </trkpt>
      <trkpt lat="48.130415" lon="11.583800">
        <ele>518.927334</ele>
        <time>2024-12-16T17:11:22.482Z</time>
      </trkpt>
      <trkpt lat="48.130207" lon="11.584048">
        <ele>519.058453</ele>
        <time>2024-12-16T17:11:49.642Z</time>
      </trkpt>
      <trkpt lat="48.130122" lon="11.584157">
        <ele>519.113640</ele>
        <time>2024-12-16T17:12:00.973Z</time>
      </trkpt>
      <trkpt lat="48.129972" lon="11.584152">
        <ele>519.187646</ele>
        <time>2024-12-16T17:12:16.063Z</time>
      </trkpt>
      <trkpt lat="48.129952" lon="11.584187">
        <ele>519.202815</ele>
        <time>2024-12-16T17:12:19.194Z</time>
      </trkpt>
      <trkpt lat="48.129877" lon="11.584385">
        <ele>519.277767</ele>
        <time>2024-12-16T17:12:34.473Z</time>
      </trkpt>
      <trkpt lat="48.129860" lon="11.584424">
        <ele>519.293102</ele>
        <time>2024-12-16T17:12:37.612Z</time>
      </trkpt>
      <trkpt lat="48.129501" lon="11.585137">
        <ele>519.363746</ele>
        <time>2024-12-16T17:13:38.274Z</time>
      </trkpt>
      <trkpt lat="48.129469" lon="11.585194">
        <ele>519.337828</ele>
        <time>2024-12-16T17:13:43.390Z</time>
      </trkpt>
      <trkpt lat="48.129130" lon="11.584802">
        <ele>519.114577</ele>
        <time>2024-12-16T17:14:27.403Z</time>
      </trkpt>
      <trkpt lat="48.128596" lon="11.584193">
        <ele>518.764701</ele>
        <time>2024-12-16T17:15:35.081Z</time>
      </trkpt>
      <trkpt lat="48.128423" lon="11.583986">
        <ele>518.649276</ele>
        <time>2024-12-16T17:15:57.366Z</time>
      </trkpt>
      <trkpt lat="48.128141" lon="11.583363">
        <ele>518.582095</ele>
        <time>2024-12-16T17:16:47.857Z</time>
      </trkpt>
      <trkpt lat="48.128028" lon="11.582936">
        <ele>518.625071</ele>
        <time>2024-12-16T17:17:19.314Z</time>
      </trkpt>
      <trkpt lat="48.128004" lon="11.582590">
        <ele>518.657616</ele>
        <time>2024-12-16T17:17:43.497Z</time>
      </trkpt>
      <trkpt lat="48.128033" lon="11.581860">
        <ele>518.726036</ele>
        <time>2024-12-16T17:18:33.306Z</time>
      </trkpt>
      <trkpt lat="48.128008" lon="11.581756">
        <ele>518.736378</ele>
        <time>2024-12-16T17:18:40.740Z</time>
      </trkpt>
      <trkpt lat="48.127975" lon="11.581666">
        <ele>518.745985</ele>
        <time>2024-12-16T17:18:47.767Z</time>
      </trkpt>
      <trkpt lat="48.127972" lon="11.581330">
        <ele>518.777424</ele>
        <time>2024-12-16T17:19:10.522Z</time>
      </trkpt>
      <trkpt lat="48.127942" lon="11.581143">
        <ele>518.778516</ele>
        <time>2024-12-16T17:19:23.509Z</time>
      </trkpt>
      <trkpt lat="48.127884" lon="11.580944">
        <ele>518.660025</ele>
        <time>2024-12-16T17:19:38.175Z</time>
      </trkpt>
      <trkpt lat="48.127784" lon="11.580695">
        <ele>518.501452</ele>
        <time>2024-12-16T17:19:57.726Z</time>
      </trkpt>
      <trkpt lat="48.127686" lon="11.580478">
        <ele>518.358482</ele>
        <time>2024-12-16T17:20:15.362Z</time>
      </trkpt>
      <trkpt lat="48.127667" lon="11.580324">
        <ele>518.273024</ele>
        <time>2024-12-16T17:20:26.012Z</time>
      </trkpt>
      <trkpt lat="48.127676" lon="11.580061">
        <ele>518.129321</ele>
        <time>2024-12-16T17:20:43.961Z</time>
      </trkpt>
      <trkpt lat="48.127372" lon="11.579020">
        <ele>517.509278</ele>
        <time>2024-12-16T17:22:02.460Z</time>
      </trkpt>
      <trkpt lat="48.127327" lon="11.578895">
        <ele>517.431779</ele>
        <time>2024-12-16T17:22:12.103Z</time>
      </trkpt>
      <trkpt lat="48.127040" lon="11.578332">
        <ele>517.301334</ele>
        <time>2024-12-16T17:22:59.701Z</time>
      </trkpt>
      <trkpt lat="48.127012" lon="11.578312">
        <ele>517.299398</ele>
        <time>2024-12-16T17:23:02.923Z</time>
      </trkpt>
      <trkpt lat="48.127007" lon="11.578296">
        <ele>517.298663</ele>
        <time>2024-12-16T17:23:04.102Z</time>
      </trkpt>
      <trkpt lat="48.126913" lon="11.578071">
        <ele>517.287608</ele>
        <time>2024-12-16T17:23:21.963Z</time>
      </trkpt>
      <trkpt lat="48.126874" lon="11.578006">
        <ele>517.283968</ele>
        <time>2024-12-16T17:23:27.806Z</time>
      </trkpt>
      <trkpt lat="48.126821" lon="11.577916">
        <ele>517.278970</ele>
        <time>2024-12-16T17:23:35.866Z</time>
      </trkpt>
      <trkpt lat="48.126645" lon="11.577628">
        <ele>517.262708</ele>
        <time>2024-12-16T17:24:02.091Z</time>
      </trkpt>
      <trkpt lat="48.126612" lon="11.577555">
        <ele>517.259036</ele>
        <time>2024-12-16T17:24:08.012Z</time>
      </trkpt>
      <trkpt lat="48.126581" lon="11.577484">
        <ele>517.255503</ele>
        <time>2024-12-16T17:24:13.733Z</time>
      </trkpt>
      <trkpt lat="48.126510" lon="11.577365">
        <ele>517.248856</ele>
        <time>2024-12-16T17:24:24.388Z</time>
      </trkpt>
      <trkpt lat="48.126382" lon="11.577128">
        <ele>517.236159</ele>
        <time>2024-12-16T17:24:44.805Z</time>
      </trkpt>
      <trkpt lat="48.125972" lon="11.576394">
        <ele>517.168536</ele>
        <time>2024-12-16T17:25:49.172Z</time>
      </trkpt>
      <trkpt lat="48.125619" lon="11.575732">
        <ele>517.063140</ele>
        <time>2024-12-16T17:26:46.348Z</time>
      </trkpt>
      <trkpt lat="48.125017" lon="11.574594">
        <ele>516.882521</ele>
        <time>2024-12-16T17:28:24.015Z</time>
      </trkpt>
      <trkpt lat="48.124174" lon="11.573001">
        <ele>517.394786</ele>
        <time>2024-12-16T17:30:41.374Z</time>
      </trkpt>
      <trkpt lat="48.123900" lon="11.572486">
        <ele>517.568243</ele>
        <time>2024-12-16T17:31:26.463Z</time>
      </trkpt>
      <trkpt lat="48.123050" lon="11.570914">
        <ele>518.627785</ele>
        <time>2024-12-16T17:33:46.902Z</time>
      </trkpt>
      <trkpt lat="48.122894" lon="11.570618">
        <ele>518.828454</ele>
        <time>2024-12-16T17:34:13.329Z</time>
      </trkpt>
      <trkpt lat="48.122466" lon="11.569799">
        <ele>518.454931</ele>
        <time>2024-12-16T17:35:22.997Z</time>
      </trkpt>
      <trkpt lat="48.122247" lon="11.569410">
        <ele>518.035048</ele>
        <time>2024-12-16T17:35:57.879Z</time>
      </trkpt>
      <trkpt lat="48.122265" lon="11.569339">
        <ele>517.972381</ele>
        <time>2024-12-16T17:36:03.190Z</time>
      </trkpt>
      <trkpt lat="48.122192" lon="11.568938">
        <ele>517.629422</ele>
        <time>2024-12-16T17:36:32.108Z</time>
      </trkpt>
      <trkpt lat="48.122149" lon="11.568861">
        <ele>517.546587</ele>
        <time>2024-12-16T17:36:39.127Z</time>
      </trkpt>
      <trkpt lat="48.121990" lon="11.568563">
        <ele>517.231806</ele>
        <time>2024-12-16T17:37:05.670Z</time>
      </trkpt>
      <trkpt lat="48.121976" lon="11.568536">
        <ele>517.203596</ele>
        <time>2024-12-16T17:37:08.114Z</time>
      </trkpt>
      <trkpt lat="48.121712" lon="11.568289">
        <ele>516.818859</ele>
        <time>2024-12-16T17:37:40.680Z</time>
      </trkpt>
      <trkpt lat="48.121631" lon="11.568277">
        <ele>516.762171</ele>
        <time>2024-12-16T17:37:49.166Z</time>
      </trkpt>
      <trkpt lat="48.121529" lon="11.568051">
        <ele>516.665483</ele>
        <time>2024-12-16T17:38:08.249Z</time>
      </trkpt>
      <trkpt lat="48.121479" lon="11.567991">
        <ele>516.631469</ele>
        <time>2024-12-16T17:38:14.899Z</time>
      </trkpt>
      <trkpt lat="48.121438" lon="11.567847">
        <ele>516.575984</ele>
        <time>2024-12-16T17:38:25.655Z</time>
      </trkpt>
      <trkpt lat="48.121136" lon="11.567334">
        <ele>516.333566</ele>
        <time>2024-12-16T17:39:11.964Z</time>
      </trkpt>
      <trkpt lat="48.120601" lon="11.566300">
        <ele>515.869900</ele>
        <time>2024-12-16T17:40:39.866Z</time>
      </trkpt>
      <trkpt lat="48.119908" lon="11.565041">
        <ele>516.510507</ele>
        <time>2024-12-16T17:42:31.400Z</time>
      </trkpt>
      <trkpt lat="48.119778" lon="11.564854">
        <ele>516.627378</ele>
        <time>2024-12-16T17:42:49.919Z</time>
      </trkpt>
      <trkpt lat="48.119337" lon="11.564238">
        <ele>517.012194</ele>
        <time>2024-12-16T17:43:52.234Z</time>
      </trkpt>
      <trkpt lat="48.118231" lon="11.563075">
        <ele>517.427739</ele>
        <time>2024-12-16T17:46:10.493Z</time>
      </trkpt>
      <trkpt lat="48.117637" lon="11.562436">
        <ele>517.474196</ele>
        <time>2024-12-16T17:47:24.575Z</time>
      </trkpt>
      <trkpt lat="48.117617" lon="11.562407">
        <ele>517.466316</ele>
        <time>2024-12-16T17:47:27.471Z</time>
      </trkpt>
      <trkpt lat="48.117520" lon="11.562295">
        <ele>517.431647</ele>
        <time>2024-12-16T17:47:39.909Z</time>
      </trkpt>
      <trkpt lat="48.117177" lon="11.562035">
        <ele>517.322828</ele>
        <time>2024-12-16T17:48:18.962Z</time>
      </trkpt>
      <trkpt lat="48.116950" lon="11.561793">
        <ele>517.243956</ele>
        <time>2024-12-16T17:48:47.197Z</time>
      </trkpt>
      <trkpt lat="48.116481" lon="11.561306">
        <ele>517.082413</ele>
        <time>2024-12-16T17:49:44.427Z</time>
      </trkpt>
      <trkpt lat="48.116244" lon="11.561140">
        <ele>517.075414</ele>
        <time>2024-12-16T17:50:11.102Z</time>
      </trkpt>
      <trkpt lat="48.115972" lon="11.561003">
        <ele>517.123218</ele>
        <time>2024-12-16T17:50:40.915Z</time>
      </trkpt>
      <trkpt lat="48.115807" lon="11.560969">
        <ele>517.150963</ele>
        <time>2024-12-16T17:50:58.175Z</time>
      </trkpt>
      <trkpt lat="48.114948" lon="11.560933">
        <ele>517.294114</ele>
        <time>2024-12-16T17:52:24.798Z</time>
      </trkpt>
      <trkpt lat="48.114798" lon="11.560900">
        <ele>517.319369</ele>
        <time>2024-12-16T17:52:40.150Z</time>
      </trkpt>
      <trkpt lat="48.114038" lon="11.560916">
        <ele>517.216848</ele>
        <time>2024-12-16T17:53:57.170Z</time>
      </trkpt>
      <trkpt lat="48.113324" lon="11.560931">
        <ele>517.051263</ele>
        <time>2024-12-16T17:55:09.003Z</time>
      </trkpt>
      <trkpt lat="48.112926" lon="11.560954">
        <ele>516.958903</ele>
        <time>2024-12-16T17:55:49.044Z</time>
      </trkpt>
      <trkpt lat="48.112519" lon="11.561077">
        <ele>517.047846</ele>
        <time>2024-12-16T17:56:30.790Z</time>
      </trkpt>
      <trkpt lat="48.112476" lon="11.561091">
        <ele>517.064456</ele>
        <time>2024-12-16T17:56:35.239Z</time>
      </trkpt>
      <trkpt lat="48.112167" lon="11.561185">
        <ele>517.183476</ele>
        <time>2024-12-16T17:57:07.340Z</time>
      </trkpt>
      <trkpt lat="48.111981" lon="11.561231">
        <ele>517.254636</ele>
        <time>2024-12-16T17:57:26.494Z</time>
      </trkpt>
      <trkpt lat="48.111452" lon="11.561407">
        <ele>517.459185</ele>
        <time>2024-12-16T17:58:20.880Z</time>
      </trkpt>
      <trkpt lat="48.111258" lon="11.561452">
        <ele>517.533287</ele>
        <time>2024-12-16T17:58:40.906Z</time>
      </trkpt>
      <trkpt lat="48.110678" lon="11.561586">
        <ele>517.715414</ele>
        <time>2024-12-16T17:59:42.188Z</time>
      </trkpt>
      <trkpt lat="48.110124" lon="11.561696">
        <ele>517.868154</ele>
        <time>2024-12-16T18:00:39.348Z</time>
      </trkpt>
      <trkpt lat="48.109526" lon="11.561665">
        <ele>518.031691</ele>
        <time>2024-12-16T18:01:39.284Z</time>
      </trkpt>
      <trkpt lat="48.109146" lon="11.561523">
        <ele>518.110062</ele>
        <time>2024-12-16T18:02:18.880Z</time>
      </trkpt>
      <trkpt lat="48.108686" lon="11.561325">
        <ele>518.134029</ele>
        <time>2024-12-16T18:03:07.471Z</time>
      </trkpt>
      <trkpt lat="48.108208" lon="11.561038">
        <ele>518.159816</ele>
        <time>2024-12-16T18:03:59.037Z</time>
      </trkpt>
      <trkpt lat="48.107726" lon="11.560617">
        <ele>518.187757</ele>
        <time>2024-12-16T18:04:56.040Z</time>
      </trkpt>
      <trkpt lat="48.107330" lon="11.560193">
        <ele>518.398118</ele>
        <time>2024-12-16T18:05:45.893Z</time>
      </trkpt>
      <trkpt lat="48.106978" lon="11.559686">
        <ele>518.669277</ele>
        <time>2024-12-16T18:06:36.021Z</time>
      </trkpt>
      <trkpt lat="48.106650" lon="11.559199">
        <ele>518.925722</ele>
        <time>2024-12-16T18:07:23.085Z</time>
      </trkpt>
      <trkpt lat="48.106436" lon="11.558860">
        <ele>519.098678</ele>
        <time>2024-12-16T18:07:54.679Z</time>
      </trkpt>
      <trkpt lat="48.106254" lon="11.558556">
        <ele>519.243211</ele>
        <time>2024-12-16T18:08:22.381Z</time>
      </trkpt>
      <trkpt lat="48.105917" lon="11.558040">
        <ele>519.479089</ele>
        <time>2024-12-16T18:09:11.532Z</time>
      </trkpt>
      <trkpt lat="48.104810" lon="11.556255">
        <ele>520.489810</ele>
        <time>2024-12-16T18:11:56.776Z</time>
      </trkpt>
      <trkpt lat="48.103619" lon="11.554351">
        <ele>522.310175</ele>
        <time>2024-12-16T18:14:58.627Z</time>
      </trkpt>
      <trkpt lat="48.102840" lon="11.553104">
        <ele>523.665692</ele>
        <time>2024-12-16T18:16:58.721Z</time>
      </trkpt>
      <trkpt lat="48.102408" lon="11.552432">
        <ele>524.091253</ele>
        <time>2024-12-16T18:18:02.617Z</time>
      </trkpt>
      <trkpt lat="48.102014" lon="11.551795">
        <ele>524.213548</ele>
        <time>2024-12-16T18:19:00.945Z</time>
      </trkpt>
      <trkpt lat="48.100954" lon="11.551309">
        <ele>524.400453</ele>
        <time>2024-12-16T18:20:52.139Z</time>
      </trkpt>
      <trkpt lat="48.100892" lon="11.551271">
        <ele>524.399745</ele>
        <time>2024-12-16T18:20:58.821Z</time>
      </trkpt>
      <trkpt lat="48.100703" lon="11.551269">
        <ele>524.397747</ele>
        <time>2024-12-16T18:21:17.800Z</time>
      </trkpt>
      <trkpt lat="48.100718" lon="11.550992">
        <ele>524.395784</ele>
        <time>2024-12-16T18:21:36.462Z</time>
      </trkpt>
      <trkpt lat="48.100938" lon="11.548443">
        <ele>524.736749</ele>
        <time>2024-12-16T18:24:28.615Z</time>
      </trkpt>
      <trkpt lat="48.100969" lon="11.548218">
        <ele>524.831586</ele>
        <time>2024-12-16T18:24:44.228Z</time>
      </trkpt>
      <trkpt lat="48.101045" lon="11.547974">
        <ele>524.942727</ele>
        <time>2024-12-16T18:25:02.686Z</time>
      </trkpt>
      <trkpt lat="48.101143" lon="11.547754">
        <ele>525.051894</ele>
        <time>2024-12-16T18:25:20.875Z</time>
      </trkpt>
      <trkpt lat="48.101175" lon="11.547666">
        <ele>525.093257</ele>
        <time>2024-12-16T18:25:27.723Z</time>
      </trkpt>
      <trkpt lat="48.101199" lon="11.547600">
        <ele>525.124279</ele>
        <time>2024-12-16T18:25:32.949Z</time>
      </trkpt>
      <trkpt lat="48.101451" lon="11.546791">
        <ele>525.492778</ele>
        <time>2024-12-16T18:26:35.353Z</time>
      </trkpt>
      <trkpt lat="48.101510" lon="11.546668">
        <ele>525.495486</ele>
        <time>2024-12-16T18:26:45.916Z</time>
      </trkpt>
      <trkpt lat="48.101581" lon="11.546526">
        <ele>525.495486</ele>
        <time>2024-12-16T18:26:58.078Z</time>
      </trkpt>
      <trkpt lat="48.101593" lon="11.546491">
        <ele>525.495486</ele>
        <time>2024-12-16T18:27:00.777Z</time>
      </trkpt>
      <trkpt lat="48.101696" lon="11.546356">
        <ele>525.495486</ele>
        <time>2024-12-16T18:27:14.689Z</time>
      </trkpt>
      <trkpt lat="48.101870" lon="11.546284">
        <ele>525.495486</ele>
        <time>2024-12-16T18:27:33.215Z</time>
      </trkpt>
      <trkpt lat="48.102161" lon="11.546188">
        <ele>525.495486</ele>
        <time>2024-12-16T18:28:04.118Z</time>
      </trkpt>
      <trkpt lat="48.103000" lon="11.546142">
        <ele>525.495486</ele>
        <time>2024-12-16T18:29:32.172Z</time>
      </trkpt>
      <trkpt lat="48.103463" lon="11.546092">
        <ele>525.495486</ele>
        <time>2024-12-16T18:30:20.273Z</time>
      </trkpt>
      <trkpt lat="48.103577" lon="11.546081">
        <ele>525.495486</ele>
        <time>2024-12-16T18:30:31.983Z</time>
      </trkpt>
      <trkpt lat="48.103746" lon="11.546034">
        <ele>525.495486</ele>
        <time>2024-12-16T18:30:49.724Z</time>
      </trkpt>
      <trkpt lat="48.103742" lon="11.546004">
        <ele>525.495486</ele>
        <time>2024-12-16T18:30:51.848Z</time>
      </trkpt>
      <trkpt lat="48.103737" lon="11.545970">
        <ele>525.495486</ele>
        <time>2024-12-16T18:30:54.234Z</time>
      </trkpt>
      <trkpt lat="48.103909" lon="11.545911">
        <ele>525.495486</ele>
        <time>2024-12-16T18:31:12.311Z</time>
      </trkpt>
    </trkseg>
  </trk>
</gpx>