<?xml version="1.0" encoding="UTF-8" standalone="no" ?>
<gpx xmlns="http://www.topografix.com/GPX/1/1" creator="MapSource 6.16.3" version="1.1" xmlns:xsi="http://www.w3.org/2001/XMLSchema-instance" xsi:schemaLocation="http://www.topografix.com/GPX/1/1 http://www.topografix.com/GPX/1/1/gpx.xsd">

  <metadata>
    <link href="http://www.garmin.com">
      <text>Garmin International</text>
    </link>
    <time>2019-09-23T06:24:19Z</time>
    <bounds maxlat="48.236580966040492" maxlon="10.787163879722357" minlat="48.226443976163864" minlon="10.760822407901287"/>
  </metadata>

  <trk>
    <name>06 km Großaitingen</name>
    <link href="https://www.gpsies.com/map.do?fileId=jmnswqkteapmxuhv"/>
    <link href="https://www.gpsies.com/charts/jm/map/jmnswqkteapmxuhv_map.png"/>
    <link href="https://www.gpsies.com/charts/jm/mapThumb/jmnswqkteapmxuhv_mapThumb.png"/>
    <link href="https://www.gpsies.com/charts/jm/tab/jmnswqkteapmxuhv_tab.png"/>
    <extensions>
      <gpxx:TrackExtension xmlns:gpxx="http://www.garmin.com/xmlschemas/GpxExtensions/v3">
        <gpxx:DisplayColor>Blue</gpxx:DisplayColor>
      </gpxx:TrackExtension>
    </extensions>
    <trkseg>
      <trkpt lat="48.227429687976837" lon="10.780774271115661">
        <ele>535</ele>
        <time>2010-01-01T00:00:00Z</time>
      </trkpt>
      <trkpt lat="48.227426838129759" lon="10.780692463740706">
        <ele>535</ele>
        <time>2010-01-01T00:00:02Z</time>
      </trkpt>
      <trkpt lat="48.227669661864638" lon="10.780815258622169">
        <ele>535</ele>
        <time>2010-01-01T00:00:12Z</time>
      </trkpt>
      <trkpt lat="48.22787837125361" lon="10.78093009069562">
        <ele>535</ele>
        <time>2010-01-01T00:00:21Z</time>
      </trkpt>
      <trkpt lat="48.228039806708694" lon="10.781052298843861">
        <ele>536</ele>
        <time>2010-01-01T00:00:28Z</time>
      </trkpt>
      <trkpt lat="48.228322360664606" lon="10.781270563602448">
        <ele>540</ele>
        <time>2010-01-01T00:00:41Z</time>
      </trkpt>
      <trkpt lat="48.228638609871268" lon="10.781543059274554">
        <ele>540</ele>
        <time>2010-01-01T00:00:55Z</time>
      </trkpt>
      <trkpt lat="48.228671718388796" lon="10.781464604660869">
        <ele>540</ele>
        <time>2010-01-01T00:00:58Z</time>
      </trkpt>
      <trkpt lat="48.228516820818186" lon="10.781333260238171">
        <ele>540</ele>
        <time>2010-01-01T00:01:05Z</time>
      </trkpt>
      <trkpt lat="48.228497626259923" lon="10.781312473118305">
        <ele>540</ele>
        <time>2010-01-01T00:01:06Z</time>
      </trkpt>
      <trkpt lat="48.228493602946401" lon="10.781293697655201">
        <ele>540</ele>
        <time>2010-01-01T00:01:06Z</time>
      </trkpt>
      <trkpt lat="48.228586809709668" lon="10.781010473147035">
        <ele>536</ele>
        <time>2010-01-01T00:01:15Z</time>
      </trkpt>
      <trkpt lat="48.22864162735641" lon="10.780800590291619">
        <ele>536</ele>
        <time>2010-01-01T00:01:21Z</time>
      </trkpt>
      <trkpt lat="48.22866509668529" lon="10.780697911977768">
        <ele>536</ele>
        <time>2010-01-01T00:01:24Z</time>
      </trkpt>
      <trkpt lat="48.228714969009161" lon="10.780462464317679">
        <ele>536</ele>
        <time>2010-01-01T00:01:30Z</time>
      </trkpt>
      <trkpt lat="48.228755537420511" lon="10.780122829601169">
        <ele>531</ele>
        <time>2010-01-01T00:01:40Z</time>
      </trkpt>
      <trkpt lat="48.228786299005151" lon="10.779801718890667">
        <ele>531</ele>
        <time>2010-01-01T00:01:48Z</time>
      </trkpt>
      <trkpt lat="48.228830806910992" lon="10.779582532122731">
        <ele>531</ele>
        <time>2010-01-01T00:01:54Z</time>
      </trkpt>
      <trkpt lat="48.229009676724672" lon="10.779093112796545">
        <ele>531</ele>
        <time>2010-01-01T00:02:09Z</time>
      </trkpt>
      <trkpt lat="48.229331960901618" lon="10.778244277462363">
        <ele>529</ele>
        <time>2010-01-01T00:02:35Z</time>
      </trkpt>
      <trkpt lat="48.229430867359042" lon="10.777998184785247">
        <ele>529</ele>
        <time>2010-01-01T00:02:43Z</time>
      </trkpt>
      <trkpt lat="48.229912659153342" lon="10.778445526957512">
        <ele>528</ele>
        <time>2010-01-01T00:03:06Z</time>
      </trkpt>
      <trkpt lat="48.230074429884553" lon="10.778615511953831">
        <ele>528</ele>
        <time>2010-01-01T00:03:14Z</time>
      </trkpt>
      <trkpt lat="48.230474414303899" lon="10.779006695374846">
        <ele>528</ele>
        <time>2010-01-01T00:03:33Z</time>
      </trkpt>
      <trkpt lat="48.230176018550992" lon="10.779840862378478">
        <ele>529</ele>
        <time>2010-01-01T00:03:58Z</time>
      </trkpt>
      <trkpt lat="48.230367209762335" lon="10.779983103275299">
        <ele>529</ele>
        <time>2010-01-01T00:04:06Z</time>
      </trkpt>
      <trkpt lat="48.230549432337284" lon="10.780052840709686">
        <ele>530</ele>
        <time>2010-01-01T00:04:14Z</time>
      </trkpt>
      <trkpt lat="48.230881774798036" lon="10.780036663636565">
        <ele>530</ele>
        <time>2010-01-01T00:04:27Z</time>
      </trkpt>
      <trkpt lat="48.23102468624711" lon="10.780031299218535">
        <ele>530</ele>
        <time>2010-01-01T00:04:33Z</time>
      </trkpt>
      <trkpt lat="48.231312436982989" lon="10.78008770942688">
        <ele>527</ele>
        <time>2010-01-01T00:04:45Z</time>
      </trkpt>
      <trkpt lat="48.231728682294488" lon="10.78046590089798">
        <ele>527</ele>
        <time>2010-01-01T00:05:04Z</time>
      </trkpt>
      <trkpt lat="48.231846615672112" lon="10.780272698029876">
        <ele>527</ele>
        <time>2010-01-01T00:05:11Z</time>
      </trkpt>
      <trkpt lat="48.232161020860076" lon="10.780559694394469">
        <ele>528</ele>
        <time>2010-01-01T00:05:26Z</time>
      </trkpt>
      <trkpt lat="48.232250371947885" lon="10.78070193529129">
        <ele>528</ele>
        <time>2010-01-01T00:05:31Z</time>
      </trkpt>
      <trkpt lat="48.232341483235359" lon="10.780980801209807">
        <ele>528</ele>
        <time>2010-01-01T00:05:39Z</time>
      </trkpt>
      <trkpt lat="48.232427230104804" lon="10.78120082616806">
        <ele>528</ele>
        <time>2010-01-01T00:05:46Z</time>
      </trkpt>
      <trkpt lat="48.232596963644028" lon="10.781383216381073">
        <ele>528</ele>
        <time>2010-01-01T00:05:54Z</time>
      </trkpt>
      <trkpt lat="48.232722021639347" lon="10.781466281041503">
        <ele>528</ele>
        <time>2010-01-01T00:06:00Z</time>
      </trkpt>
      <trkpt lat="48.232886390760541" lon="10.781697034835815">
        <ele>528</ele>
        <time>2010-01-01T00:06:09Z</time>
      </trkpt>
      <trkpt lat="48.233043635264039" lon="10.782064413651824">
        <ele>528</ele>
        <time>2010-01-01T00:06:21Z</time>
      </trkpt>
      <trkpt lat="48.233218733221292" lon="10.782504295930266">
        <ele>528</ele>
        <time>2010-01-01T00:06:34Z</time>
      </trkpt>
      <trkpt lat="48.233393831178546" lon="10.783115923404694">
        <ele>528</ele>
        <time>2010-01-01T00:06:52Z</time>
      </trkpt>
      <trkpt lat="48.233497431501746" lon="10.783518170937896">
        <ele>528</ele>
        <time>2010-01-01T00:07:03Z</time>
      </trkpt>
      <trkpt lat="48.233559960499406" lon="10.783842802047729">
        <ele>527</ele>
        <time>2010-01-01T00:07:13Z</time>
      </trkpt>
      <trkpt lat="48.233559960499406" lon="10.784043883904815">
        <ele>527</ele>
        <time>2010-01-01T00:07:18Z</time>
      </trkpt>
      <trkpt lat="48.233534898608923" lon="10.784346973523498">
        <ele>527</ele>
        <time>2010-01-01T00:07:26Z</time>
      </trkpt>
      <trkpt lat="48.233624333515763" lon="10.784583007916808">
        <ele>527</ele>
        <time>2010-01-01T00:07:33Z</time>
      </trkpt>
      <trkpt lat="48.233788618817925" lon="10.784749304875731">
        <ele>525</ele>
        <time>2010-01-01T00:07:41Z</time>
      </trkpt>
      <trkpt lat="48.233933793380857" lon="10.784965138882399">
        <ele>525</ele>
        <time>2010-01-01T00:07:49Z</time>
      </trkpt>
      <trkpt lat="48.234235290437937" lon="10.785393118858337">
        <ele>525</ele>
        <time>2010-01-01T00:08:06Z</time>
      </trkpt>
      <trkpt lat="48.234083410352468" lon="10.78569620847702">
        <ele>527</ele>
        <time>2010-01-01T00:08:16Z</time>
      </trkpt>
      <trkpt lat="48.23419782333076" lon="10.785838281735778">
        <ele>527</ele>
        <time>2010-01-01T00:08:22Z</time>
      </trkpt>
      <trkpt lat="48.234335286542773" lon="10.785967111587524">
        <ele>527</ele>
        <time>2010-01-01T00:08:29Z</time>
      </trkpt>
      <trkpt lat="48.234392534941435" lon="10.786114633083344">
        <ele>527</ele>
        <time>2010-01-01T00:08:33Z</time>
      </trkpt>
      <trkpt lat="48.234385410323739" lon="10.786280930042267">
        <ele>526</ele>
        <time>2010-01-01T00:08:38Z</time>
      </trkpt>
      <trkpt lat="48.234390690922737" lon="10.786557113751769">
        <ele>526</ele>
        <time>2010-01-01T00:08:45Z</time>
      </trkpt>
      <trkpt lat="48.234412232413888" lon="10.786779820919037">
        <ele>526</ele>
        <time>2010-01-01T00:08:51Z</time>
      </trkpt>
      <trkpt lat="48.234506864100695" lon="10.786956762894988">
        <ele>526</ele>
        <time>2010-01-01T00:08:57Z</time>
      </trkpt>
      <trkpt lat="48.23464441113174" lon="10.787141919136047">
        <ele>529</ele>
        <time>2010-01-01T00:09:04Z</time>
      </trkpt>
      <trkpt lat="48.234724625945091" lon="10.787163879722357">
        <ele>529</ele>
        <time>2010-01-01T00:09:08Z</time>
      </trkpt>
      <trkpt lat="48.235085718333721" lon="10.786460638046265">
        <ele>526</ele>
        <time>2010-01-01T00:09:31Z</time>
      </trkpt>
      <trkpt lat="48.23518043383956" lon="10.786251425743103">
        <ele>526</ele>
        <time>2010-01-01T00:09:38Z</time>
      </trkpt>
      <trkpt lat="48.235268108546734" lon="10.786028886213899">
        <ele>525</ele>
        <time>2010-01-01T00:09:45Z</time>
      </trkpt>
      <trkpt lat="48.2354477327317" lon="10.785272167995572">
        <ele>524</ele>
        <time>2010-01-01T00:10:06Z</time>
      </trkpt>
      <trkpt lat="48.235627021640539" lon="10.78491828404367">
        <ele>524</ele>
        <time>2010-01-01T00:10:18Z</time>
      </trkpt>
      <trkpt lat="48.235877137631178" lon="10.784507906064391">
        <ele>525</ele>
        <time>2010-01-01T00:10:33Z</time>
      </trkpt>
      <trkpt lat="48.23598082177341" lon="10.784226274117827">
        <ele>525</ele>
        <time>2010-01-01T00:10:42Z</time>
      </trkpt>
      <trkpt lat="48.23608785867691" lon="10.783901810646057">
        <ele>525</ele>
        <time>2010-01-01T00:10:51Z</time>
      </trkpt>
      <trkpt lat="48.236241582781076" lon="10.783523619174957">
        <ele>526</ele>
        <time>2010-01-01T00:11:03Z</time>
      </trkpt>
      <trkpt lat="48.236305704340339" lon="10.783375008031726">
        <ele>524</ele>
        <time>2010-01-01T00:11:08Z</time>
      </trkpt>
      <trkpt lat="48.236580966040492" lon="10.782724320888519">
        <ele>524</ele>
        <time>2010-01-01T00:11:28Z</time>
      </trkpt>
      <trkpt lat="48.236473761498928" lon="10.782595491036773">
        <ele>524</ele>
        <time>2010-01-01T00:11:34Z</time>
      </trkpt>
      <trkpt lat="48.236282737925649" lon="10.78246682882309">
        <ele>524</ele>
        <time>2010-01-01T00:11:42Z</time>
      </trkpt>
      <trkpt lat="48.236295226961374" lon="10.782362222671509">
        <ele>524</ele>
        <time>2010-01-01T00:11:45Z</time>
      </trkpt>
      <trkpt lat="48.236350631341338" lon="10.78217170201242">
        <ele>524</ele>
        <time>2010-01-01T00:11:51Z</time>
      </trkpt>
      <trkpt lat="48.236288018524647" lon="10.782064413651824">
        <ele>522</ele>
        <time>2010-01-01T00:11:54Z</time>
      </trkpt>
      <trkpt lat="48.235934302210808" lon="10.781597709283233">
        <ele>526</ele>
        <time>2010-01-01T00:12:13Z</time>
      </trkpt>
      <trkpt lat="48.235468016937375" lon="10.781039809808135">
        <ele>530</ele>
        <time>2010-01-01T00:12:37Z</time>
      </trkpt>
      <trkpt lat="48.234764104709029" lon="10.780237913131714">
        <ele>527</ele>
        <time>2010-01-01T00:13:12Z</time>
      </trkpt>
      <trkpt lat="48.23402632959187" lon="10.779478764161468">
        <ele>522</ele>
        <time>2010-01-01T00:13:48Z</time>
      </trkpt>
      <trkpt lat="48.233590302988887" lon="10.779028236865997">
        <ele>528</ele>
        <time>2010-01-01T00:14:09Z</time>
      </trkpt>
      <trkpt lat="48.232879266142845" lon="10.77828518114984">
        <ele>527</ele>
        <time>2010-01-01T00:14:44Z</time>
      </trkpt>
      <trkpt lat="48.233109684661031" lon="10.777713870629668">
        <ele>527</ele>
        <time>2010-01-01T00:15:02Z</time>
      </trkpt>
      <trkpt lat="48.233134662732482" lon="10.777528798207641">
        <ele>527</ele>
        <time>2010-01-01T00:15:07Z</time>
      </trkpt>
      <trkpt lat="48.233115132898092" lon="10.777276670560241">
        <ele>527</ele>
        <time>2010-01-01T00:15:14Z</time>
      </trkpt>
      <trkpt lat="48.233093926683068" lon="10.777069218456745">
        <ele>531</ele>
        <time>2010-01-01T00:15:19Z</time>
      </trkpt>
      <trkpt lat="48.232940034940839" lon="10.775602972134948">
        <ele>530</ele>
        <time>2010-01-01T00:15:59Z</time>
      </trkpt>
      <trkpt lat="48.232671730220318" lon="10.77329677529633">
        <ele>527</ele>
        <time>2010-01-01T00:17:01Z</time>
      </trkpt>
      <trkpt lat="48.23370823636651" lon="10.772209977731109">
        <ele>524</ele>
        <time>2010-01-01T00:17:52Z</time>
      </trkpt>
      <trkpt lat="48.233738578855991" lon="10.772129511460662">
        <ele>524</ele>
        <time>2010-01-01T00:17:54Z</time>
      </trkpt>
      <trkpt lat="48.233713433146477" lon="10.772061198949814">
        <ele>522</ele>
        <time>2010-01-01T00:17:57Z</time>
      </trkpt>
      <trkpt lat="48.233688706532121" lon="10.772058013826609">
        <ele>522</ele>
        <time>2010-01-01T00:17:58Z</time>
      </trkpt>
      <trkpt lat="48.233650317415595" lon="10.772068491205573">
        <ele>522</ele>
        <time>2010-01-01T00:17:59Z</time>
      </trkpt>
      <trkpt lat="48.233584938570857" lon="10.772112831473351">
        <ele>524</ele>
        <time>2010-01-01T00:18:02Z</time>
      </trkpt>
      <trkpt lat="48.233519475907087" lon="10.772174019366503">
        <ele>524</ele>
        <time>2010-01-01T00:18:05Z</time>
      </trkpt>
      <trkpt lat="48.233474800363183" lon="10.772204529494047">
        <ele>524</ele>
        <time>2010-01-01T00:18:07Z</time>
      </trkpt>
      <trkpt lat="48.233411768451333" lon="10.772214671596885">
        <ele>524</ele>
        <time>2010-01-01T00:18:10Z</time>
      </trkpt>
      <trkpt lat="48.23335837572813" lon="10.772190531715751">
        <ele>524</ele>
        <time>2010-01-01T00:18:12Z</time>
      </trkpt>
      <trkpt lat="48.233261313289404" lon="10.772054996341467">
        <ele>522</ele>
        <time>2010-01-01T00:18:17Z</time>
      </trkpt>
      <trkpt lat="48.233087388798594" lon="10.771648641675711">
        <ele>522</ele>
        <time>2010-01-01T00:18:30Z</time>
      </trkpt>
      <trkpt lat="48.232997115701437" lon="10.771421995013952">
        <ele>522</ele>
        <time>2010-01-01T00:18:37Z</time>
      </trkpt>
      <trkpt lat="48.232792094349861" lon="10.770909106358886">
        <ele>525</ele>
        <time>2010-01-01T00:18:53Z</time>
      </trkpt>
      <trkpt lat="48.232735935598612" lon="10.77076761983335">
        <ele>525</ele>
        <time>2010-01-01T00:18:57Z</time>
      </trkpt>
      <trkpt lat="48.232670808210969" lon="10.770599562674761">
        <ele>525</ele>
        <time>2010-01-01T00:19:03Z</time>
      </trkpt>
      <trkpt lat="48.232554215937853" lon="10.770391691476107">
        <ele>527</ele>
        <time>2010-01-01T00:19:10Z</time>
      </trkpt>
      <trkpt lat="48.232484813779593" lon="10.770267890766263">
        <ele>527</ele>
        <time>2010-01-01T00:19:14Z</time>
      </trkpt>
      <trkpt lat="48.232435695827007" lon="10.770131014287472">
        <ele>527</ele>
        <time>2010-01-01T00:19:18Z</time>
      </trkpt>
      <trkpt lat="48.232366628944874" lon="10.76984066516161">
        <ele>527</ele>
        <time>2010-01-01T00:19:26Z</time>
      </trkpt>
      <trkpt lat="48.232293371111155" lon="10.769451828673482">
        <ele>530</ele>
        <time>2010-01-01T00:19:37Z</time>
      </trkpt>
      <trkpt lat="48.232240313664079" lon="10.769215459004045">
        <ele>530</ele>
        <time>2010-01-01T00:19:44Z</time>
      </trkpt>
      <trkpt lat="48.232154985889792" lon="10.768916141241789">
        <ele>530</ele>
        <time>2010-01-01T00:19:53Z</time>
      </trkpt>
      <trkpt lat="48.232061276212335" lon="10.768650770187378">
        <ele>527</ele>
        <time>2010-01-01T00:20:01Z</time>
      </trkpt>
      <trkpt lat="48.232016935944557" lon="10.768534429371357">
        <ele>527</ele>
        <time>2010-01-01T00:20:04Z</time>
      </trkpt>
      <trkpt lat="48.231985922902822" lon="10.768454717472196">
        <ele>527</ele>
        <time>2010-01-01T00:20:07Z</time>
      </trkpt>
      <trkpt lat="48.231961531564593" lon="10.768421441316605">
        <ele>527</ele>
        <time>2010-01-01T00:20:08Z</time>
      </trkpt>
      <trkpt lat="48.231930434703827" lon="10.76840803027153">
        <ele>527</ele>
        <time>2010-01-01T00:20:09Z</time>
      </trkpt>
      <trkpt lat="48.231879472732544" lon="10.768404426053166">
        <ele>527</ele>
        <time>2010-01-01T00:20:11Z</time>
      </trkpt>
      <trkpt lat="48.231844017282128" lon="10.768391015008092">
        <ele>527</ele>
        <time>2010-01-01T00:20:13Z</time>
      </trkpt>
      <trkpt lat="48.231817362830043" lon="10.768337789922953">
        <ele>527</ele>
        <time>2010-01-01T00:20:14Z</time>
      </trkpt>
      <trkpt lat="48.23172876611352" lon="10.768105695024133">
        <ele>527</ele>
        <time>2010-01-01T00:20:22Z</time>
      </trkpt>
      <trkpt lat="48.231440931558609" lon="10.767319304868579">
        <ele>530</ele>
        <time>2010-01-01T00:20:46Z</time>
      </trkpt>
      <trkpt lat="48.231215961277485" lon="10.766721675172448">
        <ele>529</ele>
        <time>2010-01-01T00:21:04Z</time>
      </trkpt>
      <trkpt lat="48.230976741760969" lon="10.766072496771812">
        <ele>528</ele>
        <time>2010-01-01T00:21:24Z</time>
      </trkpt>
      <trkpt lat="48.230861239135265" lon="10.765781393274665">
        <ele>528</ele>
        <time>2010-01-01T00:21:33Z</time>
      </trkpt>
      <trkpt lat="48.230664934962988" lon="10.765287866815925">
        <ele>530</ele>
        <time>2010-01-01T00:21:48Z</time>
      </trkpt>
      <trkpt lat="48.230423787608743" lon="10.764748239889741">
        <ele>530</ele>
        <time>2010-01-01T00:22:05Z</time>
      </trkpt>
      <trkpt lat="48.230021204799414" lon="10.763904768973589">
        <ele>531</ele>
        <time>2010-01-01T00:22:33Z</time>
      </trkpt>
      <trkpt lat="48.229777961969376" lon="10.763437058776617">
        <ele>527</ele>
        <time>2010-01-01T00:22:49Z</time>
      </trkpt>
      <trkpt lat="48.22943807579577" lon="10.762758292257786">
        <ele>529</ele>
        <time>2010-01-01T00:23:11Z</time>
      </trkpt>
      <trkpt lat="48.229267168790102" lon="10.762471966445446">
        <ele>529</ele>
        <time>2010-01-01T00:23:22Z</time>
      </trkpt>
      <trkpt lat="48.229165161028504" lon="10.762308770790696">
        <ele>529</ele>
        <time>2010-01-01T00:23:28Z</time>
      </trkpt>
      <trkpt lat="48.229091987013817" lon="10.762162003666162">
        <ele>529</ele>
        <time>2010-01-01T00:23:33Z</time>
      </trkpt>
      <trkpt lat="48.229056615382433" lon="10.762081872671843">
        <ele>527</ele>
        <time>2010-01-01T00:23:35Z</time>
      </trkpt>
      <trkpt lat="48.229027697816491" lon="10.76198497787118">
        <ele>527</ele>
        <time>2010-01-01T00:23:38Z</time>
      </trkpt>
      <trkpt lat="48.229018896818161" lon="10.761850699782372">
        <ele>527</ele>
        <time>2010-01-01T00:23:42Z</time>
      </trkpt>
      <trkpt lat="48.229012191295624" lon="10.761709799990058">
        <ele>527</ele>
        <time>2010-01-01T00:23:45Z</time>
      </trkpt>
      <trkpt lat="48.229012191295624" lon="10.76163268648088">
        <ele>527</ele>
        <time>2010-01-01T00:23:47Z</time>
      </trkpt>
      <trkpt lat="48.229003306478262" lon="10.761572420597076">
        <ele>527</ele>
        <time>2010-01-01T00:23:49Z</time>
      </trkpt>
      <trkpt lat="48.228987716138363" lon="10.761532271280885">
        <ele>527</ele>
        <time>2010-01-01T00:23:50Z</time>
      </trkpt>
      <trkpt lat="48.228803398087621" lon="10.761150391772389">
        <ele>527</ele>
        <time>2010-01-01T00:24:03Z</time>
      </trkpt>
      <trkpt lat="48.22873349301517" lon="10.760999768972397">
        <ele>529</ele>
        <time>2010-01-01T00:24:08Z</time>
      </trkpt>
      <trkpt lat="48.228702060878277" lon="10.76093883253634">
        <ele>529</ele>
        <time>2010-01-01T00:24:10Z</time>
      </trkpt>
      <trkpt lat="48.228680603206158" lon="10.760894492268562">
        <ele>529</ele>
        <time>2010-01-01T00:24:11Z</time>
      </trkpt>
      <trkpt lat="48.228663001209497" lon="10.760860126465559">
        <ele>529</ele>
        <time>2010-01-01T00:24:12Z</time>
      </trkpt>
      <trkpt lat="48.228652607649565" lon="10.760847637429833">
        <ele>529</ele>
        <time>2010-01-01T00:24:13Z</time>
      </trkpt>
      <trkpt lat="48.228632658720016" lon="10.760830538347363">
        <ele>529</ele>
        <time>2010-01-01T00:24:14Z</time>
      </trkpt>
      <trkpt lat="48.228603405877948" lon="10.760822407901287">
        <ele>529</ele>
        <time>2010-01-01T00:24:15Z</time>
      </trkpt>
      <trkpt lat="48.228570884093642" lon="10.760829281061888">
        <ele>529</ele>
        <time>2010-01-01T00:24:16Z</time>
      </trkpt>
      <trkpt lat="48.228529812768102" lon="10.760883092880249">
        <ele>529</ele>
        <time>2010-01-01T00:24:19Z</time>
      </trkpt>
      <trkpt lat="48.228392601013184" lon="10.7610824983567">
        <ele>529</ele>
        <time>2010-01-01T00:24:26Z</time>
      </trkpt>
      <trkpt lat="48.22828346863389" lon="10.761244185268879">
        <ele>529</ele>
        <time>2010-01-01T00:24:32Z</time>
      </trkpt>
      <trkpt lat="48.228202080354095" lon="10.761365387588739">
        <ele>530</ele>
        <time>2010-01-01T00:24:37Z</time>
      </trkpt>
      <trkpt lat="48.228066209703684" lon="10.761568564921618">
        <ele>530</ele>
        <time>2010-01-01T00:24:45Z</time>
      </trkpt>
      <trkpt lat="48.228031676262617" lon="10.761642577126622">
        <ele>530</ele>
        <time>2010-01-01T00:24:47Z</time>
      </trkpt>
      <trkpt lat="48.228031005710363" lon="10.761641906574368">
        <ele>530</ele>
        <time>2010-01-01T00:24:47Z</time>
      </trkpt>
      <trkpt lat="48.228013068437576" lon="10.761688761413097">
        <ele>530</ele>
        <time>2010-01-01T00:24:48Z</time>
      </trkpt>
      <trkpt lat="48.227964788675308" lon="10.761861177161336">
        <ele>530</ele>
        <time>2010-01-01T00:24:53Z</time>
      </trkpt>
      <trkpt lat="48.227770579978824" lon="10.762151107192039">
        <ele>530</ele>
        <time>2010-01-01T00:25:04Z</time>
      </trkpt>
      <trkpt lat="48.227572683244944" lon="10.762431984767318">
        <ele>530</ele>
        <time>2010-01-01T00:25:15Z</time>
      </trkpt>
      <trkpt lat="48.22743128053844" lon="10.762665001675487">
        <ele>530</ele>
        <time>2010-01-01T00:25:24Z</time>
      </trkpt>
      <trkpt lat="48.227340336889029" lon="10.762859797105193">
        <ele>530</ele>
        <time>2010-01-01T00:25:30Z</time>
      </trkpt>
      <trkpt lat="48.227291721850634" lon="10.762982172891498">
        <ele>529</ele>
        <time>2010-01-01T00:25:34Z</time>
      </trkpt>
      <trkpt lat="48.22726858779788" lon="10.763064566999674">
        <ele>529</ele>
        <time>2010-01-01T00:25:36Z</time>
      </trkpt>
      <trkpt lat="48.227247213944793" lon="10.763189792633057">
        <ele>529</ele>
        <time>2010-01-01T00:25:40Z</time>
      </trkpt>
      <trkpt lat="48.227219805121422" lon="10.763484835624695">
        <ele>529</ele>
        <time>2010-01-01T00:25:48Z</time>
      </trkpt>
      <trkpt lat="48.22720848955214" lon="10.763716762885451">
        <ele>529</ele>
        <time>2010-01-01T00:25:54Z</time>
      </trkpt>
      <trkpt lat="48.227206394076347" lon="10.764302322641015">
        <ele>526</ele>
        <time>2010-01-01T00:26:09Z</time>
      </trkpt>
      <trkpt lat="48.227205304428935" lon="10.765336062759161">
        <ele>528</ele>
        <time>2010-01-01T00:26:37Z</time>
      </trkpt>
      <trkpt lat="48.22719868272543" lon="10.767036583274603">
        <ele>527</ele>
        <time>2010-01-01T00:27:22Z</time>
      </trkpt>
      <trkpt lat="48.227196922525764" lon="10.767434220761061">
        <ele>527</ele>
        <time>2010-01-01T00:27:33Z</time>
      </trkpt>
      <trkpt lat="48.227188037708402" lon="10.767477136105299">
        <ele>527</ele>
        <time>2010-01-01T00:27:34Z</time>
      </trkpt>
      <trkpt lat="48.227166580036283" lon="10.76752801425755">
        <ele>527</ele>
        <time>2010-01-01T00:27:36Z</time>
      </trkpt>
      <trkpt lat="48.227141685783863" lon="10.76757880859077">
        <ele>527</ele>
        <time>2010-01-01T00:27:37Z</time>
      </trkpt>
      <trkpt lat="48.22710782289505" lon="10.767653826624155">
        <ele>527</ele>
        <time>2010-01-01T00:27:40Z</time>
      </trkpt>
      <trkpt lat="48.227084605023265" lon="10.767744770273566">
        <ele>527</ele>
        <time>2010-01-01T00:27:42Z</time>
      </trkpt>
      <trkpt lat="48.227072032168508" lon="10.767878796905279">
        <ele>528</ele>
        <time>2010-01-01T00:27:46Z</time>
      </trkpt>
      <trkpt lat="48.227066835388541" lon="10.768156992271543">
        <ele>526</ele>
        <time>2010-01-01T00:27:53Z</time>
      </trkpt>
      <trkpt lat="48.22710832580924" lon="10.769613599404693">
        <ele>530</ele>
        <time>2010-01-01T00:28:32Z</time>
      </trkpt>
      <trkpt lat="48.227106314152479" lon="10.770517336204648">
        <ele>531</ele>
        <time>2010-01-01T00:28:56Z</time>
      </trkpt>
      <trkpt lat="48.227094663307071" lon="10.77131537720561">
        <ele>529</ele>
        <time>2010-01-01T00:29:18Z</time>
      </trkpt>
      <trkpt lat="48.227102374657989" lon="10.772672072052956">
        <ele>529</ele>
        <time>2010-01-01T00:29:54Z</time>
      </trkpt>
      <trkpt lat="48.227101201191545" lon="10.774405701085925">
        <ele>527</ele>
        <time>2010-01-01T00:30:40Z</time>
      </trkpt>
      <trkpt lat="48.227100698277354" lon="10.775639265775681">
        <ele>530</ele>
        <time>2010-01-01T00:31:13Z</time>
      </trkpt>
      <trkpt lat="48.227091729640961" lon="10.776047464460135">
        <ele>530</ele>
        <time>2010-01-01T00:31:24Z</time>
      </trkpt>
      <trkpt lat="48.227106900885701" lon="10.776651380583644">
        <ele>528</ele>
        <time>2010-01-01T00:31:40Z</time>
      </trkpt>
      <trkpt lat="48.227127771824598" lon="10.77692773193121">
        <ele>528</ele>
        <time>2010-01-01T00:31:47Z</time>
      </trkpt>
      <trkpt lat="48.227162975817919" lon="10.777283962816">
        <ele>527</ele>
        <time>2010-01-01T00:31:57Z</time>
      </trkpt>
      <trkpt lat="48.227205220609903" lon="10.777542963624001">
        <ele>527</ele>
        <time>2010-01-01T00:32:04Z</time>
      </trkpt>
      <trkpt lat="48.227240005508065" lon="10.777836833149195">
        <ele>527</ele>
        <time>2010-01-01T00:32:12Z</time>
      </trkpt>
      <trkpt lat="48.227249728515744" lon="10.778139168396592">
        <ele>530</ele>
        <time>2010-01-01T00:32:20Z</time>
      </trkpt>
      <trkpt lat="48.227258780971169" lon="10.778367994353175">
        <ele>530</ele>
        <time>2010-01-01T00:32:26Z</time>
      </trkpt>
      <trkpt lat="48.227214775979519" lon="10.778597239404917">
        <ele>530</ele>
        <time>2010-01-01T00:32:33Z</time>
      </trkpt>
      <trkpt lat="48.227164819836617" lon="10.778695391491055">
        <ele>530</ele>
        <time>2010-01-01T00:32:36Z</time>
      </trkpt>
      <trkpt lat="48.227105140686035" lon="10.778775522485375">
        <ele>529</ele>
        <time>2010-01-01T00:32:39Z</time>
      </trkpt>
      <trkpt lat="48.227046635001898" lon="10.778852300718427">
        <ele>532</ele>
        <time>2010-01-01T00:32:42Z</time>
      </trkpt>
      <trkpt lat="48.227004893124104" lon="10.778953973203897">
        <ele>532</ele>
        <time>2010-01-01T00:32:46Z</time>
      </trkpt>
      <trkpt lat="48.226948818191886" lon="10.779080539941788">
        <ele>532</ele>
        <time>2010-01-01T00:32:50Z</time>
      </trkpt>
      <trkpt lat="48.226893162354827" lon="10.77917349524796">
        <ele>532</ele>
        <time>2010-01-01T00:32:53Z</time>
      </trkpt>
      <trkpt lat="48.226825185120106" lon="10.779245160520077">
        <ele>532</ele>
        <time>2010-01-01T00:32:56Z</time>
      </trkpt>
      <trkpt lat="48.226753687486053" lon="10.77930836006999">
        <ele>532</ele>
        <time>2010-01-01T00:33:00Z</time>
      </trkpt>
      <trkpt lat="48.226700630038977" lon="10.7793303206563">
        <ele>532</ele>
        <time>2010-01-01T00:33:02Z</time>
      </trkpt>
      <trkpt lat="48.226643800735474" lon="10.779346665367484">
        <ele>532</ele>
        <time>2010-01-01T00:33:04Z</time>
      </trkpt>
      <trkpt lat="48.226592587307096" lon="10.779390586540103">
        <ele>532</ele>
        <time>2010-01-01T00:33:06Z</time>
      </trkpt>
      <trkpt lat="48.226559730246663" lon="10.77945931814611">
        <ele>532</ele>
        <time>2010-01-01T00:33:09Z</time>
      </trkpt>
      <trkpt lat="48.226537769660354" lon="10.779533414170146">
        <ele>532</ele>
        <time>2010-01-01T00:33:11Z</time>
      </trkpt>
      <trkpt lat="48.226505080237985" lon="10.779730724170804">
        <ele>532</ele>
        <time>2010-01-01T00:33:16Z</time>
      </trkpt>
      <trkpt lat="48.226451268419623" lon="10.780112603679299">
        <ele>532</ele>
        <time>2010-01-01T00:33:27Z</time>
      </trkpt>
      <trkpt lat="48.226444059982896" lon="10.780170690268278">
        <ele>532</ele>
        <time>2010-01-01T00:33:28Z</time>
      </trkpt>
      <trkpt lat="48.226443976163864" lon="10.780209917575121">
        <ele>532</ele>
        <time>2010-01-01T00:33:29Z</time>
      </trkpt>
      <trkpt lat="48.226449089124799" lon="10.780249480158091">
        <ele>532</ele>
        <time>2010-01-01T00:33:30Z</time>
      </trkpt>
      <trkpt lat="48.226464092731476" lon="10.780283510684967">
        <ele>532</ele>
        <time>2010-01-01T00:33:31Z</time>
      </trkpt>
      <trkpt lat="48.22651413269341" lon="10.780317792668939">
        <ele>532</ele>
        <time>2010-01-01T00:33:34Z</time>
      </trkpt>
      <trkpt lat="48.226685123518109" lon="10.780346794053912">
        <ele>532</ele>
        <time>2010-01-01T00:33:41Z</time>
      </trkpt>
      <trkpt lat="48.226726613938808" lon="10.780354421585798">
        <ele>532</ele>
        <time>2010-01-01T00:33:42Z</time>
      </trkpt>
      <trkpt lat="48.226715633645654" lon="10.780451567843556">
        <ele>535</ele>
        <time>2010-01-01T00:33:45Z</time>
      </trkpt>
      <trkpt lat="48.226974634453654" lon="10.780519964173436">
        <ele>535</ele>
        <time>2010-01-01T00:33:55Z</time>
      </trkpt>
      <trkpt lat="48.227207567542791" lon="10.780606884509325">
        <ele>535</ele>
        <time>2010-01-01T00:34:05Z</time>
      </trkpt>
      <trkpt lat="48.227378390729427" lon="10.780664719641209">
        <ele>535</ele>
        <time>2010-01-01T00:34:12Z</time>
      </trkpt>
      <trkpt lat="48.227385934442282" lon="10.780679639428854">
        <ele>535</ele>
        <time>2010-01-01T00:34:12Z</time>
      </trkpt>
      <trkpt lat="48.227385766804218" lon="10.780694475397468">
        <ele>535</ele>
        <time>2010-01-01T00:34:13Z</time>
      </trkpt>
      <trkpt lat="48.227428011596203" lon="10.780774271115661">
        <ele>535</ele>
        <time>2010-01-01T00:34:16Z</time>
      </trkpt>
    </trkseg>
  </trk>

</gpx>
