<gpx xmlns="http://www.topografix.com/GPX/1/1" xmlns:xsi="http://www.w3.org/2001/XMLSchema-instance" xsi:schemaLocation="http://www.topografix.com/GPX/1/1 http://www.topografix.com/GPX/1/1/gpx.xsd" version="1.1" creator="OpenLayers"><trk><trkseg><trkpt lat="48.75214628568376" lon="11.428389247524544"/><trkpt lat="48.752336127582666" lon="11.428591083213156"/><trkpt lat="48.75240718675587" lon="11.42841348750742"/><trkpt lat="48.752275698157895" lon="11.427286243918841"/><trkpt lat="48.75221755511103" lon="11.426443754352054"/><trkpt lat="48.75225237251422" lon="11.42621217169871"/><trkpt lat="48.752359395750716" lon="11.426034163426204"/><trkpt lat="48.75305798944783" lon="11.425468632499026"/><trkpt lat="48.75325506640706" lon="11.425316791993296"/><trkpt lat="48.7536694408618" lon="11.425461663156348"/><trkpt lat="48.754050217793115" lon="11.426082908718582"/><trkpt lat="48.754408405321165" lon="11.425779635009192"/><trkpt lat="48.754654567477914" lon="11.425733311125718"/><trkpt lat="48.755322272605056" lon="11.426188104837365"/><trkpt lat="48.75578262038853" lon="11.42653646807712"/><trkpt lat="48.75617393262081" lon="11.425661598868418"/><trkpt lat="48.75688883254154" lon="11.422960561590031"/><trkpt lat="48.75675395369361" lon="11.42296210583493"/><trkpt lat="48.756701431242846" lon="11.423248315727186"/><trkpt lat="48.75660211184219" lon="11.42316784998935"/><trkpt lat="48.756076494755256" lon="11.422357851218504"/><trkpt lat="48.75593807049795" lon="11.421652227169956"/><trkpt lat="48.75559678673421" lon="11.421737743939321"/><trkpt lat="48.75373874043322" lon="11.41883514419558"/><trkpt lat="48.753569722184835" lon="11.41812991562116"/><trkpt lat="48.75344136337806" lon="11.417641814302621"/><trkpt lat="48.75324978405913" lon="11.417100048568075"/><trkpt lat="48.75294165133799" lon="11.416627632979099"/><trkpt lat="48.75277704302637" lon="11.416085564013544"/><trkpt lat="48.75277594080202" lon="11.415867987179297"/><trkpt lat="48.75300786972123" lon="11.415498115358622"/><trkpt lat="48.75308748671375" lon="11.415238802886545"/><trkpt lat="48.753023163449804" lon="11.414967560749513"/><trkpt lat="48.75246878512721" lon="11.413818057147015"/><trkpt lat="48.7523689058947" lon="11.413628829249364"/><trkpt lat="48.752299800403165" lon="11.412419302313143"/><trkpt lat="48.752206136292024" lon="11.411686037439184"/><trkpt lat="48.75203202664869" lon="11.411048909382911"/><trkpt lat="48.75182173721" lon="11.410371411597323"/><trkpt lat="48.75250029168582" lon="11.409419684541291"/><trkpt lat="48.753329704269184" lon="11.408077215611208"/><trkpt lat="48.75324640226504" lon="11.407615811525936"/><trkpt lat="48.752868113334436" lon="11.40749786283066"/><trkpt lat="48.752569982375924" lon="11.407229381220263"/><trkpt lat="48.752101843905706" lon="11.407126092925973"/><trkpt lat="48.75201108554793" lon="11.406963970619877"/><trkpt lat="48.752189244332726" lon="11.406635493954749"/><trkpt lat="48.7536649694662" lon="11.39987272337327"/><trkpt lat="48.75330543539463" lon="11.399904202984402"/><trkpt lat="48.75247754419393" lon="11.399791665619505"/><trkpt lat="48.752161553324065" lon="11.399550642752665"/><trkpt lat="48.751882733816295" lon="11.399540364878563"/><trkpt lat="48.751188440667455" lon="11.40090852778863"/><trkpt lat="48.75113660852342" lon="11.401317111160523"/><trkpt lat="48.75101213397581" lon="11.40159056703842"/><trkpt lat="48.750990406939785" lon="11.40087008469355"/><trkpt lat="48.75091529001294" lon="11.400259029093247"/><trkpt lat="48.75080519350612" lon="11.39983877541798"/><trkpt lat="48.75084739090182" lon="11.399307918473088"/><trkpt lat="48.75099727581056" lon="11.398734979644606"/><trkpt lat="48.75114900303525" lon="11.398515587233048"/><trkpt lat="48.751679666568414" lon="11.398536453382201"/><trkpt lat="48.75224835431559" lon="11.398951243411682"/><trkpt lat="48.752509828066586" lon="11.399084118461127"/><trkpt lat="48.7527601830457" lon="11.398809146859769"/><trkpt lat="48.753119716822056" lon="11.398777659813808"/><trkpt lat="48.75336957432357" lon="11.398407492655691"/><trkpt lat="48.75361973749195" lon="11.39775172690379"/><trkpt lat="48.75357264612162" lon="11.3973443024282"/><trkpt lat="48.753154039256685" lon="11.396397345266484"/><trkpt lat="48.752556798988415" lon="11.395683734274563"/><trkpt lat="48.75223873092707" lon="11.395048384544216"/><trkpt lat="48.751407121736456" lon="11.394228826448227"/><trkpt lat="48.75039081759931" lon="11.393514867925456"/><trkpt lat="48.74967738110513" lon="11.392938714649928"/><trkpt lat="48.74936137597793" lon="11.392697748120991"/><trkpt lat="48.748857687088005" lon="11.392676619228574"/><trkpt lat="48.74853448055862" lon="11.392775700324464"/><trkpt lat="48.74773982651221" lon="11.392146165638598"/><trkpt lat="48.74726815916338" lon="11.391376773765124"/><trkpt lat="48.746868637409094" lon="11.390647317498047"/><trkpt lat="48.74684950348866" lon="11.39042998461409"/><trkpt lat="48.74762582436213" lon="11.38929196680178"/><trkpt lat="48.74834969762792" lon="11.388440111763337"/><trkpt lat="48.74875245618411" lon="11.388081670835913"/><trkpt lat="48.74898588412909" lon="11.388010845775462"/><trkpt lat="48.74994118806693" lon="11.388407206320165"/><trkpt lat="48.750415295429924" lon="11.388276346084117"/><trkpt lat="48.75048939437893" lon="11.388683409154"/><trkpt lat="48.75063369702976" lon="11.388763251893769"/><trkpt lat="48.75079439703932" lon="11.388543722158277"/><trkpt lat="48.75290467337929" lon="11.387987747166067"/><trkpt lat="48.7530575548253" lon="11.389685820277512"/><trkpt lat="48.7535286580249" lon="11.390346494578543"/><trkpt lat="48.75380894476402" lon="11.390634136677837"/><trkpt lat="48.754106682823895" lon="11.390820933170852"/><trkpt lat="48.754519877879844" lon="11.390734340273834"/><trkpt lat="48.75482632022397" lon="11.390866635123215"/><trkpt lat="48.755368777377335" lon="11.391417681603812"/><trkpt lat="48.75581844286061" lon="11.391425852152942"/><trkpt lat="48.75608870155066" lon="11.391517790601574"/><trkpt lat="48.75626134111818" lon="11.391855713785398"/><trkpt lat="48.756418862640835" lon="11.39273783523867"/><trkpt lat="48.75784556030797" lon="11.392149413903478"/><trkpt lat="48.75816511499405" lon="11.39374773535217"/><trkpt lat="48.759349466411294" lon="11.393243846852947"/><trkpt lat="48.75953473920197" lon="11.394275305960544"/><trkpt lat="48.75990069617635" lon="11.395467819888585"/><trkpt lat="48.760121845427015" lon="11.396485267400932"/><trkpt lat="48.76018628333755" lon="11.396770124180193"/><trkpt lat="48.759809407240766" lon="11.396924249320126"/><trkpt lat="48.75987611880223" lon="11.397644318430691"/><trkpt lat="48.76014043426303" lon="11.398321226255275"/><trkpt lat="48.76032472986551" lon="11.398139487421636"/><trkpt lat="48.76034441720538" lon="11.39846568586637"/><trkpt lat="48.760053073749795" lon="11.399502863898942"/><trkpt lat="48.76006567642085" lon="11.400196381211233"/><trkpt lat="48.7604504739837" lon="11.401565545265086"/><trkpt lat="48.760428859121454" lon="11.40259950991779"/><trkpt lat="48.76045135005046" lon="11.40346973458127"/><trkpt lat="48.76084509234542" lon="11.40309783219921"/><trkpt lat="48.76126475193531" lon="11.402521592089155"/><trkpt lat="48.7621436294583" lon="11.402062309063902"/><trkpt lat="48.76242974676806" lon="11.401746068803769"/><trkpt lat="48.76257164001211" lon="11.401363528168607"/><trkpt lat="48.76323176095645" lon="11.401031953778281"/><trkpt lat="48.7634209436881" lon="11.401097716071734"/><trkpt lat="48.76346922214548" lon="11.401736447607526"/><trkpt lat="48.763511676306514" lon="11.402987350820737"/><trkpt lat="48.76365063695828" lon="11.403774637185661"/><trkpt lat="48.76393465635164" lon="11.40479145390259"/><trkpt lat="48.76408934356439" lon="11.405143289223618"/><trkpt lat="48.76443756970737" lon="11.404663090495292"/><trkpt lat="48.76470360133795" lon="11.403939010724581"/><trkpt lat="48.76488694077387" lon="11.402875837118248"/><trkpt lat="48.76499875876558" lon="11.401895120796917"/><trkpt lat="48.76490446198041" lon="11.401052877135283"/><trkpt lat="48.7646568018182" lon="11.400117244313154"/><trkpt lat="48.76430646442661" lon="11.398461914168058"/><trkpt lat="48.764056365709926" lon="11.397063852607495"/><trkpt lat="48.763713506762485" lon="11.395128265960185"/><trkpt lat="48.763558860500666" lon="11.394790065706346"/><trkpt lat="48.763089905459395" lon="11.39282338776729"/><trkpt lat="48.76277081768744" lon="11.39199750732888"/><trkpt lat="48.762677023335534" lon="11.391264129396522"/><trkpt lat="48.76267256766839" lon="11.390420857352472"/><trkpt lat="48.762759878924676" lon="11.388229870356799"/><trkpt lat="48.76289420763718" lon="11.386432763410275"/><trkpt lat="48.76286404552868" lon="11.38583463901737"/><trkpt lat="48.76264476129948" lon="11.38518441462176"/><trkpt lat="48.76258848830152" lon="11.384749836935951"/><trkpt lat="48.76262176897836" lon="11.384246155886705"/><trkpt lat="48.762959315933756" lon="11.38346671070547"/><trkpt lat="48.76296689639455" lon="11.383202736976628"/><trkpt lat="48.762757681689244" lon="11.38275643012261"/><trkpt lat="48.762737456534815" lon="11.380661962062089"/><trkpt lat="48.762654117850246" lon="11.380214119460488"/><trkpt lat="48.762377042578905" lon="11.378857332109225"/><trkpt lat="48.76246402851712" lon="11.378312180709534"/><trkpt lat="48.762414886094525" lon="11.377537475024376"/><trkpt lat="48.76203384912397" lon="11.376916496363302"/><trkpt lat="48.76164293389223" lon="11.376132428245656"/><trkpt lat="48.761405979805666" lon="11.37555048910876"/><trkpt lat="48.757697019374916" lon="11.37612687383791"/><trkpt lat="48.757446792880565" lon="11.37641558452555"/><trkpt lat="48.75662152856417" lon="11.376793006420668"/><trkpt lat="48.75658151531983" lon="11.376045479738956"/><trkpt lat="48.75645054691912" lon="11.375108676656799"/><trkpt lat="48.75630298963498" lon="11.374430490411786"/><trkpt lat="48.755776440953206" lon="11.373512214167992"/><trkpt lat="48.755278710287406" lon="11.372933599305762"/><trkpt lat="48.75454741090937" lon="11.372398703915078"/><trkpt lat="48.754093339849035" lon="11.3732339407697"/><trkpt lat="48.75359371266742" lon="11.373960931563655"/><trkpt lat="48.75267013590823" lon="11.3744483792018"/><trkpt lat="48.751627258388794" lon="11.37582122661815"/><trkpt lat="48.751064892037434" lon="11.376589728549707"/><trkpt lat="48.750459910509406" lon="11.37779389921794"/><trkpt lat="48.74918658720832" lon="11.378462338143416"/><trkpt lat="48.74905274601185" lon="11.380326963212092"/><trkpt lat="48.74881807822155" lon="11.382176495963746"/><trkpt lat="48.7488938732015" lon="11.382896277674332"/><trkpt lat="48.749988988132124" lon="11.38252930811873"/><trkpt lat="48.750644593161425" lon="11.382371690970794"/><trkpt lat="48.750995785872014" lon="11.382462580213335"/><trkpt lat="48.75177316302695" lon="11.383214605772096"/><trkpt lat="48.75161327319265" lon="11.383583736431849"/><trkpt lat="48.751533364170754" lon="11.383775099953905"/><trkpt lat="48.75121060172549" lon="11.383955831793275"/><trkpt lat="48.75091263453019" lon="11.383728292639251"/><trkpt lat="48.74935487484324" lon="11.38502558910544"/><trkpt lat="48.74910390020418" lon="11.385178232773962"/><trkpt lat="48.748547274113484" lon="11.385348199809544"/><trkpt lat="48.747349759359665" lon="11.38506364597693"/><trkpt lat="48.747015667700644" lon="11.385143868681139"/><trkpt lat="48.74608319452834" lon="11.38565834995779"/><trkpt lat="48.745813655517196" lon="11.385702426708505"/><trkpt lat="48.745533312887716" lon="11.385406699459093"/><trkpt lat="48.745306268003496" lon="11.384987949390139"/><trkpt lat="48.7452330996036" lon="11.384757687374844"/><trkpt lat="48.74499104442694" lon="11.384896613627733"/><trkpt lat="48.74550227086065" lon="11.386331700845965"/><trkpt lat="48.74528935957005" lon="11.386878185826667"/><trkpt lat="48.74517206723819" lon="11.38849769171357"/><trkpt lat="48.74538378130332" lon="11.389419744723977"/><trkpt lat="48.74568799447979" lon="11.390830195002415"/><trkpt lat="48.74596062381291" lon="11.391370801771172"/><trkpt lat="48.746313316846894" lon="11.391747277353488"/><trkpt lat="48.746563480323836" lon="11.392462216862189"/><trkpt lat="48.74671157554952" lon="11.393262697815356"/><trkpt lat="48.74693959153889" lon="11.393871853970738"/><trkpt lat="48.74722091283288" lon="11.394357994680943"/><trkpt lat="48.74741302684837" lon="11.394981190675175"/><trkpt lat="48.74788352973245" lon="11.395533063794423"/><trkpt lat="48.74838949888819" lon="11.395989335109107"/><trkpt lat="48.748679660800924" lon="11.396448199191235"/><trkpt lat="48.74877313718499" lon="11.397126993888648"/><trkpt lat="48.74837546281698" lon="11.39846436994423"/><trkpt lat="48.74828951456184" lon="11.399226891572017"/><trkpt lat="48.74829263087919" lon="11.399825172834277"/><trkpt lat="48.74845656054137" lon="11.400913796062689"/><trkpt lat="48.74877586673936" lon="11.401793889516291"/><trkpt lat="48.74907767558139" lon="11.402769389899465"/><trkpt lat="48.74941269976666" lon="11.403214169665006"/><trkpt lat="48.74972861279947" lon="11.403441604885655"/><trkpt lat="48.74982935268258" lon="11.403793975291567"/><trkpt lat="48.749659982946696" lon="11.40408154713856"/><trkpt lat="48.749788047810355" lon="11.404501588260295"/><trkpt lat="48.7498347628321" lon="11.404841000430475"/><trkpt lat="48.74985527280098" lon="11.405330306643279"/><trkpt lat="48.7500475378839" lon="11.405994370866242"/><trkpt lat="48.75024851110457" lon="11.406603942961029"/><trkpt lat="48.75045339415204" lon="11.407975002579436"/><trkpt lat="48.75067066607119" lon="11.408258025401308"/><trkpt lat="48.7506735961556" lon="11.408829139979819"/><trkpt lat="48.751232919562135" lon="11.410935855222831"/><trkpt lat="48.749164736549226" lon="11.412714212277415"/><trkpt lat="48.7495730420025" lon="11.413430175506695"/><trkpt lat="48.750488205625196" lon="11.414792999053093"/><trkpt lat="48.7509329484479" lon="11.41560376729249"/><trkpt lat="48.75165843072757" lon="11.41680567208933"/><trkpt lat="48.7520213389766" lon="11.417440633352916"/><trkpt lat="48.752140226242716" lon="11.418189934022136"/><trkpt lat="48.75232253425415" lon="11.418677401996671"/><trkpt lat="48.75231553018185" lon="11.419071860294112"/><trkpt lat="48.75259674564541" lon="11.419558194227738"/><trkpt lat="48.752670529048245" lon="11.419924526266898"/><trkpt lat="48.752824965083924" lon="11.420235534380677"/><trkpt lat="48.7528985413035" lon="11.420561073298446"/><trkpt lat="48.752757949341955" lon="11.421215457922411"/><trkpt lat="48.75207108394375" lon="11.424119965068202"/><trkpt lat="48.75204695967942" lon="11.424691405000756"/><trkpt lat="48.75214027001526" lon="11.425370298848124"/><trkpt lat="48.75232356341076" lon="11.426061769874622"/><trkpt lat="48.75220863082767" lon="11.42645745508761"/><trkpt lat="48.752370949304044" lon="11.428359501460244"/><trkpt lat="48.75233606018177" lon="11.42857748474968"/><trkpt lat="48.75214628568376" lon="11.428389247524544"/></trkseg></trk></gpx>