<?xml version='1.0' encoding='UTF-8'?>
<gpx version="1.1" creator="https://www.komoot.de" xmlns="http://www.topografix.com/GPX/1/1" xmlns:xsi="http://www.w3.org/2001/XMLSchema-instance" xsi:schemaLocation="http://www.topografix.com/GPX/1/1 http://www.topografix.com/GPX/1/1/gpx.xsd">
  <metadata>
    <name>Permanenter IVV Wanderweg 2 Regenstauf (5km)</name>
    <author>
      <link href="https://www.komoot.de">
        <text>komoot</text>
        <type>text/html</type>
      </link>
    </author>
  </metadata>
  <trk>
    <name>Permanenter IVV Wanderweg 2 Regenstauf (5km)</name>
    <trkseg>
      <trkpt lat="49.116478" lon="12.114448">
        <ele>334.154284</ele>
        <time>2021-05-13T06:55:21.000Z</time>
      </trkpt>
      <trkpt lat="49.116474" lon="12.114426">
        <ele>334.154284</ele>
        <time>2021-05-13T06:55:21.000Z</time>
      </trkpt>
      <trkpt lat="49.116531" lon="12.114762">
        <ele>334.154284</ele>
        <time>2021-05-13T06:55:21.000Z</time>
      </trkpt>
      <trkpt lat="49.116310" lon="12.115535">
        <ele>334.154284</ele>
        <time>2021-05-13T06:55:21.000Z</time>
      </trkpt>
      <trkpt lat="49.116803" lon="12.115873">
        <ele>334.401566</ele>
        <time>2021-05-13T06:55:21.000Z</time>
      </trkpt>
      <trkpt lat="49.117658" lon="12.116409">
        <ele>334.926588</ele>
        <time>2021-05-13T06:55:21.000Z</time>
      </trkpt>
      <trkpt lat="49.118410" lon="12.116879">
        <ele>335.555979</ele>
        <time>2021-05-13T06:55:21.000Z</time>
      </trkpt>
      <trkpt lat="49.118650" lon="12.116995">
        <ele>335.812146</ele>
        <time>2021-05-13T06:55:21.000Z</time>
      </trkpt>
      <trkpt lat="49.119353" lon="12.117410">
        <ele>336.579099</ele>
        <time>2021-05-13T06:55:21.000Z</time>
      </trkpt>
      <trkpt lat="49.120141" lon="12.117822">
        <ele>337.246891</ele>
        <time>2021-05-13T06:55:21.000Z</time>
      </trkpt>
      <trkpt lat="49.120797" lon="12.117863">
        <ele>337.629163</ele>
        <time>2021-05-13T06:55:21.000Z</time>
      </trkpt>
      <trkpt lat="49.121494" lon="12.117640">
        <ele>338.043789</ele>
        <time>2021-05-13T06:55:21.000Z</time>
      </trkpt>
      <trkpt lat="49.122247" lon="12.117493">
        <ele>338.274621</ele>
        <time>2021-05-13T06:55:21.000Z</time>
      </trkpt>
      <trkpt lat="49.122946" lon="12.117501">
        <ele>338.482696</ele>
        <time>2021-05-13T06:55:21.000Z</time>
      </trkpt>
      <trkpt lat="49.123858" lon="12.117536">
        <ele>337.780778</ele>
        <time>2021-05-13T06:55:21.000Z</time>
      </trkpt>
      <trkpt lat="49.124573" lon="12.117675">
        <ele>336.730382</ele>
        <time>2021-05-13T06:55:21.000Z</time>
      </trkpt>
      <trkpt lat="49.124721" lon="12.117728">
        <ele>336.508853</ele>
        <time>2021-05-13T06:55:21.000Z</time>
      </trkpt>
      <trkpt lat="49.124705" lon="12.118797">
        <ele>335.498168</ele>
        <time>2021-05-13T06:55:21.000Z</time>
      </trkpt>
      <trkpt lat="49.124332" lon="12.120262">
        <ele>334.027430</ele>
        <time>2021-05-13T06:55:21.000Z</time>
      </trkpt>
      <trkpt lat="49.123894" lon="12.121795">
        <ele>334.701315</ele>
        <time>2021-05-13T06:55:21.000Z</time>
      </trkpt>
      <trkpt lat="49.123557" lon="12.122899">
        <ele>336.293578</ele>
        <time>2021-05-13T06:55:21.000Z</time>
      </trkpt>
      <trkpt lat="49.123418" lon="12.123056">
        <ele>336.638809</ele>
        <time>2021-05-13T06:55:21.000Z</time>
      </trkpt>
      <trkpt lat="49.123111" lon="12.124152">
        <ele>339.088027</ele>
        <time>2021-05-13T06:55:21.000Z</time>
      </trkpt>
      <trkpt lat="49.122928" lon="12.124908">
        <ele>340.918518</ele>
        <time>2021-05-13T06:55:21.000Z</time>
      </trkpt>
      <trkpt lat="49.122849" lon="12.125307">
        <ele>341.865177</ele>
        <time>2021-05-13T06:55:21.000Z</time>
      </trkpt>
      <trkpt lat="49.122740" lon="12.125339">
        <ele>342.250328</ele>
        <time>2021-05-13T06:55:21.000Z</time>
      </trkpt>
      <trkpt lat="49.122595" lon="12.125277">
        <ele>342.772811</ele>
        <time>2021-05-13T06:55:21.000Z</time>
      </trkpt>
      <trkpt lat="49.122370" lon="12.125293">
        <ele>343.235684</ele>
        <time>2021-05-13T06:55:21.000Z</time>
      </trkpt>
      <trkpt lat="49.122248" lon="12.125432">
        <ele>343.244657</ele>
        <time>2021-05-13T06:55:21.000Z</time>
      </trkpt>
      <trkpt lat="49.121934" lon="12.125486">
        <ele>343.263287</ele>
        <time>2021-05-13T06:55:21.000Z</time>
      </trkpt>
      <trkpt lat="49.121323" lon="12.125549">
        <ele>343.299393</ele>
        <time>2021-05-13T06:55:21.000Z</time>
      </trkpt>
      <trkpt lat="49.120692" lon="12.125423">
        <ele>343.338655</ele>
        <time>2021-05-13T06:55:21.000Z</time>
      </trkpt>
      <trkpt lat="49.119494" lon="12.125434">
        <ele>343.587451</ele>
        <time>2021-05-13T06:55:21.000Z</time>
      </trkpt>
      <trkpt lat="49.119204" lon="12.125459">
        <ele>343.647772</ele>
        <time>2021-05-13T06:55:21.000Z</time>
      </trkpt>
      <trkpt lat="49.119124" lon="12.125689">
        <ele>343.683174</ele>
        <time>2021-05-13T06:55:21.000Z</time>
      </trkpt>
      <trkpt lat="49.119049" lon="12.126066">
        <ele>343.780906</ele>
        <time>2021-05-13T06:55:21.000Z</time>
      </trkpt>
      <trkpt lat="49.118831" lon="12.125997">
        <ele>343.902843</ele>
        <time>2021-05-13T06:55:21.000Z</time>
      </trkpt>
      <trkpt lat="49.118423" lon="12.125850">
        <ele>344.132439</ele>
        <time>2021-05-13T06:55:21.000Z</time>
      </trkpt>
      <trkpt lat="49.117340" lon="12.125590">
        <ele>344.728637</ele>
        <time>2021-05-13T06:55:21.000Z</time>
      </trkpt>
      <trkpt lat="49.113772" lon="12.124926">
        <ele>345.884650</ele>
        <time>2021-05-13T06:55:21.000Z</time>
      </trkpt>
      <trkpt lat="49.113683" lon="12.124792">
        <ele>345.585291</ele>
        <time>2021-05-13T06:55:21.000Z</time>
      </trkpt>
      <trkpt lat="49.113485" lon="12.124700">
        <ele>345.089489</ele>
        <time>2021-05-13T06:55:21.000Z</time>
      </trkpt>
      <trkpt lat="49.113349" lon="12.124533">
        <ele>344.671474</ele>
        <time>2021-05-13T06:55:21.000Z</time>
      </trkpt>
      <trkpt lat="49.113215" lon="12.123801">
        <ele>343.479549</ele>
        <time>2021-05-13T06:55:21.000Z</time>
      </trkpt>
      <trkpt lat="49.113286" lon="12.123346">
        <ele>342.746049</ele>
        <time>2021-05-13T06:55:21.000Z</time>
      </trkpt>
      <trkpt lat="49.113356" lon="12.123301">
        <ele>342.564108</ele>
        <time>2021-05-13T06:55:21.000Z</time>
      </trkpt>
      <trkpt lat="49.113384" lon="12.123150">
        <ele>342.318001</ele>
        <time>2021-05-13T06:55:21.000Z</time>
      </trkpt>
      <trkpt lat="49.113342" lon="12.122999">
        <ele>342.060720</ele>
        <time>2021-05-13T06:55:21.000Z</time>
      </trkpt>
      <trkpt lat="49.113501" lon="12.122247">
        <ele>340.097249</ele>
        <time>2021-05-13T06:55:21.000Z</time>
      </trkpt>
      <trkpt lat="49.114083" lon="12.119931">
        <ele>333.804414</ele>
        <time>2021-05-13T06:55:21.000Z</time>
      </trkpt>
      <trkpt lat="49.114175" lon="12.119770">
        <ele>333.665673</ele>
        <time>2021-05-13T06:55:21.000Z</time>
      </trkpt>
      <trkpt lat="49.114259" lon="12.119534">
        <ele>333.491283</ele>
        <time>2021-05-13T06:55:21.000Z</time>
      </trkpt>
      <trkpt lat="49.114314" lon="12.119117">
        <ele>333.215138</ele>
        <time>2021-05-13T06:55:21.000Z</time>
      </trkpt>
      <trkpt lat="49.114719" lon="12.117525">
        <ele>332.362076</ele>
        <time>2021-05-13T06:55:21.000Z</time>
      </trkpt>
      <trkpt lat="49.115146" lon="12.115955">
        <ele>333.630776</ele>
        <time>2021-05-13T06:55:21.000Z</time>
      </trkpt>
      <trkpt lat="49.115221" lon="12.115697">
        <ele>333.841437</ele>
        <time>2021-05-13T06:55:21.000Z</time>
      </trkpt>
      <trkpt lat="49.115310" lon="12.115455">
        <ele>334.048578</ele>
        <time>2021-05-13T06:55:21.000Z</time>
      </trkpt>
      <trkpt lat="49.115418" lon="12.115300">
        <ele>334.217513</ele>
        <time>2021-05-13T06:55:21.000Z</time>
      </trkpt>
      <trkpt lat="49.115644" lon="12.115168">
        <ele>334.275918</ele>
        <time>2021-05-13T06:55:21.000Z</time>
      </trkpt>
      <trkpt lat="49.115965" lon="12.115308">
        <ele>334.275918</ele>
        <time>2021-05-13T06:55:21.000Z</time>
      </trkpt>
      <trkpt lat="49.116257" lon="12.115470">
        <ele>334.275918</ele>
        <time>2021-05-13T06:55:21.000Z</time>
      </trkpt>
      <trkpt lat="49.116379" lon="12.115269">
        <ele>334.275918</ele>
        <time>2021-05-13T06:55:21.000Z</time>
      </trkpt>
      <trkpt lat="49.116540" lon="12.114747">
        <ele>334.275918</ele>
        <time>2021-05-13T06:55:21.000Z</time>
      </trkpt>
    </trkseg>
  </trk>
</gpx>