<?xml version='1.0' encoding='UTF-8'?>
<gpx version="1.1" creator="https://www.komoot.de" xmlns="http://www.topografix.com/GPX/1/1" xmlns:xsi="http://www.w3.org/2001/XMLSchema-instance" xsi:schemaLocation="http://www.topografix.com/GPX/1/1 http://www.topografix.com/GPX/1/1/gpx.xsd">
  <metadata>
    <name>IVV-PW 462 MOB "Wald und Filmstadt" München 5 km</name>
    <author>
      <link href="https://www.komoot.de">
        <text>komoot</text>
        <type>text/html</type>
      </link>
    </author>
  </metadata>
  <trk>
    <name>IVV-PW 462 MOB "Wald und Filmstadt" München 5 km</name>
    <trkseg>
      <trkpt lat="48.076807" lon="11.550262">
        <ele>568.242412</ele>
        <time>2022-03-17T16:04:27.122Z</time>
      </trkpt>
      <trkpt lat="48.076740" lon="11.550265">
        <ele>568.242412</ele>
        <time>2022-03-17T16:04:33.998Z</time>
      </trkpt>
      <trkpt lat="48.076687" lon="11.550284">
        <ele>568.242412</ele>
        <time>2022-03-17T16:04:39.537Z</time>
      </trkpt>
      <trkpt lat="48.076652" lon="11.550310">
        <ele>568.242412</ele>
        <time>2022-03-17T16:04:43.628Z</time>
      </trkpt>
      <trkpt lat="48.076572" lon="11.550370">
        <ele>568.242412</ele>
        <time>2022-03-17T16:04:53.003Z</time>
      </trkpt>
      <trkpt lat="48.076330" lon="11.550656">
        <ele>568.242412</ele>
        <time>2022-03-17T16:05:24.634Z</time>
      </trkpt>
      <trkpt lat="48.076315" lon="11.550669">
        <ele>568.242412</ele>
        <time>2022-03-17T16:05:26.415Z</time>
      </trkpt>
      <trkpt lat="48.076170" lon="11.550796">
        <ele>568.242412</ele>
        <time>2022-03-17T16:05:43.681Z</time>
      </trkpt>
      <trkpt lat="48.075897" lon="11.551042">
        <ele>568.306424</ele>
        <time>2022-03-17T16:06:16.378Z</time>
      </trkpt>
      <trkpt lat="48.074854" lon="11.551669">
        <ele>568.747534</ele>
        <time>2022-03-17T16:08:10.996Z</time>
      </trkpt>
      <trkpt lat="48.074668" lon="11.551853">
        <ele>568.835034</ele>
        <time>2022-03-17T16:08:33.265Z</time>
      </trkpt>
      <trkpt lat="48.074389" lon="11.552412">
        <ele>568.933008</ele>
        <time>2022-03-17T16:09:19.920Z</time>
      </trkpt>
      <trkpt lat="48.074110" lon="11.552813">
        <ele>568.899726</ele>
        <time>2022-03-17T16:09:58.715Z</time>
      </trkpt>
      <trkpt lat="48.073823" lon="11.553230">
        <ele>568.865310</ele>
        <time>2022-03-17T16:10:38.783Z</time>
      </trkpt>
      <trkpt lat="48.073656" lon="11.553397">
        <ele>568.848029</ele>
        <time>2022-03-17T16:10:58.961Z</time>
      </trkpt>
      <trkpt lat="48.073587" lon="11.553703">
        <ele>568.829463</ele>
        <time>2022-03-17T16:11:20.568Z</time>
      </trkpt>
      <trkpt lat="48.073413" lon="11.553942">
        <ele>568.809143</ele>
        <time>2022-03-17T16:11:44.426Z</time>
      </trkpt>
      <trkpt lat="48.073176" lon="11.554244">
        <ele>568.791465</ele>
        <time>2022-03-17T16:12:15.695Z</time>
      </trkpt>
      <trkpt lat="48.072142" lon="11.556177">
        <ele>568.765084</ele>
        <time>2022-03-17T16:15:02.003Z</time>
      </trkpt>
      <trkpt lat="48.071281" lon="11.557404">
        <ele>570.393366</ele>
        <time>2022-03-17T16:17:06.757Z</time>
      </trkpt>
      <trkpt lat="48.071163" lon="11.557640">
        <ele>570.666420</ele>
        <time>2022-03-17T16:17:27.767Z</time>
      </trkpt>
      <trkpt lat="48.071063" lon="11.557813">
        <ele>570.878326</ele>
        <time>2022-03-17T16:17:44.220Z</time>
      </trkpt>
      <trkpt lat="48.070931" lon="11.557971">
        <ele>571.112660</ele>
        <time>2022-03-17T16:18:02.318Z</time>
      </trkpt>
      <trkpt lat="48.070576" lon="11.558383">
        <ele>571.717115</ele>
        <time>2022-03-17T16:18:50.271Z</time>
      </trkpt>
      <trkpt lat="48.070366" lon="11.558547">
        <ele>572.032874</ele>
        <time>2022-03-17T16:19:15.817Z</time>
      </trkpt>
      <trkpt lat="48.070323" lon="11.558580">
        <ele>572.097291</ele>
        <time>2022-03-17T16:19:20.717Z</time>
      </trkpt>
      <trkpt lat="48.069807" lon="11.559155">
        <ele>572.954876</ele>
        <time>2022-03-17T16:20:29.218Z</time>
      </trkpt>
      <trkpt lat="48.068609" lon="11.560185">
        <ele>573.647069</ele>
        <time>2022-03-17T16:22:48.638Z</time>
      </trkpt>
      <trkpt lat="48.068110" lon="11.560546">
        <ele>573.641249</ele>
        <time>2022-03-17T16:23:44.547Z</time>
      </trkpt>
      <trkpt lat="48.067702" lon="11.560848">
        <ele>573.625583</ele>
        <time>2022-03-17T16:24:30.340Z</time>
      </trkpt>
      <trkpt lat="48.067169" lon="11.561215">
        <ele>573.523262</ele>
        <time>2022-03-17T16:25:29.187Z</time>
      </trkpt>
      <trkpt lat="48.066634" lon="11.561535">
        <ele>573.422784</ele>
        <time>2022-03-17T16:26:26.940Z</time>
      </trkpt>
      <trkpt lat="48.065718" lon="11.562099">
        <ele>572.966151</ele>
        <time>2022-03-17T16:28:06.526Z</time>
      </trkpt>
      <trkpt lat="48.064123" lon="11.562871">
        <ele>571.501241</ele>
        <time>2022-03-17T16:30:57.847Z</time>
      </trkpt>
      <trkpt lat="48.064001" lon="11.562903">
        <ele>571.378502</ele>
        <time>2022-03-17T16:31:10.741Z</time>
      </trkpt>
      <trkpt lat="48.063710" lon="11.562983">
        <ele>571.085309</ele>
        <time>2022-03-17T16:31:41.058Z</time>
      </trkpt>
      <trkpt lat="48.063615" lon="11.562989">
        <ele>570.991085</ele>
        <time>2022-03-17T16:31:50.901Z</time>
      </trkpt>
      <trkpt lat="48.063514" lon="11.562872">
        <ele>570.864511</ele>
        <time>2022-03-17T16:32:03.928Z</time>
      </trkpt>
      <trkpt lat="48.063421" lon="11.562738">
        <ele>570.736572</ele>
        <time>2022-03-17T16:32:17.231Z</time>
      </trkpt>
      <trkpt lat="48.063260" lon="11.562511">
        <ele>570.517360</ele>
        <time>2022-03-17T16:32:39.802Z</time>
      </trkpt>
      <trkpt lat="48.062271" lon="11.562964">
        <ele>570.064862</ele>
        <time>2022-03-17T16:34:24.724Z</time>
      </trkpt>
      <trkpt lat="48.062271" lon="11.562964">
        <ele>570.064862</ele>
        <time>2022-03-17T16:34:24.823Z</time>
      </trkpt>
      <trkpt lat="48.060385" lon="11.563850">
        <ele>570.805803</ele>
        <time>2022-03-17T16:37:46.000Z</time>
      </trkpt>
      <trkpt lat="48.060015" lon="11.563998">
        <ele>571.142851</ele>
        <time>2022-03-17T16:38:25.401Z</time>
      </trkpt>
      <trkpt lat="48.060084" lon="11.563905">
        <ele>571.224578</ele>
        <time>2022-03-17T16:38:35.093Z</time>
      </trkpt>
      <trkpt lat="48.061068" lon="11.562303">
        <ele>572.740889</ele>
        <time>2022-03-17T16:41:07.045Z</time>
      </trkpt>
      <trkpt lat="48.061068" lon="11.562303">
        <ele>572.740889</ele>
        <time>2022-03-17T16:41:07.386Z</time>
      </trkpt>
      <trkpt lat="48.062063" lon="11.560795">
        <ele>574.202959</ele>
        <time>2022-03-17T16:43:34.769Z</time>
      </trkpt>
      <trkpt lat="48.063382" lon="11.558751">
        <ele>575.233509</ele>
        <time>2022-03-17T16:46:49.019Z</time>
      </trkpt>
      <trkpt lat="48.064692" lon="11.556704">
        <ele>574.871786</ele>
        <time>2022-03-17T16:49:59.609Z</time>
      </trkpt>
      <trkpt lat="48.064984" lon="11.556226">
        <ele>574.610586</ele>
        <time>2022-03-17T16:50:43.518Z</time>
      </trkpt>
      <trkpt lat="48.065231" lon="11.555837">
        <ele>574.394165</ele>
        <time>2022-03-17T16:51:20.033Z</time>
      </trkpt>
      <trkpt lat="48.065796" lon="11.554974">
        <ele>573.775465</ele>
        <time>2022-03-17T16:52:42.225Z</time>
      </trkpt>
      <trkpt lat="48.066002" lon="11.554644">
        <ele>573.505261</ele>
        <time>2022-03-17T16:53:13.035Z</time>
      </trkpt>
      <trkpt lat="48.066318" lon="11.554176">
        <ele>573.107177</ele>
        <time>2022-03-17T16:53:58.724Z</time>
      </trkpt>
      <trkpt lat="48.067488" lon="11.552771">
        <ele>572.370064</ele>
        <time>2022-03-17T16:56:31.173Z</time>
      </trkpt>
      <trkpt lat="48.067801" lon="11.553157">
        <ele>572.280579</ele>
        <time>2022-03-17T16:57:11.781Z</time>
      </trkpt>
      <trkpt lat="48.067999" lon="11.553413">
        <ele>572.222848</ele>
        <time>2022-03-17T16:57:38.092Z</time>
      </trkpt>
      <trkpt lat="48.069122" lon="11.555068">
        <ele>572.630119</ele>
        <time>2022-03-17T17:00:20.100Z</time>
      </trkpt>
      <trkpt lat="48.069543" lon="11.555601">
        <ele>572.646115</ele>
        <time>2022-03-17T17:01:15.594Z</time>
      </trkpt>
      <trkpt lat="48.069591" lon="11.555662">
        <ele>572.554330</ele>
        <time>2022-03-17T17:01:22.043Z</time>
      </trkpt>
      <trkpt lat="48.070111" lon="11.556406">
        <ele>571.505742</ele>
        <time>2022-03-17T17:02:35.727Z</time>
      </trkpt>
      <trkpt lat="48.070694" lon="11.557217">
        <ele>570.345579</ele>
        <time>2022-03-17T17:03:58.726Z</time>
      </trkpt>
      <trkpt lat="48.071467" lon="11.556172">
        <ele>568.731321</ele>
        <time>2022-03-17T17:05:47.943Z</time>
      </trkpt>
      <trkpt lat="48.072174" lon="11.555053">
        <ele>567.347461</ele>
        <time>2022-03-17T17:07:33.045Z</time>
      </trkpt>
      <trkpt lat="48.072174" lon="11.555053">
        <ele>567.347461</ele>
        <time>2022-03-17T17:07:33.233Z</time>
      </trkpt>
      <trkpt lat="48.072938" lon="11.553504">
        <ele>567.287020</ele>
        <time>2022-03-17T17:09:42.016Z</time>
      </trkpt>
      <trkpt lat="48.073095" lon="11.553111">
        <ele>567.272646</ele>
        <time>2022-03-17T17:10:13.054Z</time>
      </trkpt>
      <trkpt lat="48.073646" lon="11.551681">
        <ele>567.792944</ele>
        <time>2022-03-17T17:12:06.512Z</time>
      </trkpt>
      <trkpt lat="48.074114" lon="11.549896">
        <ele>568.220268</ele>
        <time>2022-03-17T17:14:15.744Z</time>
      </trkpt>
      <trkpt lat="48.074149" lon="11.549665">
        <ele>568.235151</ele>
        <time>2022-03-17T17:14:31.972Z</time>
      </trkpt>
      <trkpt lat="48.074218" lon="11.549703">
        <ele>568.242065</ele>
        <time>2022-03-17T17:14:39.415Z</time>
      </trkpt>
      <trkpt lat="48.074332" lon="11.549763">
        <ele>568.253429</ele>
        <time>2022-03-17T17:14:51.578Z</time>
      </trkpt>
      <trkpt lat="48.074427" lon="11.549810">
        <ele>568.262839</ele>
        <time>2022-03-17T17:15:01.861Z</time>
      </trkpt>
      <trkpt lat="48.074547" lon="11.549871">
        <ele>568.274756</ele>
        <time>2022-03-17T17:15:14.554Z</time>
      </trkpt>
      <trkpt lat="48.074631" lon="11.549942">
        <ele>568.283828</ele>
        <time>2022-03-17T17:15:24.312Z</time>
      </trkpt>
      <trkpt lat="48.074778" lon="11.549978">
        <ele>568.297836</ele>
        <time>2022-03-17T17:15:39.652Z</time>
      </trkpt>
      <trkpt lat="48.075395" lon="11.550050">
        <ele>568.339858</ele>
        <time>2022-03-17T17:16:41.750Z</time>
      </trkpt>
      <trkpt lat="48.075624" lon="11.550076">
        <ele>568.339858</ele>
        <time>2022-03-17T17:17:05.027Z</time>
      </trkpt>
      <trkpt lat="48.075803" lon="11.550350">
        <ele>568.339858</ele>
        <time>2022-03-17T17:17:31.074Z</time>
      </trkpt>
      <trkpt lat="48.076078" lon="11.550696">
        <ele>568.339858</ele>
        <time>2022-03-17T17:18:07.152Z</time>
      </trkpt>
      <trkpt lat="48.076170" lon="11.550796">
        <ele>568.339858</ele>
        <time>2022-03-17T17:18:18.711Z</time>
      </trkpt>
      <trkpt lat="48.076315" lon="11.550669">
        <ele>568.339858</ele>
        <time>2022-03-17T17:18:35.687Z</time>
      </trkpt>
      <trkpt lat="48.076330" lon="11.550656">
        <ele>568.339858</ele>
        <time>2022-03-17T17:18:37.421Z</time>
      </trkpt>
      <trkpt lat="48.076572" lon="11.550370">
        <ele>568.339858</ele>
        <time>2022-03-17T17:19:08.336Z</time>
      </trkpt>
      <trkpt lat="48.076652" lon="11.550310">
        <ele>568.339858</ele>
        <time>2022-03-17T17:19:17.470Z</time>
      </trkpt>
    </trkseg>
  </trk>
</gpx>