<?xml version="1.0" encoding="utf-8"?><gpx creator="Garmin Desktop App" version="1.1" xsi:schemaLocation="http://www.topografix.com/GPX/1/1 http://www.topografix.com/GPX/1/1/gpx.xsd http://www.garmin.com/xmlschemas/WaypointExtension/v1 http://www8.garmin.com/xmlschemas/WaypointExtensionv1.xsd http://www.garmin.com/xmlschemas/TrackPointExtension/v1 http://www.garmin.com/xmlschemas/TrackPointExtensionv1.xsd http://www.garmin.com/xmlschemas/GpxExtensions/v3 http://www8.garmin.com/xmlschemas/GpxExtensionsv3.xsd http://www.garmin.com/xmlschemas/ActivityExtension/v1 http://www8.garmin.com/xmlschemas/ActivityExtensionv1.xsd http://www.garmin.com/xmlschemas/AdventuresExtensions/v1 http://www8.garmin.com/xmlschemas/AdventuresExtensionv1.xsd http://www.garmin.com/xmlschemas/PressureExtension/v1 http://www.garmin.com/xmlschemas/PressureExtensionv1.xsd http://www.garmin.com/xmlschemas/TripExtensions/v1 http://www.garmin.com/xmlschemas/TripExtensionsv1.xsd http://www.garmin.com/xmlschemas/TripMetaDataExtensions/v1 http://www.garmin.com/xmlschemas/TripMetaDataExtensionsv1.xsd http://www.garmin.com/xmlschemas/ViaPointTransportationModeExtensions/v1 http://www.garmin.com/xmlschemas/ViaPointTransportationModeExtensionsv1.xsd http://www.garmin.com/xmlschemas/CreationTimeExtension/v1 http://www.garmin.com/xmlschemas/CreationTimeExtensionsv1.xsd http://www.garmin.com/xmlschemas/AccelerationExtension/v1 http://www.garmin.com/xmlschemas/AccelerationExtensionv1.xsd http://www.garmin.com/xmlschemas/PowerExtension/v1 http://www.garmin.com/xmlschemas/PowerExtensionv1.xsd http://www.garmin.com/xmlschemas/VideoExtension/v1 http://www.garmin.com/xmlschemas/VideoExtensionv1.xsd" xmlns="http://www.topografix.com/GPX/1/1" xmlns:xsi="http://www.w3.org/2001/XMLSchema-instance" xmlns:wptx1="http://www.garmin.com/xmlschemas/WaypointExtension/v1" xmlns:gpxtrx="http://www.garmin.com/xmlschemas/GpxExtensions/v3" xmlns:gpxtpx="http://www.garmin.com/xmlschemas/TrackPointExtension/v1" xmlns:gpxx="http://www.garmin.com/xmlschemas/GpxExtensions/v3" xmlns:trp="http://www.garmin.com/xmlschemas/TripExtensions/v1" xmlns:adv="http://www.garmin.com/xmlschemas/AdventuresExtensions/v1" xmlns:prs="http://www.garmin.com/xmlschemas/PressureExtension/v1" xmlns:tmd="http://www.garmin.com/xmlschemas/TripMetaDataExtensions/v1" xmlns:vptm="http://www.garmin.com/xmlschemas/ViaPointTransportationModeExtensions/v1" xmlns:ctx="http://www.garmin.com/xmlschemas/CreationTimeExtension/v1" xmlns:gpxacc="http://www.garmin.com/xmlschemas/AccelerationExtension/v1" xmlns:gpxpx="http://www.garmin.com/xmlschemas/PowerExtension/v1" xmlns:vidx1="http://www.garmin.com/xmlschemas/VideoExtension/v1">

  <metadata>
    <link href="http://www.garmin.com">
      <text>Garmin International</text>
    </link>
    <time>2024-12-27T19:42:50Z</time>
    <bounds maxlat="52.143531795591116" maxlon="11.648230170831084" minlat="52.113442020490766" minlon="11.608353853225708" />
  </metadata>

  <trk>
    <name>PW_MD_Altstadt</name>
    <extensions>
      <gpxx:TrackExtension>
        <gpxx:DisplayColor>Red</gpxx:DisplayColor>
      </gpxx:TrackExtension>
    </extensions>
    <trkseg>
      <trkpt lat="52.143531460314989" lon="11.645178236067295" />
      <trkpt lat="52.143531795591116" lon="11.645252667367458" />
      <trkpt lat="52.143494412302971" lon="11.645336151123047" />
      <trkpt lat="52.143403887748718" lon="11.645360123366117" />
      <trkpt lat="52.14340447448194" lon="11.64567100815475" />
      <trkpt lat="52.143390057608485" lon="11.646081805229187" />
      <trkpt lat="52.143385028466582" lon="11.646643476560712" />
      <trkpt lat="52.143384357914329" lon="11.646967688575387" />
      <trkpt lat="52.143430709838867" lon="11.647031307220459" />
      <trkpt lat="52.143458956852555" lon="11.647127950564027" />
      <trkpt lat="52.143408916890621" lon="11.647282680496573" />
      <trkpt lat="52.14343624189496" lon="11.647376976907253" />
      <trkpt lat="52.142239222303033" lon="11.647506058216095" />
      <trkpt lat="52.141874106600881" lon="11.647508824244142" />
      <trkpt lat="52.141577722504735" lon="11.647458784282207" />
      <trkpt lat="52.141493232920766" lon="11.647358452901244" />
      <trkpt lat="52.141421400010586" lon="11.647203639149666" />
      <trkpt lat="52.141352919861674" lon="11.64737094193697" />
      <trkpt lat="52.141328025609255" lon="11.647426513954997" />
      <trkpt lat="52.14130287989974" lon="11.64772180840373" />
      <trkpt lat="52.1412168815732" lon="11.647578226402402" />
      <trkpt lat="52.141157621517777" lon="11.647515194490552" />
      <trkpt lat="52.14107858017087" lon="11.647443445399404" />
      <trkpt lat="52.141010267660022" lon="11.647437745705247" />
      <trkpt lat="52.140886299312115" lon="11.647606892511249" />
      <trkpt lat="52.140875570476055" lon="11.64767000824213" />
      <trkpt lat="52.14085578918457" lon="11.647816188633442" />
      <trkpt lat="52.140893507748842" lon="11.647930853068829" />
      <trkpt lat="52.140742130577564" lon="11.647976618260145" />
      <trkpt lat="52.140469383448362" lon="11.647975193336606" />
      <trkpt lat="52.140129916369915" lon="11.647930014878511" />
      <trkpt lat="52.140129916369915" lon="11.648119194433093" />
      <trkpt lat="52.139862701296806" lon="11.648125648498535" />
      <trkpt lat="52.13982816785574" lon="11.64813713170588" />
      <trkpt lat="52.139686346054077" lon="11.648141741752625" />
      <trkpt lat="52.138969022780657" lon="11.64803696796298" />
      <trkpt lat="52.13892325758934" lon="11.648041242733598" />
      <trkpt lat="52.138508185744286" lon="11.647997908294201" />
      <trkpt lat="52.138492008671165" lon="11.648230170831084" />
      <trkpt lat="52.138265697285533" lon="11.648182896897197" />
      <trkpt lat="52.138257566839457" lon="11.648114081472158" />
      <trkpt lat="52.138225212693214" lon="11.648071082308888" />
      <trkpt lat="52.137338491156697" lon="11.648032525554299" />
      <trkpt lat="52.137194406241179" lon="11.648130510002375" />
      <trkpt lat="52.136916043236852" lon="11.647755168378353" />
      <trkpt lat="52.136794673278928" lon="11.647428525611758" />
      <trkpt lat="52.136687636375427" lon="11.647390723228455" />
      <trkpt lat="52.136467695236206" lon="11.647197604179382" />
      <trkpt lat="52.135933600366116" lon="11.646991660818458" />
      <trkpt lat="52.135864533483982" lon="11.646948577836156" />
      <trkpt lat="52.135797562077641" lon="11.64685545489192" />
      <trkpt lat="52.1358429081738" lon="11.646277606487274" />
      <trkpt lat="52.134554693475366" lon="11.645808722823858" />
      <trkpt lat="52.134072231128812" lon="11.64555910974741" />
      <trkpt lat="52.133681550621986" lon="11.645331038162112" />
      <trkpt lat="52.133204620331526" lon="11.644861986860633" />
      <trkpt lat="52.13264194317162" lon="11.644610529765487" />
      <trkpt lat="52.132573211565614" lon="11.644500810652971" />
      <trkpt lat="52.132512358948588" lon="11.644483376294374" />
      <trkpt lat="52.132143136113882" lon="11.644010301679373" />
      <trkpt lat="52.131889835000038" lon="11.643657675012946" />
      <trkpt lat="52.131348196417093" lon="11.643072869628668" />
      <trkpt lat="52.131092129275203" lon="11.642608428373933" />
      <trkpt lat="52.130890041589737" lon="11.64226870983839" />
      <trkpt lat="52.130844779312611" lon="11.642158403992653" />
      <trkpt lat="52.130881240591407" lon="11.641970481723547" />
      <trkpt lat="52.130929101258516" lon="11.641723802313209" />
      <trkpt lat="52.131087016314268" lon="11.640711771324277" />
      <trkpt lat="52.130410512909293" lon="11.640225620940328" />
      <trkpt lat="52.130364663898945" lon="11.640191255137324" />
      <trkpt lat="52.130246143788099" lon="11.640191255137324" />
      <trkpt lat="52.13018411770463" lon="11.640341710299253" />
      <trkpt lat="52.130037937313318" lon="11.640202403068542" />
      <trkpt lat="52.129534855484962" lon="11.63976545445621" />
      <trkpt lat="52.129235537722707" lon="11.639121389016509" />
      <trkpt lat="52.12914383970201" lon="11.638716123998165" />
      <trkpt lat="52.129038730636239" lon="11.638625767081976" />
      <trkpt lat="52.128863548859954" lon="11.638402137905359" />
      <trkpt lat="52.128575295209885" lon="11.638107681646943" />
      <trkpt lat="52.128104567527771" lon="11.637917160987854" />
      <trkpt lat="52.127950172871351" lon="11.637693950906396" />
      <trkpt lat="52.12795352563262" lon="11.63750946521759" />
      <trkpt lat="52.127918070182204" lon="11.636477066203952" />
      <trkpt lat="52.127755880355835" lon="11.636458039283752" />
      <trkpt lat="52.12759486399591" lon="11.636443035677075" />
      <trkpt lat="52.127530407160521" lon="11.636421913281083" />
      <trkpt lat="52.127082645893097" lon="11.636217227205634" />
      <trkpt lat="52.126867650076747" lon="11.636225441470742" />
      <trkpt lat="52.126663886010647" lon="11.636192081496119" />
      <trkpt lat="52.126506641507149" lon="11.636182023212314" />
      <trkpt lat="52.126358449459076" lon="11.636182945221663" />
      <trkpt lat="52.126286029815674" lon="11.636120080947876" />
      <trkpt lat="52.12633321993053" lon="11.6344990208745" />
      <trkpt lat="52.126409411430359" lon="11.634446382522583" />
      <trkpt lat="52.127375258132815" lon="11.635136632248759" />
      <trkpt lat="52.127989651635289" lon="11.633198903873563" />
      <trkpt lat="52.128287041559815" lon="11.632133480161428" />
      <trkpt lat="52.128203138709068" lon="11.632627006620169" />
      <trkpt lat="52.12799652479589" lon="11.632555425167084" />
      <trkpt lat="52.127906838431954" lon="11.63305657915771" />
      <trkpt lat="52.127643981948495" lon="11.633869372308254" />
      <trkpt lat="52.12517810985446" lon="11.631690412759781" />
      <trkpt lat="52.125064702704549" lon="11.632058713585138" />
      <trkpt lat="52.125293780118227" lon="11.632286701351404" />
      <trkpt lat="52.125216163694859" lon="11.63266958668828" />
      <trkpt lat="52.124993205070496" lon="11.633373498916626" />
      <trkpt lat="52.125157825648785" lon="11.633515320718288" />
      <trkpt lat="52.124969232827425" lon="11.635306114330888" />
      <trkpt lat="52.124712076038122" lon="11.635609203949571" />
      <trkpt lat="52.124611660838127" lon="11.63567609153688" />
      <trkpt lat="52.124465145170689" lon="11.635645916685462" />
      <trkpt lat="52.124259620904922" lon="11.635696794837713" />
      <trkpt lat="52.1242003608495" lon="11.63570593111217" />
      <trkpt lat="52.124020149931312" lon="11.635561594739556" />
      <trkpt lat="52.123885871842504" lon="11.635680450126529" />
      <trkpt lat="52.123774476349354" lon="11.635807603597641" />
      <trkpt lat="52.123748995363712" lon="11.635564025491476" />
      <trkpt lat="52.123818229883909" lon="11.635290859267116" />
      <trkpt lat="52.123830635100603" lon="11.635250626131892" />
      <trkpt lat="52.124036075547338" lon="11.634186208248138" />
      <trkpt lat="52.123917555436492" lon="11.633967692032456" />
      <trkpt lat="52.12150951847434" lon="11.632071286439896" />
      <trkpt lat="52.120641740038991" lon="11.631388915702701" />
      <trkpt lat="52.117918878793716" lon="11.629211381077766" />
      <trkpt lat="52.117694998160005" lon="11.629107613116503" />
      <trkpt lat="52.11765912361443" lon="11.629116581752896" />
      <trkpt lat="52.116812132298946" lon="11.629030415788293" />
      <trkpt lat="52.116656228899956" lon="11.629031840711832" />
      <trkpt lat="52.116622366011143" lon="11.629086574539542" />
      <trkpt lat="52.116565033793449" lon="11.629130160436034" />
      <trkpt lat="52.116514658555388" lon="11.629122029989958" />
      <trkpt lat="52.116351127624512" lon="11.630739569664001" />
      <trkpt lat="52.116420110687613" lon="11.632097773253918" />
      <trkpt lat="52.116419607773423" lon="11.632483592256904" />
      <trkpt lat="52.116127833724022" lon="11.632487867027521" />
      <trkpt lat="52.116165552288294" lon="11.632222663611174" />
      <trkpt lat="52.116142082959414" lon="11.632114117965102" />
      <trkpt lat="52.116074608638883" lon="11.63203926756978" />
      <trkpt lat="52.115669595077634" lon="11.631807005032897" />
      <trkpt lat="52.114992253482342" lon="11.631540879607201" />
      <trkpt lat="52.114873733371496" lon="11.631510872393847" />
      <trkpt lat="52.114727636799216" lon="11.631597205996513" />
      <trkpt lat="52.114259423688054" lon="11.632262980565429" />
      <trkpt lat="52.113636899739504" lon="11.631761575117707" />
      <trkpt lat="52.113521648570895" lon="11.631293278187513" />
      <trkpt lat="52.113442020490766" lon="11.631079623475671" />
      <trkpt lat="52.114259423688054" lon="11.63002660498023" />
      <trkpt lat="52.114115171134472" lon="11.629574066027999" />
      <trkpt lat="52.114449860528111" lon="11.629241220653057" />
      <trkpt lat="52.114685978740454" lon="11.628980962559581" />
      <trkpt lat="52.114730654284358" lon="11.628911728039384" />
      <trkpt lat="52.114776922389865" lon="11.628810977563262" />
      <trkpt lat="52.114823274314404" lon="11.628713076934218" />
      <trkpt lat="52.114887144416571" lon="11.628503277897835" />
      <trkpt lat="52.115025529637933" lon="11.627994831651449" />
      <trkpt lat="52.115062661468983" lon="11.627845466136932" />
      <trkpt lat="52.115134997293353" lon="11.627555368468165" />
      <trkpt lat="52.115325769409537" lon="11.626728242263198" />
      <trkpt lat="52.115609161555767" lon="11.626092223450541" />
      <trkpt lat="52.115690214559436" lon="11.625749990344048" />
      <trkpt lat="52.116092881187797" lon="11.624760506674647" />
      <trkpt lat="52.116479035466909" lon="11.62470493465662" />
      <trkpt lat="52.116565033793449" lon="11.62347262725234" />
      <trkpt lat="52.116704760119319" lon="11.623565079644322" />
      <trkpt lat="52.116723954677582" lon="11.623143050819635" />
      <trkpt lat="52.116910871118307" lon="11.622570063918829" />
      <trkpt lat="52.118160277605057" lon="11.62135879509151" />
      <trkpt lat="52.118093054741621" lon="11.621166011318564" />
      <trkpt lat="52.118799230083823" lon="11.620644740760326" />
      <trkpt lat="52.119130901992321" lon="11.620469558984041" />
      <trkpt lat="52.119299462065101" lon="11.620433516800404" />
      <trkpt lat="52.119546895846725" lon="11.620541475713253" />
      <trkpt lat="52.119722496718168" lon="11.620923187583685" />
      <trkpt lat="52.119887620210648" lon="11.621213033795357" />
      <trkpt lat="52.119970517233014" lon="11.621331470087171" />
      <trkpt lat="52.120090378448367" lon="11.621415456756949" />
      <trkpt lat="52.120169335976243" lon="11.621383773162961" />
      <trkpt lat="52.120713489130139" lon="11.621010359376669" />
      <trkpt lat="52.120770821347833" lon="11.62096107378602" />
      <trkpt lat="52.120840642601252" lon="11.620900221168995" />
      <trkpt lat="52.120892442762852" lon="11.620828052982688" />
      <trkpt lat="52.121037114411592" lon="11.620606435462832" />
      <trkpt lat="52.121390327811241" lon="11.620479449629784" />
      <trkpt lat="52.122182920575142" lon="11.620018528774381" />
      <trkpt lat="52.122944667935371" lon="11.61995499394834" />
      <trkpt lat="52.123092859983444" lon="11.619984582066536" />
      <trkpt lat="52.123345993459225" lon="11.619959101080894" />
      <trkpt lat="52.123518576845527" lon="11.619944516569376" />
      <trkpt lat="52.123769698664546" lon="11.61992909386754" />
      <trkpt lat="52.123861312866211" lon="11.619898080825806" />
      <trkpt lat="52.124084690585732" lon="11.619825912639499" />
      <trkpt lat="52.124296249821782" lon="11.619706302881241" />
      <trkpt lat="52.124712076038122" lon="11.619416875764728" />
      <trkpt lat="52.125096973031759" lon="11.619544196873903" />
      <trkpt lat="52.125257402658463" lon="11.619611503556371" />
      <trkpt lat="52.125373659655452" lon="11.619650311768055" />
      <trkpt lat="52.12548597715795" lon="11.619643354788423" />
      <trkpt lat="52.125534424558282" lon="11.619617957621813" />
      <trkpt lat="52.125601395964622" lon="11.619588788598776" />
      <trkpt lat="52.125648502260447" lon="11.61950396373868" />
      <trkpt lat="52.12568923830986" lon="11.619348814710975" />
      <trkpt lat="52.125733159482479" lon="11.61909056827426" />
      <trkpt lat="52.125754281878471" lon="11.618969952687621" />
      <trkpt lat="52.125923847779632" lon="11.617870917543769" />
      <trkpt lat="52.125986460596323" lon="11.617700178176165" />
      <trkpt lat="52.126079667359591" lon="11.617627255618572" />
      <trkpt lat="52.126158708706498" lon="11.617622226476669" />
      <trkpt lat="52.126239091157913" lon="11.617643348872662" />
      <trkpt lat="52.126286029815674" lon="11.617081761360168" />
      <trkpt lat="52.12630488909781" lon="11.6164256259799" />
      <trkpt lat="52.126439083367586" lon="11.615329524502158" />
      <trkpt lat="52.126547880470753" lon="11.614124793559313" />
      <trkpt lat="52.126644691452384" lon="11.612833980470896" />
      <trkpt lat="52.126863375306129" lon="11.60979051142931" />
      <trkpt lat="52.12836742401123" lon="11.609501838684082" />
      <trkpt lat="52.130175400525331" lon="11.609126245602965" />
      <trkpt lat="52.13235167786479" lon="11.608375981450081" />
      <trkpt lat="52.132449746131897" lon="11.608353853225708" />
      <trkpt lat="52.132538007572293" lon="11.608387548476458" />
      <trkpt lat="52.13305382989347" lon="11.608681250363588" />
      <trkpt lat="52.133232951164246" lon="11.608783006668091" />
      <trkpt lat="52.133350800722837" lon="11.608833214268088" />
      <trkpt lat="52.13387131690979" lon="11.618320941925049" />
      <trkpt lat="52.133955890312791" lon="11.618481874465942" />
      <trkpt lat="52.133862348273396" lon="11.618683459237218" />
      <trkpt lat="52.135020224377513" lon="11.621522745117545" />
      <trkpt lat="52.13513346388936" lon="11.621436830610037" />
      <trkpt lat="52.135591534897685" lon="11.622291784733534" />
      <trkpt lat="52.135699996724725" lon="11.622526729479432" />
      <trkpt lat="52.135840728878975" lon="11.624049888923764" />
      <trkpt lat="52.135853972285986" lon="11.624235967174172" />
      <trkpt lat="52.135919267311692" lon="11.624375525861979" />
      <trkpt lat="52.13599344715476" lon="11.624461440369487" />
      <trkpt lat="52.136047426611185" lon="11.624488681554794" />
      <trkpt lat="52.136412542313337" lon="11.62461013533175" />
      <trkpt lat="52.136209448799491" lon="11.626071436330676" />
      <trkpt lat="52.13654899969697" lon="11.626200433820486" />
      <trkpt lat="52.136638015508652" lon="11.626195907592773" />
      <trkpt lat="52.13674052618444" lon="11.62618207745254" />
      <trkpt lat="52.136901877820492" lon="11.626145616173744" />
      <trkpt lat="52.137411329895258" lon="11.625817799940705" />
      <trkpt lat="52.137793712317944" lon="11.625710427761078" />
      <trkpt lat="52.138401148840785" lon="11.625751750543714" />
      <trkpt lat="52.138542635366321" lon="11.625848896801472" />
      <trkpt lat="52.139029456302524" lon="11.625838335603476" />
      <trkpt lat="52.13910698890686" lon="11.625825762748718" />
      <trkpt lat="52.139164404943585" lon="11.625761976465583" />
      <trkpt lat="52.139198184013367" lon="11.625600457191467" />
      <trkpt lat="52.139199022203684" lon="11.625553015619516" />
      <trkpt lat="52.139167170971632" lon="11.625409182161093" />
      <trkpt lat="52.139194076880813" lon="11.625300385057926" />
      <trkpt lat="52.139133140444756" lon="11.624928144738078" />
      <trkpt lat="52.139699589461088" lon="11.625602971762419" />
      <trkpt lat="52.13976806961" lon="11.625634655356407" />
      <trkpt lat="52.139853397384286" lon="11.625659465789795" />
      <trkpt lat="52.14089535176754" lon="11.625669524073601" />
      <trkpt lat="52.141057876870036" lon="11.625790726393461" />
      <trkpt lat="52.141062403097749" lon="11.62655046209693" />
      <trkpt lat="52.141098361462355" lon="11.626636544242501" />
      <trkpt lat="52.141075897961855" lon="11.627152534201741" />
      <trkpt lat="52.140325801447034" lon="11.629044832661748" />
      <trkpt lat="52.140267379581928" lon="11.629223953932524" />
      <trkpt lat="52.140218010172248" lon="11.629417492076755" />
      <trkpt lat="52.140128156170249" lon="11.629754360765219" />
      <trkpt lat="52.139872089028358" lon="11.630901172757149" />
      <trkpt lat="52.139804782345891" lon="11.631517577916384" />
      <trkpt lat="52.139809224754572" lon="11.631718659773469" />
      <trkpt lat="52.139643095433712" lon="11.633410211652517" />
      <trkpt lat="52.139549553394318" lon="11.634673113003373" />
      <trkpt lat="52.139538740739226" lon="11.634796410799026" />
      <trkpt lat="52.139469338580966" lon="11.63565899245441" />
      <trkpt lat="52.139704870060086" lon="11.635721102356911" />
      <trkpt lat="52.139740828424692" lon="11.63564289920032" />
      <trkpt lat="52.139916848391294" lon="11.63559059612453" />
      <trkpt lat="52.140163108706474" lon="11.635665781795979" />
      <trkpt lat="52.140273582190275" lon="11.635780362412333" />
      <trkpt lat="52.140816226601601" lon="11.636056965216994" />
      <trkpt lat="52.140914965420961" lon="11.636178754270077" />
      <trkpt lat="52.140941619873047" lon="11.636248826980591" />
      <trkpt lat="52.140958132222295" lon="11.636349158361554" />
      <trkpt lat="52.140963077545166" lon="11.636434989050031" />
      <trkpt lat="52.140949834138155" lon="11.636556861922145" />
      <trkpt lat="52.140916222706437" lon="11.636676387861371" />
      <trkpt lat="52.140486147254705" lon="11.6371791344136" />
      <trkpt lat="52.140314066782594" lon="11.63770736195147" />
      <trkpt lat="52.140159169211984" lon="11.639645425602794" />
      <trkpt lat="52.141389967873693" lon="11.639894619584084" />
      <trkpt lat="52.141846278682351" lon="11.6398885846138" />
      <trkpt lat="52.141694566234946" lon="11.642011636868119" />
      <trkpt lat="52.141795735806227" lon="11.642164438962936" />
      <trkpt lat="52.141928672790527" lon="11.642236104235053" />
      <trkpt lat="52.141996901482344" lon="11.642789477482438" />
      <trkpt lat="52.141996901482344" lon="11.643279734998941" />
      <trkpt lat="52.142201755195856" lon="11.64330555126071" />
      <trkpt lat="52.142381127923727" lon="11.643336648121476" />
      <trkpt lat="52.143027540296316" lon="11.643433962017298" />
      <trkpt lat="52.143431799486279" lon="11.643379479646683" />
      <trkpt lat="52.143427273258567" lon="11.643466064706445" />
      <trkpt lat="52.143397266045213" lon="11.644940273836255" />
      <trkpt lat="52.143485024571419" lon="11.645023003220558" />
      <trkpt lat="52.143509751185775" lon="11.645094333216548" />
      <trkpt lat="52.143531460314989" lon="11.645178236067295" />
    </trkseg>
  </trk>

</gpx>