<?xml version="1.0" encoding="UTF-8" standalone="yes"?>
<gpx version="1.1" creator="outdooractive - http://www.outdooractive.com" xmlns="http://www.topografix.com/GPX/1/1" xmlns:xsi="http://www.w3.org/2001/XMLSchema-instance" xsi:schemaLocation="http://www.topografix.com/GPX/1/1 http://www.topografix.com/GPX/1/1/gpx.xsd" xmlns:oa="http://www.outdooractive.com/GPX/Extensions/1">
  <metadata>
    <name>Kapellenweg Stegen - 11 km</name>
    <author>
      <name>Sabine Paschold - Verein Tourismus Dreisamtal e.V.</name>
    </author>
    <link href="https://www.outdooractive.com/r/19982919"/>
    <time>2021-09-16T00:23:02.881</time>
    <extensions>
      <oa:oaCategory>hikingTourTrail</oa:oaCategory>
    </extensions>
  </metadata>
  <trk>
    <name>Kapellenweg Stegen - 11 km</name>
    <desc><![CDATA[Genießen Sie einmalige Aussichten von den Höhen unberührter Natur, wo klare Bäche sich durch Wiesen ihre Wege suchen, tiefe Wälder, im Sommer so angenehm kühl. Bewundern Sie auf den ausgesuchten Strecken die zahlreichen Kapellen mit ihren dazugehörenden Geschichten. / Die Wanderstrecke ist für Nordic Walking geeignet und ganzjährig begehbar .]]></desc>
    <type>hikingTourTrail</type>
    <trkseg>
      <trkpt lat="47.981725" lon="7.964707">
        <ele>386.71074</ele>
        <name>47.981725,7.964707</name>
        <extensions>
          <oa:mapZoom>16</oa:mapZoom>
        </extensions>
      </trkpt>
      <trkpt lat="47.981703" lon="7.964541">
        <ele>386.47466</ele>
      </trkpt>
      <trkpt lat="47.981649" lon="7.964192">
        <ele>385.97075</ele>
      </trkpt>
      <trkpt lat="47.98166" lon="7.963892">
        <ele>385.4072</ele>
      </trkpt>
      <trkpt lat="47.981714" lon="7.96357">
        <ele>384.83274</ele>
      </trkpt>
      <trkpt lat="47.982033" lon="7.963672">
        <ele>384.22122</ele>
      </trkpt>
      <trkpt lat="47.982906" lon="7.963931">
        <ele>383.47169</ele>
      </trkpt>
      <trkpt lat="47.98331" lon="7.964063">
        <ele>383.49034</ele>
      </trkpt>
      <trkpt lat="47.983418" lon="7.964041">
        <ele>383.56531</ele>
      </trkpt>
      <trkpt lat="47.98345" lon="7.963964">
        <ele>383.49621</ele>
      </trkpt>
      <trkpt lat="47.983301" lon="7.962948">
        <ele>381.957</ele>
      </trkpt>
      <trkpt lat="47.983171" lon="7.962807">
        <ele>381.92225</ele>
      </trkpt>
      <trkpt lat="47.983144" lon="7.962073">
        <ele>381.22716</ele>
      </trkpt>
      <trkpt lat="47.98318" lon="7.961933">
        <ele>381.05028</ele>
      </trkpt>
      <trkpt lat="47.983266" lon="7.96179">
        <ele>380.79029</ele>
      </trkpt>
      <trkpt lat="47.983378" lon="7.961658">
        <ele>380.52284</ele>
      </trkpt>
      <trkpt lat="47.983418" lon="7.961494">
        <ele>380.35322</ele>
      </trkpt>
      <trkpt lat="47.983418" lon="7.961269">
        <ele>380.20573</ele>
      </trkpt>
      <trkpt lat="47.983427" lon="7.960979">
        <ele>380.03043</ele>
      </trkpt>
      <trkpt lat="47.983387" lon="7.96077">
        <ele>380.00664</ele>
      </trkpt>
      <trkpt lat="47.983351" lon="7.960556">
        <ele>380.00978</ele>
      </trkpt>
      <trkpt lat="47.983342" lon="7.960386">
        <ele>379.99842</ele>
      </trkpt>
      <trkpt lat="47.983373" lon="7.960238">
        <ele>379.936</ele>
      </trkpt>
      <trkpt lat="47.983319" lon="7.960156">
        <ele>379.99665</ele>
      </trkpt>
      <trkpt lat="47.983172" lon="7.959911">
        <ele>380.14986</ele>
      </trkpt>
      <trkpt lat="47.982902" lon="7.959657">
        <ele>380.48282</ele>
      </trkpt>
      <trkpt lat="47.982363" lon="7.959619">
        <ele>381.21996</ele>
      </trkpt>
      <trkpt lat="47.981819" lon="7.959531">
        <ele>381.99229</ele>
      </trkpt>
      <trkpt lat="47.98128" lon="7.959366">
        <ele>382.67154</ele>
      </trkpt>
      <trkpt lat="47.980858" lon="7.959122">
        <ele>382.70339</ele>
      </trkpt>
      <trkpt lat="47.980404" lon="7.958766">
        <ele>382.58009</ele>
      </trkpt>
      <trkpt lat="47.979771" lon="7.958216">
        <ele>382.28457</ele>
      </trkpt>
      <trkpt lat="47.979012" lon="7.957806">
        <ele>382.0906</ele>
      </trkpt>
      <trkpt lat="47.979142" lon="7.9576">
        <ele>381.77879</ele>
      </trkpt>
      <trkpt lat="47.979326" lon="7.957249">
        <ele>381.36675</ele>
      </trkpt>
      <trkpt lat="47.97956" lon="7.956707">
        <ele>380.54155</ele>
      </trkpt>
      <trkpt lat="47.979746" lon="7.956242">
        <ele>380.25379</ele>
      </trkpt>
      <trkpt lat="47.979856" lon="7.955846">
        <ele>379.65575</ele>
      </trkpt>
      <trkpt lat="47.979919" lon="7.955511">
        <ele>379.20674</ele>
      </trkpt>
      <trkpt lat="47.98" lon="7.955111">
        <ele>378.35384</ele>
      </trkpt>
      <trkpt lat="47.979995" lon="7.954875">
        <ele>377.95168</ele>
      </trkpt>
      <trkpt lat="47.97987" lon="7.954217">
        <ele>376.91018</ele>
      </trkpt>
      <trkpt lat="47.979802" lon="7.9538">
        <ele>376.51443</ele>
      </trkpt>
      <trkpt lat="47.979703" lon="7.953581">
        <ele>376.14053</ele>
      </trkpt>
      <trkpt lat="47.979614" lon="7.953444">
        <ele>375.91803</ele>
      </trkpt>
      <trkpt lat="47.979479" lon="7.953274">
        <ele>375.79446</ele>
      </trkpt>
      <trkpt lat="47.979398" lon="7.953033">
        <ele>376.03427</ele>
      </trkpt>
      <trkpt lat="47.979375" lon="7.952717">
        <ele>375.40752</ele>
      </trkpt>
      <trkpt lat="47.979312" lon="7.952306">
        <ele>374.67493</ele>
      </trkpt>
      <trkpt lat="47.979137" lon="7.951769">
        <ele>373.83964</ele>
      </trkpt>
      <trkpt lat="47.978985" lon="7.95161">
        <ele>373.20599</ele>
      </trkpt>
      <trkpt lat="47.978702" lon="7.951319">
        <ele>371.44295</ele>
      </trkpt>
      <trkpt lat="47.978729" lon="7.951034">
        <ele>370.86374</ele>
      </trkpt>
      <trkpt lat="47.978747" lon="7.950639">
        <ele>370.30249</ele>
      </trkpt>
      <trkpt lat="47.978724" lon="7.950326">
        <ele>369.8195</ele>
      </trkpt>
      <trkpt lat="47.978661" lon="7.950135">
        <ele>369.43228</ele>
      </trkpt>
      <trkpt lat="47.978464" lon="7.949926">
        <ele>368.51121</ele>
      </trkpt>
      <trkpt lat="47.978275" lon="7.949849">
        <ele>367.67642</ele>
      </trkpt>
      <trkpt lat="47.977776" lon="7.949806">
        <ele>366.22589</ele>
      </trkpt>
      <trkpt lat="47.977758" lon="7.949668">
        <ele>366.07963</ele>
      </trkpt>
      <trkpt lat="47.977709" lon="7.949564">
        <ele>365.85521</ele>
      </trkpt>
      <trkpt lat="47.977646" lon="7.949498">
        <ele>365.64154</ele>
      </trkpt>
      <trkpt lat="47.977552" lon="7.949466">
        <ele>365.40635</ele>
      </trkpt>
      <trkpt lat="47.977588" lon="7.949296">
        <ele>365.34668</ele>
      </trkpt>
      <trkpt lat="47.977556" lon="7.948649">
        <ele>364.87616</ele>
      </trkpt>
      <trkpt lat="47.977219" lon="7.949005">
        <ele>364.67257</ele>
      </trkpt>
      <trkpt lat="47.9769" lon="7.949339">
        <ele>364.06068</ele>
      </trkpt>
      <trkpt lat="47.976936" lon="7.949498">
        <ele>363.96419</ele>
      </trkpt>
      <trkpt lat="47.977021" lon="7.949619">
        <ele>364.00034</ele>
      </trkpt>
      <trkpt lat="47.977134" lon="7.949761">
        <ele>364.10952</ele>
      </trkpt>
      <trkpt lat="47.977247" lon="7.949708">
        <ele>364.72963</ele>
      </trkpt>
      <trkpt lat="47.977268" lon="7.94992">
        <ele>364.68704</ele>
      </trkpt>
      <trkpt lat="47.977279" lon="7.950277">
        <ele>364.87425</ele>
      </trkpt>
      <trkpt lat="47.977206" lon="7.950781">
        <ele>365.18576</ele>
      </trkpt>
      <trkpt lat="47.977192" lon="7.951017">
        <ele>365.47363</ele>
      </trkpt>
      <trkpt lat="47.977138" lon="7.95128">
        <ele>365.62009</ele>
      </trkpt>
      <trkpt lat="47.977035" lon="7.951933">
        <ele>365.99524</ele>
      </trkpt>
      <trkpt lat="47.977003" lon="7.952229">
        <ele>366.10497</ele>
      </trkpt>
      <trkpt lat="47.977048" lon="7.952541">
        <ele>366.2392</ele>
      </trkpt>
      <trkpt lat="47.977161" lon="7.952832">
        <ele>366.99698</ele>
      </trkpt>
      <trkpt lat="47.97725" lon="7.952931">
        <ele>368.15311</ele>
      </trkpt>
      <trkpt lat="47.97734" lon="7.95298">
        <ele>369.15116</ele>
      </trkpt>
      <trkpt lat="47.977327" lon="7.953397">
        <ele>370.39598</ele>
      </trkpt>
      <trkpt lat="47.977277" lon="7.953753">
        <ele>371.31392</ele>
      </trkpt>
      <trkpt lat="47.977192" lon="7.954049">
        <ele>371.98138</ele>
      </trkpt>
      <trkpt lat="47.977066" lon="7.954219">
        <ele>371.69275</ele>
      </trkpt>
      <trkpt lat="47.97668" lon="7.9544">
        <ele>369.72296</ele>
      </trkpt>
      <trkpt lat="47.976222" lon="7.954553">
        <ele>368.84008</ele>
      </trkpt>
      <trkpt lat="47.976038" lon="7.954625">
        <ele>368.84629</ele>
      </trkpt>
      <trkpt lat="47.975674" lon="7.954926">
        <ele>369.5502</ele>
      </trkpt>
      <trkpt lat="47.975503" lon="7.955091">
        <ele>369.961</ele>
      </trkpt>
      <trkpt lat="47.975472" lon="7.955277">
        <ele>370.31254</ele>
      </trkpt>
      <trkpt lat="47.975499" lon="7.955453">
        <ele>370.56799</ele>
      </trkpt>
      <trkpt lat="47.975575" lon="7.955732">
        <ele>370.92562</ele>
      </trkpt>
      <trkpt lat="47.975553" lon="7.95582">
        <ele>370.99515</ele>
      </trkpt>
      <trkpt lat="47.975467" lon="7.955891">
        <ele>371.01394</ele>
      </trkpt>
      <trkpt lat="47.975265" lon="7.955987">
        <ele>371.0818</ele>
      </trkpt>
      <trkpt lat="47.975094" lon="7.956206">
        <ele>371.27787</ele>
      </trkpt>
      <trkpt lat="47.974923" lon="7.956645">
        <ele>371.66994</ele>
      </trkpt>
      <trkpt lat="47.974694" lon="7.957369">
        <ele>371.94116</ele>
      </trkpt>
      <trkpt lat="47.974506" lon="7.958065">
        <ele>372.59618</ele>
      </trkpt>
      <trkpt lat="47.974375" lon="7.958663">
        <ele>373.23384</ele>
      </trkpt>
      <trkpt lat="47.974326" lon="7.959173">
        <ele>374.01745</ele>
      </trkpt>
      <trkpt lat="47.974299" lon="7.959491">
        <ele>374.84116</ele>
      </trkpt>
      <trkpt lat="47.974299" lon="7.959902">
        <ele>376.1064</ele>
      </trkpt>
      <trkpt lat="47.974326" lon="7.960132">
        <ele>376.90198</ele>
      </trkpt>
      <trkpt lat="47.974411" lon="7.960291">
        <ele>377.64829</ele>
      </trkpt>
      <trkpt lat="47.97456" lon="7.960478">
        <ele>378.86988</ele>
      </trkpt>
      <trkpt lat="47.974636" lon="7.960642">
        <ele>379.63776</ele>
      </trkpt>
      <trkpt lat="47.974645" lon="7.960774">
        <ele>379.62971</ele>
      </trkpt>
      <trkpt lat="47.974618" lon="7.960922">
        <ele>378.48641</ele>
      </trkpt>
      <trkpt lat="47.974366" lon="7.961289">
        <ele>378.14409</ele>
      </trkpt>
      <trkpt lat="47.974142" lon="7.961607">
        <ele>378.92509</ele>
      </trkpt>
      <trkpt lat="47.973989" lon="7.96175">
        <ele>379.4616</ele>
      </trkpt>
      <trkpt lat="47.973755" lon="7.961892">
        <ele>380.02764</ele>
      </trkpt>
      <trkpt lat="47.973625" lon="7.961947">
        <ele>380.23942</ele>
      </trkpt>
      <trkpt lat="47.973441" lon="7.961919">
        <ele>380.52053</ele>
      </trkpt>
      <trkpt lat="47.973329" lon="7.961936">
        <ele>380.7795</ele>
      </trkpt>
      <trkpt lat="47.97323" lon="7.962084">
        <ele>381.62824</ele>
      </trkpt>
      <trkpt lat="47.973149" lon="7.962342">
        <ele>384.4136</ele>
      </trkpt>
      <trkpt lat="47.973117" lon="7.962621">
        <ele>386.38261</ele>
      </trkpt>
      <trkpt lat="47.973122" lon="7.962989">
        <ele>387.60858</ele>
      </trkpt>
      <trkpt lat="47.97318" lon="7.96329">
        <ele>388.07227</ele>
      </trkpt>
      <trkpt lat="47.973239" lon="7.963652">
        <ele>388.51722</ele>
      </trkpt>
      <trkpt lat="47.97323" lon="7.963833">
        <ele>388.71268</ele>
      </trkpt>
      <trkpt lat="47.97314" lon="7.964063">
        <ele>389.35351</ele>
      </trkpt>
      <trkpt lat="47.972974" lon="7.964381">
        <ele>390.2221</ele>
      </trkpt>
      <trkpt lat="47.972933" lon="7.964639">
        <ele>389.88408</ele>
      </trkpt>
      <trkpt lat="47.972781" lon="7.965259">
        <ele>390.6195</ele>
      </trkpt>
      <trkpt lat="47.972646" lon="7.965692">
        <ele>391.89562</ele>
      </trkpt>
      <trkpt lat="47.97257" lon="7.965878">
        <ele>392.59361</ele>
      </trkpt>
      <trkpt lat="47.97252" lon="7.966212">
        <ele>392.83283</ele>
      </trkpt>
      <trkpt lat="47.972551" lon="7.966662">
        <ele>392.14209</ele>
      </trkpt>
      <trkpt lat="47.972561" lon="7.967024">
        <ele>391.76432</ele>
      </trkpt>
      <trkpt lat="47.972493" lon="7.967561">
        <ele>392.67608</ele>
      </trkpt>
      <trkpt lat="47.972363" lon="7.968121">
        <ele>394.16701</ele>
      </trkpt>
      <trkpt lat="47.972318" lon="7.968417">
        <ele>394.71114</ele>
      </trkpt>
      <trkpt lat="47.972322" lon="7.968872">
        <ele>394.63884</ele>
      </trkpt>
      <trkpt lat="47.972278" lon="7.969009">
        <ele>395.26125</ele>
      </trkpt>
      <trkpt lat="47.97221" lon="7.969636">
        <ele>396.35936</ele>
      </trkpt>
      <trkpt lat="47.972165" lon="7.970026">
        <ele>397.25466</ele>
      </trkpt>
      <trkpt lat="47.972183" lon="7.970338">
        <ele>397.95792</ele>
      </trkpt>
      <trkpt lat="47.97221" lon="7.970607">
        <ele>398.62106</ele>
      </trkpt>
      <trkpt lat="47.972287" lon="7.97098">
        <ele>399.30833</ele>
      </trkpt>
      <trkpt lat="47.97248" lon="7.971649">
        <ele>400.03458</ele>
      </trkpt>
      <trkpt lat="47.972632" lon="7.972142">
        <ele>399.6628</ele>
      </trkpt>
      <trkpt lat="47.972709" lon="7.972501">
        <ele>400.21635</ele>
      </trkpt>
      <trkpt lat="47.9727" lon="7.97283">
        <ele>401.0048</ele>
      </trkpt>
      <trkpt lat="47.972592" lon="7.97317">
        <ele>402.02124</ele>
      </trkpt>
      <trkpt lat="47.972551" lon="7.973543">
        <ele>402.34033</ele>
      </trkpt>
      <trkpt lat="47.972543" lon="7.973993">
        <ele>402.37464</ele>
      </trkpt>
      <trkpt lat="47.972587" lon="7.974497">
        <ele>402.48206</ele>
      </trkpt>
      <trkpt lat="47.97265" lon="7.974722">
        <ele>402.27148</ele>
      </trkpt>
      <trkpt lat="47.97274" lon="7.974991">
        <ele>401.90017</ele>
      </trkpt>
      <trkpt lat="47.97274" lon="7.975424">
        <ele>403.90241</ele>
      </trkpt>
      <trkpt lat="47.972736" lon="7.976293">
        <ele>406.3864</ele>
      </trkpt>
      <trkpt lat="47.972727" lon="7.976781">
        <ele>407.40641</ele>
      </trkpt>
      <trkpt lat="47.972567" lon="7.978075">
        <ele>411.04707</ele>
      </trkpt>
      <trkpt lat="47.97243" lon="7.978689">
        <ele>412.74635</ele>
      </trkpt>
      <trkpt lat="47.972318" lon="7.979182">
        <ele>413.5803</ele>
      </trkpt>
      <trkpt lat="47.972246" lon="7.979423">
        <ele>413.99607</ele>
      </trkpt>
      <trkpt lat="47.972003" lon="7.980005">
        <ele>414.78489</ele>
      </trkpt>
      <trkpt lat="47.972214" lon="7.980191">
        <ele>413.13901</ele>
      </trkpt>
      <trkpt lat="47.972331" lon="7.980471">
        <ele>410.85685</ele>
      </trkpt>
      <trkpt lat="47.972466" lon="7.980701">
        <ele>408.29584</ele>
      </trkpt>
      <trkpt lat="47.972601" lon="7.980805">
        <ele>405.61136</ele>
      </trkpt>
      <trkpt lat="47.972942" lon="7.981353">
        <ele>403.15089</ele>
      </trkpt>
      <trkpt lat="47.972898" lon="7.981573">
        <ele>403.27721</ele>
      </trkpt>
      <trkpt lat="47.973023" lon="7.981828">
        <ele>403.58001</ele>
      </trkpt>
      <trkpt lat="47.973382" lon="7.982321">
        <ele>405.46533</ele>
      </trkpt>
      <trkpt lat="47.973408" lon="7.982109">
        <ele>405.35766</ele>
      </trkpt>
      <trkpt lat="47.973444" lon="7.981911">
        <ele>405.6305</ele>
      </trkpt>
      <trkpt lat="47.973519" lon="7.98183">
        <ele>406.22992</ele>
      </trkpt>
      <trkpt lat="47.973681" lon="7.981702">
        <ele>407.81834</ele>
      </trkpt>
      <trkpt lat="47.973868" lon="7.981334">
        <ele>409.26218</ele>
      </trkpt>
      <trkpt lat="47.974101" lon="7.980852">
        <ele>409.79395</ele>
      </trkpt>
      <trkpt lat="47.974191" lon="7.980566">
        <ele>409.13121</ele>
      </trkpt>
      <trkpt lat="47.974492" lon="7.980704">
        <ele>419.09364</ele>
      </trkpt>
      <trkpt lat="47.974559" lon="7.980819">
        <ele>423.08325</ele>
      </trkpt>
      <trkpt lat="47.974595" lon="7.981032">
        <ele>427.69332</ele>
      </trkpt>
      <trkpt lat="47.974613" lon="7.981482">
        <ele>435.31424</ele>
      </trkpt>
      <trkpt lat="47.974604" lon="7.981948">
        <ele>441.96173</ele>
      </trkpt>
      <trkpt lat="47.974523" lon="7.982403">
        <ele>445.20632</ele>
      </trkpt>
      <trkpt lat="47.974487" lon="7.983045">
        <ele>451.29525</ele>
      </trkpt>
      <trkpt lat="47.974425" lon="7.983357">
        <ele>451.11578</ele>
      </trkpt>
      <trkpt lat="47.974429" lon="7.983522">
        <ele>451.73211</ele>
      </trkpt>
      <trkpt lat="47.974492" lon="7.983604">
        <ele>453.41473</ele>
      </trkpt>
      <trkpt lat="47.974577" lon="7.983609">
        <ele>454.50632</ele>
      </trkpt>
      <trkpt lat="47.97464" lon="7.983511">
        <ele>455.93475</ele>
      </trkpt>
      <trkpt lat="47.974798" lon="7.98322">
        <ele>460.60232</ele>
      </trkpt>
      <trkpt lat="47.974982" lon="7.983066">
        <ele>464.53033</ele>
      </trkpt>
      <trkpt lat="47.975135" lon="7.98294">
        <ele>469.15379</ele>
      </trkpt>
      <trkpt lat="47.975314" lon="7.982935">
        <ele>472.13967</ele>
      </trkpt>
      <trkpt lat="47.975525" lon="7.982984">
        <ele>475.36173</ele>
      </trkpt>
      <trkpt lat="47.975669" lon="7.983116">
        <ele>475.99747</ele>
      </trkpt>
      <trkpt lat="47.975795" lon="7.983373">
        <ele>475.6084</ele>
      </trkpt>
      <trkpt lat="47.976055" lon="7.984059">
        <ele>481.95751</ele>
      </trkpt>
      <trkpt lat="47.976145" lon="7.984311">
        <ele>485.97041</ele>
      </trkpt>
      <trkpt lat="47.976204" lon="7.984399">
        <ele>488.67944</ele>
      </trkpt>
      <trkpt lat="47.976293" lon="7.984426">
        <ele>492.2983</ele>
      </trkpt>
      <trkpt lat="47.976415" lon="7.98441">
        <ele>496.68653</ele>
      </trkpt>
      <trkpt lat="47.976725" lon="7.984294">
        <ele>505.73101</ele>
      </trkpt>
      <trkpt lat="47.976909" lon="7.984283">
        <ele>510.0513</ele>
      </trkpt>
      <trkpt lat="47.976954" lon="7.984437">
        <ele>508.65985</ele>
      </trkpt>
      <trkpt lat="47.976972" lon="7.984629">
        <ele>506.12811</ele>
      </trkpt>
      <trkpt lat="47.97699" lon="7.985133">
        <ele>507.17383</ele>
      </trkpt>
      <trkpt lat="47.976945" lon="7.985578">
        <ele>506.71117</ele>
      </trkpt>
      <trkpt lat="47.977008" lon="7.986002">
        <ele>510.48887</ele>
      </trkpt>
      <trkpt lat="47.977223" lon="7.986573">
        <ele>519.78245</ele>
      </trkpt>
      <trkpt lat="47.977866" lon="7.987801">
        <ele>540.29575</ele>
      </trkpt>
      <trkpt lat="47.978342" lon="7.98868">
        <ele>549.40008</ele>
      </trkpt>
      <trkpt lat="47.978463" lon="7.988889">
        <ele>551.09607</ele>
      </trkpt>
      <trkpt lat="47.978625" lon="7.989015">
        <ele>552.89566</ele>
      </trkpt>
      <trkpt lat="47.978805" lon="7.988916">
        <ele>554.54436</ele>
      </trkpt>
      <trkpt lat="47.979025" lon="7.989613">
        <ele>553.09411</ele>
      </trkpt>
      <trkpt lat="47.979227" lon="7.990303">
        <ele>553.6711</ele>
      </trkpt>
      <trkpt lat="47.979357" lon="7.990967">
        <ele>554.0646</ele>
      </trkpt>
      <trkpt lat="47.97938" lon="7.991581">
        <ele>552.42923</ele>
      </trkpt>
      <trkpt lat="47.979407" lon="7.992228">
        <ele>551.26409</ele>
      </trkpt>
      <trkpt lat="47.979492" lon="7.993116">
        <ele>551.67903</ele>
      </trkpt>
      <trkpt lat="47.979568" lon="7.993478">
        <ele>552.02284</ele>
      </trkpt>
      <trkpt lat="47.97969" lon="7.994043">
        <ele>550.9804</ele>
      </trkpt>
      <trkpt lat="47.979613" lon="7.994501">
        <ele>545.24362</ele>
      </trkpt>
      <trkpt lat="47.979631" lon="7.994775">
        <ele>544.20826</ele>
      </trkpt>
      <trkpt lat="47.979667" lon="7.995172">
        <ele>544.81854</ele>
      </trkpt>
      <trkpt lat="47.979768" lon="7.99544">
        <ele>548.58959</ele>
      </trkpt>
      <trkpt lat="47.979896" lon="7.995767">
        <ele>552.9379</ele>
      </trkpt>
      <trkpt lat="47.980422" lon="7.996913">
        <ele>551.48574</ele>
      </trkpt>
      <trkpt lat="47.980741" lon="7.997195">
        <ele>545.6758</ele>
      </trkpt>
      <trkpt lat="47.98097" lon="7.997086">
        <ele>547.36049</ele>
      </trkpt>
      <trkpt lat="47.981127" lon="7.996965">
        <ele>547.43314</ele>
      </trkpt>
      <trkpt lat="47.981262" lon="7.996998">
        <ele>545.52624</ele>
      </trkpt>
      <trkpt lat="47.981397" lon="7.997047">
        <ele>543.59271</ele>
      </trkpt>
      <trkpt lat="47.981958" lon="7.997272">
        <ele>536.00508</ele>
      </trkpt>
      <trkpt lat="47.982138" lon="7.997387">
        <ele>532.91406</ele>
      </trkpt>
      <trkpt lat="47.98225" lon="7.997414">
        <ele>531.27362</ele>
      </trkpt>
      <trkpt lat="47.982381" lon="7.997365">
        <ele>529.93365</ele>
      </trkpt>
      <trkpt lat="47.982713" lon="7.997859">
        <ele>519.01708</ele>
      </trkpt>
      <trkpt lat="47.983144" lon="7.998681">
        <ele>504.42644</ele>
      </trkpt>
      <trkpt lat="47.983225" lon="7.999193">
        <ele>499.82384</ele>
      </trkpt>
      <trkpt lat="47.98345" lon="7.999764">
        <ele>498.67514</ele>
      </trkpt>
      <trkpt lat="47.983805" lon="8.00029">
        <ele>502.1416</ele>
      </trkpt>
      <trkpt lat="47.984124" lon="8.000608">
        <ele>507.55667</ele>
      </trkpt>
      <trkpt lat="47.984685" lon="8.000707">
        <ele>511.93035</ele>
      </trkpt>
      <trkpt lat="47.984941" lon="8.000701">
        <ele>511.80364</ele>
      </trkpt>
      <trkpt lat="47.985233" lon="8.000597">
        <ele>511.42778</ele>
      </trkpt>
      <trkpt lat="47.985579" lon="8.00039">
        <ele>512.01939</ele>
      </trkpt>
      <trkpt lat="47.985476" lon="7.999869">
        <ele>501.88425</ele>
      </trkpt>
      <trkpt lat="47.985377" lon="7.999952">
        <ele>502.59599</ele>
      </trkpt>
      <trkpt lat="47.985193" lon="8.000171">
        <ele>502.71022</ele>
      </trkpt>
      <trkpt lat="47.985022" lon="8.000325">
        <ele>503.36339</ele>
      </trkpt>
      <trkpt lat="47.984887" lon="8.000379">
        <ele>503.88952</ele>
      </trkpt>
      <trkpt lat="47.984739" lon="8.000379">
        <ele>503.90454</ele>
      </trkpt>
      <trkpt lat="47.984541" lon="8.000357">
        <ele>504.75504</ele>
      </trkpt>
      <trkpt lat="47.984083" lon="8.000204">
        <ele>503.72863</ele>
      </trkpt>
      <trkpt lat="47.983944" lon="8.000089">
        <ele>502.09272</ele>
      </trkpt>
      <trkpt lat="47.983814" lon="7.999897">
        <ele>499.98419</ele>
      </trkpt>
      <trkpt lat="47.983683" lon="7.999551">
        <ele>497.88726</ele>
      </trkpt>
      <trkpt lat="47.983589" lon="7.999118">
        <ele>497.01152</ele>
      </trkpt>
      <trkpt lat="47.983625" lon="7.998926">
        <ele>495.12916</ele>
      </trkpt>
      <trkpt lat="47.983594" lon="7.998669">
        <ele>494.87489</ele>
      </trkpt>
      <trkpt lat="47.983558" lon="7.998449">
        <ele>496.03285</ele>
      </trkpt>
      <trkpt lat="47.983509" lon="7.997993">
        <ele>499.91902</ele>
      </trkpt>
      <trkpt lat="47.98367" lon="7.998279">
        <ele>493.91037</ele>
      </trkpt>
      <trkpt lat="47.98385" lon="7.99857">
        <ele>488.58359</ele>
      </trkpt>
      <trkpt lat="47.984263" lon="7.998959">
        <ele>481.84122</ele>
      </trkpt>
      <trkpt lat="47.984398" lon="7.99903">
        <ele>480.12514</ele>
      </trkpt>
      <trkpt lat="47.984523" lon="7.999041">
        <ele>478.23492</ele>
      </trkpt>
      <trkpt lat="47.984838" lon="7.999036">
        <ele>475.58157</ele>
      </trkpt>
      <trkpt lat="47.984995" lon="7.998877">
        <ele>472.90043</ele>
      </trkpt>
      <trkpt lat="47.985116" lon="7.998641">
        <ele>468.50289</ele>
      </trkpt>
      <trkpt lat="47.985251" lon="7.998521">
        <ele>466.68744</ele>
      </trkpt>
      <trkpt lat="47.985377" lon="7.998449">
        <ele>466.23357</ele>
      </trkpt>
      <trkpt lat="47.985592" lon="7.998065">
        <ele>463.42345</ele>
      </trkpt>
      <trkpt lat="47.985709" lon="7.997742">
        <ele>460.818</ele>
      </trkpt>
      <trkpt lat="47.985745" lon="7.997501">
        <ele>456.06226</ele>
      </trkpt>
      <trkpt lat="47.985835" lon="7.997298">
        <ele>453.18708</ele>
      </trkpt>
      <trkpt lat="47.985902" lon="7.997259">
        <ele>453.01984</ele>
      </trkpt>
      <trkpt lat="47.985853" lon="7.996777">
        <ele>449.23225</ele>
      </trkpt>
      <trkpt lat="47.985759" lon="7.996426">
        <ele>448.11441</ele>
      </trkpt>
      <trkpt lat="47.985646" lon="7.995999">
        <ele>445.25817</ele>
      </trkpt>
      <trkpt lat="47.985534" lon="7.995439">
        <ele>441.60775</ele>
      </trkpt>
      <trkpt lat="47.985699" lon="7.995257">
        <ele>443.76713</ele>
      </trkpt>
      <trkpt lat="47.985886" lon="7.994828">
        <ele>445.26079</ele>
      </trkpt>
      <trkpt lat="47.986044" lon="7.994528">
        <ele>446.46489</ele>
      </trkpt>
      <trkpt lat="47.985901" lon="7.99412">
        <ele>444.80117</ele>
      </trkpt>
      <trkpt lat="47.985699" lon="7.993755">
        <ele>442.07044</ele>
      </trkpt>
      <trkpt lat="47.985444" lon="7.993246">
        <ele>437.13545</ele>
      </trkpt>
      <trkpt lat="47.9852" lon="7.991197">
        <ele>426.20188</ele>
      </trkpt>
      <trkpt lat="47.985197" lon="7.990558">
        <ele>424.36635</ele>
      </trkpt>
      <trkpt lat="47.985179" lon="7.990433">
        <ele>424.05921</ele>
      </trkpt>
      <trkpt lat="47.985017" lon="7.989935">
        <ele>423.11384</ele>
      </trkpt>
      <trkpt lat="47.984842" lon="7.98954">
        <ele>422.1031</ele>
      </trkpt>
      <trkpt lat="47.984734" lon="7.989282">
        <ele>420.98889</ele>
      </trkpt>
      <trkpt lat="47.984658" lon="7.989161">
        <ele>419.70959</ele>
      </trkpt>
      <trkpt lat="47.984541" lon="7.989052">
        <ele>417.74636</ele>
      </trkpt>
      <trkpt lat="47.984402" lon="7.988975">
        <ele>416.00498</ele>
      </trkpt>
      <trkpt lat="47.983922" lon="7.988964">
        <ele>412.91581</ele>
      </trkpt>
      <trkpt lat="47.983589" lon="7.986979">
        <ele>409.29966</ele>
      </trkpt>
      <trkpt lat="47.983549" lon="7.986481">
        <ele>408.54891</ele>
      </trkpt>
      <trkpt lat="47.983153" lon="7.984989">
        <ele>407.69381</ele>
      </trkpt>
      <trkpt lat="47.982974" lon="7.984381">
        <ele>406.56325</ele>
      </trkpt>
      <trkpt lat="47.982852" lon="7.983882">
        <ele>406.09062</ele>
      </trkpt>
      <trkpt lat="47.982744" lon="7.983388">
        <ele>404.81062</ele>
      </trkpt>
      <trkpt lat="47.982682" lon="7.983207">
        <ele>404.47926</ele>
      </trkpt>
      <trkpt lat="47.982538" lon="7.98273">
        <ele>404.10516</ele>
      </trkpt>
      <trkpt lat="47.982408" lon="7.982484">
        <ele>404.34941</ele>
      </trkpt>
      <trkpt lat="47.982228" lon="7.981711">
        <ele>402.40335</ele>
      </trkpt>
      <trkpt lat="47.982174" lon="7.981502">
        <ele>402.06744</ele>
      </trkpt>
      <trkpt lat="47.98212" lon="7.981277">
        <ele>401.93673</ele>
      </trkpt>
      <trkpt lat="47.981949" lon="7.980795">
        <ele>401.01744</ele>
      </trkpt>
      <trkpt lat="47.981824" lon="7.980307">
        <ele>400.11731</ele>
      </trkpt>
      <trkpt lat="47.981684" lon="7.979573">
        <ele>399.62328</ele>
      </trkpt>
      <trkpt lat="47.981644" lon="7.979403">
        <ele>399.57235</ele>
      </trkpt>
      <trkpt lat="47.981541" lon="7.978969">
        <ele>399.24975</ele>
      </trkpt>
      <trkpt lat="47.981442" lon="7.978657">
        <ele>399.17891</ele>
      </trkpt>
      <trkpt lat="47.981334" lon="7.978311">
        <ele>399.13922</ele>
      </trkpt>
      <trkpt lat="47.981123" lon="7.97773">
        <ele>399.09521</ele>
      </trkpt>
      <trkpt lat="47.980899" lon="7.977002">
        <ele>398.31785</ele>
      </trkpt>
      <trkpt lat="47.980858" lon="7.976815">
        <ele>398.01171</ele>
      </trkpt>
      <trkpt lat="47.980849" lon="7.976628">
        <ele>397.52775</ele>
      </trkpt>
      <trkpt lat="47.980827" lon="7.976171">
        <ele>396.68542</ele>
      </trkpt>
      <trkpt lat="47.980741" lon="7.975872">
        <ele>396.52807</ele>
      </trkpt>
      <trkpt lat="47.980601" lon="7.975178">
        <ele>396.04447</ele>
      </trkpt>
      <trkpt lat="47.980543" lon="7.974956">
        <ele>396.20414</ele>
      </trkpt>
      <trkpt lat="47.980665" lon="7.974359">
        <ele>396.22778</ele>
      </trkpt>
      <trkpt lat="47.980862" lon="7.973542">
        <ele>395.58309</ele>
      </trkpt>
      <trkpt lat="47.980961" lon="7.972823">
        <ele>395.14896</ele>
      </trkpt>
      <trkpt lat="47.980943" lon="7.972577">
        <ele>395.08777</ele>
      </trkpt>
      <trkpt lat="47.980871" lon="7.972039">
        <ele>394.79333</ele>
      </trkpt>
      <trkpt lat="47.980835" lon="7.971573">
        <ele>394.48481</ele>
      </trkpt>
      <trkpt lat="47.980835" lon="7.97097">
        <ele>394.13251</ele>
      </trkpt>
      <trkpt lat="47.98079" lon="7.970773">
        <ele>394.09471</ele>
      </trkpt>
      <trkpt lat="47.980772" lon="7.97028">
        <ele>393.96996</ele>
      </trkpt>
      <trkpt lat="47.980826" lon="7.966545">
        <ele>390.44514</ele>
      </trkpt>
      <trkpt lat="47.98084" lon="7.965986">
        <ele>389.98292</ele>
      </trkpt>
      <trkpt lat="47.98084" lon="7.966008">
        <ele>390.0078</ele>
      </trkpt>
      <trkpt lat="47.980849" lon="7.96552">
        <ele>389.41479</ele>
      </trkpt>
      <trkpt lat="47.980867" lon="7.965021">
        <ele>388.75891</ele>
      </trkpt>
      <trkpt lat="47.980876" lon="7.964812">
        <ele>388.47481</ele>
      </trkpt>
      <trkpt lat="47.980888" lon="7.96431">
        <ele>387.80047</ele>
      </trkpt>
      <trkpt lat="47.980956" lon="7.964171">
        <ele>387.46969</ele>
      </trkpt>
      <trkpt lat="47.981168" lon="7.964203">
        <ele>387.02344</ele>
      </trkpt>
      <trkpt lat="47.981344" lon="7.964256">
        <ele>386.71257</ele>
      </trkpt>
      <trkpt lat="47.981527" lon="7.964289">
        <ele>386.38516</ele>
      </trkpt>
      <trkpt lat="47.981653" lon="7.964466">
        <ele>386.43946</ele>
      </trkpt>
      <trkpt lat="47.981721" lon="7.964712">
        <ele>386.72584</ele>
      </trkpt>
    </trkseg>
  </trk>
</gpx>