<?xml version='1.0' encoding='UTF-8'?>
<gpx version="1.1" creator="https://www.komoot.de" xmlns="http://www.topografix.com/GPX/1/1" xmlns:xsi="http://www.w3.org/2001/XMLSchema-instance" xsi:schemaLocation="http://www.topografix.com/GPX/1/1 http://www.topografix.com/GPX/1/1/gpx.xsd">
  <metadata>
    <name>IVV-DVV 12km (Start 1)</name>
    <author>
      <link href="https://www.komoot.de">
        <text>komoot</text>
        <type>text/html</type>
      </link>
    </author>
  </metadata>
  <trk>
    <name>IVV-DVV 12km (Start 1)</name>
    <trkseg>
      <trkpt lat="49.243924" lon="8.669894">
        <ele>152.942773</ele>
        <time>2025-04-15T11:28:38.766Z</time>
      </trkpt>
      <trkpt lat="49.243963" lon="8.669961">
        <ele>152.942773</ele>
        <time>2025-04-15T11:28:45.034Z</time>
      </trkpt>
      <trkpt lat="49.244058" lon="8.670125">
        <ele>152.942773</ele>
        <time>2025-04-15T11:29:00.342Z</time>
      </trkpt>
      <trkpt lat="49.244176" lon="8.670338">
        <ele>152.942773</ele>
        <time>2025-04-15T11:29:19.632Z</time>
      </trkpt>
      <trkpt lat="49.244293" lon="8.670556">
        <ele>152.942773</ele>
        <time>2025-04-15T11:29:39.111Z</time>
      </trkpt>
      <trkpt lat="49.244464" lon="8.670966">
        <ele>152.942773</ele>
        <time>2025-04-15T11:30:13.281Z</time>
      </trkpt>
      <trkpt lat="49.244753" lon="8.670691">
        <ele>154.260405</ele>
        <time>2025-04-15T11:30:51.110Z</time>
      </trkpt>
      <trkpt lat="49.244615" lon="8.670251">
        <ele>155.544990</ele>
        <time>2025-04-15T11:31:27.483Z</time>
      </trkpt>
      <trkpt lat="49.244753" lon="8.670691">
        <ele>156.829575</ele>
        <time>2025-04-15T11:32:04.506Z</time>
      </trkpt>
      <trkpt lat="49.244869" lon="8.670651">
        <ele>157.308875</ele>
        <time>2025-04-15T11:32:18.361Z</time>
      </trkpt>
      <trkpt lat="49.244974" lon="8.670720">
        <ele>157.769436</ele>
        <time>2025-04-15T11:32:31.599Z</time>
      </trkpt>
      <trkpt lat="49.245317" lon="8.671309">
        <ele>159.846484</ele>
        <time>2025-04-15T11:33:31.685Z</time>
      </trkpt>
      <trkpt lat="49.245370" lon="8.671400">
        <ele>160.167404</ele>
        <time>2025-04-15T11:33:41.092Z</time>
      </trkpt>
      <trkpt lat="49.245467" lon="8.671546">
        <ele>160.549866</ele>
        <time>2025-04-15T11:33:57.025Z</time>
      </trkpt>
      <trkpt lat="49.245563" lon="8.671654">
        <ele>160.877702</ele>
        <time>2025-04-15T11:34:10.867Z</time>
      </trkpt>
      <trkpt lat="49.245773" lon="8.671888">
        <ele>161.592455</ele>
        <time>2025-04-15T11:34:40.615Z</time>
      </trkpt>
      <trkpt lat="49.246155" lon="8.672168">
        <ele>162.758044</ele>
        <time>2025-04-15T11:35:27.075Z</time>
      </trkpt>
      <trkpt lat="49.245677" lon="8.673889">
        <ele>165.890259</ele>
        <time>2025-04-15T11:37:35.966Z</time>
      </trkpt>
      <trkpt lat="49.245622" lon="8.674016">
        <ele>166.099962</ele>
        <time>2025-04-15T11:37:46.422Z</time>
      </trkpt>
      <trkpt lat="49.245677" lon="8.673889">
        <ele>166.309664</ele>
        <time>2025-04-15T11:37:57.018Z</time>
      </trkpt>
      <trkpt lat="49.245765" lon="8.673911">
        <ele>166.497598</ele>
        <time>2025-04-15T11:38:06.468Z</time>
      </trkpt>
      <trkpt lat="49.246116" lon="8.673776">
        <ele>167.260374</ele>
        <time>2025-04-15T11:38:45.232Z</time>
      </trkpt>
      <trkpt lat="49.246271" lon="8.673673">
        <ele>167.616487</ele>
        <time>2025-04-15T11:39:03.467Z</time>
      </trkpt>
      <trkpt lat="49.246649" lon="8.672963">
        <ele>168.877094</ele>
        <time>2025-04-15T11:40:09.511Z</time>
      </trkpt>
      <trkpt lat="49.246788" lon="8.672768">
        <ele>169.431309</ele>
        <time>2025-04-15T11:40:30.207Z</time>
      </trkpt>
      <trkpt lat="49.247855" lon="8.672047">
        <ele>173.025382</ele>
        <time>2025-04-15T11:42:35.776Z</time>
      </trkpt>
      <trkpt lat="49.247993" lon="8.671954">
        <ele>173.490016</ele>
        <time>2025-04-15T11:42:52.781Z</time>
      </trkpt>
      <trkpt lat="49.248531" lon="8.671522">
        <ele>176.448153</ele>
        <time>2025-04-15T11:44:04.020Z</time>
      </trkpt>
      <trkpt lat="49.248657" lon="8.671460">
        <ele>177.357086</ele>
        <time>2025-04-15T11:44:19.834Z</time>
      </trkpt>
      <trkpt lat="49.248951" lon="8.671310">
        <ele>179.485364</ele>
        <time>2025-04-15T11:44:57.570Z</time>
      </trkpt>
      <trkpt lat="49.249316" lon="8.671257">
        <ele>182.003472</ele>
        <time>2025-04-15T11:45:42.642Z</time>
      </trkpt>
      <trkpt lat="49.249514" lon="8.671424">
        <ele>183.555849</ele>
        <time>2025-04-15T11:46:11.271Z</time>
      </trkpt>
      <trkpt lat="49.249736" lon="8.672420">
        <ele>188.599186</ele>
        <time>2025-04-15T11:47:41.022Z</time>
      </trkpt>
      <trkpt lat="49.249842" lon="8.673586">
        <ele>195.065284</ele>
        <time>2025-04-15T11:49:20.317Z</time>
      </trkpt>
      <trkpt lat="49.250026" lon="8.674843">
        <ele>201.953208</ele>
        <time>2025-04-15T11:51:11.604Z</time>
      </trkpt>
      <trkpt lat="49.250053" lon="8.675138">
        <ele>201.837441</ele>
        <time>2025-04-15T11:51:34.737Z</time>
      </trkpt>
      <trkpt lat="49.250054" lon="8.675722">
        <ele>201.610480</ele>
        <time>2025-04-15T11:52:17.299Z</time>
      </trkpt>
      <trkpt lat="49.250023" lon="8.675761">
        <ele>201.586598</ele>
        <time>2025-04-15T11:52:21.556Z</time>
      </trkpt>
      <trkpt lat="49.248997" lon="8.675743">
        <ele>200.975714</ele>
        <time>2025-04-15T11:54:10.892Z</time>
      </trkpt>
      <trkpt lat="49.248669" lon="8.675693">
        <ele>200.942062</ele>
        <time>2025-04-15T11:54:49.691Z</time>
      </trkpt>
      <trkpt lat="49.248319" lon="8.675572">
        <ele>201.029710</ele>
        <time>2025-04-15T11:55:30.391Z</time>
      </trkpt>
      <trkpt lat="49.248004" lon="8.675534">
        <ele>201.106897</ele>
        <time>2025-04-15T11:56:04.128Z</time>
      </trkpt>
      <trkpt lat="49.247909" lon="8.676326">
        <ele>201.235307</ele>
        <time>2025-04-15T11:56:59.445Z</time>
      </trkpt>
      <trkpt lat="49.248464" lon="8.676411">
        <ele>203.048646</ele>
        <time>2025-04-15T11:58:10.024Z</time>
      </trkpt>
      <trkpt lat="49.249262" lon="8.676474">
        <ele>211.990809</ele>
        <time>2025-04-15T12:00:06.842Z</time>
      </trkpt>
      <trkpt lat="49.249824" lon="8.676521">
        <ele>218.289442</ele>
        <time>2025-04-15T12:01:30.390Z</time>
      </trkpt>
      <trkpt lat="49.250248" lon="8.676545">
        <ele>222.430235</ele>
        <time>2025-04-15T12:02:31.076Z</time>
      </trkpt>
      <trkpt lat="49.250339" lon="8.676581">
        <ele>223.076435</ele>
        <time>2025-04-15T12:02:44.052Z</time>
      </trkpt>
      <trkpt lat="49.250727" lon="8.677611">
        <ele>228.413650</ele>
        <time>2025-04-15T12:04:25.758Z</time>
      </trkpt>
      <trkpt lat="49.250885" lon="8.678066">
        <ele>230.726674</ele>
        <time>2025-04-15T12:05:06.216Z</time>
      </trkpt>
      <trkpt lat="49.251035" lon="8.678494">
        <ele>232.906895</ele>
        <time>2025-04-15T12:05:41.815Z</time>
      </trkpt>
      <trkpt lat="49.251055" lon="8.678608">
        <ele>233.436683</ele>
        <time>2025-04-15T12:05:50.081Z</time>
      </trkpt>
      <trkpt lat="49.251325" lon="8.678687">
        <ele>232.935724</ele>
        <time>2025-04-15T12:06:18.137Z</time>
      </trkpt>
      <trkpt lat="49.251346" lon="8.678719">
        <ele>232.814216</ele>
        <time>2025-04-15T12:06:21.170Z</time>
      </trkpt>
      <trkpt lat="49.251270" lon="8.680261">
        <ele>228.673367</ele>
        <time>2025-04-15T12:08:10.912Z</time>
      </trkpt>
      <trkpt lat="49.251660" lon="8.680409">
        <ele>227.025113</ele>
        <time>2025-04-15T12:08:57.534Z</time>
      </trkpt>
      <trkpt lat="49.251164" lon="8.682090">
        <ele>218.806280</ele>
        <time>2025-04-15T12:11:17.081Z</time>
      </trkpt>
      <trkpt lat="49.251573" lon="8.682160">
        <ele>215.849835</ele>
        <time>2025-04-15T12:12:04.286Z</time>
      </trkpt>
      <trkpt lat="49.251656" lon="8.682175">
        <ele>215.249447</ele>
        <time>2025-04-15T12:12:13.756Z</time>
      </trkpt>
      <trkpt lat="49.252099" lon="8.682197">
        <ele>212.751587</ele>
        <time>2025-04-15T12:13:03.362Z</time>
      </trkpt>
      <trkpt lat="49.252238" lon="8.683706">
        <ele>208.954820</ele>
        <time>2025-04-15T12:14:51.834Z</time>
      </trkpt>
      <trkpt lat="49.252401" lon="8.683749">
        <ele>208.323512</ele>
        <time>2025-04-15T12:15:09.525Z</time>
      </trkpt>
      <trkpt lat="49.252203" lon="8.685507">
        <ele>206.963876</ele>
        <time>2025-04-15T12:17:09.029Z</time>
      </trkpt>
      <trkpt lat="49.252232" lon="8.685575">
        <ele>206.985640</ele>
        <time>2025-04-15T12:17:14.520Z</time>
      </trkpt>
      <trkpt lat="49.252368" lon="8.685771">
        <ele>207.062284</ele>
        <time>2025-04-15T12:17:33.820Z</time>
      </trkpt>
      <trkpt lat="49.252427" lon="8.685795">
        <ele>207.087342</ele>
        <time>2025-04-15T12:17:40.185Z</time>
      </trkpt>
      <trkpt lat="49.252656" lon="8.685959">
        <ele>207.191106</ele>
        <time>2025-04-15T12:18:06.846Z</time>
      </trkpt>
      <trkpt lat="49.253321" lon="8.686664">
        <ele>207.901050</ele>
        <time>2025-04-15T12:19:33.881Z</time>
      </trkpt>
      <trkpt lat="49.253946" lon="8.687275">
        <ele>209.160630</ele>
        <time>2025-04-15T12:20:53.480Z</time>
      </trkpt>
      <trkpt lat="49.254258" lon="8.687555">
        <ele>209.774938</ele>
        <time>2025-04-15T12:21:31.249Z</time>
      </trkpt>
      <trkpt lat="49.255112" lon="8.688631">
        <ele>211.463877</ele>
        <time>2025-04-15T12:23:26.501Z</time>
      </trkpt>
      <trkpt lat="49.255016" lon="8.689999">
        <ele>212.747575</ele>
        <time>2025-04-15T12:25:01.048Z</time>
      </trkpt>
      <trkpt lat="49.255020" lon="8.691630">
        <ele>214.864097</ele>
        <time>2025-04-15T12:26:54.625Z</time>
      </trkpt>
      <trkpt lat="49.254985" lon="8.691925">
        <ele>215.278046</ele>
        <time>2025-04-15T12:27:15.475Z</time>
      </trkpt>
      <trkpt lat="49.254866" lon="8.692369">
        <ele>215.940700</ele>
        <time>2025-04-15T12:27:49.192Z</time>
      </trkpt>
      <trkpt lat="49.254861" lon="8.692557">
        <ele>216.200468</ele>
        <time>2025-04-15T12:28:02.452Z</time>
      </trkpt>
      <trkpt lat="49.255049" lon="8.693139">
        <ele>217.266576</ele>
        <time>2025-04-15T12:28:48.874Z</time>
      </trkpt>
      <trkpt lat="49.255108" lon="8.693426">
        <ele>217.949886</ele>
        <time>2025-04-15T12:29:10.607Z</time>
      </trkpt>
      <trkpt lat="49.255140" lon="8.693589">
        <ele>218.336423</ele>
        <time>2025-04-15T12:29:22.921Z</time>
      </trkpt>
      <trkpt lat="49.255477" lon="8.694973">
        <ele>221.690920</ele>
        <time>2025-04-15T12:31:11.614Z</time>
      </trkpt>
      <trkpt lat="49.255489" lon="8.695101">
        <ele>221.984575</ele>
        <time>2025-04-15T12:31:21.160Z</time>
      </trkpt>
      <trkpt lat="49.255657" lon="8.696139">
        <ele>224.773923</ele>
        <time>2025-04-15T12:32:40.673Z</time>
      </trkpt>
      <trkpt lat="49.255823" lon="8.697224">
        <ele>227.995702</ele>
        <time>2025-04-15T12:34:05.964Z</time>
      </trkpt>
      <trkpt lat="49.256311" lon="8.696786">
        <ele>230.500846</ele>
        <time>2025-04-15T12:35:12.216Z</time>
      </trkpt>
      <trkpt lat="49.256464" lon="8.696626">
        <ele>231.041475</ele>
        <time>2025-04-15T12:35:33.435Z</time>
      </trkpt>
      <trkpt lat="49.256827" lon="8.696313">
        <ele>230.918587</ele>
        <time>2025-04-15T12:36:20.768Z</time>
      </trkpt>
      <trkpt lat="49.256833" lon="8.696370">
        <ele>230.907469</ele>
        <time>2025-04-15T12:36:24.915Z</time>
      </trkpt>
      <trkpt lat="49.256992" lon="8.697807">
        <ele>230.626821</ele>
        <time>2025-04-15T12:38:01.008Z</time>
      </trkpt>
      <trkpt lat="49.256980" lon="8.697818">
        <ele>230.622695</ele>
        <time>2025-04-15T12:38:02.477Z</time>
      </trkpt>
      <trkpt lat="49.256492" lon="8.698265">
        <ele>228.710534</ele>
        <time>2025-04-15T12:39:05.501Z</time>
      </trkpt>
      <trkpt lat="49.256001" lon="8.698724">
        <ele>224.505240</ele>
        <time>2025-04-15T12:40:11.631Z</time>
      </trkpt>
      <trkpt lat="49.255392" lon="8.699258">
        <ele>219.375034</ele>
        <time>2025-04-15T12:41:33.486Z</time>
      </trkpt>
      <trkpt lat="49.254831" lon="8.699534">
        <ele>215.381157</ele>
        <time>2025-04-15T12:42:43.068Z</time>
      </trkpt>
      <trkpt lat="49.253704" lon="8.700045">
        <ele>207.955891</ele>
        <time>2025-04-15T12:44:56.930Z</time>
      </trkpt>
      <trkpt lat="49.253712" lon="8.699948">
        <ele>207.552721</ele>
        <time>2025-04-15T12:45:03.875Z</time>
      </trkpt>
      <trkpt lat="49.253842" lon="8.698478">
        <ele>205.086084</ele>
        <time>2025-04-15T12:46:45.024Z</time>
      </trkpt>
      <trkpt lat="49.253878" lon="8.697836">
        <ele>204.547258</ele>
        <time>2025-04-15T12:47:28.275Z</time>
      </trkpt>
      <trkpt lat="49.253864" lon="8.697583">
        <ele>204.334937</ele>
        <time>2025-04-15T12:47:44.977Z</time>
      </trkpt>
      <trkpt lat="49.253773" lon="8.696640">
        <ele>203.412027</ele>
        <time>2025-04-15T12:48:48.075Z</time>
      </trkpt>
      <trkpt lat="49.253711" lon="8.696348">
        <ele>202.968034</ele>
        <time>2025-04-15T12:49:08.827Z</time>
      </trkpt>
      <trkpt lat="49.253537" lon="8.696632">
        <ele>202.404819</ele>
        <time>2025-04-15T12:49:35.455Z</time>
      </trkpt>
      <trkpt lat="49.252500" lon="8.697664">
        <ele>199.671865</ele>
        <time>2025-04-15T12:51:46.499Z</time>
      </trkpt>
      <trkpt lat="49.251922" lon="8.695184">
        <ele>196.268603</ele>
        <time>2025-04-15T12:54:44.867Z</time>
      </trkpt>
      <trkpt lat="49.251753" lon="8.694683">
        <ele>195.367426</ele>
        <time>2025-04-15T12:55:23.372Z</time>
      </trkpt>
      <trkpt lat="49.251633" lon="8.694419">
        <ele>194.836984</ele>
        <time>2025-04-15T12:55:45.478Z</time>
      </trkpt>
      <trkpt lat="49.250571" lon="8.692644">
        <ele>191.097137</ele>
        <time>2025-04-15T12:58:31.780Z</time>
      </trkpt>
      <trkpt lat="49.250281" lon="8.691813">
        <ele>190.017856</ele>
        <time>2025-04-15T12:59:35.853Z</time>
      </trkpt>
      <trkpt lat="49.250066" lon="8.691228">
        <ele>189.248913</ele>
        <time>2025-04-15T13:00:21.042Z</time>
      </trkpt>
      <trkpt lat="49.249812" lon="8.689971">
        <ele>187.866568</ele>
        <time>2025-04-15T13:01:48.580Z</time>
      </trkpt>
      <trkpt lat="49.249767" lon="8.689733">
        <ele>187.631726</ele>
        <time>2025-04-15T13:02:05.031Z</time>
      </trkpt>
      <trkpt lat="49.249704" lon="8.689478">
        <ele>187.373313</ele>
        <time>2025-04-15T13:02:23.239Z</time>
      </trkpt>
      <trkpt lat="49.249434" lon="8.688637">
        <ele>186.485045</ele>
        <time>2025-04-15T13:03:26.691Z</time>
      </trkpt>
      <trkpt lat="49.249274" lon="8.688150">
        <ele>185.968311</ele>
        <time>2025-04-15T13:04:03.615Z</time>
      </trkpt>
      <trkpt lat="49.249109" lon="8.688238">
        <ele>185.619404</ele>
        <time>2025-04-15T13:04:21.746Z</time>
      </trkpt>
      <trkpt lat="49.248883" lon="8.688278">
        <ele>185.062706</ele>
        <time>2025-04-15T13:04:45.361Z</time>
      </trkpt>
      <trkpt lat="49.248718" lon="8.688251">
        <ele>184.656657</ele>
        <time>2025-04-15T13:05:02.720Z</time>
      </trkpt>
      <trkpt lat="49.248035" lon="8.687674">
        <ele>182.748075</ele>
        <time>2025-04-15T13:06:24.898Z</time>
      </trkpt>
      <trkpt lat="49.247238" lon="8.688099">
        <ele>180.208527</ele>
        <time>2025-04-15T13:07:53.975Z</time>
      </trkpt>
      <trkpt lat="49.246618" lon="8.688332">
        <ele>177.682864</ele>
        <time>2025-04-15T13:09:02.839Z</time>
      </trkpt>
      <trkpt lat="49.246589" lon="8.688181">
        <ele>177.276347</ele>
        <time>2025-04-15T13:09:14.057Z</time>
      </trkpt>
      <trkpt lat="49.246147" lon="8.688421">
        <ele>175.421039</ele>
        <time>2025-04-15T13:10:05.571Z</time>
      </trkpt>
      <trkpt lat="49.246048" lon="8.688406">
        <ele>175.027451</ele>
        <time>2025-04-15T13:10:16.549Z</time>
      </trkpt>
      <trkpt lat="49.245879" lon="8.688279">
        <ele>174.286368</ele>
        <time>2025-04-15T13:10:37.236Z</time>
      </trkpt>
      <trkpt lat="49.245126" lon="8.688608">
        <ele>171.400013</ele>
        <time>2025-04-15T13:12:02.391Z</time>
      </trkpt>
      <trkpt lat="49.245036" lon="8.688586">
        <ele>171.064064</ele>
        <time>2025-04-15T13:12:12.259Z</time>
      </trkpt>
      <trkpt lat="49.244560" lon="8.687186">
        <ele>167.237248</ele>
        <time>2025-04-15T13:14:01.928Z</time>
      </trkpt>
      <trkpt lat="49.244413" lon="8.686883">
        <ele>166.270438</ele>
        <time>2025-04-15T13:14:27.890Z</time>
      </trkpt>
      <trkpt lat="49.244319" lon="8.686818">
        <ele>165.865847</ele>
        <time>2025-04-15T13:14:38.849Z</time>
      </trkpt>
      <trkpt lat="49.244201" lon="8.687252">
        <ele>164.661810</ele>
        <time>2025-04-15T13:15:11.501Z</time>
      </trkpt>
      <trkpt lat="49.244138" lon="8.687527">
        <ele>163.915415</ele>
        <time>2025-04-15T13:15:31.854Z</time>
      </trkpt>
      <trkpt lat="49.243865" lon="8.687624">
        <ele>162.816012</ele>
        <time>2025-04-15T13:16:02.217Z</time>
      </trkpt>
      <trkpt lat="49.243161" lon="8.688018">
        <ele>159.521171</ele>
        <time>2025-04-15T13:17:25.052Z</time>
      </trkpt>
      <trkpt lat="49.242902" lon="8.688162">
        <ele>157.945567</ele>
        <time>2025-04-15T13:17:55.873Z</time>
      </trkpt>
      <trkpt lat="49.242620" lon="8.688316">
        <ele>156.233566</ele>
        <time>2025-04-15T13:18:29.491Z</time>
      </trkpt>
      <trkpt lat="49.242158" lon="8.688540">
        <ele>153.462486</ele>
        <time>2025-04-15T13:19:23.913Z</time>
      </trkpt>
      <trkpt lat="49.241589" lon="8.688816">
        <ele>150.134615</ele>
        <time>2025-04-15T13:20:30.721Z</time>
      </trkpt>
      <trkpt lat="49.241531" lon="8.688901">
        <ele>149.799454</ele>
        <time>2025-04-15T13:20:39.709Z</time>
      </trkpt>
      <trkpt lat="49.241522" lon="8.688974">
        <ele>149.596943</ele>
        <time>2025-04-15T13:20:45.016Z</time>
      </trkpt>
      <trkpt lat="49.241048" lon="8.689290">
        <ele>147.438507</ele>
        <time>2025-04-15T13:21:42.201Z</time>
      </trkpt>
      <trkpt lat="49.239947" lon="8.689902">
        <ele>142.712595</ele>
        <time>2025-04-15T13:23:48.267Z</time>
      </trkpt>
      <trkpt lat="49.239377" lon="8.688145">
        <ele>140.229969</ele>
        <time>2025-04-15T13:26:00.779Z</time>
      </trkpt>
      <trkpt lat="49.239093" lon="8.686730">
        <ele>138.119840</ele>
        <time>2025-04-15T13:27:40.751Z</time>
      </trkpt>
      <trkpt lat="49.239093" lon="8.686646">
        <ele>137.988673</ele>
        <time>2025-04-15T13:27:46.509Z</time>
      </trkpt>
      <trkpt lat="49.238850" lon="8.686548">
        <ele>137.387696</ele>
        <time>2025-04-15T13:28:12.817Z</time>
      </trkpt>
      <trkpt lat="49.238786" lon="8.686474">
        <ele>137.195912</ele>
        <time>2025-04-15T13:28:21.293Z</time>
      </trkpt>
      <trkpt lat="49.238618" lon="8.686124">
        <ele>136.517577</ele>
        <time>2025-04-15T13:28:51.252Z</time>
      </trkpt>
      <trkpt lat="49.237945" lon="8.685728">
        <ele>134.750336</ele>
        <time>2025-04-15T13:30:07.725Z</time>
      </trkpt>
      <trkpt lat="49.237730" lon="8.685538">
        <ele>134.063603</ele>
        <time>2025-04-15T13:30:34.105Z</time>
      </trkpt>
      <trkpt lat="49.237609" lon="8.685295">
        <ele>133.511570</ele>
        <time>2025-04-15T13:30:55.291Z</time>
      </trkpt>
      <trkpt lat="49.237387" lon="8.684544">
        <ele>132.022419</ele>
        <time>2025-04-15T13:31:52.267Z</time>
      </trkpt>
      <trkpt lat="49.236988" lon="8.683846">
        <ele>130.346617</ele>
        <time>2025-04-15T13:32:56.322Z</time>
      </trkpt>
      <trkpt lat="49.236789" lon="8.683404">
        <ele>129.653785</ele>
        <time>2025-04-15T13:33:33.208Z</time>
      </trkpt>
      <trkpt lat="49.236463" lon="8.682577">
        <ele>128.585299</ele>
        <time>2025-04-15T13:34:39.024Z</time>
      </trkpt>
      <trkpt lat="49.235965" lon="8.681075">
        <ele>126.947906</ele>
        <time>2025-04-15T13:36:31.849Z</time>
      </trkpt>
      <trkpt lat="49.234562" lon="8.682011">
        <ele>126.171796</ele>
        <time>2025-04-15T13:39:06.057Z</time>
      </trkpt>
      <trkpt lat="49.234360" lon="8.682139">
        <ele>126.151316</ele>
        <time>2025-04-15T13:39:28.106Z</time>
      </trkpt>
      <trkpt lat="49.233819" lon="8.682401">
        <ele>126.228353</ele>
        <time>2025-04-15T13:40:25.539Z</time>
      </trkpt>
      <trkpt lat="49.233186" lon="8.682694">
        <ele>126.318136</ele>
        <time>2025-04-15T13:41:32.046Z</time>
      </trkpt>
      <trkpt lat="49.233147" lon="8.682751">
        <ele>126.325455</ele>
        <time>2025-04-15T13:41:37.501Z</time>
      </trkpt>
      <trkpt lat="49.233018" lon="8.682832">
        <ele>126.344385</ele>
        <time>2025-04-15T13:41:51.770Z</time>
      </trkpt>
      <trkpt lat="49.232529" lon="8.683078">
        <ele>126.979009</ele>
        <time>2025-04-15T13:42:45.931Z</time>
      </trkpt>
      <trkpt lat="49.232157" lon="8.682396">
        <ele>128.233732</ele>
        <time>2025-04-15T13:43:48.852Z</time>
      </trkpt>
      <trkpt lat="49.231943" lon="8.682153">
        <ele>128.809796</ele>
        <time>2025-04-15T13:44:18.009Z</time>
      </trkpt>
      <trkpt lat="49.231745" lon="8.682085">
        <ele>129.248568</ele>
        <time>2025-04-15T13:44:40.242Z</time>
      </trkpt>
      <trkpt lat="49.231762" lon="8.681866">
        <ele>129.559971</ele>
        <time>2025-04-15T13:44:55.967Z</time>
      </trkpt>
      <trkpt lat="49.231685" lon="8.681511">
        <ele>130.088157</ele>
        <time>2025-04-15T13:45:22.661Z</time>
      </trkpt>
      <trkpt lat="49.231705" lon="8.681256">
        <ele>130.436434</ele>
        <time>2025-04-15T13:45:40.793Z</time>
      </trkpt>
      <trkpt lat="49.231689" lon="8.680844">
        <ele>130.973976</ele>
        <time>2025-04-15T13:46:09.814Z</time>
      </trkpt>
      <trkpt lat="49.231701" lon="8.680440">
        <ele>131.500695</ele>
        <time>2025-04-15T13:46:37.998Z</time>
      </trkpt>
      <trkpt lat="49.231620" lon="8.679475">
        <ele>132.767865</ele>
        <time>2025-04-15T13:47:45.465Z</time>
      </trkpt>
      <trkpt lat="49.231544" lon="8.677286">
        <ele>134.926118</ele>
        <time>2025-04-15T13:50:19.404Z</time>
      </trkpt>
      <trkpt lat="49.231487" lon="8.676711">
        <ele>135.385381</ele>
        <time>2025-04-15T13:50:59.380Z</time>
      </trkpt>
      <trkpt lat="49.231459" lon="8.675848">
        <ele>135.964664</ele>
        <time>2025-04-15T13:51:56.286Z</time>
      </trkpt>
      <trkpt lat="49.231474" lon="8.675166">
        <ele>135.100520</ele>
        <time>2025-04-15T13:52:41.878Z</time>
      </trkpt>
      <trkpt lat="49.231634" lon="8.674596">
        <ele>134.314834</ele>
        <time>2025-04-15T13:53:24.148Z</time>
      </trkpt>
      <trkpt lat="49.231796" lon="8.673550">
        <ele>132.953487</ele>
        <time>2025-04-15T13:54:38.512Z</time>
      </trkpt>
      <trkpt lat="49.232534" lon="8.669761">
        <ele>127.022297</ele>
        <time>2025-04-15T13:59:11.330Z</time>
      </trkpt>
      <trkpt lat="49.232887" lon="8.670205">
        <ele>126.489108</ele>
        <time>2025-04-15T13:59:58.295Z</time>
      </trkpt>
      <trkpt lat="49.232998" lon="8.670325">
        <ele>126.330516</ele>
        <time>2025-04-15T14:00:12.178Z</time>
      </trkpt>
      <trkpt lat="49.233098" lon="8.670431">
        <ele>126.188561</ele>
        <time>2025-04-15T14:00:24.652Z</time>
      </trkpt>
      <trkpt lat="49.233438" lon="8.671097">
        <ele>125.663232</ele>
        <time>2025-04-15T14:01:20.028Z</time>
      </trkpt>
      <trkpt lat="49.233577" lon="8.671293">
        <ele>126.038159</ele>
        <time>2025-04-15T14:01:39.995Z</time>
      </trkpt>
      <trkpt lat="49.233665" lon="8.671355">
        <ele>126.230370</ele>
        <time>2025-04-15T14:01:50.376Z</time>
      </trkpt>
      <trkpt lat="49.233835" lon="8.671407">
        <ele>126.574365</ele>
        <time>2025-04-15T14:02:09.189Z</time>
      </trkpt>
      <trkpt lat="49.233972" lon="8.671364">
        <ele>126.851865</ele>
        <time>2025-04-15T14:02:24.230Z</time>
      </trkpt>
      <trkpt lat="49.234133" lon="8.671267">
        <ele>127.195171</ele>
        <time>2025-04-15T14:02:42.796Z</time>
      </trkpt>
      <trkpt lat="49.234549" lon="8.670907">
        <ele>128.143314</ele>
        <time>2025-04-15T14:03:34.751Z</time>
      </trkpt>
      <trkpt lat="49.234755" lon="8.670774">
        <ele>128.586919</ele>
        <time>2025-04-15T14:03:59.249Z</time>
      </trkpt>
      <trkpt lat="49.235608" lon="8.670585">
        <ele>130.149454</ele>
        <time>2025-04-15T14:05:33.627Z</time>
      </trkpt>
      <trkpt lat="49.235676" lon="8.670585">
        <ele>130.266902</ele>
        <time>2025-04-15T14:05:40.929Z</time>
      </trkpt>
      <trkpt lat="49.237445" lon="8.670673">
        <ele>132.828567</ele>
        <time>2025-04-15T14:08:45.738Z</time>
      </trkpt>
      <trkpt lat="49.237682" lon="8.670651">
        <ele>133.047025</ele>
        <time>2025-04-15T14:09:10.178Z</time>
      </trkpt>
      <trkpt lat="49.238195" lon="8.671186">
        <ele>133.618056</ele>
        <time>2025-04-15T14:10:13.755Z</time>
      </trkpt>
      <trkpt lat="49.238498" lon="8.671558">
        <ele>134.015088</ele>
        <time>2025-04-15T14:10:53.643Z</time>
      </trkpt>
      <trkpt lat="49.238667" lon="8.671827">
        <ele>134.396951</ele>
        <time>2025-04-15T14:11:18.609Z</time>
      </trkpt>
      <trkpt lat="49.239244" lon="8.672800">
        <ele>135.741490</ele>
        <time>2025-04-15T14:12:48.481Z</time>
      </trkpt>
      <trkpt lat="49.239654" lon="8.673409">
        <ele>136.636291</ele>
        <time>2025-04-15T14:13:50.087Z</time>
      </trkpt>
      <trkpt lat="49.239953" lon="8.673763">
        <ele>137.521011</ele>
        <time>2025-04-15T14:14:31.270Z</time>
      </trkpt>
      <trkpt lat="49.239981" lon="8.673798">
        <ele>137.611338</ele>
        <time>2025-04-15T14:14:35.326Z</time>
      </trkpt>
      <trkpt lat="49.240376" lon="8.674242">
        <ele>138.835874</ele>
        <time>2025-04-15T14:15:29.145Z</time>
      </trkpt>
      <trkpt lat="49.240626" lon="8.674527">
        <ele>139.614762</ele>
        <time>2025-04-15T14:16:03.366Z</time>
      </trkpt>
      <trkpt lat="49.240941" lon="8.674907">
        <ele>140.616894</ele>
        <time>2025-04-15T14:16:47.259Z</time>
      </trkpt>
      <trkpt lat="49.241649" lon="8.675816">
        <ele>142.154672</ele>
        <time>2025-04-15T14:18:26.357Z</time>
      </trkpt>
      <trkpt lat="49.241819" lon="8.676015">
        <ele>142.445961</ele>
        <time>2025-04-15T14:18:48.524Z</time>
      </trkpt>
      <trkpt lat="49.241959" lon="8.676155">
        <ele>142.673583</ele>
        <time>2025-04-15T14:19:05.571Z</time>
      </trkpt>
      <trkpt lat="49.242004" lon="8.675904">
        <ele>142.904935</ele>
        <time>2025-04-15T14:19:22.796Z</time>
      </trkpt>
      <trkpt lat="49.242316" lon="8.674266">
        <ele>144.797168</ele>
        <time>2025-04-15T14:21:18.100Z</time>
      </trkpt>
      <trkpt lat="49.243041" lon="8.674150">
        <ele>146.292817</ele>
        <time>2025-04-15T14:22:37.451Z</time>
      </trkpt>
      <trkpt lat="49.243505" lon="8.674062">
        <ele>147.252122</ele>
        <time>2025-04-15T14:23:29.321Z</time>
      </trkpt>
      <trkpt lat="49.243738" lon="8.674094">
        <ele>147.559343</ele>
        <time>2025-04-15T14:23:54.941Z</time>
      </trkpt>
      <trkpt lat="49.243955" lon="8.674124">
        <ele>147.792394</ele>
        <time>2025-04-15T14:24:18.490Z</time>
      </trkpt>
      <trkpt lat="49.243915" lon="8.673317">
        <ele>148.357536</ele>
        <time>2025-04-15T14:25:13.707Z</time>
      </trkpt>
      <trkpt lat="49.243895" lon="8.672809">
        <ele>148.712913</ele>
        <time>2025-04-15T14:25:47.438Z</time>
      </trkpt>
      <trkpt lat="49.243865" lon="8.672440">
        <ele>148.972573</ele>
        <time>2025-04-15T14:26:11.856Z</time>
      </trkpt>
      <trkpt lat="49.243784" lon="8.670945">
        <ele>149.295061</ele>
        <time>2025-04-15T14:27:50.360Z</time>
      </trkpt>
      <trkpt lat="49.243783" lon="8.670642">
        <ele>149.295061</ele>
        <time>2025-04-15T14:28:10.479Z</time>
      </trkpt>
      <trkpt lat="49.243812" lon="8.670531">
        <ele>149.295061</ele>
        <time>2025-04-15T14:28:18.456Z</time>
      </trkpt>
      <trkpt lat="49.244058" lon="8.670125">
        <ele>149.295061</ele>
        <time>2025-04-15T14:28:55.339Z</time>
      </trkpt>
      <trkpt lat="49.243963" lon="8.669961">
        <ele>149.295061</ele>
        <time>2025-04-15T14:29:09.994Z</time>
      </trkpt>
      <trkpt lat="49.243924" lon="8.669894">
        <ele>149.295061</ele>
        <time>2025-04-15T14:29:15.952Z</time>
      </trkpt>
    </trkseg>
  </trk>
</gpx>