<?xml version="1.0" encoding="UTF-8" standalone="yes"?>
<gpx version="1.1" creator="outdooractive - http://www.outdooractive.com" xmlns="http://www.topografix.com/GPX/1/1" xmlns:xsi="http://www.w3.org/2001/XMLSchema-instance" xsi:schemaLocation="http://www.topografix.com/GPX/1/1 http://www.topografix.com/GPX/1/1/gpx.xsd" xmlns:oa="http://www.outdooractive.com/GPX/Extensions/1">
  <metadata>
    <name>PW Buggingen 5,5km</name>
    <author>
      <name>Bianca Kern - Community</name>
    </author>
    <link href="https://www.outdooractive.com/r/286258520"/>
    <time>2024-01-29T20:24:09.037Z</time>
    <extensions>
      <oa:oaCategory>hikingTourTrail</oa:oaCategory>
    </extensions>
  </metadata>
  <trk>
    <name>PW Buggingen 5,5km</name>
    <desc>neu erstellt</desc>
    <type>hikingTourTrail</type>
    <trkseg>
      <trkpt lat="47.853186" lon="7.63218">
        <ele>223.4</ele>
        <name>47.853188,7.632177</name>
        <extensions>
          <oa:mapZoom>18</oa:mapZoom>
        </extensions>
      </trkpt>
      <trkpt lat="47.853134" lon="7.632088">
        <ele>223.3</ele>
      </trkpt>
      <trkpt lat="47.85306" lon="7.631968">
        <ele>223.3</ele>
      </trkpt>
      <trkpt lat="47.85304" lon="7.6319">
        <ele>223.2</ele>
      </trkpt>
      <trkpt lat="47.85304" lon="7.631819">
        <ele>223.1</ele>
      </trkpt>
      <trkpt lat="47.85293" lon="7.631684">
        <ele>223.0</ele>
      </trkpt>
      <trkpt lat="47.85272" lon="7.631353">
        <ele>222.6</ele>
      </trkpt>
      <trkpt lat="47.852489" lon="7.631026">
        <ele>222.5</ele>
      </trkpt>
      <trkpt lat="47.852257" lon="7.630699">
        <ele>222.5</ele>
      </trkpt>
      <trkpt lat="47.852026" lon="7.630372">
        <ele>222.6</ele>
      </trkpt>
      <trkpt lat="47.851751" lon="7.630767">
        <ele>222.7</ele>
      </trkpt>
      <trkpt lat="47.851475" lon="7.631162">
        <ele>222.7</ele>
      </trkpt>
      <trkpt lat="47.8512" lon="7.631556">
        <ele>222.6</ele>
      </trkpt>
      <trkpt lat="47.850924" lon="7.631951">
        <ele>222.7</ele>
      </trkpt>
      <trkpt lat="47.85074" lon="7.632215">
        <ele>222.7</ele>
        <name>47.850740,7.632215</name>
        <extensions>
          <oa:mapZoom>17</oa:mapZoom>
        </extensions>
      </trkpt>
      <trkpt lat="47.850648" lon="7.632346">
        <ele>222.7</ele>
      </trkpt>
      <trkpt lat="47.850373" lon="7.63274">
        <ele>222.6</ele>
      </trkpt>
      <trkpt lat="47.850056" lon="7.633192">
        <ele>223.2</ele>
      </trkpt>
      <trkpt lat="47.84974" lon="7.633644">
        <ele>222.9</ele>
      </trkpt>
      <trkpt lat="47.849424" lon="7.634096">
        <ele>222.6</ele>
      </trkpt>
      <trkpt lat="47.849204" lon="7.634387">
        <ele>222.5</ele>
      </trkpt>
      <trkpt lat="47.849009" lon="7.634663">
        <ele>222.5</ele>
      </trkpt>
      <trkpt lat="47.848815" lon="7.634939">
        <ele>222.5</ele>
      </trkpt>
      <trkpt lat="47.848635" lon="7.635171">
        <ele>222.5</ele>
      </trkpt>
      <trkpt lat="47.848421" lon="7.635426">
        <ele>222.5</ele>
      </trkpt>
      <trkpt lat="47.848202" lon="7.635666">
        <ele>222.5</ele>
      </trkpt>
      <trkpt lat="47.848173" lon="7.635694">
        <ele>222.5</ele>
      </trkpt>
      <trkpt lat="47.848139" lon="7.635726">
        <ele>222.5</ele>
      </trkpt>
      <trkpt lat="47.84809" lon="7.635649">
        <ele>222.5</ele>
      </trkpt>
      <trkpt lat="47.847796" lon="7.635219">
        <ele>222.5</ele>
      </trkpt>
      <trkpt lat="47.847685" lon="7.635056">
        <ele>222.5</ele>
        <name>47.847685,7.635056</name>
        <extensions>
          <oa:mapZoom>17</oa:mapZoom>
        </extensions>
      </trkpt>
      <trkpt lat="47.847502" lon="7.634789">
        <ele>222.4</ele>
      </trkpt>
      <trkpt lat="47.847348" lon="7.635066">
        <ele>222.5</ele>
      </trkpt>
      <trkpt lat="47.847108" lon="7.635535">
        <ele>222.9</ele>
      </trkpt>
      <trkpt lat="47.846867" lon="7.636003">
        <ele>223.4</ele>
      </trkpt>
      <trkpt lat="47.846764" lon="7.635781">
        <ele>223.4</ele>
      </trkpt>
      <trkpt lat="47.846664" lon="7.63555">
        <ele>223.4</ele>
        <name>47.846664,7.635550</name>
        <extensions>
          <oa:mapZoom>17</oa:mapZoom>
        </extensions>
      </trkpt>
      <trkpt lat="47.846663" lon="7.635548">
        <ele>223.4</ele>
      </trkpt>
      <trkpt lat="47.846624" lon="7.635407">
        <ele>223.3</ele>
      </trkpt>
      <trkpt lat="47.846611" lon="7.635232">
        <ele>223.3</ele>
      </trkpt>
      <trkpt lat="47.846639" lon="7.635027">
        <ele>223.2</ele>
      </trkpt>
      <trkpt lat="47.846726" lon="7.634756">
        <ele>222.9</ele>
      </trkpt>
      <trkpt lat="47.846761" lon="7.634657">
        <ele>222.8</ele>
      </trkpt>
      <trkpt lat="47.846835" lon="7.63445">
        <ele>222.5</ele>
      </trkpt>
      <trkpt lat="47.846882" lon="7.634283">
        <ele>222.5</ele>
      </trkpt>
      <trkpt lat="47.846949" lon="7.634028">
        <ele>222.4</ele>
      </trkpt>
      <trkpt lat="47.846966" lon="7.633947">
        <ele>222.4</ele>
        <name>47.846966,7.633947</name>
        <extensions>
          <oa:mapZoom>17</oa:mapZoom>
        </extensions>
      </trkpt>
      <trkpt lat="47.847001" lon="7.633792">
        <ele>222.3</ele>
      </trkpt>
      <trkpt lat="47.847024" lon="7.633632">
        <ele>222.2</ele>
      </trkpt>
      <trkpt lat="47.846969" lon="7.633553">
        <ele>222.2</ele>
      </trkpt>
      <trkpt lat="47.846941" lon="7.633503">
        <ele>222.2</ele>
      </trkpt>
      <trkpt lat="47.846852" lon="7.633294">
        <ele>222.3</ele>
      </trkpt>
      <trkpt lat="47.84682" lon="7.633221">
        <ele>222.7</ele>
      </trkpt>
      <trkpt lat="47.84673" lon="7.633064">
        <ele>226.4</ele>
      </trkpt>
      <trkpt lat="47.846699" lon="7.632972">
        <ele>229.6</ele>
      </trkpt>
      <trkpt lat="47.846685" lon="7.632817">
        <ele>233.9</ele>
      </trkpt>
      <trkpt lat="47.846716" lon="7.632635">
        <ele>235.9</ele>
      </trkpt>
      <trkpt lat="47.846741" lon="7.632529">
        <ele>235.9</ele>
      </trkpt>
      <trkpt lat="47.846771" lon="7.632262">
        <ele>235.5</ele>
      </trkpt>
      <trkpt lat="47.846776" lon="7.632094">
        <ele>235.2</ele>
      </trkpt>
      <trkpt lat="47.84677" lon="7.631978">
        <ele>235.3</ele>
      </trkpt>
      <trkpt lat="47.846756" lon="7.631758">
        <ele>234.7</ele>
      </trkpt>
      <trkpt lat="47.846743" lon="7.631724">
        <ele>234.9</ele>
      </trkpt>
      <trkpt lat="47.846708" lon="7.631693">
        <ele>235.7</ele>
      </trkpt>
      <trkpt lat="47.846674" lon="7.631687">
        <ele>236.5</ele>
      </trkpt>
      <trkpt lat="47.846603" lon="7.631725">
        <ele>238.4</ele>
      </trkpt>
      <trkpt lat="47.846592" lon="7.632068">
        <ele>239.4</ele>
      </trkpt>
      <trkpt lat="47.846577" lon="7.63217">
        <ele>239.8</ele>
      </trkpt>
      <trkpt lat="47.846552" lon="7.632206">
        <ele>240.3</ele>
      </trkpt>
      <trkpt lat="47.846489" lon="7.632238">
        <ele>241.4</ele>
      </trkpt>
      <trkpt lat="47.846362" lon="7.632187">
        <ele>243.9</ele>
      </trkpt>
      <trkpt lat="47.846288" lon="7.632145">
        <ele>245.5</ele>
      </trkpt>
      <trkpt lat="47.846207" lon="7.632103">
        <ele>247.3</ele>
      </trkpt>
      <trkpt lat="47.846162" lon="7.632075">
        <ele>248.4</ele>
      </trkpt>
      <trkpt lat="47.846089" lon="7.632039">
        <ele>250.2</ele>
      </trkpt>
      <trkpt lat="47.845919" lon="7.631936">
        <ele>252.8</ele>
        <name>47.845919,7.631936</name>
        <extensions>
          <oa:mapZoom>17</oa:mapZoom>
        </extensions>
      </trkpt>
      <trkpt lat="47.845893" lon="7.63192">
        <ele>253.2</ele>
      </trkpt>
      <trkpt lat="47.845531" lon="7.631754">
        <ele>258.7</ele>
      </trkpt>
      <trkpt lat="47.845272" lon="7.631579">
        <ele>260.4</ele>
      </trkpt>
      <trkpt lat="47.84506" lon="7.631404">
        <ele>260.6</ele>
      </trkpt>
      <trkpt lat="47.844775" lon="7.63109">
        <ele>261.0</ele>
      </trkpt>
      <trkpt lat="47.844437" lon="7.630761">
        <ele>260.9</ele>
      </trkpt>
      <trkpt lat="47.84424" lon="7.63054">
        <ele>261.4</ele>
      </trkpt>
      <trkpt lat="47.844116" lon="7.6304">
        <ele>261.7</ele>
        <name>47.844116,7.630400</name>
        <extensions>
          <oa:mapZoom>17</oa:mapZoom>
        </extensions>
      </trkpt>
      <trkpt lat="47.844044" lon="7.630319">
        <ele>261.9</ele>
      </trkpt>
      <trkpt lat="47.844005" lon="7.630264">
        <ele>261.9</ele>
      </trkpt>
      <trkpt lat="47.84401" lon="7.630225">
        <ele>262.1</ele>
      </trkpt>
      <trkpt lat="47.844067" lon="7.630056">
        <ele>263.7</ele>
      </trkpt>
      <trkpt lat="47.844267" lon="7.629635">
        <ele>265.9</ele>
      </trkpt>
      <trkpt lat="47.844385" lon="7.629445">
        <ele>266.9</ele>
      </trkpt>
      <trkpt lat="47.844483" lon="7.629295">
        <ele>267.3</ele>
      </trkpt>
      <trkpt lat="47.844575" lon="7.629163">
        <ele>268.0</ele>
      </trkpt>
      <trkpt lat="47.844684" lon="7.629126">
        <ele>268.3</ele>
      </trkpt>
      <trkpt lat="47.844731" lon="7.628958">
        <ele>268.6</ele>
      </trkpt>
      <trkpt lat="47.844705" lon="7.628906">
        <ele>268.5</ele>
      </trkpt>
      <trkpt lat="47.844624" lon="7.62875">
        <ele>267.8</ele>
      </trkpt>
      <trkpt lat="47.844567" lon="7.628686">
        <ele>268.0</ele>
        <name>47.844567,7.628686</name>
        <extensions>
          <oa:mapZoom>17</oa:mapZoom>
        </extensions>
      </trkpt>
      <trkpt lat="47.844496" lon="7.628607">
        <ele>268.2</ele>
      </trkpt>
      <trkpt lat="47.8441" lon="7.628296">
        <ele>269.7</ele>
      </trkpt>
      <trkpt lat="47.843787" lon="7.628058">
        <ele>270.4</ele>
      </trkpt>
      <trkpt lat="47.843475" lon="7.62782">
        <ele>270.5</ele>
      </trkpt>
      <trkpt lat="47.843488" lon="7.627687">
        <ele>270.1</ele>
      </trkpt>
      <trkpt lat="47.843454" lon="7.627631">
        <ele>270.0</ele>
      </trkpt>
      <trkpt lat="47.843399" lon="7.627582">
        <ele>270.0</ele>
      </trkpt>
      <trkpt lat="47.843172" lon="7.627436">
        <ele>270.3</ele>
      </trkpt>
      <trkpt lat="47.843117" lon="7.627371">
        <ele>269.9</ele>
      </trkpt>
      <trkpt lat="47.843091" lon="7.627359">
        <ele>270.1</ele>
        <name>47.843091,7.627359</name>
        <extensions>
          <oa:mapZoom>17</oa:mapZoom>
        </extensions>
      </trkpt>
      <trkpt lat="47.843031" lon="7.627329">
        <ele>270.3</ele>
      </trkpt>
      <trkpt lat="47.842833" lon="7.627209">
        <ele>270.7</ele>
      </trkpt>
      <trkpt lat="47.84256" lon="7.627031">
        <ele>270.7</ele>
      </trkpt>
      <trkpt lat="47.842262" lon="7.62683">
        <ele>271.1</ele>
      </trkpt>
      <trkpt lat="47.842155" lon="7.626758">
        <ele>271.1</ele>
        <name>47.842146,7.626786</name>
        <extensions>
          <oa:mapZoom>17</oa:mapZoom>
        </extensions>
      </trkpt>
      <trkpt lat="47.842065" lon="7.626698">
        <ele>271.2</ele>
      </trkpt>
      <trkpt lat="47.841836" lon="7.626539">
        <ele>270.7</ele>
      </trkpt>
      <trkpt lat="47.841645" lon="7.626403">
        <ele>270.3</ele>
      </trkpt>
      <trkpt lat="47.84153" lon="7.626334">
        <ele>270.1</ele>
      </trkpt>
      <trkpt lat="47.84125" lon="7.626095">
        <ele>269.9</ele>
        <name>47.841261,7.626067</name>
        <extensions>
          <oa:mapZoom>17</oa:mapZoom>
        </extensions>
      </trkpt>
      <trkpt lat="47.841213" lon="7.626064">
        <ele>269.9</ele>
      </trkpt>
      <trkpt lat="47.841037" lon="7.625905">
        <ele>270.2</ele>
      </trkpt>
      <trkpt lat="47.840764" lon="7.625663">
        <ele>270.7</ele>
      </trkpt>
      <trkpt lat="47.840639" lon="7.625558">
        <ele>271.1</ele>
      </trkpt>
      <trkpt lat="47.840547" lon="7.62548">
        <ele>271.3</ele>
      </trkpt>
      <trkpt lat="47.840552" lon="7.625378">
        <ele>270.8</ele>
      </trkpt>
      <trkpt lat="47.840573" lon="7.625294">
        <ele>270.3</ele>
      </trkpt>
      <trkpt lat="47.840609" lon="7.625149">
        <ele>269.3</ele>
      </trkpt>
      <trkpt lat="47.840636" lon="7.625028">
        <ele>268.3</ele>
      </trkpt>
      <trkpt lat="47.840649" lon="7.624918">
        <ele>267.3</ele>
      </trkpt>
      <trkpt lat="47.840531" lon="7.62484">
        <ele>267.7</ele>
        <name>47.840531,7.624840</name>
        <extensions>
          <oa:mapZoom>17</oa:mapZoom>
        </extensions>
      </trkpt>
      <trkpt lat="47.840463" lon="7.624795">
        <ele>267.9</ele>
      </trkpt>
      <trkpt lat="47.840148" lon="7.624551">
        <ele>269.1</ele>
      </trkpt>
      <trkpt lat="47.83997" lon="7.624446">
        <ele>268.9</ele>
      </trkpt>
      <trkpt lat="47.839897" lon="7.624773">
        <ele>270.4</ele>
      </trkpt>
      <trkpt lat="47.839824" lon="7.6251">
        <ele>270.0</ele>
      </trkpt>
      <trkpt lat="47.839808" lon="7.625207">
        <ele>269.8</ele>
      </trkpt>
      <trkpt lat="47.839699" lon="7.625502">
        <ele>269.2</ele>
      </trkpt>
      <trkpt lat="47.83959" lon="7.625797">
        <ele>270.0</ele>
      </trkpt>
      <trkpt lat="47.839573" lon="7.625831">
        <ele>270.0</ele>
      </trkpt>
      <trkpt lat="47.839552" lon="7.625871">
        <ele>270.0</ele>
      </trkpt>
      <trkpt lat="47.839494" lon="7.625973">
        <ele>270.1</ele>
      </trkpt>
      <trkpt lat="47.839344" lon="7.625811">
        <ele>270.0</ele>
      </trkpt>
      <trkpt lat="47.839204" lon="7.625615">
        <ele>269.7</ele>
      </trkpt>
      <trkpt lat="47.839046" lon="7.625847">
        <ele>270.9</ele>
      </trkpt>
      <trkpt lat="47.839046" lon="7.625846">
        <ele>270.9</ele>
        <name>47.839046,7.625847</name>
        <extensions>
          <oa:mapZoom>17</oa:mapZoom>
        </extensions>
      </trkpt>
      <trkpt lat="47.838887" lon="7.626079">
        <ele>272.1</ele>
      </trkpt>
      <trkpt lat="47.838569" lon="7.626543">
        <ele>273.9</ele>
      </trkpt>
      <trkpt lat="47.83852" lon="7.62661">
        <ele>274.5</ele>
      </trkpt>
      <trkpt lat="47.838267" lon="7.627">
        <ele>277.4</ele>
      </trkpt>
      <trkpt lat="47.838014" lon="7.627391">
        <ele>280.0</ele>
      </trkpt>
      <trkpt lat="47.837761" lon="7.627782">
        <ele>282.0</ele>
      </trkpt>
      <trkpt lat="47.837752" lon="7.627796">
        <ele>282.0</ele>
        <name>47.837782,7.627838</name>
        <extensions>
          <oa:mapZoom>17</oa:mapZoom>
        </extensions>
      </trkpt>
      <trkpt lat="47.837505" lon="7.628198">
        <ele>282.9</ele>
      </trkpt>
      <trkpt lat="47.837249" lon="7.628614">
        <ele>281.1</ele>
      </trkpt>
      <trkpt lat="47.837216" lon="7.628696">
        <ele>280.3</ele>
      </trkpt>
      <trkpt lat="47.837275" lon="7.628742">
        <ele>280.3</ele>
      </trkpt>
      <trkpt lat="47.837547" lon="7.628967">
        <ele>279.6</ele>
      </trkpt>
      <trkpt lat="47.837705" lon="7.629145">
        <ele>278.1</ele>
      </trkpt>
      <trkpt lat="47.837775" lon="7.62924">
        <ele>277.3</ele>
      </trkpt>
      <trkpt lat="47.837822" lon="7.629298">
        <ele>276.9</ele>
      </trkpt>
      <trkpt lat="47.837922" lon="7.629449">
        <ele>276.2</ele>
      </trkpt>
      <trkpt lat="47.83794" lon="7.629533">
        <ele>275.8</ele>
      </trkpt>
      <trkpt lat="47.837825" lon="7.630077">
        <ele>272.5</ele>
      </trkpt>
      <trkpt lat="47.838051" lon="7.630276">
        <ele>271.5</ele>
      </trkpt>
      <trkpt lat="47.838115" lon="7.630331">
        <ele>271.1</ele>
        <name>47.838115,7.630331</name>
        <extensions>
          <oa:mapZoom>16</oa:mapZoom>
        </extensions>
      </trkpt>
      <trkpt lat="47.838368" lon="7.630547">
        <ele>269.6</ele>
      </trkpt>
      <trkpt lat="47.838507" lon="7.630673">
        <ele>268.6</ele>
      </trkpt>
      <trkpt lat="47.838628" lon="7.630806">
        <ele>267.5</ele>
      </trkpt>
      <trkpt lat="47.838779" lon="7.630982">
        <ele>266.0</ele>
      </trkpt>
      <trkpt lat="47.838923" lon="7.631114">
        <ele>265.1</ele>
      </trkpt>
      <trkpt lat="47.838999" lon="7.631203">
        <ele>264.5</ele>
      </trkpt>
      <trkpt lat="47.839116" lon="7.631294">
        <ele>264.3</ele>
      </trkpt>
      <trkpt lat="47.839336" lon="7.631449">
        <ele>264.2</ele>
      </trkpt>
      <trkpt lat="47.839461" lon="7.631561">
        <ele>264.1</ele>
      </trkpt>
      <trkpt lat="47.839609" lon="7.631755">
        <ele>263.5</ele>
      </trkpt>
      <trkpt lat="47.839796" lon="7.632017">
        <ele>262.4</ele>
      </trkpt>
      <trkpt lat="47.839883" lon="7.632113">
        <ele>261.9</ele>
        <name>47.839864,7.632151</name>
        <extensions>
          <oa:mapZoom>16</oa:mapZoom>
        </extensions>
      </trkpt>
      <trkpt lat="47.840003" lon="7.632246">
        <ele>261.2</ele>
      </trkpt>
      <trkpt lat="47.840186" lon="7.632421">
        <ele>259.8</ele>
      </trkpt>
      <trkpt lat="47.840449" lon="7.632655">
        <ele>258.0</ele>
      </trkpt>
      <trkpt lat="47.840648" lon="7.632812">
        <ele>256.8</ele>
      </trkpt>
      <trkpt lat="47.840729" lon="7.632854">
        <ele>256.6</ele>
      </trkpt>
      <trkpt lat="47.840766" lon="7.632893">
        <ele>256.4</ele>
      </trkpt>
      <trkpt lat="47.840833" lon="7.632927">
        <ele>256.3</ele>
      </trkpt>
      <trkpt lat="47.841023" lon="7.633108">
        <ele>255.3</ele>
      </trkpt>
      <trkpt lat="47.841138" lon="7.633219">
        <ele>254.6</ele>
      </trkpt>
      <trkpt lat="47.84147" lon="7.633546">
        <ele>252.7</ele>
      </trkpt>
      <trkpt lat="47.841711" lon="7.63377">
        <ele>251.6</ele>
      </trkpt>
      <trkpt lat="47.842026" lon="7.63404">
        <ele>250.8</ele>
      </trkpt>
      <trkpt lat="47.84226" lon="7.634207">
        <ele>250.3</ele>
      </trkpt>
      <trkpt lat="47.842473" lon="7.634382">
        <ele>249.6</ele>
      </trkpt>
      <trkpt lat="47.842675" lon="7.634558">
        <ele>248.5</ele>
      </trkpt>
      <trkpt lat="47.842877" lon="7.634734">
        <ele>246.9</ele>
      </trkpt>
      <trkpt lat="47.843167" lon="7.63508">
        <ele>243.5</ele>
      </trkpt>
      <trkpt lat="47.843237" lon="7.635183">
        <ele>242.5</ele>
      </trkpt>
      <trkpt lat="47.843383" lon="7.635389">
        <ele>240.7</ele>
      </trkpt>
      <trkpt lat="47.843537" lon="7.635562">
        <ele>239.4</ele>
      </trkpt>
      <trkpt lat="47.843673" lon="7.63569">
        <ele>238.7</ele>
      </trkpt>
      <trkpt lat="47.843784" lon="7.635755">
        <ele>238.2</ele>
      </trkpt>
      <trkpt lat="47.8438" lon="7.635805">
        <ele>238.2</ele>
        <name>47.843800,7.635805</name>
        <extensions>
          <oa:mapZoom>17</oa:mapZoom>
        </extensions>
      </trkpt>
      <trkpt lat="47.843862" lon="7.636003">
        <ele>237.9</ele>
      </trkpt>
      <trkpt lat="47.844016" lon="7.63635">
        <ele>237.4</ele>
      </trkpt>
      <trkpt lat="47.84417" lon="7.636698">
        <ele>236.9</ele>
      </trkpt>
      <trkpt lat="47.844325" lon="7.637108">
        <ele>236.7</ele>
      </trkpt>
      <trkpt lat="47.844344" lon="7.637149">
        <ele>236.7</ele>
      </trkpt>
      <trkpt lat="47.844299" lon="7.637227">
        <ele>237.0</ele>
      </trkpt>
      <trkpt lat="47.844192" lon="7.637453">
        <ele>236.7</ele>
      </trkpt>
      <trkpt lat="47.844111" lon="7.637687">
        <ele>235.9</ele>
      </trkpt>
      <trkpt lat="47.844052" lon="7.637854">
        <ele>235.1</ele>
      </trkpt>
      <trkpt lat="47.843961" lon="7.638202">
        <ele>233.3</ele>
      </trkpt>
      <trkpt lat="47.843886" lon="7.63845">
        <ele>232.4</ele>
      </trkpt>
      <trkpt lat="47.843874" lon="7.638544">
        <ele>232.2</ele>
      </trkpt>
      <trkpt lat="47.843851" lon="7.63887">
        <ele>231.9</ele>
      </trkpt>
      <trkpt lat="47.843838" lon="7.639024">
        <ele>231.8</ele>
      </trkpt>
      <trkpt lat="47.843851" lon="7.639176">
        <ele>231.5</ele>
      </trkpt>
      <trkpt lat="47.843887" lon="7.639358">
        <ele>230.8</ele>
      </trkpt>
      <trkpt lat="47.844001" lon="7.63935">
        <ele>230.3</ele>
      </trkpt>
      <trkpt lat="47.844008" lon="7.639353">
        <ele>230.3</ele>
      </trkpt>
      <trkpt lat="47.844008" lon="7.639352">
        <ele>230.3</ele>
        <name>47.844008,7.639353</name>
        <extensions>
          <oa:mapZoom>17</oa:mapZoom>
        </extensions>
      </trkpt>
      <trkpt lat="47.844304" lon="7.639444">
        <ele>228.8</ele>
      </trkpt>
      <trkpt lat="47.844578" lon="7.639515">
        <ele>227.8</ele>
      </trkpt>
      <trkpt lat="47.844852" lon="7.639585">
        <ele>226.8</ele>
      </trkpt>
      <trkpt lat="47.845094" lon="7.639551">
        <ele>226.4</ele>
      </trkpt>
      <trkpt lat="47.845255" lon="7.639628">
        <ele>225.6</ele>
      </trkpt>
      <trkpt lat="47.845562" lon="7.639679">
        <ele>224.7</ele>
      </trkpt>
      <trkpt lat="47.8457" lon="7.639744">
        <ele>224.4</ele>
      </trkpt>
      <trkpt lat="47.845997" lon="7.639569">
        <ele>224.3</ele>
      </trkpt>
      <trkpt lat="47.846289" lon="7.639291">
        <ele>224.5</ele>
      </trkpt>
      <trkpt lat="47.846437" lon="7.639129">
        <ele>224.4</ele>
      </trkpt>
      <trkpt lat="47.846581" lon="7.638976">
        <ele>224.3</ele>
      </trkpt>
      <trkpt lat="47.846697" lon="7.638825">
        <ele>224.2</ele>
        <name>47.846697,7.638825</name>
        <extensions>
          <oa:mapZoom>17</oa:mapZoom>
        </extensions>
      </trkpt>
      <trkpt lat="47.846799" lon="7.638692">
        <ele>224.1</ele>
      </trkpt>
      <trkpt lat="47.847018" lon="7.638409">
        <ele>223.9</ele>
      </trkpt>
      <trkpt lat="47.847309" lon="7.638002">
        <ele>223.7</ele>
      </trkpt>
      <trkpt lat="47.847391" lon="7.6379">
        <ele>223.7</ele>
        <name>47.847374,7.637869</name>
        <extensions>
          <oa:mapZoom>17</oa:mapZoom>
        </extensions>
      </trkpt>
      <trkpt lat="47.847542" lon="7.637713">
        <ele>223.7</ele>
      </trkpt>
      <trkpt lat="47.847623" lon="7.637621">
        <ele>223.6</ele>
      </trkpt>
      <trkpt lat="47.847784" lon="7.637465">
        <ele>223.6</ele>
      </trkpt>
      <trkpt lat="47.847986" lon="7.637291">
        <ele>223.5</ele>
      </trkpt>
      <trkpt lat="47.84809" lon="7.637217">
        <ele>223.4</ele>
      </trkpt>
      <trkpt lat="47.848195" lon="7.637158">
        <ele>223.4</ele>
      </trkpt>
      <trkpt lat="47.848287" lon="7.637139">
        <ele>223.3</ele>
      </trkpt>
      <trkpt lat="47.848364" lon="7.636938">
        <ele>223.3</ele>
      </trkpt>
      <trkpt lat="47.848451" lon="7.636885">
        <ele>223.3</ele>
        <name>47.848451,7.636885</name>
        <extensions>
          <oa:mapZoom>17</oa:mapZoom>
        </extensions>
      </trkpt>
      <trkpt lat="47.848646" lon="7.636768">
        <ele>223.2</ele>
      </trkpt>
      <trkpt lat="47.848978" lon="7.636537">
        <ele>223.0</ele>
      </trkpt>
      <trkpt lat="47.849134" lon="7.63641">
        <ele>222.9</ele>
      </trkpt>
      <trkpt lat="47.849412" lon="7.636186">
        <ele>222.8</ele>
      </trkpt>
      <trkpt lat="47.849515" lon="7.636085">
        <ele>222.8</ele>
      </trkpt>
      <trkpt lat="47.84979" lon="7.635814">
        <ele>222.7</ele>
      </trkpt>
      <trkpt lat="47.849968" lon="7.63564">
        <ele>222.6</ele>
      </trkpt>
      <trkpt lat="47.850289" lon="7.635325">
        <ele>222.6</ele>
      </trkpt>
      <trkpt lat="47.850494" lon="7.635124">
        <ele>222.5</ele>
        <name>47.850494,7.635124</name>
        <extensions>
          <oa:mapZoom>19</oa:mapZoom>
        </extensions>
      </trkpt>
      <trkpt lat="47.85061" lon="7.63501">
        <ele>222.5</ele>
      </trkpt>
      <trkpt lat="47.850748" lon="7.63486">
        <ele>222.5</ele>
      </trkpt>
      <trkpt lat="47.851056" lon="7.634545">
        <ele>222.5</ele>
      </trkpt>
      <trkpt lat="47.851365" lon="7.634229">
        <ele>222.6</ele>
      </trkpt>
      <trkpt lat="47.851724" lon="7.633871">
        <ele>223.0</ele>
      </trkpt>
      <trkpt lat="47.852084" lon="7.633513">
        <ele>223.1</ele>
      </trkpt>
      <trkpt lat="47.852119" lon="7.633518">
        <ele>223.1</ele>
      </trkpt>
      <trkpt lat="47.852174" lon="7.633528">
        <ele>223.1</ele>
      </trkpt>
      <trkpt lat="47.852191" lon="7.633526">
        <ele>223.1</ele>
      </trkpt>
      <trkpt lat="47.852261" lon="7.633563">
        <ele>223.1</ele>
      </trkpt>
      <trkpt lat="47.852313" lon="7.633365">
        <ele>223.2</ele>
      </trkpt>
      <trkpt lat="47.852486" lon="7.633078">
        <ele>223.8</ele>
      </trkpt>
      <trkpt lat="47.852553" lon="7.632867">
        <ele>223.5</ele>
      </trkpt>
      <trkpt lat="47.852794" lon="7.632545">
        <ele>223.6</ele>
      </trkpt>
      <trkpt lat="47.85281" lon="7.632535">
        <ele>223.6</ele>
      </trkpt>
      <trkpt lat="47.852825" lon="7.632541">
        <ele>223.6</ele>
      </trkpt>
      <trkpt lat="47.852837" lon="7.632552">
        <ele>223.6</ele>
      </trkpt>
      <trkpt lat="47.852871" lon="7.632626">
        <ele>223.7</ele>
      </trkpt>
      <trkpt lat="47.852959" lon="7.632639">
        <ele>223.8</ele>
      </trkpt>
      <trkpt lat="47.852997" lon="7.632645">
        <ele>223.9</ele>
      </trkpt>
      <trkpt lat="47.853033" lon="7.632641">
        <ele>223.9</ele>
      </trkpt>
      <trkpt lat="47.853157" lon="7.632581">
        <ele>223.9</ele>
      </trkpt>
      <trkpt lat="47.853227" lon="7.632526">
        <ele>223.9</ele>
      </trkpt>
      <trkpt lat="47.853292" lon="7.632455">
        <ele>223.7</ele>
      </trkpt>
      <trkpt lat="47.853214" lon="7.632232">
        <ele>223.5</ele>
      </trkpt>
      <trkpt lat="47.853196" lon="7.632199">
        <ele>223.4</ele>
        <name>47.853196,7.632199</name>
        <extensions>
          <oa:mapZoom>19</oa:mapZoom>
        </extensions>
      </trkpt>
    </trkseg>
  </trk>
</gpx>