<?xml version='1.0' encoding='UTF-8'?>
<gpx version="1.1" creator="https://www.komoot.de" xmlns="http://www.topografix.com/GPX/1/1" xmlns:xsi="http://www.w3.org/2001/XMLSchema-instance" xsi:schemaLocation="http://www.topografix.com/GPX/1/1 http://www.topografix.com/GPX/1/1/gpx.xsd">
  <metadata>
    <name>Wanderfreunde Darmsheim e.V. PW Ehningen 5km</name>
    <author>
      <link href="https://www.komoot.de">
        <text>komoot</text>
        <type>text/html</type>
      </link>
    </author>
  </metadata>
  <trk>
    <name>Wanderfreunde Darmsheim e.V. PW Ehningen 5km</name>
    <trkseg>
      <trkpt lat="48.661829" lon="8.943373">
        <ele>450.290925</ele>
        <time>2021-10-24T10:16:32.000Z</time>
      </trkpt>
      <trkpt lat="48.661735" lon="8.943308">
        <ele>450.290925</ele>
        <time>2021-10-24T10:16:39.999Z</time>
      </trkpt>
      <trkpt lat="48.661638" lon="8.943292">
        <ele>450.290925</ele>
        <time>2021-10-24T10:16:45.999Z</time>
      </trkpt>
      <trkpt lat="48.661537" lon="8.943286">
        <ele>450.290925</ele>
        <time>2021-10-24T10:16:55.999Z</time>
      </trkpt>
      <trkpt lat="48.661466" lon="8.943380">
        <ele>450.290925</ele>
        <time>2021-10-24T10:17:01.999Z</time>
      </trkpt>
      <trkpt lat="48.661363" lon="8.943391">
        <ele>450.290925</ele>
        <time>2021-10-24T10:17:09.999Z</time>
      </trkpt>
      <trkpt lat="48.661262" lon="8.943424">
        <ele>450.290925</ele>
        <time>2021-10-24T10:17:18.999Z</time>
      </trkpt>
      <trkpt lat="48.661181" lon="8.943492">
        <ele>450.290925</ele>
        <time>2021-10-24T10:17:30.999Z</time>
      </trkpt>
      <trkpt lat="48.661096" lon="8.943572">
        <ele>450.290925</ele>
        <time>2021-10-24T10:17:36.998Z</time>
      </trkpt>
      <trkpt lat="48.660993" lon="8.943547">
        <ele>450.288492</ele>
        <time>2021-10-24T10:17:38.999Z</time>
      </trkpt>
      <trkpt lat="48.660891" lon="8.943611">
        <ele>449.832968</ele>
        <time>2021-10-24T10:17:46.999Z</time>
      </trkpt>
      <trkpt lat="48.660787" lon="8.943668">
        <ele>449.376651</ele>
        <time>2021-10-24T10:17:54.999Z</time>
      </trkpt>
      <trkpt lat="48.660689" lon="8.943639">
        <ele>448.964687</ele>
        <time>2021-10-24T10:18:03.999Z</time>
      </trkpt>
      <trkpt lat="48.660585" lon="8.943655">
        <ele>448.533410</ele>
        <time>2021-10-24T10:18:09.999Z</time>
      </trkpt>
      <trkpt lat="48.660559" lon="8.943792">
        <ele>448.144972</ele>
        <time>2021-10-24T10:18:15.998Z</time>
      </trkpt>
      <trkpt lat="48.660573" lon="8.943942">
        <ele>447.732152</ele>
        <time>2021-10-24T10:18:20.999Z</time>
      </trkpt>
      <trkpt lat="48.660486" lon="8.943902">
        <ele>447.357035</ele>
        <time>2021-10-24T10:18:29.999Z</time>
      </trkpt>
      <trkpt lat="48.660395" lon="8.943876">
        <ele>446.974974</ele>
        <time>2021-10-24T10:18:37.999Z</time>
      </trkpt>
      <trkpt lat="48.660303" lon="8.943878">
        <ele>446.595376</ele>
        <time>2021-10-24T10:18:43.999Z</time>
      </trkpt>
      <trkpt lat="48.660212" lon="8.943900">
        <ele>446.215185</ele>
        <time>2021-10-24T10:18:50.999Z</time>
      </trkpt>
      <trkpt lat="48.660114" lon="8.943916">
        <ele>445.808528</ele>
        <time>2021-10-24T10:18:57.999Z</time>
      </trkpt>
      <trkpt lat="48.660021" lon="8.943946">
        <ele>445.416230</ele>
        <time>2021-10-24T10:19:04.999Z</time>
      </trkpt>
      <trkpt lat="48.659933" lon="8.944012">
        <ele>445.011066</ele>
        <time>2021-10-24T10:19:11.999Z</time>
      </trkpt>
      <trkpt lat="48.659832" lon="8.944042">
        <ele>444.586432</ele>
        <time>2021-10-24T10:19:19.999Z</time>
      </trkpt>
      <trkpt lat="48.659734" lon="8.944053">
        <ele>444.181009</ele>
        <time>2021-10-24T10:19:27.999Z</time>
      </trkpt>
      <trkpt lat="48.659642" lon="8.944063">
        <ele>443.800473</ele>
        <time>2021-10-24T10:19:34.999Z</time>
      </trkpt>
      <trkpt lat="48.659550" lon="8.944073">
        <ele>443.419937</ele>
        <time>2021-10-24T10:19:40.999Z</time>
      </trkpt>
      <trkpt lat="48.659456" lon="8.944092">
        <ele>443.028685</ele>
        <time>2021-10-24T10:19:47.999Z</time>
      </trkpt>
      <trkpt lat="48.659356" lon="8.944142">
        <ele>442.675331</ele>
        <time>2021-10-24T10:19:54.999Z</time>
      </trkpt>
      <trkpt lat="48.659281" lon="8.944223">
        <ele>442.406903</ele>
        <time>2021-10-24T10:20:01.998Z</time>
      </trkpt>
      <trkpt lat="48.659194" lon="8.944293">
        <ele>442.119840</ele>
        <time>2021-10-24T10:20:08.998Z</time>
      </trkpt>
      <trkpt lat="48.659104" lon="8.944363">
        <ele>441.825031</ele>
        <time>2021-10-24T10:20:15.998Z</time>
      </trkpt>
      <trkpt lat="48.659024" lon="8.944432">
        <ele>441.556765</ele>
        <time>2021-10-24T10:20:22.998Z</time>
      </trkpt>
      <trkpt lat="48.658927" lon="8.944490">
        <ele>441.252897</ele>
        <time>2021-10-24T10:20:30.000Z</time>
      </trkpt>
      <trkpt lat="48.658840" lon="8.944555">
        <ele>440.970222</ele>
        <time>2021-10-24T10:20:38.999Z</time>
      </trkpt>
      <trkpt lat="48.658746" lon="8.944537">
        <ele>440.694158</ele>
        <time>2021-10-24T10:20:50.999Z</time>
      </trkpt>
      <trkpt lat="48.658656" lon="8.944594">
        <ele>440.409908</ele>
        <time>2021-10-24T10:20:57.999Z</time>
      </trkpt>
      <trkpt lat="48.658563" lon="8.944642">
        <ele>440.123625</ele>
        <time>2021-10-24T10:21:04.999Z</time>
      </trkpt>
      <trkpt lat="48.658489" lon="8.944556">
        <ele>439.851811</ele>
        <time>2021-10-24T10:21:12.999Z</time>
      </trkpt>
      <trkpt lat="48.658457" lon="8.944412">
        <ele>439.559407</ele>
        <time>2021-10-24T10:21:19.999Z</time>
      </trkpt>
      <trkpt lat="48.658433" lon="8.944274">
        <ele>439.284761</ele>
        <time>2021-10-24T10:21:26.999Z</time>
      </trkpt>
      <trkpt lat="48.658412" lon="8.944126">
        <ele>438.993424</ele>
        <time>2021-10-24T10:21:33.999Z</time>
      </trkpt>
      <trkpt lat="48.658359" lon="8.943995">
        <ele>438.697768</ele>
        <time>2021-10-24T10:21:41.998Z</time>
      </trkpt>
      <trkpt lat="48.658267" lon="8.943985">
        <ele>438.429023</ele>
        <time>2021-10-24T10:21:49.998Z</time>
      </trkpt>
      <trkpt lat="48.658174" lon="8.944048">
        <ele>438.132164</ele>
        <time>2021-10-24T10:21:57.998Z</time>
      </trkpt>
      <trkpt lat="48.658093" lon="8.944124">
        <ele>437.854507</ele>
        <time>2021-10-24T10:22:05.998Z</time>
      </trkpt>
      <trkpt lat="48.657996" lon="8.944162">
        <ele>437.642786</ele>
        <time>2021-10-24T10:22:13.998Z</time>
      </trkpt>
      <trkpt lat="48.657915" lon="8.944242">
        <ele>437.697402</ele>
        <time>2021-10-24T10:22:21.998Z</time>
      </trkpt>
      <trkpt lat="48.657855" lon="8.944355">
        <ele>437.751484</ele>
        <time>2021-10-24T10:22:28.998Z</time>
      </trkpt>
      <trkpt lat="48.657784" lon="8.944448">
        <ele>437.804504</ele>
        <time>2021-10-24T10:22:34.999Z</time>
      </trkpt>
      <trkpt lat="48.657709" lon="8.944541">
        <ele>437.859253</ele>
        <time>2021-10-24T10:22:41.999Z</time>
      </trkpt>
      <trkpt lat="48.657625" lon="8.944623">
        <ele>437.915696</ele>
        <time>2021-10-24T10:22:48.999Z</time>
      </trkpt>
      <trkpt lat="48.657538" lon="8.944672">
        <ele>437.968117</ele>
        <time>2021-10-24T10:22:55.999Z</time>
      </trkpt>
      <trkpt lat="48.657438" lon="8.944699">
        <ele>438.025480</ele>
        <time>2021-10-24T10:23:03.999Z</time>
      </trkpt>
      <trkpt lat="48.657345" lon="8.944727">
        <ele>438.079028</ele>
        <time>2021-10-24T10:23:12.999Z</time>
      </trkpt>
      <trkpt lat="48.657259" lon="8.944771">
        <ele>438.130292</ele>
        <time>2021-10-24T10:23:19.999Z</time>
      </trkpt>
      <trkpt lat="48.657166" lon="8.944809">
        <ele>438.184690</ele>
        <time>2021-10-24T10:23:29.999Z</time>
      </trkpt>
      <trkpt lat="48.657074" lon="8.944840">
        <ele>438.237916</ele>
        <time>2021-10-24T10:23:36.998Z</time>
      </trkpt>
      <trkpt lat="48.656980" lon="8.944868">
        <ele>438.292018</ele>
        <time>2021-10-24T10:23:43.998Z</time>
      </trkpt>
      <trkpt lat="48.656890" lon="8.944896">
        <ele>438.343905</ele>
        <time>2021-10-24T10:23:50.998Z</time>
      </trkpt>
      <trkpt lat="48.656791" lon="8.944914">
        <ele>438.400214</ele>
        <time>2021-10-24T10:23:57.998Z</time>
      </trkpt>
      <trkpt lat="48.656696" lon="8.944917">
        <ele>438.453874</ele>
        <time>2021-10-24T10:24:04.998Z</time>
      </trkpt>
      <trkpt lat="48.656605" lon="8.944889">
        <ele>438.506314</ele>
        <time>2021-10-24T10:24:10.998Z</time>
      </trkpt>
      <trkpt lat="48.656502" lon="8.944884">
        <ele>438.564510</ele>
        <time>2021-10-24T10:24:19.998Z</time>
      </trkpt>
      <trkpt lat="48.656408" lon="8.944873">
        <ele>438.617752</ele>
        <time>2021-10-24T10:24:26.998Z</time>
      </trkpt>
      <trkpt lat="48.656319" lon="8.944840">
        <ele>438.656024</ele>
        <time>2021-10-24T10:24:32.998Z</time>
      </trkpt>
      <trkpt lat="48.656222" lon="8.944845">
        <ele>438.680068</ele>
        <time>2021-10-24T10:24:39.999Z</time>
      </trkpt>
      <trkpt lat="48.656139" lon="8.944933">
        <ele>438.705171</ele>
        <time>2021-10-24T10:24:47.999Z</time>
      </trkpt>
      <trkpt lat="48.656047" lon="8.944935">
        <ele>438.727965</ele>
        <time>2021-10-24T10:24:55.999Z</time>
      </trkpt>
      <trkpt lat="48.656003" lon="8.944806">
        <ele>438.751724</ele>
        <time>2021-10-24T10:25:03.999Z</time>
      </trkpt>
      <trkpt lat="48.655917" lon="8.944728">
        <ele>438.776560</ele>
        <time>2021-10-24T10:25:11.999Z</time>
      </trkpt>
      <trkpt lat="48.655834" lon="8.944667">
        <ele>438.799417</ele>
        <time>2021-10-24T10:25:18.999Z</time>
      </trkpt>
      <trkpt lat="48.655740" lon="8.944729">
        <ele>438.824819</ele>
        <time>2021-10-24T10:25:25.999Z</time>
      </trkpt>
      <trkpt lat="48.655638" lon="8.944779">
        <ele>438.851379</ele>
        <time>2021-10-24T10:27:03.999Z</time>
      </trkpt>
      <trkpt lat="48.655555" lon="8.944832">
        <ele>438.873696</ele>
        <time>2021-10-24T10:27:09.999Z</time>
      </trkpt>
      <trkpt lat="48.655512" lon="8.944969">
        <ele>438.898518</ele>
        <time>2021-10-24T10:27:27.999Z</time>
      </trkpt>
      <trkpt lat="48.655508" lon="8.945112">
        <ele>438.921941</ele>
        <time>2021-10-24T10:27:36.998Z</time>
      </trkpt>
      <trkpt lat="48.655562" lon="8.945250">
        <ele>438.948189</ele>
        <time>2021-10-24T10:27:47.998Z</time>
      </trkpt>
      <trkpt lat="48.655613" lon="8.945364">
        <ele>438.970721</ele>
        <time>2021-10-24T10:27:54.998Z</time>
      </trkpt>
      <trkpt lat="48.655659" lon="8.945495">
        <ele>438.994999</ele>
        <time>2021-10-24T10:28:01.998Z</time>
      </trkpt>
      <trkpt lat="48.655703" lon="8.945627">
        <ele>439.019195</ele>
        <time>2021-10-24T10:28:08.998Z</time>
      </trkpt>
      <trkpt lat="48.655742" lon="8.945763">
        <ele>439.043458</ele>
        <time>2021-10-24T10:28:16.998Z</time>
      </trkpt>
      <trkpt lat="48.655788" lon="8.945892">
        <ele>439.067448</ele>
        <time>2021-10-24T10:28:24.998Z</time>
      </trkpt>
      <trkpt lat="48.655848" lon="8.946007">
        <ele>439.090623</ele>
        <time>2021-10-24T10:28:31.998Z</time>
      </trkpt>
      <trkpt lat="48.655902" lon="8.946134">
        <ele>439.058537</ele>
        <time>2021-10-24T10:28:38.998Z</time>
      </trkpt>
      <trkpt lat="48.655941" lon="8.946271">
        <ele>439.026845</ele>
        <time>2021-10-24T10:28:46.998Z</time>
      </trkpt>
      <trkpt lat="48.656015" lon="8.946353">
        <ele>438.997353</ele>
        <time>2021-10-24T10:28:56.999Z</time>
      </trkpt>
      <trkpt lat="48.656079" lon="8.946464">
        <ele>438.966053</ele>
        <time>2021-10-24T10:29:06.999Z</time>
      </trkpt>
      <trkpt lat="48.656128" lon="8.946580">
        <ele>438.936802</ele>
        <time>2021-10-24T10:29:14.999Z</time>
      </trkpt>
      <trkpt lat="48.656191" lon="8.946687">
        <ele>438.906352</ele>
        <time>2021-10-24T10:29:23.999Z</time>
      </trkpt>
      <trkpt lat="48.656248" lon="8.946803">
        <ele>438.875639</ele>
        <time>2021-10-24T10:29:31.999Z</time>
      </trkpt>
      <trkpt lat="48.656310" lon="8.946912">
        <ele>438.845081</ele>
        <time>2021-10-24T10:29:40.999Z</time>
      </trkpt>
      <trkpt lat="48.656347" lon="8.947047">
        <ele>438.814031</ele>
        <time>2021-10-24T10:29:48.999Z</time>
      </trkpt>
      <trkpt lat="48.656402" lon="8.947174">
        <ele>438.781770</ele>
        <time>2021-10-24T10:29:56.999Z</time>
      </trkpt>
      <trkpt lat="48.656467" lon="8.947294">
        <ele>438.748803</ele>
        <time>2021-10-24T10:30:04.999Z</time>
      </trkpt>
      <trkpt lat="48.656524" lon="8.947411">
        <ele>438.717919</ele>
        <time>2021-10-24T10:30:11.999Z</time>
      </trkpt>
      <trkpt lat="48.656583" lon="8.947536">
        <ele>438.685282</ele>
        <time>2021-10-24T10:30:20.998Z</time>
      </trkpt>
      <trkpt lat="48.656640" lon="8.947663">
        <ele>438.652664</ele>
        <time>2021-10-24T10:30:29.998Z</time>
      </trkpt>
      <trkpt lat="48.656710" lon="8.947755">
        <ele>438.622852</ele>
        <time>2021-10-24T10:30:36.998Z</time>
      </trkpt>
      <trkpt lat="48.656777" lon="8.947851">
        <ele>438.593184</ele>
        <time>2021-10-24T10:30:43.998Z</time>
      </trkpt>
      <trkpt lat="48.656845" lon="8.947947">
        <ele>438.563281</ele>
        <time>2021-10-24T10:30:51.998Z</time>
      </trkpt>
      <trkpt lat="48.656789" lon="8.948054">
        <ele>438.534281</ele>
        <time>2021-10-24T10:30:58.999Z</time>
      </trkpt>
      <trkpt lat="48.656721" lon="8.948151">
        <ele>438.549114</ele>
        <time>2021-10-24T10:31:05.999Z</time>
      </trkpt>
      <trkpt lat="48.656648" lon="8.948250">
        <ele>438.685895</ele>
        <time>2021-10-24T10:31:13.999Z</time>
      </trkpt>
      <trkpt lat="48.656573" lon="8.948350">
        <ele>438.825374</ele>
        <time>2021-10-24T10:31:20.999Z</time>
      </trkpt>
      <trkpt lat="48.656491" lon="8.948428">
        <ele>438.960529</ele>
        <time>2021-10-24T10:31:27.999Z</time>
      </trkpt>
      <trkpt lat="48.656427" lon="8.948539">
        <ele>439.096357</ele>
        <time>2021-10-24T10:31:41.999Z</time>
      </trkpt>
      <trkpt lat="48.656354" lon="8.948649">
        <ele>439.240103</ele>
        <time>2021-10-24T10:31:49.998Z</time>
      </trkpt>
      <trkpt lat="48.656293" lon="8.948765">
        <ele>439.376790</ele>
        <time>2021-10-24T10:31:57.998Z</time>
      </trkpt>
      <trkpt lat="48.656231" lon="8.948884">
        <ele>439.516512</ele>
        <time>2021-10-24T10:32:04.998Z</time>
      </trkpt>
      <trkpt lat="48.656168" lon="8.948994">
        <ele>439.650729</ele>
        <time>2021-10-24T10:32:12.998Z</time>
      </trkpt>
      <trkpt lat="48.656102" lon="8.949100">
        <ele>439.785018</ele>
        <time>2021-10-24T10:32:20.998Z</time>
      </trkpt>
      <trkpt lat="48.656042" lon="8.949226">
        <ele>439.928212</ele>
        <time>2021-10-24T10:32:28.998Z</time>
      </trkpt>
      <trkpt lat="48.655976" lon="8.949342">
        <ele>440.069352</ele>
        <time>2021-10-24T10:32:36.998Z</time>
      </trkpt>
      <trkpt lat="48.655918" lon="8.949450">
        <ele>440.197669</ele>
        <time>2021-10-24T10:32:43.998Z</time>
      </trkpt>
      <trkpt lat="48.655860" lon="8.949556">
        <ele>440.324561</ele>
        <time>2021-10-24T10:32:50.998Z</time>
      </trkpt>
      <trkpt lat="48.655835" lon="8.949697">
        <ele>440.459150</ele>
        <time>2021-10-24T10:32:57.998Z</time>
      </trkpt>
      <trkpt lat="48.655866" lon="8.949834">
        <ele>440.592655</ele>
        <time>2021-10-24T10:33:03.999Z</time>
      </trkpt>
      <trkpt lat="48.655929" lon="8.949939">
        <ele>440.723425</ele>
        <time>2021-10-24T10:33:10.999Z</time>
      </trkpt>
      <trkpt lat="48.655971" lon="8.950072">
        <ele>440.859328</ele>
        <time>2021-10-24T10:33:17.999Z</time>
      </trkpt>
      <trkpt lat="48.656034" lon="8.950170">
        <ele>440.985394</ele>
        <time>2021-10-24T10:33:24.999Z</time>
      </trkpt>
      <trkpt lat="48.656076" lon="8.950299">
        <ele>441.005679</ele>
        <time>2021-10-24T10:33:32.999Z</time>
      </trkpt>
      <trkpt lat="48.656125" lon="8.950427">
        <ele>440.981115</ele>
        <time>2021-10-24T10:33:40.998Z</time>
      </trkpt>
      <trkpt lat="48.656186" lon="8.950548">
        <ele>440.955843</ele>
        <time>2021-10-24T10:33:48.998Z</time>
      </trkpt>
      <trkpt lat="48.656238" lon="8.950668">
        <ele>440.932014</ele>
        <time>2021-10-24T10:33:57.998Z</time>
      </trkpt>
      <trkpt lat="48.656271" lon="8.950796">
        <ele>440.909200</ele>
        <time>2021-10-24T10:34:04.998Z</time>
      </trkpt>
      <trkpt lat="48.656317" lon="8.950922">
        <ele>440.885297</ele>
        <time>2021-10-24T10:34:12.998Z</time>
      </trkpt>
      <trkpt lat="48.656355" lon="8.951058">
        <ele>440.860779</ele>
        <time>2021-10-24T10:34:20.998Z</time>
      </trkpt>
      <trkpt lat="48.656408" lon="8.951184">
        <ele>440.835978</ele>
        <time>2021-10-24T10:34:28.998Z</time>
      </trkpt>
      <trkpt lat="48.656446" lon="8.951322">
        <ele>440.811154</ele>
        <time>2021-10-24T10:34:35.998Z</time>
      </trkpt>
      <trkpt lat="48.656495" lon="8.951442">
        <ele>440.787730</ele>
        <time>2021-10-24T10:34:42.998Z</time>
      </trkpt>
      <trkpt lat="48.656532" lon="8.951579">
        <ele>440.763156</ele>
        <time>2021-10-24T10:34:50.998Z</time>
      </trkpt>
      <trkpt lat="48.656571" lon="8.951709">
        <ele>440.739450</ele>
        <time>2021-10-24T10:34:57.998Z</time>
      </trkpt>
      <trkpt lat="48.656621" lon="8.951831">
        <ele>440.715612</ele>
        <time>2021-10-24T10:35:05.998Z</time>
      </trkpt>
      <trkpt lat="48.656657" lon="8.951973">
        <ele>440.690358</ele>
        <time>2021-10-24T10:35:12.999Z</time>
      </trkpt>
      <trkpt lat="48.656702" lon="8.952094">
        <ele>440.667303</ele>
        <time>2021-10-24T10:35:19.999Z</time>
      </trkpt>
      <trkpt lat="48.656757" lon="8.952224">
        <ele>440.641671</ele>
        <time>2021-10-24T10:35:27.998Z</time>
      </trkpt>
      <trkpt lat="48.656796" lon="8.952364">
        <ele>440.616444</ele>
        <time>2021-10-24T10:35:35.998Z</time>
      </trkpt>
      <trkpt lat="48.656845" lon="8.952507">
        <ele>440.589696</ele>
        <time>2021-10-24T10:35:43.998Z</time>
      </trkpt>
      <trkpt lat="48.656888" lon="8.952629">
        <ele>440.576353</ele>
        <time>2021-10-24T10:35:50.998Z</time>
      </trkpt>
      <trkpt lat="48.656938" lon="8.952755">
        <ele>440.610743</ele>
        <time>2021-10-24T10:35:58.998Z</time>
      </trkpt>
      <trkpt lat="48.656977" lon="8.952883">
        <ele>440.643723</ele>
        <time>2021-10-24T10:36:05.998Z</time>
      </trkpt>
      <trkpt lat="48.657000" lon="8.953021">
        <ele>440.677022</ele>
        <time>2021-10-24T10:36:12.998Z</time>
      </trkpt>
      <trkpt lat="48.657031" lon="8.953168">
        <ele>440.713124</ele>
        <time>2021-10-24T10:36:20.998Z</time>
      </trkpt>
      <trkpt lat="48.657056" lon="8.953305">
        <ele>440.746378</ele>
        <time>2021-10-24T10:36:28.998Z</time>
      </trkpt>
      <trkpt lat="48.657070" lon="8.953447">
        <ele>440.779969</ele>
        <time>2021-10-24T10:36:35.998Z</time>
      </trkpt>
      <trkpt lat="48.657094" lon="8.953588">
        <ele>440.814036</ele>
        <time>2021-10-24T10:36:43.998Z</time>
      </trkpt>
      <trkpt lat="48.657093" lon="8.953726">
        <ele>440.846325</ele>
        <time>2021-10-24T10:36:50.998Z</time>
      </trkpt>
      <trkpt lat="48.657114" lon="8.953881">
        <ele>440.883344</ele>
        <time>2021-10-24T10:36:59.998Z</time>
      </trkpt>
      <trkpt lat="48.657134" lon="8.954029">
        <ele>440.918688</ele>
        <time>2021-10-24T10:37:07.998Z</time>
      </trkpt>
      <trkpt lat="48.657155" lon="8.954166">
        <ele>440.951592</ele>
        <time>2021-10-24T10:37:14.998Z</time>
      </trkpt>
      <trkpt lat="48.657161" lon="8.954303">
        <ele>440.983716</ele>
        <time>2021-10-24T10:37:21.998Z</time>
      </trkpt>
      <trkpt lat="48.657173" lon="8.954450">
        <ele>441.018370</ele>
        <time>2021-10-24T10:37:28.999Z</time>
      </trkpt>
      <trkpt lat="48.657194" lon="8.954584">
        <ele>441.050591</ele>
        <time>2021-10-24T10:37:35.998Z</time>
      </trkpt>
      <trkpt lat="48.657203" lon="8.954724">
        <ele>441.083501</ele>
        <time>2021-10-24T10:37:42.998Z</time>
      </trkpt>
      <trkpt lat="48.657219" lon="8.954859">
        <ele>441.115591</ele>
        <time>2021-10-24T10:37:50.998Z</time>
      </trkpt>
      <trkpt lat="48.657225" lon="8.954996">
        <ele>441.147714</ele>
        <time>2021-10-24T10:37:57.998Z</time>
      </trkpt>
      <trkpt lat="48.657239" lon="8.955135">
        <ele>441.180611</ele>
        <time>2021-10-24T10:38:04.998Z</time>
      </trkpt>
      <trkpt lat="48.657244" lon="8.955274">
        <ele>441.218800</ele>
        <time>2021-10-24T10:38:11.998Z</time>
      </trkpt>
      <trkpt lat="48.657247" lon="8.955410">
        <ele>441.283818</ele>
        <time>2021-10-24T10:38:18.998Z</time>
      </trkpt>
      <trkpt lat="48.657261" lon="8.955560">
        <ele>441.356200</ele>
        <time>2021-10-24T10:38:26.998Z</time>
      </trkpt>
      <trkpt lat="48.657270" lon="8.955699">
        <ele>441.422934</ele>
        <time>2021-10-24T10:38:33.998Z</time>
      </trkpt>
      <trkpt lat="48.657278" lon="8.955835">
        <ele>441.488172</ele>
        <time>2021-10-24T10:38:40.998Z</time>
      </trkpt>
      <trkpt lat="48.657287" lon="8.955984">
        <ele>441.559662</ele>
        <time>2021-10-24T10:38:48.998Z</time>
      </trkpt>
      <trkpt lat="48.657298" lon="8.956141">
        <ele>441.635098</ele>
        <time>2021-10-24T10:38:56.998Z</time>
      </trkpt>
      <trkpt lat="48.657299" lon="8.956289">
        <ele>441.705817</ele>
        <time>2021-10-24T10:39:04.998Z</time>
      </trkpt>
      <trkpt lat="48.657316" lon="8.956424">
        <ele>441.771482</ele>
        <time>2021-10-24T10:39:11.998Z</time>
      </trkpt>
      <trkpt lat="48.657330" lon="8.956562">
        <ele>441.838192</ele>
        <time>2021-10-24T10:39:18.998Z</time>
      </trkpt>
      <trkpt lat="48.657338" lon="8.956724">
        <ele>441.915812</ele>
        <time>2021-10-24T10:39:26.998Z</time>
      </trkpt>
      <trkpt lat="48.657354" lon="8.956874">
        <ele>441.988411</ele>
        <time>2021-10-24T10:39:34.998Z</time>
      </trkpt>
      <trkpt lat="48.657360" lon="8.957025">
        <ele>442.060690</ele>
        <time>2021-10-24T10:39:42.998Z</time>
      </trkpt>
      <trkpt lat="48.657369" lon="8.957179">
        <ele>442.134559</ele>
        <time>2021-10-24T10:39:50.998Z</time>
      </trkpt>
      <trkpt lat="48.657377" lon="8.957327">
        <ele>442.205510</ele>
        <time>2021-10-24T10:39:58.998Z</time>
      </trkpt>
      <trkpt lat="48.657386" lon="8.957476">
        <ele>442.277000</ele>
        <time>2021-10-24T10:40:06.998Z</time>
      </trkpt>
      <trkpt lat="48.657392" lon="8.957615">
        <ele>442.343556</ele>
        <time>2021-10-24T10:40:13.998Z</time>
      </trkpt>
      <trkpt lat="48.657407" lon="8.957757">
        <ele>442.412266</ele>
        <time>2021-10-24T10:40:21.998Z</time>
      </trkpt>
      <trkpt lat="48.657421" lon="8.957907">
        <ele>442.484649</ele>
        <time>2021-10-24T10:40:28.998Z</time>
      </trkpt>
      <trkpt lat="48.657427" lon="8.958058">
        <ele>442.791458</ele>
        <time>2021-10-24T10:40:36.998Z</time>
      </trkpt>
      <trkpt lat="48.657425" lon="8.958207">
        <ele>443.209668</ele>
        <time>2021-10-24T10:40:44.998Z</time>
      </trkpt>
      <trkpt lat="48.657436" lon="8.958358">
        <ele>443.635973</ele>
        <time>2021-10-24T10:40:52.998Z</time>
      </trkpt>
      <trkpt lat="48.657451" lon="8.958507">
        <ele>444.058925</ele>
        <time>2021-10-24T10:41:00.998Z</time>
      </trkpt>
      <trkpt lat="48.657464" lon="8.958649">
        <ele>444.461213</ele>
        <time>2021-10-24T10:41:07.998Z</time>
      </trkpt>
      <trkpt lat="48.657468" lon="8.958802">
        <ele>444.890898</ele>
        <time>2021-10-24T10:41:15.998Z</time>
      </trkpt>
      <trkpt lat="48.657464" lon="8.958953">
        <ele>445.314974</ele>
        <time>2021-10-24T10:41:23.998Z</time>
      </trkpt>
      <trkpt lat="48.657446" lon="8.959106">
        <ele>445.751079</ele>
        <time>2021-10-24T10:41:30.998Z</time>
      </trkpt>
      <trkpt lat="48.657405" lon="8.959239">
        <ele>446.162945</ele>
        <time>2021-10-24T10:41:38.998Z</time>
      </trkpt>
      <trkpt lat="48.657324" lon="8.959306">
        <ele>446.555066</ele>
        <time>2021-10-24T10:41:45.998Z</time>
      </trkpt>
      <trkpt lat="48.657236" lon="8.959352">
        <ele>446.950567</ele>
        <time>2021-10-24T10:41:51.998Z</time>
      </trkpt>
      <trkpt lat="48.657144" lon="8.959320">
        <ele>447.351587</ele>
        <time>2021-10-24T10:42:00.998Z</time>
      </trkpt>
      <trkpt lat="48.657061" lon="8.959248">
        <ele>447.757975</ele>
        <time>2021-10-24T10:42:08.998Z</time>
      </trkpt>
      <trkpt lat="48.656993" lon="8.959151">
        <ele>448.154895</ele>
        <time>2021-10-24T10:42:16.998Z</time>
      </trkpt>
      <trkpt lat="48.656920" lon="8.959055">
        <ele>448.565686</ele>
        <time>2021-10-24T10:42:40.998Z</time>
      </trkpt>
      <trkpt lat="48.656849" lon="8.958942">
        <ele>449.003329</ele>
        <time>2021-10-24T10:42:48.998Z</time>
      </trkpt>
      <trkpt lat="48.656767" lon="8.958858">
        <ele>449.423943</ele>
        <time>2021-10-24T10:42:56.998Z</time>
      </trkpt>
      <trkpt lat="48.656698" lon="8.958760">
        <ele>449.825881</ele>
        <time>2021-10-24T10:43:04.998Z</time>
      </trkpt>
      <trkpt lat="48.656610" lon="8.958682">
        <ele>450.239991</ele>
        <time>2021-10-24T10:43:12.998Z</time>
      </trkpt>
      <trkpt lat="48.656533" lon="8.958598">
        <ele>450.572716</ele>
        <time>2021-10-24T10:43:19.998Z</time>
      </trkpt>
      <trkpt lat="48.656470" lon="8.958493">
        <ele>450.901201</ele>
        <time>2021-10-24T10:43:27.998Z</time>
      </trkpt>
      <trkpt lat="48.656394" lon="8.958403">
        <ele>451.239467</ele>
        <time>2021-10-24T10:43:35.998Z</time>
      </trkpt>
      <trkpt lat="48.656318" lon="8.958314">
        <ele>451.576311</ele>
        <time>2021-10-24T10:43:42.999Z</time>
      </trkpt>
      <trkpt lat="48.656233" lon="8.958227">
        <ele>451.936012</ele>
        <time>2021-10-24T10:43:50.998Z</time>
      </trkpt>
      <trkpt lat="48.656160" lon="8.958133">
        <ele>452.271985</ele>
        <time>2021-10-24T10:43:58.998Z</time>
      </trkpt>
      <trkpt lat="48.656091" lon="8.958044">
        <ele>452.589775</ele>
        <time>2021-10-24T10:44:05.998Z</time>
      </trkpt>
      <trkpt lat="48.656016" lon="8.957947">
        <ele>452.935592</ele>
        <time>2021-10-24T10:44:13.998Z</time>
      </trkpt>
      <trkpt lat="48.655943" lon="8.957845">
        <ele>453.283855</ele>
        <time>2021-10-24T10:44:21.998Z</time>
      </trkpt>
      <trkpt lat="48.655872" lon="8.957753">
        <ele>453.611489</ele>
        <time>2021-10-24T10:44:28.998Z</time>
      </trkpt>
      <trkpt lat="48.655811" lon="8.957645">
        <ele>453.940552</ele>
        <time>2021-10-24T10:44:36.998Z</time>
      </trkpt>
      <trkpt lat="48.655737" lon="8.957556">
        <ele>454.271881</ele>
        <time>2021-10-24T10:44:44.998Z</time>
      </trkpt>
      <trkpt lat="48.655669" lon="8.957452">
        <ele>454.610751</ele>
        <time>2021-10-24T10:44:52.998Z</time>
      </trkpt>
      <trkpt lat="48.655600" lon="8.957341">
        <ele>454.963721</ele>
        <time>2021-10-24T10:44:59.998Z</time>
      </trkpt>
      <trkpt lat="48.655525" lon="8.957242">
        <ele>455.312565</ele>
        <time>2021-10-24T10:45:07.998Z</time>
      </trkpt>
      <trkpt lat="48.655465" lon="8.957134">
        <ele>455.639363</ele>
        <time>2021-10-24T10:45:15.998Z</time>
      </trkpt>
      <trkpt lat="48.655397" lon="8.957030">
        <ele>455.978234</ele>
        <time>2021-10-24T10:45:23.998Z</time>
      </trkpt>
      <trkpt lat="48.655330" lon="8.956920">
        <ele>456.324732</ele>
        <time>2021-10-24T10:45:31.998Z</time>
      </trkpt>
      <trkpt lat="48.655257" lon="8.956821">
        <ele>456.754718</ele>
        <time>2021-10-24T10:45:39.999Z</time>
      </trkpt>
      <trkpt lat="48.655189" lon="8.956710">
        <ele>457.247474</ele>
        <time>2021-10-24T10:45:47.999Z</time>
      </trkpt>
      <trkpt lat="48.655128" lon="8.956606">
        <ele>457.700177</ele>
        <time>2021-10-24T10:46:05.999Z</time>
      </trkpt>
      <trkpt lat="48.655066" lon="8.956505">
        <ele>458.148965</ele>
        <time>2021-10-24T10:46:12.999Z</time>
      </trkpt>
      <trkpt lat="48.655002" lon="8.956396">
        <ele>458.623653</ele>
        <time>2021-10-24T10:46:20.999Z</time>
      </trkpt>
      <trkpt lat="48.654935" lon="8.956300">
        <ele>459.078224</ele>
        <time>2021-10-24T10:46:28.999Z</time>
      </trkpt>
      <trkpt lat="48.654871" lon="8.956192">
        <ele>459.550485</ele>
        <time>2021-10-24T10:46:36.999Z</time>
      </trkpt>
      <trkpt lat="48.654783" lon="8.956121">
        <ele>460.041841</ele>
        <time>2021-10-24T10:46:44.999Z</time>
      </trkpt>
      <trkpt lat="48.654694" lon="8.956068">
        <ele>460.513094</ele>
        <time>2021-10-24T10:46:51.999Z</time>
      </trkpt>
      <trkpt lat="48.654593" lon="8.956087">
        <ele>461.014591</ele>
        <time>2021-10-24T10:46:59.999Z</time>
      </trkpt>
      <trkpt lat="48.654494" lon="8.956108">
        <ele>461.507172</ele>
        <time>2021-10-24T10:47:07.999Z</time>
      </trkpt>
      <trkpt lat="48.654403" lon="8.956127">
        <ele>461.959812</ele>
        <time>2021-10-24T10:47:15.999Z</time>
      </trkpt>
      <trkpt lat="48.654311" lon="8.956165">
        <ele>462.429706</ele>
        <time>2021-10-24T10:47:23.999Z</time>
      </trkpt>
      <trkpt lat="48.654208" lon="8.956141">
        <ele>462.943208</ele>
        <time>2021-10-24T10:47:32.999Z</time>
      </trkpt>
      <trkpt lat="48.654123" lon="8.956073">
        <ele>463.416930</ele>
        <time>2021-10-24T10:47:41.999Z</time>
      </trkpt>
      <trkpt lat="48.654035" lon="8.955989">
        <ele>463.929552</ele>
        <time>2021-10-24T10:47:51.000Z</time>
      </trkpt>
      <trkpt lat="48.653965" lon="8.955872">
        <ele>464.443372</ele>
        <time>2021-10-24T10:48:01.999Z</time>
      </trkpt>
      <trkpt lat="48.653894" lon="8.955783">
        <ele>464.897597</ele>
        <time>2021-10-24T10:48:08.999Z</time>
      </trkpt>
      <trkpt lat="48.653824" lon="8.955689">
        <ele>465.381947</ele>
        <time>2021-10-24T10:48:16.999Z</time>
      </trkpt>
      <trkpt lat="48.653750" lon="8.955590">
        <ele>466.146743</ele>
        <time>2021-10-24T10:48:24.999Z</time>
      </trkpt>
      <trkpt lat="48.653666" lon="8.955522">
        <ele>466.884427</ele>
        <time>2021-10-24T10:48:32.999Z</time>
      </trkpt>
      <trkpt lat="48.653613" lon="8.955395">
        <ele>467.652924</ele>
        <time>2021-10-24T10:48:42.999Z</time>
      </trkpt>
      <trkpt lat="48.653544" lon="8.955287">
        <ele>468.421555</ele>
        <time>2021-10-24T10:48:50.999Z</time>
      </trkpt>
      <trkpt lat="48.653504" lon="8.955158">
        <ele>469.150584</ele>
        <time>2021-10-24T10:48:59.999Z</time>
      </trkpt>
      <trkpt lat="48.653441" lon="8.955056">
        <ele>469.864951</ele>
        <time>2021-10-24T10:49:07.999Z</time>
      </trkpt>
      <trkpt lat="48.653379" lon="8.954921">
        <ele>470.706092</ele>
        <time>2021-10-24T10:49:15.999Z</time>
      </trkpt>
      <trkpt lat="48.653328" lon="8.954792">
        <ele>471.475194</ele>
        <time>2021-10-24T10:49:26.999Z</time>
      </trkpt>
      <trkpt lat="48.653300" lon="8.954658">
        <ele>472.194197</ele>
        <time>2021-10-24T10:49:34.999Z</time>
      </trkpt>
      <trkpt lat="48.653228" lon="8.954561">
        <ele>472.940621</ele>
        <time>2021-10-24T10:49:41.999Z</time>
      </trkpt>
      <trkpt lat="48.653166" lon="8.954453">
        <ele>473.672608</ele>
        <time>2021-10-24T10:49:51.000Z</time>
      </trkpt>
      <trkpt lat="48.653116" lon="8.954334">
        <ele>474.394104</ele>
        <time>2021-10-24T10:50:00.000Z</time>
      </trkpt>
      <trkpt lat="48.653052" lon="8.954216">
        <ele>475.175173</ele>
        <time>2021-10-24T10:50:08.999Z</time>
      </trkpt>
      <trkpt lat="48.652992" lon="8.954096">
        <ele>475.945096</ele>
        <time>2021-10-24T10:50:16.999Z</time>
      </trkpt>
      <trkpt lat="48.652940" lon="8.953977">
        <ele>476.675023</ele>
        <time>2021-10-24T10:50:24.999Z</time>
      </trkpt>
      <trkpt lat="48.652872" lon="8.953867">
        <ele>477.445735</ele>
        <time>2021-10-24T10:50:34.999Z</time>
      </trkpt>
      <trkpt lat="48.652828" lon="8.953743">
        <ele>478.165830</ele>
        <time>2021-10-24T10:50:42.998Z</time>
      </trkpt>
      <trkpt lat="48.652764" lon="8.953642">
        <ele>478.881813</ele>
        <time>2021-10-24T10:50:49.998Z</time>
      </trkpt>
      <trkpt lat="48.652699" lon="8.953544">
        <ele>479.300448</ele>
        <time>2021-10-24T10:50:57.998Z</time>
      </trkpt>
      <trkpt lat="48.652634" lon="8.953432">
        <ele>479.418714</ele>
        <time>2021-10-24T10:51:04.998Z</time>
      </trkpt>
      <trkpt lat="48.652551" lon="8.953337">
        <ele>479.543669</ele>
        <time>2021-10-24T10:51:13.998Z</time>
      </trkpt>
      <trkpt lat="48.652490" lon="8.953217">
        <ele>479.663786</ele>
        <time>2021-10-24T10:51:21.998Z</time>
      </trkpt>
      <trkpt lat="48.652437" lon="8.953090">
        <ele>479.782955</ele>
        <time>2021-10-24T10:51:28.998Z</time>
      </trkpt>
      <trkpt lat="48.652369" lon="8.952980">
        <ele>479.902465</ele>
        <time>2021-10-24T10:51:37.999Z</time>
      </trkpt>
      <trkpt lat="48.652292" lon="8.952880">
        <ele>480.024297</ele>
        <time>2021-10-24T10:51:46.999Z</time>
      </trkpt>
      <trkpt lat="48.652222" lon="8.952788">
        <ele>480.135619</ele>
        <time>2021-10-24T10:51:53.999Z</time>
      </trkpt>
      <trkpt lat="48.652146" lon="8.952693">
        <ele>480.253978</ele>
        <time>2021-10-24T10:52:02.000Z</time>
      </trkpt>
      <trkpt lat="48.652083" lon="8.952571">
        <ele>480.376822</ele>
        <time>2021-10-24T10:52:09.000Z</time>
      </trkpt>
      <trkpt lat="48.652017" lon="8.952451">
        <ele>480.500692</ele>
        <time>2021-10-24T10:52:18.000Z</time>
      </trkpt>
      <trkpt lat="48.651953" lon="8.952351">
        <ele>480.611146</ele>
        <time>2021-10-24T10:52:26.000Z</time>
      </trkpt>
      <trkpt lat="48.651888" lon="8.952245">
        <ele>480.725879</ele>
        <time>2021-10-24T10:52:34.000Z</time>
      </trkpt>
      <trkpt lat="48.651824" lon="8.952126">
        <ele>480.847611</ele>
        <time>2021-10-24T10:52:42.000Z</time>
      </trkpt>
      <trkpt lat="48.651756" lon="8.952025">
        <ele>480.962014</ele>
        <time>2021-10-24T10:52:48.999Z</time>
      </trkpt>
      <trkpt lat="48.651678" lon="8.951924">
        <ele>481.085274</ele>
        <time>2021-10-24T10:52:57.999Z</time>
      </trkpt>
      <trkpt lat="48.651600" lon="8.951854">
        <ele>481.194165</ele>
        <time>2021-10-24T10:53:03.999Z</time>
      </trkpt>
      <trkpt lat="48.651498" lon="8.951828">
        <ele>481.318375</ele>
        <time>2021-10-24T10:53:10.999Z</time>
      </trkpt>
      <trkpt lat="48.651407" lon="8.951789">
        <ele>481.267844</ele>
        <time>2021-10-24T10:53:17.999Z</time>
      </trkpt>
      <trkpt lat="48.651322" lon="8.951742">
        <ele>480.668059</ele>
        <time>2021-10-24T10:53:24.999Z</time>
      </trkpt>
      <trkpt lat="48.651227" lon="8.951738">
        <ele>480.038163</ele>
        <time>2021-10-24T10:53:32.999Z</time>
      </trkpt>
      <trkpt lat="48.651147" lon="8.951669">
        <ele>479.427892</ele>
        <time>2021-10-24T10:53:38.999Z</time>
      </trkpt>
      <trkpt lat="48.651074" lon="8.951577">
        <ele>478.798306</ele>
        <time>2021-10-24T10:53:45.999Z</time>
      </trkpt>
      <trkpt lat="48.650995" lon="8.951487">
        <ele>478.142971</ele>
        <time>2021-10-24T10:53:54.999Z</time>
      </trkpt>
      <trkpt lat="48.650913" lon="8.951420">
        <ele>477.525355</ele>
        <time>2021-10-24T10:54:03.000Z</time>
      </trkpt>
      <trkpt lat="48.650838" lon="8.951324">
        <ele>476.874354</ele>
        <time>2021-10-24T10:54:12.000Z</time>
      </trkpt>
      <trkpt lat="48.650773" lon="8.951223">
        <ele>476.256951</ele>
        <time>2021-10-24T10:54:18.999Z</time>
      </trkpt>
      <trkpt lat="48.650699" lon="8.951125">
        <ele>475.605264</ele>
        <time>2021-10-24T10:54:24.999Z</time>
      </trkpt>
      <trkpt lat="48.650616" lon="8.951051">
        <ele>474.966811</ele>
        <time>2021-10-24T10:54:31.999Z</time>
      </trkpt>
      <trkpt lat="48.650540" lon="8.950958">
        <ele>474.319071</ele>
        <time>2021-10-24T10:54:39.999Z</time>
      </trkpt>
      <trkpt lat="48.650471" lon="8.950834">
        <ele>473.609172</ele>
        <time>2021-10-24T10:54:48.999Z</time>
      </trkpt>
      <trkpt lat="48.650390" lon="8.950773">
        <ele>473.009535</ele>
        <time>2021-10-24T10:54:57.999Z</time>
      </trkpt>
      <trkpt lat="48.650316" lon="8.950669">
        <ele>472.340253</ele>
        <time>2021-10-24T10:55:03.999Z</time>
      </trkpt>
      <trkpt lat="48.650232" lon="8.950619">
        <ele>471.742006</ele>
        <time>2021-10-24T10:55:11.999Z</time>
      </trkpt>
      <trkpt lat="48.650145" lon="8.950534">
        <ele>471.055689</ele>
        <time>2021-10-24T10:55:18.999Z</time>
      </trkpt>
      <trkpt lat="48.650050" lon="8.950497">
        <ele>470.405527</ele>
        <time>2021-10-24T10:55:27.999Z</time>
      </trkpt>
      <trkpt lat="48.649948" lon="8.950456">
        <ele>469.706047</ele>
        <time>2021-10-24T10:55:35.999Z</time>
      </trkpt>
      <trkpt lat="48.649860" lon="8.950407">
        <ele>469.184081</ele>
        <time>2021-10-24T10:55:42.999Z</time>
      </trkpt>
      <trkpt lat="48.649772" lon="8.950376">
        <ele>468.733861</ele>
        <time>2021-10-24T10:55:49.999Z</time>
      </trkpt>
      <trkpt lat="48.649694" lon="8.950445">
        <ele>468.283679</ele>
        <time>2021-10-24T10:56:01.998Z</time>
      </trkpt>
      <trkpt lat="48.649637" lon="8.950334">
        <ele>467.820858</ele>
        <time>2021-10-24T10:56:18.999Z</time>
      </trkpt>
      <trkpt lat="48.649549" lon="8.950297">
        <ele>467.365754</ele>
        <time>2021-10-24T10:56:27.999Z</time>
      </trkpt>
      <trkpt lat="48.649460" lon="8.950244">
        <ele>466.889181</ele>
        <time>2021-10-24T10:56:34.999Z</time>
      </trkpt>
      <trkpt lat="48.649371" lon="8.950197">
        <ele>466.419480</ele>
        <time>2021-10-24T10:56:41.999Z</time>
      </trkpt>
      <trkpt lat="48.649284" lon="8.950145">
        <ele>465.953386</ele>
        <time>2021-10-24T10:56:48.999Z</time>
      </trkpt>
      <trkpt lat="48.649199" lon="8.950090">
        <ele>465.492755</ele>
        <time>2021-10-24T10:56:57.999Z</time>
      </trkpt>
      <trkpt lat="48.649113" lon="8.950047">
        <ele>465.041444</ele>
        <time>2021-10-24T10:57:06.999Z</time>
      </trkpt>
      <trkpt lat="48.649014" lon="8.950008">
        <ele>464.531695</ele>
        <time>2021-10-24T10:57:13.999Z</time>
      </trkpt>
      <trkpt lat="48.648921" lon="8.949957">
        <ele>464.038802</ele>
        <time>2021-10-24T10:57:22.999Z</time>
      </trkpt>
      <trkpt lat="48.648825" lon="8.949940">
        <ele>463.557174</ele>
        <time>2021-10-24T10:57:29.999Z</time>
      </trkpt>
      <trkpt lat="48.648735" lon="8.949911">
        <ele>463.098657</ele>
        <time>2021-10-24T10:57:39.999Z</time>
      </trkpt>
      <trkpt lat="48.648669" lon="8.949816">
        <ele>462.644815</ele>
        <time>2021-10-24T10:57:46.999Z</time>
      </trkpt>
      <trkpt lat="48.648589" lon="8.949732">
        <ele>462.159650</ele>
        <time>2021-10-24T10:57:54.998Z</time>
      </trkpt>
      <trkpt lat="48.648497" lon="8.949667">
        <ele>461.653732</ele>
        <time>2021-10-24T10:58:01.998Z</time>
      </trkpt>
      <trkpt lat="48.648428" lon="8.949561">
        <ele>461.163842</ele>
        <time>2021-10-24T10:58:10.998Z</time>
      </trkpt>
      <trkpt lat="48.648330" lon="8.949499">
        <ele>460.634569</ele>
        <time>2021-10-24T10:58:18.000Z</time>
      </trkpt>
      <trkpt lat="48.648251" lon="8.949415">
        <ele>460.154352</ele>
        <time>2021-10-24T10:58:24.999Z</time>
      </trkpt>
      <trkpt lat="48.648201" lon="8.949291">
        <ele>459.677219</ele>
        <time>2021-10-24T10:58:33.000Z</time>
      </trkpt>
      <trkpt lat="48.648161" lon="8.949149">
        <ele>459.170204</ele>
        <time>2021-10-24T10:58:41.999Z</time>
      </trkpt>
      <trkpt lat="48.648148" lon="8.948992">
        <ele>458.650510</ele>
        <time>2021-10-24T10:58:50.999Z</time>
      </trkpt>
      <trkpt lat="48.648122" lon="8.948857">
        <ele>458.188653</ele>
        <time>2021-10-24T10:58:58.999Z</time>
      </trkpt>
      <trkpt lat="48.648119" lon="8.948713">
        <ele>457.715455</ele>
        <time>2021-10-24T10:59:05.999Z</time>
      </trkpt>
      <trkpt lat="48.648153" lon="8.948569">
        <ele>457.213198</ele>
        <time>2021-10-24T10:59:13.999Z</time>
      </trkpt>
      <trkpt lat="48.648195" lon="8.948436">
        <ele>456.729030</ele>
        <time>2021-10-24T10:59:20.999Z</time>
      </trkpt>
      <trkpt lat="48.648265" lon="8.948344">
        <ele>456.268155</ele>
        <time>2021-10-24T10:59:28.999Z</time>
      </trkpt>
      <trkpt lat="48.648365" lon="8.948304">
        <ele>455.753956</ele>
        <time>2021-10-24T10:59:38.999Z</time>
      </trkpt>
      <trkpt lat="48.648443" lon="8.948394">
        <ele>455.266371</ele>
        <time>2021-10-24T10:59:48.999Z</time>
      </trkpt>
      <trkpt lat="48.648525" lon="8.948454">
        <ele>454.813588</ele>
        <time>2021-10-24T10:59:56.999Z</time>
      </trkpt>
      <trkpt lat="48.648610" lon="8.948545">
        <ele>454.296007</ele>
        <time>2021-10-24T11:00:04.999Z</time>
      </trkpt>
      <trkpt lat="48.648706" lon="8.948569">
        <ele>453.812294</ele>
        <time>2021-10-24T11:00:13.999Z</time>
      </trkpt>
      <trkpt lat="48.648806" lon="8.948615">
        <ele>453.292711</ele>
        <time>2021-10-24T11:00:21.999Z</time>
      </trkpt>
      <trkpt lat="48.648899" lon="8.948649">
        <ele>452.817084</ele>
        <time>2021-10-24T11:00:29.999Z</time>
      </trkpt>
      <trkpt lat="48.648987" lon="8.948714">
        <ele>452.330296</ele>
        <time>2021-10-24T11:00:37.999Z</time>
      </trkpt>
      <trkpt lat="48.649079" lon="8.948744">
        <ele>451.862441</ele>
        <time>2021-10-24T11:00:45.999Z</time>
      </trkpt>
      <trkpt lat="48.649154" lon="8.948823">
        <ele>451.576310</ele>
        <time>2021-10-24T11:00:52.999Z</time>
      </trkpt>
      <trkpt lat="48.649248" lon="8.948878">
        <ele>451.561908</ele>
        <time>2021-10-24T11:01:00.999Z</time>
      </trkpt>
      <trkpt lat="48.649344" lon="8.948924">
        <ele>451.547518</ele>
        <time>2021-10-24T11:01:07.999Z</time>
      </trkpt>
      <trkpt lat="48.649426" lon="8.948999">
        <ele>451.533826</ele>
        <time>2021-10-24T11:01:14.999Z</time>
      </trkpt>
      <trkpt lat="48.649518" lon="8.949048">
        <ele>451.519888</ele>
        <time>2021-10-24T11:01:22.999Z</time>
      </trkpt>
      <trkpt lat="48.649613" lon="8.949081">
        <ele>451.505959</ele>
        <time>2021-10-24T11:01:29.999Z</time>
      </trkpt>
      <trkpt lat="48.649708" lon="8.949134">
        <ele>451.491489</ele>
        <time>2021-10-24T11:01:37.999Z</time>
      </trkpt>
      <trkpt lat="48.649798" lon="8.949161">
        <ele>451.478377</ele>
        <time>2021-10-24T11:01:43.998Z</time>
      </trkpt>
      <trkpt lat="48.649898" lon="8.949158">
        <ele>451.464083</ele>
        <time>2021-10-24T11:01:50.998Z</time>
      </trkpt>
      <trkpt lat="48.649986" lon="8.949105">
        <ele>451.450548</ele>
        <time>2021-10-24T11:01:58.998Z</time>
      </trkpt>
      <trkpt lat="48.650351" lon="8.948376">
        <ele>451.364188</ele>
        <time>2021-10-24T11:02:37.998Z</time>
      </trkpt>
      <trkpt lat="48.650444" lon="8.948388">
        <ele>451.350849</ele>
        <time>2021-10-24T11:02:54.999Z</time>
      </trkpt>
      <trkpt lat="48.650544" lon="8.948319">
        <ele>451.335143</ele>
        <time>2021-10-24T11:02:59.999Z</time>
      </trkpt>
      <trkpt lat="48.650632" lon="8.948274">
        <ele>451.282205</ele>
        <time>2021-10-24T11:03:04.999Z</time>
      </trkpt>
      <trkpt lat="48.650716" lon="8.948207">
        <ele>451.041889</ele>
        <time>2021-10-24T11:03:10.999Z</time>
      </trkpt>
      <trkpt lat="48.650800" lon="8.948144">
        <ele>450.804617</ele>
        <time>2021-10-24T11:03:17.999Z</time>
      </trkpt>
      <trkpt lat="48.650879" lon="8.948053">
        <ele>450.553354</ele>
        <time>2021-10-24T11:03:24.999Z</time>
      </trkpt>
      <trkpt lat="48.650962" lon="8.947972">
        <ele>450.303403</ele>
        <time>2021-10-24T11:03:32.999Z</time>
      </trkpt>
      <trkpt lat="48.651016" lon="8.947853">
        <ele>450.062006</ele>
        <time>2021-10-24T11:03:38.999Z</time>
      </trkpt>
      <trkpt lat="48.651087" lon="8.947753">
        <ele>449.816543</ele>
        <time>2021-10-24T11:03:44.999Z</time>
      </trkpt>
      <trkpt lat="48.651119" lon="8.947618">
        <ele>449.576720</ele>
        <time>2021-10-24T11:03:51.999Z</time>
      </trkpt>
      <trkpt lat="48.651137" lon="8.947476">
        <ele>449.334952</ele>
        <time>2021-10-24T11:03:58.998Z</time>
      </trkpt>
      <trkpt lat="48.651165" lon="8.947325">
        <ele>449.072708</ele>
        <time>2021-10-24T11:04:05.998Z</time>
      </trkpt>
      <trkpt lat="48.651203" lon="8.947191">
        <ele>448.828878</ele>
        <time>2021-10-24T11:04:13.998Z</time>
      </trkpt>
      <trkpt lat="48.651268" lon="8.947076">
        <ele>448.575814</ele>
        <time>2021-10-24T11:04:21.998Z</time>
      </trkpt>
      <trkpt lat="48.651311" lon="8.946951">
        <ele>448.340166</ele>
        <time>2021-10-24T11:04:28.998Z</time>
      </trkpt>
      <trkpt lat="48.651345" lon="8.946815">
        <ele>448.097024</ele>
        <time>2021-10-24T11:04:35.998Z</time>
      </trkpt>
      <trkpt lat="48.651386" lon="8.946679">
        <ele>447.847062</ele>
        <time>2021-10-24T11:04:43.998Z</time>
      </trkpt>
      <trkpt lat="48.651434" lon="8.946549">
        <ele>447.598045</ele>
        <time>2021-10-24T11:04:51.999Z</time>
      </trkpt>
      <trkpt lat="48.651490" lon="8.946424">
        <ele>447.345508</ele>
        <time>2021-10-24T11:05:00.999Z</time>
      </trkpt>
      <trkpt lat="48.651575" lon="8.946336">
        <ele>447.084866</ele>
        <time>2021-10-24T11:05:08.999Z</time>
      </trkpt>
      <trkpt lat="48.651604" lon="8.946193">
        <ele>446.834746</ele>
        <time>2021-10-24T11:05:18.999Z</time>
      </trkpt>
      <trkpt lat="48.651678" lon="8.946082">
        <ele>446.490718</ele>
        <time>2021-10-24T11:05:27.999Z</time>
      </trkpt>
      <trkpt lat="48.651747" lon="8.945973">
        <ele>446.137286</ele>
        <time>2021-10-24T11:05:36.999Z</time>
      </trkpt>
      <trkpt lat="48.651798" lon="8.945853">
        <ele>445.803230</ele>
        <time>2021-10-24T11:05:44.999Z</time>
      </trkpt>
      <trkpt lat="48.651842" lon="8.945733">
        <ele>445.481917</ele>
        <time>2021-10-24T11:05:51.999Z</time>
      </trkpt>
      <trkpt lat="48.651881" lon="8.945599">
        <ele>445.139103</ele>
        <time>2021-10-24T11:05:59.999Z</time>
      </trkpt>
      <trkpt lat="48.651913" lon="8.945463">
        <ele>444.801111</ele>
        <time>2021-10-24T11:06:07.999Z</time>
      </trkpt>
      <trkpt lat="48.651953" lon="8.945331">
        <ele>444.461116</ele>
        <time>2021-10-24T11:06:15.999Z</time>
      </trkpt>
      <trkpt lat="48.651986" lon="8.945195">
        <ele>444.121919</ele>
        <time>2021-10-24T11:06:22.999Z</time>
      </trkpt>
      <trkpt lat="48.652056" lon="8.945080">
        <ele>443.755824</ele>
        <time>2021-10-24T11:06:29.998Z</time>
      </trkpt>
      <trkpt lat="48.652146" lon="8.945040">
        <ele>443.423414</ele>
        <time>2021-10-24T11:06:44.998Z</time>
      </trkpt>
      <trkpt lat="48.652238" lon="8.945033">
        <ele>443.096969</ele>
        <time>2021-10-24T11:06:52.998Z</time>
      </trkpt>
      <trkpt lat="48.652337" lon="8.945058">
        <ele>442.741280</ele>
        <time>2021-10-24T11:07:01.999Z</time>
      </trkpt>
      <trkpt lat="48.652425" lon="8.945106">
        <ele>442.409793</ele>
        <time>2021-10-24T11:07:09.999Z</time>
      </trkpt>
      <trkpt lat="48.652524" lon="8.945131">
        <ele>442.054104</ele>
        <time>2021-10-24T11:07:16.999Z</time>
      </trkpt>
      <trkpt lat="48.652615" lon="8.945144">
        <ele>441.730182</ele>
        <time>2021-10-24T11:07:23.999Z</time>
      </trkpt>
      <trkpt lat="48.652709" lon="8.945165">
        <ele>441.393452</ele>
        <time>2021-10-24T11:07:30.999Z</time>
      </trkpt>
      <trkpt lat="48.652804" lon="8.945169">
        <ele>441.056657</ele>
        <time>2021-10-24T11:07:37.999Z</time>
      </trkpt>
      <trkpt lat="48.652901" lon="8.945174">
        <ele>440.712705</ele>
        <time>2021-10-24T11:07:43.999Z</time>
      </trkpt>
      <trkpt lat="48.652993" lon="8.945200">
        <ele>440.393435</ele>
        <time>2021-10-24T11:07:51.999Z</time>
      </trkpt>
      <trkpt lat="48.653093" lon="8.945225">
        <ele>440.300756</ele>
        <time>2021-10-24T11:07:59.999Z</time>
      </trkpt>
      <trkpt lat="48.653195" lon="8.945237">
        <ele>440.207205</ele>
        <time>2021-10-24T11:08:08.999Z</time>
      </trkpt>
      <trkpt lat="48.653289" lon="8.945270">
        <ele>440.118969</ele>
        <time>2021-10-24T11:08:15.999Z</time>
      </trkpt>
      <trkpt lat="48.653383" lon="8.945293">
        <ele>440.031900</ele>
        <time>2021-10-24T11:08:24.998Z</time>
      </trkpt>
      <trkpt lat="48.653483" lon="8.945292">
        <ele>439.940457</ele>
        <time>2021-10-24T11:08:32.998Z</time>
      </trkpt>
      <trkpt lat="48.653577" lon="8.945323">
        <ele>439.852487</ele>
        <time>2021-10-24T11:08:39.998Z</time>
      </trkpt>
      <trkpt lat="48.653675" lon="8.945351">
        <ele>439.761293</ele>
        <time>2021-10-24T11:08:45.998Z</time>
      </trkpt>
      <trkpt lat="48.653755" lon="8.945427">
        <ele>439.674928</ele>
        <time>2021-10-24T11:08:53.998Z</time>
      </trkpt>
      <trkpt lat="48.653832" lon="8.945501">
        <ele>439.591528</ele>
        <time>2021-10-24T11:09:00.999Z</time>
      </trkpt>
      <trkpt lat="48.653926" lon="8.945554">
        <ele>439.499805</ele>
        <time>2021-10-24T11:09:07.999Z</time>
      </trkpt>
      <trkpt lat="48.654015" lon="8.945590">
        <ele>439.415567</ele>
        <time>2021-10-24T11:09:14.999Z</time>
      </trkpt>
      <trkpt lat="48.654112" lon="8.945621">
        <ele>439.324915</ele>
        <time>2021-10-24T11:09:21.999Z</time>
      </trkpt>
      <trkpt lat="48.654201" lon="8.945595">
        <ele>439.242031</ele>
        <time>2021-10-24T11:09:28.999Z</time>
      </trkpt>
      <trkpt lat="48.654281" lon="8.945507">
        <ele>439.151604</ele>
        <time>2021-10-24T11:09:34.999Z</time>
      </trkpt>
      <trkpt lat="48.654353" lon="8.945422">
        <ele>439.068113</ele>
        <time>2021-10-24T11:09:40.999Z</time>
      </trkpt>
      <trkpt lat="48.654448" lon="8.945384">
        <ele>438.978263</ele>
        <time>2021-10-24T11:09:47.998Z</time>
      </trkpt>
      <trkpt lat="48.654544" lon="8.945351">
        <ele>438.888245</ele>
        <time>2021-10-24T11:09:56.998Z</time>
      </trkpt>
      <trkpt lat="48.654641" lon="8.945316">
        <ele>438.797063</ele>
        <time>2021-10-24T11:10:05.998Z</time>
      </trkpt>
      <trkpt lat="48.654735" lon="8.945283">
        <ele>438.720268</ele>
        <time>2021-10-24T11:10:12.998Z</time>
      </trkpt>
      <trkpt lat="48.654825" lon="8.945256">
        <ele>438.658073</ele>
        <time>2021-10-24T11:10:18.998Z</time>
      </trkpt>
      <trkpt lat="48.654916" lon="8.945212">
        <ele>438.593316</ele>
        <time>2021-10-24T11:10:24.998Z</time>
      </trkpt>
      <trkpt lat="48.655010" lon="8.945182">
        <ele>438.528195</ele>
        <time>2021-10-24T11:10:30.998Z</time>
      </trkpt>
      <trkpt lat="48.655101" lon="8.945150">
        <ele>438.464866</ele>
        <time>2021-10-24T11:10:37.998Z</time>
      </trkpt>
      <trkpt lat="48.655202" lon="8.945136">
        <ele>438.396114</ele>
        <time>2021-10-24T11:10:45.998Z</time>
      </trkpt>
      <trkpt lat="48.655297" lon="8.945119">
        <ele>438.331268</ele>
        <time>2021-10-24T11:10:52.998Z</time>
      </trkpt>
      <trkpt lat="48.655390" lon="8.945094">
        <ele>438.267239</ele>
        <time>2021-10-24T11:10:59.998Z</time>
      </trkpt>
      <trkpt lat="48.655491" lon="8.945088">
        <ele>438.198721</ele>
        <time>2021-10-24T11:11:07.999Z</time>
      </trkpt>
      <trkpt lat="48.655564" lon="8.944994">
        <ele>438.133756</ele>
        <time>2021-10-24T11:11:24.999Z</time>
      </trkpt>
      <trkpt lat="48.655594" lon="8.944863">
        <ele>438.071670</ele>
        <time>2021-10-24T11:11:31.999Z</time>
      </trkpt>
      <trkpt lat="48.655545" lon="8.944614">
        <ele>437.955327</ele>
        <time>2021-10-24T11:12:19.998Z</time>
      </trkpt>
      <trkpt lat="48.655626" lon="8.944535">
        <ele>437.890010</ele>
        <time>2021-10-24T11:12:46.998Z</time>
      </trkpt>
      <trkpt lat="48.655710" lon="8.944476">
        <ele>437.827238</ele>
        <time>2021-10-24T11:12:53.998Z</time>
      </trkpt>
      <trkpt lat="48.655799" lon="8.944454">
        <ele>437.766108</ele>
        <time>2021-10-24T11:13:00.998Z</time>
      </trkpt>
      <trkpt lat="48.655798" lon="8.944294">
        <ele>437.694458</ele>
        <time>2021-10-24T11:13:06.998Z</time>
      </trkpt>
      <trkpt lat="48.655781" lon="8.944142">
        <ele>437.625426</ele>
        <time>2021-10-24T11:13:13.999Z</time>
      </trkpt>
      <trkpt lat="48.655784" lon="8.943988">
        <ele>437.556436</ele>
        <time>2021-10-24T11:13:20.999Z</time>
      </trkpt>
      <trkpt lat="48.655768" lon="8.943844">
        <ele>437.515308</ele>
        <time>2021-10-24T11:13:27.999Z</time>
      </trkpt>
      <trkpt lat="48.655773" lon="8.943697">
        <ele>437.486797</ele>
        <time>2021-10-24T11:13:35.999Z</time>
      </trkpt>
      <trkpt lat="48.655781" lon="8.943542">
        <ele>437.456683</ele>
        <time>2021-10-24T11:13:43.998Z</time>
      </trkpt>
      <trkpt lat="48.655800" lon="8.943407">
        <ele>437.429947</ele>
        <time>2021-10-24T11:13:50.998Z</time>
      </trkpt>
      <trkpt lat="48.655807" lon="8.943269">
        <ele>437.403139</ele>
        <time>2021-10-24T11:13:57.998Z</time>
      </trkpt>
      <trkpt lat="48.655818" lon="8.943128">
        <ele>437.375638</ele>
        <time>2021-10-24T11:14:08.998Z</time>
      </trkpt>
      <trkpt lat="48.655837" lon="8.942986">
        <ele>437.347575</ele>
        <time>2021-10-24T11:14:15.998Z</time>
      </trkpt>
      <trkpt lat="48.655860" lon="8.942849">
        <ele>437.320195</ele>
        <time>2021-10-24T11:14:23.998Z</time>
      </trkpt>
      <trkpt lat="48.655879" lon="8.942702">
        <ele>437.291182</ele>
        <time>2021-10-24T11:14:30.998Z</time>
      </trkpt>
      <trkpt lat="48.655917" lon="8.942567">
        <ele>437.262758</ele>
        <time>2021-10-24T11:14:38.998Z</time>
      </trkpt>
      <trkpt lat="48.655968" lon="8.942450">
        <ele>437.235606</ele>
        <time>2021-10-24T11:14:45.998Z</time>
      </trkpt>
      <trkpt lat="48.656022" lon="8.942315">
        <ele>437.205037</ele>
        <time>2021-10-24T11:14:52.998Z</time>
      </trkpt>
      <trkpt lat="48.656060" lon="8.942175">
        <ele>437.175720</ele>
        <time>2021-10-24T11:15:00.998Z</time>
      </trkpt>
      <trkpt lat="48.656082" lon="8.942026">
        <ele>437.146147</ele>
        <time>2021-10-24T11:15:09.998Z</time>
      </trkpt>
      <trkpt lat="48.656152" lon="8.941932">
        <ele>437.118710</ele>
        <time>2021-10-24T11:15:16.998Z</time>
      </trkpt>
      <trkpt lat="48.656236" lon="8.941838">
        <ele>437.088081</ele>
        <time>2021-10-24T11:15:24.999Z</time>
      </trkpt>
      <trkpt lat="48.656318" lon="8.941763">
        <ele>437.059989</ele>
        <time>2021-10-24T11:15:32.999Z</time>
      </trkpt>
      <trkpt lat="48.656402" lon="8.941698">
        <ele>437.032327</ele>
        <time>2021-10-24T11:15:39.999Z</time>
      </trkpt>
      <trkpt lat="48.656499" lon="8.941637">
        <ele>437.019844</ele>
        <time>2021-10-24T11:15:46.999Z</time>
      </trkpt>
      <trkpt lat="48.656573" lon="8.941538">
        <ele>437.099663</ele>
        <time>2021-10-24T11:15:54.998Z</time>
      </trkpt>
      <trkpt lat="48.656631" lon="8.941429">
        <ele>437.174392</ele>
        <time>2021-10-24T11:16:02.998Z</time>
      </trkpt>
      <trkpt lat="48.656726" lon="8.941376">
        <ele>437.256223</ele>
        <time>2021-10-24T11:16:10.998Z</time>
      </trkpt>
      <trkpt lat="48.656800" lon="8.941280">
        <ele>437.334991</ele>
        <time>2021-10-24T11:16:18.998Z</time>
      </trkpt>
      <trkpt lat="48.656882" lon="8.941202">
        <ele>437.413265</ele>
        <time>2021-10-24T11:16:25.998Z</time>
      </trkpt>
      <trkpt lat="48.656940" lon="8.941084">
        <ele>437.491793</ele>
        <time>2021-10-24T11:16:34.998Z</time>
      </trkpt>
      <trkpt lat="48.657029" lon="8.941015">
        <ele>437.572612</ele>
        <time>2021-10-24T11:16:41.998Z</time>
      </trkpt>
      <trkpt lat="48.657124" lon="8.941008">
        <ele>437.649486</ele>
        <time>2021-10-24T11:16:49.998Z</time>
      </trkpt>
      <trkpt lat="48.657225" lon="8.941028">
        <ele>437.731815</ele>
        <time>2021-10-24T11:16:57.998Z</time>
      </trkpt>
      <trkpt lat="48.657325" lon="8.941049">
        <ele>437.813414</ele>
        <time>2021-10-24T11:17:05.998Z</time>
      </trkpt>
      <trkpt lat="48.657420" lon="8.941096">
        <ele>437.894194</ele>
        <time>2021-10-24T11:17:13.998Z</time>
      </trkpt>
      <trkpt lat="48.657510" lon="8.941106">
        <ele>437.967132</ele>
        <time>2021-10-24T11:17:20.998Z</time>
      </trkpt>
      <trkpt lat="48.657609" lon="8.941112">
        <ele>438.047212</ele>
        <time>2021-10-24T11:17:28.999Z</time>
      </trkpt>
      <trkpt lat="48.657709" lon="8.941124">
        <ele>438.128291</ele>
        <time>2021-10-24T11:17:35.999Z</time>
      </trkpt>
      <trkpt lat="48.657806" lon="8.941091">
        <ele>438.208646</ele>
        <time>2021-10-24T11:17:43.999Z</time>
      </trkpt>
      <trkpt lat="48.657897" lon="8.941103">
        <ele>438.282475</ele>
        <time>2021-10-24T11:17:50.999Z</time>
      </trkpt>
      <trkpt lat="48.657994" lon="8.941122">
        <ele>438.361529</ele>
        <time>2021-10-24T11:17:58.999Z</time>
      </trkpt>
      <trkpt lat="48.658106" lon="8.941129">
        <ele>438.452130</ele>
        <time>2021-10-24T11:18:08.999Z</time>
      </trkpt>
      <trkpt lat="48.658203" lon="8.941123">
        <ele>438.878710</ele>
        <time>2021-10-24T11:18:16.998Z</time>
      </trkpt>
      <trkpt lat="48.658300" lon="8.941123">
        <ele>439.344565</ele>
        <time>2021-10-24T11:18:23.998Z</time>
      </trkpt>
      <trkpt lat="48.658393" lon="8.941049">
        <ele>439.849145</ele>
        <time>2021-10-24T11:18:30.998Z</time>
      </trkpt>
      <trkpt lat="48.658444" lon="8.940932">
        <ele>440.293844</ele>
        <time>2021-10-24T11:18:35.998Z</time>
      </trkpt>
      <trkpt lat="48.658496" lon="8.940805">
        <ele>440.767857</ele>
        <time>2021-10-24T11:18:41.998Z</time>
      </trkpt>
      <trkpt lat="48.658551" lon="8.940694">
        <ele>441.208049</ele>
        <time>2021-10-24T11:18:48.998Z</time>
      </trkpt>
      <trkpt lat="48.658621" lon="8.940605">
        <ele>441.647065</ele>
        <time>2021-10-24T11:18:56.998Z</time>
      </trkpt>
      <trkpt lat="48.658719" lon="8.940598">
        <ele>442.118246</ele>
        <time>2021-10-24T11:19:08.998Z</time>
      </trkpt>
      <trkpt lat="48.658793" lon="8.940678">
        <ele>442.554954</ele>
        <time>2021-10-24T11:19:27.998Z</time>
      </trkpt>
      <trkpt lat="48.658887" lon="8.940708">
        <ele>443.016323</ele>
        <time>2021-10-24T11:19:36.999Z</time>
      </trkpt>
      <trkpt lat="48.658978" lon="8.940697">
        <ele>443.454753</ele>
        <time>2021-10-24T11:19:44.999Z</time>
      </trkpt>
      <trkpt lat="48.659075" lon="8.940689">
        <ele>443.921299</ele>
        <time>2021-10-24T11:19:52.999Z</time>
      </trkpt>
      <trkpt lat="48.659166" lon="8.940737">
        <ele>444.384106</ele>
        <time>2021-10-24T11:20:03.999Z</time>
      </trkpt>
      <trkpt lat="48.659234" lon="8.940835">
        <ele>444.834998</ele>
        <time>2021-10-24T11:20:09.999Z</time>
      </trkpt>
      <trkpt lat="48.659327" lon="8.940911">
        <ele>445.342559</ele>
        <time>2021-10-24T11:20:18.999Z</time>
      </trkpt>
      <trkpt lat="48.659419" lon="8.940961">
        <ele>445.812009</ele>
        <time>2021-10-24T11:20:27.999Z</time>
      </trkpt>
      <trkpt lat="48.659510" lon="8.940935">
        <ele>446.256763</ele>
        <time>2021-10-24T11:20:38.998Z</time>
      </trkpt>
      <trkpt lat="48.659560" lon="8.940813">
        <ele>446.712227</ele>
        <time>2021-10-24T11:20:46.998Z</time>
      </trkpt>
      <trkpt lat="48.659644" lon="8.940730">
        <ele>447.165755</ele>
        <time>2021-10-24T11:20:53.998Z</time>
      </trkpt>
      <trkpt lat="48.659731" lon="8.940658">
        <ele>447.501402</ele>
        <time>2021-10-24T11:21:01.998Z</time>
      </trkpt>
      <trkpt lat="48.659826" lon="8.940630">
        <ele>447.829037</ele>
        <time>2021-10-24T11:21:08.998Z</time>
      </trkpt>
      <trkpt lat="48.659916" lon="8.940607">
        <ele>448.138018</ele>
        <time>2021-10-24T11:21:14.998Z</time>
      </trkpt>
      <trkpt lat="48.660015" lon="8.940616">
        <ele>448.473760</ele>
        <time>2021-10-24T11:21:20.998Z</time>
      </trkpt>
      <trkpt lat="48.660113" lon="8.940582">
        <ele>448.814113</ele>
        <time>2021-10-24T11:21:28.998Z</time>
      </trkpt>
      <trkpt lat="48.660200" lon="8.940630">
        <ele>449.127576</ele>
        <time>2021-10-24T11:21:34.998Z</time>
      </trkpt>
      <trkpt lat="48.660256" lon="8.940507">
        <ele>449.461612</ele>
        <time>2021-10-24T11:21:42.999Z</time>
      </trkpt>
      <trkpt lat="48.660336" lon="8.940427">
        <ele>449.786175</ele>
        <time>2021-10-24T11:21:51.999Z</time>
      </trkpt>
      <trkpt lat="48.660438" lon="8.940428">
        <ele>450.131477</ele>
        <time>2021-10-24T11:22:00.999Z</time>
      </trkpt>
      <trkpt lat="48.660522" lon="8.940378">
        <ele>450.437025</ele>
        <time>2021-10-24T11:22:07.999Z</time>
      </trkpt>
      <trkpt lat="48.660612" lon="8.940334">
        <ele>450.757188</ele>
        <time>2021-10-24T11:22:14.999Z</time>
      </trkpt>
      <trkpt lat="48.660630" lon="8.940483">
        <ele>451.095879</ele>
        <time>2021-10-24T11:22:22.998Z</time>
      </trkpt>
      <trkpt lat="48.660627" lon="8.940631">
        <ele>451.426964</ele>
        <time>2021-10-24T11:22:30.998Z</time>
      </trkpt>
      <trkpt lat="48.660620" lon="8.940767">
        <ele>451.731983</ele>
        <time>2021-10-24T11:22:37.998Z</time>
      </trkpt>
      <trkpt lat="48.660651" lon="8.940896">
        <ele>452.038925</ele>
        <time>2021-10-24T11:22:46.998Z</time>
      </trkpt>
      <trkpt lat="48.660698" lon="8.941027">
        <ele>452.372264</ele>
        <time>2021-10-24T11:22:52.998Z</time>
      </trkpt>
      <trkpt lat="48.660758" lon="8.941160">
        <ele>452.732396</ele>
        <time>2021-10-24T11:23:00.998Z</time>
      </trkpt>
      <trkpt lat="48.660817" lon="8.941298">
        <ele>453.099964</ele>
        <time>2021-10-24T11:23:08.998Z</time>
      </trkpt>
      <trkpt lat="48.660848" lon="8.941444">
        <ele>453.187202</ele>
        <time>2021-10-24T11:23:17.998Z</time>
      </trkpt>
      <trkpt lat="48.660884" lon="8.941580">
        <ele>453.187202</ele>
        <time>2021-10-24T11:23:25.998Z</time>
      </trkpt>
      <trkpt lat="48.660926" lon="8.941712">
        <ele>453.187202</ele>
        <time>2021-10-24T11:23:32.998Z</time>
      </trkpt>
      <trkpt lat="48.660984" lon="8.941830">
        <ele>453.187202</ele>
        <time>2021-10-24T11:23:41.999Z</time>
      </trkpt>
      <trkpt lat="48.661024" lon="8.941959">
        <ele>453.187202</ele>
        <time>2021-10-24T11:23:48.999Z</time>
      </trkpt>
      <trkpt lat="48.661081" lon="8.942083">
        <ele>453.187202</ele>
        <time>2021-10-24T11:23:56.999Z</time>
      </trkpt>
      <trkpt lat="48.661133" lon="8.942205">
        <ele>453.187202</ele>
        <time>2021-10-24T11:24:04.999Z</time>
      </trkpt>
      <trkpt lat="48.661182" lon="8.942344">
        <ele>453.187202</ele>
        <time>2021-10-24T11:24:12.999Z</time>
      </trkpt>
      <trkpt lat="48.661248" lon="8.942438">
        <ele>453.187202</ele>
        <time>2021-10-24T11:24:19.998Z</time>
      </trkpt>
      <trkpt lat="48.661295" lon="8.942583">
        <ele>453.187202</ele>
        <time>2021-10-24T11:24:27.998Z</time>
      </trkpt>
      <trkpt lat="48.661333" lon="8.942714">
        <ele>453.187202</ele>
        <time>2021-10-24T11:24:35.998Z</time>
      </trkpt>
      <trkpt lat="48.661391" lon="8.942828">
        <ele>453.187202</ele>
        <time>2021-10-24T11:24:42.998Z</time>
      </trkpt>
      <trkpt lat="48.661458" lon="8.942942">
        <ele>453.187202</ele>
        <time>2021-10-24T11:24:49.997Z</time>
      </trkpt>
      <trkpt lat="48.661520" lon="8.943049">
        <ele>453.187202</ele>
        <time>2021-10-24T11:24:57.997Z</time>
      </trkpt>
      <trkpt lat="48.661573" lon="8.943180">
        <ele>453.187202</ele>
        <time>2021-10-24T11:25:05.997Z</time>
      </trkpt>
      <trkpt lat="48.661613" lon="8.943319">
        <ele>453.187202</ele>
        <time>2021-10-24T11:25:14.997Z</time>
      </trkpt>
      <trkpt lat="48.661665" lon="8.943455">
        <ele>453.187202</ele>
        <time>2021-10-24T11:25:22.997Z</time>
      </trkpt>
      <trkpt lat="48.661758" lon="8.943444">
        <ele>453.187202</ele>
        <time>2021-10-24T11:25:29.997Z</time>
      </trkpt>
    </trkseg>
  </trk>
</gpx>