<?xml version="1.0" encoding="UTF-8" standalone="no" ?>
<gpx xmlns="http://www.topografix.com/GPX/1/1" creator="MapSource 6.16.3" version="1.1" xmlns:xsi="http://www.w3.org/2001/XMLSchema-instance" xsi:schemaLocation="http://www.topografix.com/GPX/1/1 http://www.topografix.com/GPX/1/1/gpx.xsd">

  <metadata>
    <link href="http://www.garmin.com">
      <text>Garmin International</text>
    </link>
    <time>2026-03-09T07:08:40Z</time>
    <bounds maxlat="48.029186027124524" maxlon="8.637349968776107" minlat="48.005819963291287" minlon="8.602966982871294"/>
  </metadata>

  <trk>
    <name>PW233BW - 11km-Auf dem Weg der Kelten (2026Neu)</name>
    <trkseg>
      <trkpt lat="48.027332033962011" lon="8.60392696224153">
        <ele>739.35327800000005</ele>
        <time>2026-03-05T17:43:53Z</time>
      </trkpt>
      <trkpt lat="48.02748198620975" lon="8.604582007974386">
        <ele>739.35327800000005</ele>
        <time>2026-03-05T17:44:41Z</time>
      </trkpt>
      <trkpt lat="48.027555998414755" lon="8.604904962703586">
        <ele>739.35327800000005</ele>
        <time>2026-03-05T17:45:04Z</time>
      </trkpt>
      <trkpt lat="48.027546023949981" lon="8.605034966021776">
        <ele>739.35327800000005</ele>
        <time>2026-03-05T17:45:13Z</time>
      </trkpt>
      <trkpt lat="48.027754984796047" lon="8.605825966224074">
        <ele>739.63101500000005</ele>
        <time>2026-03-05T17:46:11Z</time>
      </trkpt>
      <trkpt lat="48.02784601226449" lon="8.606279008090496">
        <ele>739.82697299999995</ele>
        <time>2026-03-05T17:46:43Z</time>
      </trkpt>
      <trkpt lat="48.027874007821083" lon="8.606414962559938">
        <ele>739.88592700000004</ele>
        <time>2026-03-05T17:46:53Z</time>
      </trkpt>
      <trkpt lat="48.027905020862818" lon="8.6065430380404">
        <ele>739.94232599999998</ele>
        <time>2026-03-05T17:47:02Z</time>
      </trkpt>
      <trkpt lat="48.028042986989021" lon="8.607106972485781">
        <ele>740.19113400000003</ele>
        <time>2026-03-05T17:47:44Z</time>
      </trkpt>
      <trkpt lat="48.028194028884172" lon="8.607731005176902">
        <ele>740.46605499999998</ele>
        <time>2026-03-05T17:48:32Z</time>
      </trkpt>
      <trkpt lat="48.028272986412048" lon="8.608018001541495">
        <ele>740.97138800000005</ele>
        <time>2026-03-05T17:48:55Z</time>
      </trkpt>
      <trkpt lat="48.028397038578987" lon="8.608333999291062">
        <ele>741.57302500000003</ele>
        <time>2026-03-05T17:49:22Z</time>
      </trkpt>
      <trkpt lat="48.028517989441752" lon="8.608847977593541">
        <ele>742.46783100000005</ele>
        <time>2026-03-05T17:50:02Z</time>
      </trkpt>
      <trkpt lat="48.028654027730227" lon="8.609221978113055">
        <ele>743.16689399999996</ele>
        <time>2026-03-05T17:50:34Z</time>
      </trkpt>
      <trkpt lat="48.028718987479806" lon="8.609635960310698">
        <ele>743.86520499999995</ele>
        <time>2026-03-05T17:51:05Z</time>
      </trkpt>
      <trkpt lat="48.028860976919532" lon="8.610168965533376">
        <ele>744.80733399999997</ele>
        <time>2026-03-05T17:51:46Z</time>
      </trkpt>
      <trkpt lat="48.028981005772948" lon="8.610962983220816">
        <ele>745.50913500000001</ele>
        <time>2026-03-05T17:52:43Z</time>
      </trkpt>
      <trkpt lat="48.028896013274789" lon="8.610954014584422">
        <ele>745.61294499999997</ele>
        <time>2026-03-05T17:52:52Z</time>
      </trkpt>
      <trkpt lat="48.029038002714515" lon="8.612269973382354">
        <ele>746.69896200000005</ele>
        <time>2026-03-05T17:54:24Z</time>
      </trkpt>
      <trkpt lat="48.029087958857417" lon="8.61240902915597">
        <ele>746.82754799999998</ele>
        <time>2026-03-05T17:54:35Z</time>
      </trkpt>
      <trkpt lat="48.029184015467763" lon="8.612570967525244">
        <ele>747.00389099999995</ele>
        <time>2026-03-05T17:54:50Z</time>
      </trkpt>
      <trkpt lat="48.029186027124524" lon="8.612845977768302">
        <ele>747.26595199999997</ele>
        <time>2026-03-05T17:55:09Z</time>
      </trkpt>
      <trkpt lat="48.029127018526196" lon="8.613046975806356">
        <ele>747.48926600000004</ele>
        <time>2026-03-05T17:55:25Z</time>
      </trkpt>
      <trkpt lat="48.029020987451077" lon="8.613240011036396">
        <ele>747.74333999999999</ele>
        <time>2026-03-05T17:55:42Z</time>
      </trkpt>
      <trkpt lat="48.028960973024368" lon="8.61344100907445">
        <ele>747.96727099999998</ele>
        <time>2026-03-05T17:55:58Z</time>
      </trkpt>
      <trkpt lat="48.028867011889815" lon="8.613874018192291">
        <ele>748.43040599999995</ele>
        <time>2026-03-05T17:56:30Z</time>
      </trkpt>
      <trkpt lat="48.028830969706178" lon="8.614175012335181">
        <ele>748.74148400000001</ele>
        <time>2026-03-05T17:56:52Z</time>
      </trkpt>
      <trkpt lat="48.028715969994664" lon="8.614663006737828">
        <ele>749.26786700000002</ele>
        <time>2026-03-05T17:57:28Z</time>
      </trkpt>
      <trkpt lat="48.027521967887878" lon="8.619517972692847">
        <ele>756.00659900000005</ele>
        <time>2026-03-05T18:03:38Z</time>
      </trkpt>
      <trkpt lat="48.02724402397871" lon="8.619432980194688">
        <ele>756.60111600000005</ele>
        <time>2026-03-05T18:04:09Z</time>
      </trkpt>
      <trkpt lat="48.026963984593749" lon="8.619368020445108">
        <ele>757.29667199999994</ele>
        <time>2026-03-05T18:04:39Z</time>
      </trkpt>
      <trkpt lat="48.026772039011121" lon="8.619300965219736">
        <ele>757.98864000000003</ele>
        <time>2026-03-05T18:05:01Z</time>
      </trkpt>
      <trkpt lat="48.026117999106646" lon="8.619165010750294">
        <ele>760.30606699999998</ele>
        <time>2026-03-05T18:06:14Z</time>
      </trkpt>
      <trkpt lat="48.025920018553734" lon="8.61911497078836">
        <ele>761.01082599999995</ele>
        <time>2026-03-05T18:06:37Z</time>
      </trkpt>
      <trkpt lat="48.025606032460928" lon="8.618932999670506">
        <ele>762.19277299999999</ele>
        <time>2026-03-05T18:07:15Z</time>
      </trkpt>
      <trkpt lat="48.025377038866282" lon="8.618589006364346">
        <ele>763.33205399999997</ele>
        <time>2026-03-05T18:07:53Z</time>
      </trkpt>
      <trkpt lat="48.023847006261349" lon="8.618345009163022">
        <ele>770.55771500000003</ele>
        <time>2026-03-05T18:10:54Z</time>
      </trkpt>
      <trkpt lat="48.02333596162498" lon="8.618312990292907">
        <ele>772.02180599999997</ele>
        <time>2026-03-05T18:11:52Z</time>
      </trkpt>
      <trkpt lat="48.02307503297925" lon="8.618339980021119">
        <ele>772.24548200000004</ele>
        <time>2026-03-05T18:12:21Z</time>
      </trkpt>
      <trkpt lat="48.023029016330838" lon="8.618428995832801">
        <ele>772.309799</ele>
        <time>2026-03-05T18:12:29Z</time>
      </trkpt>
      <trkpt lat="48.023013006895781" lon="8.618543995544314">
        <ele>772.37696600000004</ele>
        <time>2026-03-05T18:12:38Z</time>
      </trkpt>
      <trkpt lat="48.023056006059051" lon="8.618753962218761">
        <ele>772.50254900000004</ele>
        <time>2026-03-05T18:12:53Z</time>
      </trkpt>
      <trkpt lat="48.023278964683414" lon="8.619038024917245">
        <ele>772.75299099999995</ele>
        <time>2026-03-05T18:13:23Z</time>
      </trkpt>
      <trkpt lat="48.023579036816955" lon="8.619483020156622">
        <ele>773.114285</ele>
        <time>2026-03-05T18:14:06Z</time>
      </trkpt>
      <trkpt lat="48.024353021755815" lon="8.620631005614996">
        <ele>772.70798300000001</ele>
        <time>2026-03-05T18:15:59Z</time>
      </trkpt>
      <trkpt lat="48.02460397593677" lon="8.621053034439683">
        <ele>772.40980300000001</ele>
        <time>2026-03-05T18:16:38Z</time>
      </trkpt>
      <trkpt lat="48.024762980639935" lon="8.621357968077064">
        <ele>772.20562199999995</ele>
        <time>2026-03-05T18:17:04Z</time>
      </trkpt>
      <trkpt lat="48.025120971724391" lon="8.622248964384198">
        <ele>771.81085399999995</ele>
        <time>2026-03-05T18:18:15Z</time>
      </trkpt>
      <trkpt lat="48.025398999452591" lon="8.622920019552112">
        <ele>771.62859900000001</ele>
        <time>2026-03-05T18:19:08Z</time>
      </trkpt>
      <trkpt lat="48.025640984997153" lon="8.623641030862927">
        <ele>771.44232999999997</ele>
        <time>2026-03-05T18:20:03Z</time>
      </trkpt>
      <trkpt lat="48.02567501552403" lon="8.623804980888963">
        <ele>771.40268500000002</ele>
        <time>2026-03-05T18:20:15Z</time>
      </trkpt>
      <trkpt lat="48.025704016909003" lon="8.624181998893619">
        <ele>771.31506100000001</ele>
        <time>2026-03-05T18:20:41Z</time>
      </trkpt>
      <trkpt lat="48.025563033297658" lon="8.62521699629724">
        <ele>771.82831099999999</ele>
        <time>2026-03-05T18:21:52Z</time>
      </trkpt>
      <trkpt lat="48.025438981130719" lon="8.627584967762232">
        <ele>773.60303099999999</ele>
        <time>2026-03-05T18:24:40Z</time>
      </trkpt>
      <trkpt lat="48.025445016101003" lon="8.628057958558202">
        <ele>774.22360000000003</ele>
        <time>2026-03-05T18:25:13Z</time>
      </trkpt>
      <trkpt lat="48.025494972243905" lon="8.628382002934814">
        <ele>774.65977399999997</ele>
        <time>2026-03-05T18:25:37Z</time>
      </trkpt>
      <trkpt lat="48.025578958913684" lon="8.628634968772531">
        <ele>775.03029100000003</ele>
        <time>2026-03-05T18:25:57Z</time>
      </trkpt>
      <trkpt lat="48.026030994951725" lon="8.629769962280989">
        <ele>776.79061799999999</ele>
        <time>2026-03-05T18:27:33Z</time>
      </trkpt>
      <trkpt lat="48.026130991056561" lon="8.630111021921039">
        <ele>777.30243800000005</ele>
        <time>2026-03-05T18:28:00Z</time>
      </trkpt>
      <trkpt lat="48.026285972446203" lon="8.631023978814483">
        <ele>778.59724600000004</ele>
        <time>2026-03-05T18:29:10Z</time>
      </trkpt>
      <trkpt lat="48.026349004358053" lon="8.631216008216143">
        <ele>778.89122099999997</ele>
        <time>2026-03-05T18:29:25Z</time>
      </trkpt>
      <trkpt lat="48.026458974927664" lon="8.631310975179076">
        <ele>779.15231200000005</ele>
        <time>2026-03-05T18:29:38Z</time>
      </trkpt>
      <trkpt lat="48.026240039616823" lon="8.631569975987077">
        <ele>779.72620900000004</ele>
        <time>2026-03-05T18:30:08Z</time>
      </trkpt>
      <trkpt lat="48.025896968320012" lon="8.631749013438821">
        <ele>779.54902100000004</ele>
        <time>2026-03-05T18:30:45Z</time>
      </trkpt>
      <trkpt lat="48.025834020227194" lon="8.632319988682866">
        <ele>779.09409600000004</ele>
        <time>2026-03-05T18:31:24Z</time>
      </trkpt>
      <trkpt lat="48.025650959461927" lon="8.633904000744224">
        <ele>777.83048499999995</ele>
        <time>2026-03-05T18:33:16Z</time>
      </trkpt>
      <trkpt lat="48.025420038029552" lon="8.635763023048639">
        <ele>776.69215999999994</ele>
        <time>2026-03-05T18:35:28Z</time>
      </trkpt>
      <trkpt lat="48.025378966704011" lon="8.635865030810237">
        <ele>776.62142800000004</ele>
        <time>2026-03-05T18:35:36Z</time>
      </trkpt>
      <trkpt lat="48.024976970627904" lon="8.635372007265687">
        <ele>776.21865600000001</ele>
        <time>2026-03-05T18:36:29Z</time>
      </trkpt>
      <trkpt lat="48.024783013388515" lon="8.635186012834311">
        <ele>776.93231000000003</ele>
        <time>2026-03-05T18:36:54Z</time>
      </trkpt>
      <trkpt lat="48.024670025333762" lon="8.635128010064364">
        <ele>777.302278</ele>
        <time>2026-03-05T18:37:06Z</time>
      </trkpt>
      <trkpt lat="48.024525018408895" lon="8.635108983144164">
        <ele>777.753017</ele>
        <time>2026-03-05T18:37:22Z</time>
      </trkpt>
      <trkpt lat="48.022779989987612" lon="8.635192969813943">
        <ele>784.47050300000001</ele>
        <time>2026-03-05T18:40:40Z</time>
      </trkpt>
      <trkpt lat="48.022523000836372" lon="8.635158017277718">
        <ele>786.00893799999994</ele>
        <time>2026-03-05T18:41:11Z</time>
      </trkpt>
      <trkpt lat="48.022204991430044" lon="8.634999012574554">
        <ele>788.00787800000001</ele>
        <time>2026-03-05T18:41:53Z</time>
      </trkpt>
      <trkpt lat="48.021901985630393" lon="8.634692989289761">
        <ele>790.18766200000005</ele>
        <time>2026-03-05T18:42:39Z</time>
      </trkpt>
      <trkpt lat="48.02142396569252" lon="8.634279007092118">
        <ele>793.24501499999997</ele>
        <time>2026-03-05T18:43:47Z</time>
      </trkpt>
      <trkpt lat="48.020836981013417" lon="8.633870976045728">
        <ele>796.20824100000004</ele>
        <time>2026-03-05T18:45:05Z</time>
      </trkpt>
      <trkpt lat="48.020083028823137" lon="8.633083999156952">
        <ele>800.41765999999996</ele>
        <time>2026-03-05T18:46:47Z</time>
      </trkpt>
      <trkpt lat="48.018829012289643" lon="8.631471991539002">
        <ele>807.70117600000003</ele>
        <time>2026-03-05T18:49:54Z</time>
      </trkpt>
      <trkpt lat="48.018473032861948" lon="8.630502037703991">
        <ele>813.58847500000002</ele>
        <time>2026-03-05T18:51:26Z</time>
      </trkpt>
      <trkpt lat="48.018415030092001" lon="8.630295004695654">
        <ele>814.98888199999999</ele>
        <time>2026-03-05T18:51:45Z</time>
      </trkpt>
      <trkpt lat="48.01837001927197" lon="8.629928966984153">
        <ele>817.31095000000005</ele>
        <time>2026-03-05T18:52:18Z</time>
      </trkpt>
      <trkpt lat="48.018018985167146" lon="8.628614014014602">
        <ele>825.75368500000002</ele>
        <time>2026-03-05T18:54:33Z</time>
      </trkpt>
      <trkpt lat="48.017914965748787" lon="8.628340009599924">
        <ele>826.70414200000005</ele>
        <time>2026-03-05T18:55:01Z</time>
      </trkpt>
      <trkpt lat="48.017694018781185" lon="8.628279995173216">
        <ele>827.71722599999998</ele>
        <time>2026-03-05T18:55:31Z</time>
      </trkpt>
      <trkpt lat="48.017450021579862" lon="8.628420978784561">
        <ele>828.89709800000003</ele>
        <time>2026-03-05T18:56:04Z</time>
      </trkpt>
      <trkpt lat="48.017152966931462" lon="8.628489039838314">
        <ele>830.25228200000004</ele>
        <time>2026-03-05T18:56:40Z</time>
      </trkpt>
      <trkpt lat="48.017015000805259" lon="8.628678973764181">
        <ele>831.09845199999995</ele>
        <time>2026-03-05T18:57:01Z</time>
      </trkpt>
      <trkpt lat="48.016941994428635" lon="8.628891035914421">
        <ele>831.81782699999997</ele>
        <time>2026-03-05T18:57:18Z</time>
      </trkpt>
      <trkpt lat="48.016876028850675" lon="8.629352962598205">
        <ele>833.24311599999999</ele>
        <time>2026-03-05T18:57:51Z</time>
      </trkpt>
      <trkpt lat="48.016909975558519" lon="8.630407992750406">
        <ele>829.48012700000004</ele>
        <time>2026-03-05T18:59:10Z</time>
      </trkpt>
      <trkpt lat="48.016978958621621" lon="8.63140401430428">
        <ele>825.33691399999998</ele>
        <time>2026-03-05T19:00:28Z</time>
      </trkpt>
      <trkpt lat="48.017138969153166" lon="8.632582006976008">
        <ele>821.900262</ele>
        <time>2026-03-05T19:02:00Z</time>
      </trkpt>
      <trkpt lat="48.017281964421272" lon="8.633287008851767">
        <ele>821.18295499999999</ele>
        <time>2026-03-05T19:02:53Z</time>
      </trkpt>
      <trkpt lat="48.01731901243329" lon="8.633816996589303">
        <ele>820.66410499999995</ele>
        <time>2026-03-05T19:03:28Z</time>
      </trkpt>
      <trkpt lat="48.017425965517759" lon="8.634237013757229">
        <ele>820.22650699999997</ele>
        <time>2026-03-05T19:04:01Z</time>
      </trkpt>
      <trkpt lat="48.01720904186368" lon="8.634163001552224">
        <ele>819.90252399999997</ele>
        <time>2026-03-05T19:04:26Z</time>
      </trkpt>
      <trkpt lat="48.017037967219949" lon="8.634284036234021">
        <ele>819.86269800000002</ele>
        <time>2026-03-05T19:04:47Z</time>
      </trkpt>
      <trkpt lat="48.01673898473382" lon="8.635066989809275">
        <ele>820.600641</ele>
        <time>2026-03-05T19:05:53Z</time>
      </trkpt>
      <trkpt lat="48.016658015549183" lon="8.635408971458674">
        <ele>820.89758900000004</ele>
        <time>2026-03-05T19:06:19Z</time>
      </trkpt>
      <trkpt lat="48.016562964767218" lon="8.636370040476322">
        <ele>821.69269099999997</ele>
        <time>2026-03-05T19:07:25Z</time>
      </trkpt>
      <trkpt lat="48.016446959227324" lon="8.63709800876677">
        <ele>823.78600900000004</ele>
        <time>2026-03-05T19:08:16Z</time>
      </trkpt>
      <trkpt lat="48.016335982829332" lon="8.637349968776107">
        <ele>825.07993199999999</ele>
        <time>2026-03-05T19:08:37Z</time>
      </trkpt>
      <trkpt lat="48.016134984791279" lon="8.636772958561778">
        <ele>827.86975700000005</ele>
        <time>2026-03-05T19:09:29Z</time>
      </trkpt>
      <trkpt lat="48.016003975644708" lon="8.636160995811224">
        <ele>830.62535500000001</ele>
        <time>2026-03-05T19:10:25Z</time>
      </trkpt>
      <trkpt lat="48.015917977318168" lon="8.635403020307422">
        <ele>834.21128999999996</ele>
        <time>2026-03-05T19:11:39Z</time>
      </trkpt>
      <trkpt lat="48.015902973711491" lon="8.634790973737836">
        <ele>838.57963400000006</ele>
        <time>2026-03-05T19:12:39Z</time>
      </trkpt>
      <trkpt lat="48.015846982598305" lon="8.634137017652392">
        <ele>843.28270299999997</ele>
        <time>2026-03-05T19:13:39Z</time>
      </trkpt>
      <trkpt lat="48.015731982886791" lon="8.633503010496497">
        <ele>847.96836900000005</ele>
        <time>2026-03-05T19:14:38Z</time>
      </trkpt>
      <trkpt lat="48.015577001497149" lon="8.633045023307204">
        <ele>851.62962300000004</ele>
        <time>2026-03-05T19:15:23Z</time>
      </trkpt>
      <trkpt lat="48.015237031504512" lon="8.632916025817394">
        <ele>854.692364</ele>
        <time>2026-03-05T19:16:10Z</time>
      </trkpt>
      <trkpt lat="48.014533035457134" lon="8.632270032539964">
        <ele>861.29260499999998</ele>
        <time>2026-03-05T19:17:58Z</time>
      </trkpt>
      <trkpt lat="48.014101032167673" lon="8.631964009255171">
        <ele>865.11223399999994</ele>
        <time>2026-03-05T19:18:59Z</time>
      </trkpt>
      <trkpt lat="48.013656958937645" lon="8.631743984296918">
        <ele>866.77777200000003</ele>
        <time>2026-03-05T19:19:54Z</time>
      </trkpt>
      <trkpt lat="48.013339033350348" lon="8.631676007062197">
        <ele>866.40909299999998</ele>
        <time>2026-03-05T19:20:29Z</time>
      </trkpt>
      <trkpt lat="48.012919016182423" lon="8.631692016497254">
        <ele>865.92690800000003</ele>
        <time>2026-03-05T19:21:12Z</time>
      </trkpt>
      <trkpt lat="48.012373019009829" lon="8.631676007062197">
        <ele>865.30015200000003</ele>
        <time>2026-03-05T19:22:11Z</time>
      </trkpt>
      <trkpt lat="48.011758960783482" lon="8.631607023999095">
        <ele>864.38436400000001</ele>
        <time>2026-03-05T19:23:21Z</time>
      </trkpt>
      <trkpt lat="48.011134006083012" lon="8.631369983777404">
        <ele>863.23734300000001</ele>
        <time>2026-03-05T19:24:30Z</time>
      </trkpt>
      <trkpt lat="48.010929990559816" lon="8.631182983517647">
        <ele>862.81164799999999</ele>
        <time>2026-03-05T19:24:55Z</time>
      </trkpt>
      <trkpt lat="48.010464962571859" lon="8.630022006109357">
        <ele>862.05771100000004</ele>
        <time>2026-03-05T19:26:33Z</time>
      </trkpt>
      <trkpt lat="48.010305035859346" lon="8.629533005878329">
        <ele>862.37840800000004</ele>
        <time>2026-03-05T19:27:13Z</time>
      </trkpt>
      <trkpt lat="48.010189030319452" lon="8.629179038107395">
        <ele>862.610636</ele>
        <time>2026-03-05T19:27:41Z</time>
      </trkpt>
      <trkpt lat="48.01025097258389" lon="8.629017015919089">
        <ele>862.72059000000002</ele>
        <time>2026-03-05T19:27:54Z</time>
      </trkpt>
      <trkpt lat="48.010206967592239" lon="8.628324000164866">
        <ele>863.13069599999994</ele>
        <time>2026-03-05T19:28:41Z</time>
      </trkpt>
      <trkpt lat="48.009871020913124" lon="8.627755036577582">
        <ele>862.670209</ele>
        <time>2026-03-05T19:29:33Z</time>
      </trkpt>
      <trkpt lat="48.009146992117167" lon="8.626251993700862">
        <ele>859.25492299999996</ele>
        <time>2026-03-05T19:31:45Z</time>
      </trkpt>
      <trkpt lat="48.008741978555918" lon="8.625584039837122">
        <ele>857.19838300000004</ele>
        <time>2026-03-05T19:32:49Z</time>
      </trkpt>
      <trkpt lat="48.008260019123554" lon="8.624554993584752">
        <ele>853.75177799999994</ele>
        <time>2026-03-05T19:34:22Z</time>
      </trkpt>
      <trkpt lat="48.00816697999835" lon="8.624158026650548">
        <ele>852.59763999999996</ele>
        <time>2026-03-05T19:34:53Z</time>
      </trkpt>
      <trkpt lat="48.008060026913881" lon="8.623832976445556">
        <ele>851.60377200000005</ele>
        <time>2026-03-05T19:35:19Z</time>
      </trkpt>
      <trkpt lat="48.007918959483504" lon="8.623537011444569">
        <ele>850.96060199999999</ele>
        <time>2026-03-05T19:35:46Z</time>
      </trkpt>
      <trkpt lat="48.007731959223747" lon="8.623268036171794">
        <ele>850.79951500000004</ele>
        <time>2026-03-05T19:36:13Z</time>
      </trkpt>
      <trkpt lat="48.007428031414747" lon="8.623028984293342">
        <ele>850.58632</ele>
        <time>2026-03-05T19:36:47Z</time>
      </trkpt>
      <trkpt lat="48.006874993443489" lon="8.622879032045603">
        <ele>850.23747900000001</ele>
        <time>2026-03-05T19:37:47Z</time>
      </trkpt>
      <trkpt lat="48.006759993731976" lon="8.622795967385173">
        <ele>850.15821500000004</ele>
        <time>2026-03-05T19:38:00Z</time>
      </trkpt>
      <trkpt lat="48.006665026769042" lon="8.622678034007549">
        <ele>850.081548</ele>
        <time>2026-03-05T19:38:13Z</time>
      </trkpt>
      <trkpt lat="48.006523037329316" lon="8.622389025986195">
        <ele>849.93264999999997</ele>
        <time>2026-03-05T19:38:38Z</time>
      </trkpt>
      <trkpt lat="48.006322039291263" lon="8.621779996901751">
        <ele>846.42397300000005</ele>
        <time>2026-03-05T19:39:25Z</time>
      </trkpt>
      <trkpt lat="48.006138978525996" lon="8.621039036661387">
        <ele>841.97243500000002</ele>
        <time>2026-03-05T19:40:25Z</time>
      </trkpt>
      <trkpt lat="48.005934963002801" lon="8.619862971827388">
        <ele>835.12558200000001</ele>
        <time>2026-03-05T19:42:07Z</time>
      </trkpt>
      <trkpt lat="48.005991037935019" lon="8.619750989601016">
        <ele>833.88906399999996</ele>
        <time>2026-03-05T19:42:22Z</time>
      </trkpt>
      <trkpt lat="48.006015010178089" lon="8.619494000449777">
        <ele>830.86025500000005</ele>
        <time>2026-03-05T19:42:51Z</time>
      </trkpt>
      <trkpt lat="48.005819963291287" lon="8.618208970874548">
        <ele>815.48061800000005</ele>
        <time>2026-03-05T19:45:20Z</time>
      </trkpt>
      <trkpt lat="48.005850976333022" lon="8.617971008643508">
        <ele>812.65049499999998</ele>
        <time>2026-03-05T19:45:48Z</time>
      </trkpt>
      <trkpt lat="48.005945021286607" lon="8.617658028379083">
        <ele>808.64594699999998</ele>
        <time>2026-03-05T19:46:28Z</time>
      </trkpt>
      <trkpt lat="48.006132021546364" lon="8.617228036746383">
        <ele>802.65402900000004</ele>
        <time>2026-03-05T19:47:29Z</time>
      </trkpt>
      <trkpt lat="48.006745995953679" lon="8.616350032389164">
        <ele>787.70931099999996</ele>
        <time>2026-03-05T19:50:03Z</time>
      </trkpt>
      <trkpt lat="48.006936013698578" lon="8.615796994417906">
        <ele>780.39446699999996</ele>
        <time>2026-03-05T19:51:16Z</time>
      </trkpt>
      <trkpt lat="48.007101975381374" lon="8.615194000303745">
        <ele>772.72201800000005</ele>
        <time>2026-03-05T19:52:28Z</time>
      </trkpt>
      <trkpt lat="48.007147992029786" lon="8.614799967035651">
        <ele>769.70877800000005</ele>
        <time>2026-03-05T19:53:02Z</time>
      </trkpt>
      <trkpt lat="48.007166013121605" lon="8.614643979817629">
        <ele>768.691824</ele>
        <time>2026-03-05T19:53:15Z</time>
      </trkpt>
      <trkpt lat="48.007320994511247" lon="8.611326003447175">
        <ele>749.90102300000001</ele>
        <time>2026-03-05T19:57:33Z</time>
      </trkpt>
      <trkpt lat="48.007316971197724" lon="8.610558975487948">
        <ele>746.74925699999994</ele>
        <time>2026-03-05T19:58:30Z</time>
      </trkpt>
      <trkpt lat="48.00728696398437" lon="8.609952963888645">
        <ele>744.252341</ele>
        <time>2026-03-05T19:59:14Z</time>
      </trkpt>
      <trkpt lat="48.007228961214423" lon="8.609331026673317">
        <ele>742.33419000000004</ele>
        <time>2026-03-05T20:00:00Z</time>
      </trkpt>
      <trkpt lat="48.00717699341476" lon="8.608761979267001">
        <ele>740.86503700000003</ele>
        <time>2026-03-05T20:00:42Z</time>
      </trkpt>
      <trkpt lat="48.007032992318273" lon="8.60723102465272">
        <ele>736.90985599999999</ele>
        <time>2026-03-05T20:02:33Z</time>
      </trkpt>
      <trkpt lat="48.007175987586379" lon="8.607276035472751">
        <ele>736.46066900000005</ele>
        <time>2026-03-05T20:02:49Z</time>
      </trkpt>
      <trkpt lat="48.008206961676478" lon="8.607594966888428">
        <ele>734.66064900000003</ele>
        <time>2026-03-05T20:04:39Z</time>
      </trkpt>
      <trkpt lat="48.008761005476117" lon="8.607913982123137">
        <ele>733.64565200000004</ele>
        <time>2026-03-05T20:05:40Z</time>
      </trkpt>
      <trkpt lat="48.008836023509502" lon="8.607956981286407">
        <ele>733.50832000000003</ele>
        <time>2026-03-05T20:05:48Z</time>
      </trkpt>
      <trkpt lat="48.008926967158914" lon="8.607975002378225">
        <ele>733.61467000000005</ele>
        <time>2026-03-05T20:05:57Z</time>
      </trkpt>
      <trkpt lat="48.009151015430689" lon="8.607946000993252">
        <ele>734.05401600000005</ele>
        <time>2026-03-05T20:06:20Z</time>
      </trkpt>
      <trkpt lat="48.009216981008649" lon="8.607893027365208">
        <ele>734.20041600000002</ele>
        <time>2026-03-05T20:06:28Z</time>
      </trkpt>
      <trkpt lat="48.009235002100468" lon="8.607756989076734">
        <ele>734.38165200000003</ele>
        <time>2026-03-05T20:06:38Z</time>
      </trkpt>
      <trkpt lat="48.009262997657061" lon="8.607703009620309">
        <ele>734.47096599999998</ele>
        <time>2026-03-05T20:06:42Z</time>
      </trkpt>
      <trkpt lat="48.009642027318478" lon="8.60766101628542">
        <ele>735.21358299999997</ele>
        <time>2026-03-05T20:07:23Z</time>
      </trkpt>
      <trkpt lat="48.009951990097761" lon="8.607427999377251">
        <ele>735.89160700000002</ele>
        <time>2026-03-05T20:08:01Z</time>
      </trkpt>
      <trkpt lat="48.010518020018935" lon="8.607392963021994">
        <ele>737.00785699999994</ele>
        <time>2026-03-05T20:09:04Z</time>
      </trkpt>
      <trkpt lat="48.010593960061669" lon="8.607388017699122">
        <ele>737.29979000000003</ele>
        <time>2026-03-05T20:09:12Z</time>
      </trkpt>
      <trkpt lat="48.010790012776852" lon="8.607304031029344">
        <ele>738.08224800000005</ele>
        <time>2026-03-05T20:09:35Z</time>
      </trkpt>
      <trkpt lat="48.011567015200853" lon="8.607386006042361">
        <ele>741.07142199999998</ele>
        <time>2026-03-05T20:11:04Z</time>
      </trkpt>
      <trkpt lat="48.012167997658253" lon="8.609991017729044">
        <ele>747.78094099999998</ele>
        <time>2026-03-05T20:14:34Z</time>
      </trkpt>
      <trkpt lat="48.012808039784431" lon="8.609701003879309">
        <ele>750.12737500000003</ele>
        <time>2026-03-05T20:15:48Z</time>
      </trkpt>
      <trkpt lat="48.01372803747654" lon="8.609159030020237">
        <ele>753.04310999999996</ele>
        <time>2026-03-05T20:17:36Z</time>
      </trkpt>
      <trkpt lat="48.014129027724266" lon="8.609088035300374">
        <ele>754.22877300000005</ele>
        <time>2026-03-05T20:18:20Z</time>
      </trkpt>
      <trkpt lat="48.014691034331918" lon="8.609143020585179">
        <ele>755.97436000000005</ele>
        <time>2026-03-05T20:19:23Z</time>
      </trkpt>
      <trkpt lat="48.01497501321137" lon="8.609219966456294">
        <ele>757.01692600000001</ele>
        <time>2026-03-05T20:19:56Z</time>
      </trkpt>
      <trkpt lat="48.015177017077804" lon="8.609334966167808">
        <ele>757.797686</ele>
        <time>2026-03-05T20:20:21Z</time>
      </trkpt>
      <trkpt lat="48.015351025387645" lon="8.609489025548101">
        <ele>758.52807900000005</ele>
        <time>2026-03-05T20:20:44Z</time>
      </trkpt>
      <trkpt lat="48.015719996765256" lon="8.61002697609365">
        <ele>760.38988700000004</ele>
        <time>2026-03-05T20:21:43Z</time>
      </trkpt>
      <trkpt lat="48.016144959256053" lon="8.610797021538019">
        <ele>761.91511600000001</ele>
        <time>2026-03-05T20:22:58Z</time>
      </trkpt>
      <trkpt lat="48.016387028619647" lon="8.611058034002781">
        <ele>761.82986900000003</ele>
        <time>2026-03-05T20:23:30Z</time>
      </trkpt>
      <trkpt lat="48.017411967739463" lon="8.61120798625052">
        <ele>761.53565100000003</ele>
        <time>2026-03-05T20:25:15Z</time>
      </trkpt>
      <trkpt lat="48.018047986552119" lon="8.611391969025135">
        <ele>759.84188800000004</ele>
        <time>2026-03-05T20:26:24Z</time>
      </trkpt>
      <trkpt lat="48.018488958477974" lon="8.611435974016786">
        <ele>758.06908899999996</ele>
        <time>2026-03-05T20:27:12Z</time>
      </trkpt>
      <trkpt lat="48.018485018983483" lon="8.611301025375724">
        <ele>757.70653700000003</ele>
        <time>2026-03-05T20:27:22Z</time>
      </trkpt>
      <trkpt lat="48.018446965143085" lon="8.611073037609458">
        <ele>757.07612400000005</ele>
        <time>2026-03-05T20:27:40Z</time>
      </trkpt>
      <trkpt lat="48.018466997891665" lon="8.610514970496297">
        <ele>755.57689400000004</ele>
        <time>2026-03-05T20:28:20Z</time>
      </trkpt>
      <trkpt lat="48.018442019820213" lon="8.610283965244889">
        <ele>754.94907499999999</ele>
        <time>2026-03-05T20:28:38Z</time>
      </trkpt>
      <trkpt lat="48.01837001927197" lon="8.610028987750411">
        <ele>754.21833600000002</ele>
        <time>2026-03-05T20:28:58Z</time>
      </trkpt>
      <trkpt lat="48.018115041777492" lon="8.609399003908038">
        <ele>752.75906799999996</ele>
        <time>2026-03-05T20:29:51Z</time>
      </trkpt>
      <trkpt lat="48.018089979887009" lon="8.609270006418228">
        <ele>752.49291200000005</ele>
        <time>2026-03-05T20:30:01Z</time>
      </trkpt>
      <trkpt lat="48.018108000978827" lon="8.609099015593529">
        <ele>752.14986699999997</ele>
        <time>2026-03-05T20:30:14Z</time>
      </trkpt>
      <trkpt lat="48.01822199486196" lon="8.608641028404236">
        <ele>751.18143499999996</ele>
        <time>2026-03-05T20:30:48Z</time>
      </trkpt>
      <trkpt lat="48.018215037882328" lon="8.608481017872691">
        <ele>750.86368200000004</ele>
        <time>2026-03-05T20:30:59Z</time>
      </trkpt>
      <trkpt lat="48.018062990158796" lon="8.608183041214943">
        <ele>750.12102000000004</ele>
        <time>2026-03-05T20:31:26Z</time>
      </trkpt>
      <trkpt lat="48.018008004873991" lon="8.60729799605906">
        <ele>748.72207400000002</ele>
        <time>2026-03-05T20:32:27Z</time>
      </trkpt>
      <trkpt lat="48.018385022878647" lon="8.60721199773252">
        <ele>748.31901100000005</ele>
        <time>2026-03-05T20:33:07Z</time>
      </trkpt>
      <trkpt lat="48.019218016415834" lon="8.606799021363258">
        <ele>747.39146400000004</ele>
        <time>2026-03-05T20:34:36Z</time>
      </trkpt>
      <trkpt lat="48.020191993564367" lon="8.606312032788992">
        <ele>746.18645300000003</ele>
        <time>2026-03-05T20:36:20Z</time>
      </trkpt>
      <trkpt lat="48.020754000172019" lon="8.605955969542265">
        <ele>745.43366600000002</ele>
        <time>2026-03-05T20:37:23Z</time>
      </trkpt>
      <trkpt lat="48.021862003952265" lon="8.605519020929933">
        <ele>743.950108</ele>
        <time>2026-03-05T20:39:22Z</time>
      </trkpt>
      <trkpt lat="48.023049971088767" lon="8.605031026527286">
        <ele>742.25029199999994</ele>
        <time>2026-03-05T20:41:28Z</time>
      </trkpt>
      <trkpt lat="48.023362029343843" lon="8.604873027652502">
        <ele>741.59602099999995</ele>
        <time>2026-03-05T20:42:02Z</time>
      </trkpt>
      <trkpt lat="48.024040963500738" lon="8.60463397577405">
        <ele>740.21052999999995</ele>
        <time>2026-03-05T20:43:14Z</time>
      </trkpt>
      <trkpt lat="48.024640018120408" lon="8.604403976351023">
        <ele>738.98219700000004</ele>
        <time>2026-03-05T20:44:20Z</time>
      </trkpt>
      <trkpt lat="48.025083001703024" lon="8.604197027161717">
        <ele>738.69236799999999</ele>
        <time>2026-03-05T20:45:08Z</time>
      </trkpt>
      <trkpt lat="48.025167994201183" lon="8.604154027998447">
        <ele>738.66360799999995</ele>
        <time>2026-03-05T20:45:18Z</time>
      </trkpt>
      <trkpt lat="48.025333033874631" lon="8.603932997211814">
        <ele>738.59261100000003</ele>
        <time>2026-03-05T20:45:40Z</time>
      </trkpt>
      <trkpt lat="48.025713991373777" lon="8.602966982871294">
        <ele>738.35222599999997</ele>
        <time>2026-03-05T20:46:56Z</time>
      </trkpt>
      <trkpt lat="48.026358978822827" lon="8.603532006964088">
        <ele>738.23751400000003</ele>
        <time>2026-03-05T20:48:16Z</time>
      </trkpt>
      <trkpt lat="48.026839010417461" lon="8.603952024132013">
        <ele>738.23751400000003</ele>
        <time>2026-03-05T20:49:16Z</time>
      </trkpt>
      <trkpt lat="48.026930037885904" lon="8.603965016081929">
        <ele>738.23751400000003</ele>
        <time>2026-03-05T20:49:25Z</time>
      </trkpt>
      <trkpt lat="48.027291968464851" lon="8.60375395976007">
        <ele>738.23751400000003</ele>
        <time>2026-03-05T20:50:06Z</time>
      </trkpt>
    </trkseg>
  </trk>

</gpx>
