<?xml version='1.0' encoding='UTF-8'?>
<gpx version="1.1" creator="https://www.komoot.de" xmlns="http://www.topografix.com/GPX/1/1" xmlns:xsi="http://www.w3.org/2001/XMLSchema-instance" xsi:schemaLocation="http://www.topografix.com/GPX/1/1 http://www.topografix.com/GPX/1/1/gpx.xsd">
  <metadata>
    <name>Familien Rundwanderweg Hinterzarten</name>
    <author>
      <link href="https://www.komoot.de">
        <text>komoot</text>
        <type>text/html</type>
      </link>
    </author>
  </metadata>
  <trk>
    <name>Familien Rundwanderweg Hinterzarten</name>
    <trkseg>
      <trkpt lat="47.905902" lon="8.106191">
        <ele>886.357199</ele>
        <time>2021-10-27T10:52:18.000Z</time>
      </trkpt>
      <trkpt lat="47.905839" lon="8.106090">
        <ele>886.357199</ele>
        <time>2021-10-27T10:52:48.999Z</time>
      </trkpt>
      <trkpt lat="47.905772" lon="8.105985">
        <ele>886.357199</ele>
        <time>2021-10-27T10:52:58.999Z</time>
      </trkpt>
      <trkpt lat="47.905752" lon="8.105836">
        <ele>886.357199</ele>
        <time>2021-10-27T10:53:05.999Z</time>
      </trkpt>
      <trkpt lat="47.905811" lon="8.105730">
        <ele>886.357199</ele>
        <time>2021-10-27T10:53:11.999Z</time>
      </trkpt>
      <trkpt lat="47.905856" lon="8.105612">
        <ele>886.357199</ele>
        <time>2021-10-27T10:53:17.999Z</time>
      </trkpt>
      <trkpt lat="47.905881" lon="8.105472">
        <ele>886.357199</ele>
        <time>2021-10-27T10:53:30.999Z</time>
      </trkpt>
      <trkpt lat="47.905939" lon="8.105368">
        <ele>886.357199</ele>
        <time>2021-10-27T10:53:38.999Z</time>
      </trkpt>
      <trkpt lat="47.906000" lon="8.105263">
        <ele>886.357199</ele>
        <time>2021-10-27T10:53:48.000Z</time>
      </trkpt>
      <trkpt lat="47.906082" lon="8.105181">
        <ele>886.357199</ele>
        <time>2021-10-27T10:53:55.000Z</time>
      </trkpt>
      <trkpt lat="47.906165" lon="8.105107">
        <ele>886.162031</ele>
        <time>2021-10-27T10:54:00.000Z</time>
      </trkpt>
      <trkpt lat="47.906253" lon="8.105025">
        <ele>885.772098</ele>
        <time>2021-10-27T10:54:06.000Z</time>
      </trkpt>
      <trkpt lat="47.906326" lon="8.104937">
        <ele>885.419376</ele>
        <time>2021-10-27T10:54:12.999Z</time>
      </trkpt>
      <trkpt lat="47.906399" lon="8.104850">
        <ele>885.068232</ele>
        <time>2021-10-27T10:54:19.999Z</time>
      </trkpt>
      <trkpt lat="47.906468" lon="8.104754">
        <ele>884.713644</ele>
        <time>2021-10-27T10:54:28.999Z</time>
      </trkpt>
      <trkpt lat="47.906551" lon="8.104683">
        <ele>884.354074</ele>
        <time>2021-10-27T10:54:35.999Z</time>
      </trkpt>
      <trkpt lat="47.906629" lon="8.104584">
        <ele>883.969197</ele>
        <time>2021-10-27T10:54:42.999Z</time>
      </trkpt>
      <trkpt lat="47.906694" lon="8.104482">
        <ele>883.614653</ele>
        <time>2021-10-27T10:54:49.999Z</time>
      </trkpt>
      <trkpt lat="47.906778" lon="8.104410">
        <ele>883.250570</ele>
        <time>2021-10-27T10:54:56.999Z</time>
      </trkpt>
      <trkpt lat="47.906841" lon="8.104285">
        <ele>882.856590</ele>
        <time>2021-10-27T10:55:03.999Z</time>
      </trkpt>
      <trkpt lat="47.906910" lon="8.104183">
        <ele>882.491526</ele>
        <time>2021-10-27T10:55:10.999Z</time>
      </trkpt>
      <trkpt lat="47.907000" lon="8.104077">
        <ele>882.060586</ele>
        <time>2021-10-27T10:55:16.999Z</time>
      </trkpt>
      <trkpt lat="47.907083" lon="8.103988">
        <ele>881.676440</ele>
        <time>2021-10-27T10:55:21.999Z</time>
      </trkpt>
      <trkpt lat="47.907111" lon="8.103854">
        <ele>881.322846</ele>
        <time>2021-10-27T10:55:29.999Z</time>
      </trkpt>
      <trkpt lat="47.907144" lon="8.103724">
        <ele>880.972653</ele>
        <time>2021-10-27T10:55:36.999Z</time>
      </trkpt>
      <trkpt lat="47.907192" lon="8.103601">
        <ele>880.614107</ele>
        <time>2021-10-27T10:55:43.999Z</time>
      </trkpt>
      <trkpt lat="47.907229" lon="8.103463">
        <ele>880.239679</ele>
        <time>2021-10-27T10:55:50.999Z</time>
      </trkpt>
      <trkpt lat="47.907252" lon="8.103333">
        <ele>879.900968</ele>
        <time>2021-10-27T10:55:57.000Z</time>
      </trkpt>
      <trkpt lat="47.907308" lon="8.103208">
        <ele>879.614726</ele>
        <time>2021-10-27T10:56:04.000Z</time>
      </trkpt>
      <trkpt lat="47.907341" lon="8.103058">
        <ele>879.704750</ele>
        <time>2021-10-27T10:56:10.999Z</time>
      </trkpt>
      <trkpt lat="47.907344" lon="8.102906">
        <ele>879.791463</ele>
        <time>2021-10-27T10:56:17.999Z</time>
      </trkpt>
      <trkpt lat="47.907354" lon="8.102772">
        <ele>879.868346</ele>
        <time>2021-10-27T10:56:24.999Z</time>
      </trkpt>
      <trkpt lat="47.907338" lon="8.102637">
        <ele>879.946522</ele>
        <time>2021-10-27T10:56:29.999Z</time>
      </trkpt>
      <trkpt lat="47.907312" lon="8.102507">
        <ele>880.023882</ele>
        <time>2021-10-27T10:56:39.999Z</time>
      </trkpt>
      <trkpt lat="47.907223" lon="8.102468">
        <ele>880.102790</ele>
        <time>2021-10-27T10:56:47.999Z</time>
      </trkpt>
      <trkpt lat="47.907127" lon="8.102458">
        <ele>880.184654</ele>
        <time>2021-10-27T10:56:53.999Z</time>
      </trkpt>
      <trkpt lat="47.907034" lon="8.102439">
        <ele>880.264505</ele>
        <time>2021-10-27T10:56:59.999Z</time>
      </trkpt>
      <trkpt lat="47.906931" lon="8.102432">
        <ele>880.352216</ele>
        <time>2021-10-27T10:57:05.999Z</time>
      </trkpt>
      <trkpt lat="47.906829" lon="8.102405">
        <ele>880.440340</ele>
        <time>2021-10-27T10:57:11.999Z</time>
      </trkpt>
      <trkpt lat="47.906725" lon="8.102384">
        <ele>880.529617</ele>
        <time>2021-10-27T10:57:18.999Z</time>
      </trkpt>
      <trkpt lat="47.906653" lon="8.102285">
        <ele>880.612914</ele>
        <time>2021-10-27T10:57:26.999Z</time>
      </trkpt>
      <trkpt lat="47.906601" lon="8.102167">
        <ele>880.693440</ele>
        <time>2021-10-27T10:57:33.999Z</time>
      </trkpt>
      <trkpt lat="47.906513" lon="8.102089">
        <ele>880.780517</ele>
        <time>2021-10-27T10:57:42.999Z</time>
      </trkpt>
      <trkpt lat="47.906407" lon="8.102054">
        <ele>880.872871</ele>
        <time>2021-10-27T10:57:49.999Z</time>
      </trkpt>
      <trkpt lat="47.906307" lon="8.102050">
        <ele>880.957969</ele>
        <time>2021-10-27T10:57:56.999Z</time>
      </trkpt>
      <trkpt lat="47.906216" lon="8.102090">
        <ele>881.038671</ele>
        <time>2021-10-27T10:58:03.999Z</time>
      </trkpt>
      <trkpt lat="47.906141" lon="8.102184">
        <ele>881.122000</ele>
        <time>2021-10-27T10:58:10.000Z</time>
      </trkpt>
      <trkpt lat="47.906063" lon="8.102278">
        <ele>881.239286</ele>
        <time>2021-10-27T10:58:16.999Z</time>
      </trkpt>
      <trkpt lat="47.905978" lon="8.102374">
        <ele>881.366429</ele>
        <time>2021-10-27T10:58:23.999Z</time>
      </trkpt>
      <trkpt lat="47.905919" lon="8.102502">
        <ele>881.490612</ele>
        <time>2021-10-27T10:58:31.999Z</time>
      </trkpt>
      <trkpt lat="47.905861" lon="8.102614">
        <ele>881.603754</ele>
        <time>2021-10-27T10:58:37.999Z</time>
      </trkpt>
      <trkpt lat="47.905808" lon="8.102723">
        <ele>881.711402</ele>
        <time>2021-10-27T10:58:43.999Z</time>
      </trkpt>
      <trkpt lat="47.905767" lon="8.102859">
        <ele>881.830614</ele>
        <time>2021-10-27T10:58:49.999Z</time>
      </trkpt>
      <trkpt lat="47.905691" lon="8.102964">
        <ele>881.954148</ele>
        <time>2021-10-27T10:58:56.999Z</time>
      </trkpt>
      <trkpt lat="47.905616" lon="8.103062">
        <ele>882.073050</ele>
        <time>2021-10-27T10:59:14.999Z</time>
      </trkpt>
      <trkpt lat="47.905527" lon="8.103102">
        <ele>882.183900</ele>
        <time>2021-10-27T10:59:23.999Z</time>
      </trkpt>
      <trkpt lat="47.905463" lon="8.102994">
        <ele>882.299138</ele>
        <time>2021-10-27T10:59:30.999Z</time>
      </trkpt>
      <trkpt lat="47.905409" lon="8.102884">
        <ele>882.408135</ele>
        <time>2021-10-27T10:59:36.999Z</time>
      </trkpt>
      <trkpt lat="47.905342" lon="8.102778">
        <ele>882.524605</ele>
        <time>2021-10-27T10:59:43.999Z</time>
      </trkpt>
      <trkpt lat="47.905300" lon="8.102642">
        <ele>882.644312</ele>
        <time>2021-10-27T10:59:49.999Z</time>
      </trkpt>
      <trkpt lat="47.905242" lon="8.102524">
        <ele>882.761287</ele>
        <time>2021-10-27T10:59:56.999Z</time>
      </trkpt>
      <trkpt lat="47.905185" lon="8.102393">
        <ele>882.886141</ele>
        <time>2021-10-27T11:00:03.000Z</time>
      </trkpt>
      <trkpt lat="47.905131" lon="8.102253">
        <ele>883.015268</ele>
        <time>2021-10-27T11:00:10.000Z</time>
      </trkpt>
      <trkpt lat="47.905086" lon="8.102133">
        <ele>883.125191</ele>
        <time>2021-10-27T11:00:18.000Z</time>
      </trkpt>
      <trkpt lat="47.904997" lon="8.102104">
        <ele>883.233831</ele>
        <time>2021-10-27T11:00:28.000Z</time>
      </trkpt>
      <trkpt lat="47.904902" lon="8.102069">
        <ele>883.328022</ele>
        <time>2021-10-27T11:00:35.999Z</time>
      </trkpt>
      <trkpt lat="47.904816" lon="8.102000">
        <ele>883.410800</ele>
        <time>2021-10-27T11:00:42.999Z</time>
      </trkpt>
      <trkpt lat="47.904736" lon="8.101904">
        <ele>883.497834</ele>
        <time>2021-10-27T11:00:49.999Z</time>
      </trkpt>
      <trkpt lat="47.904635" lon="8.101884">
        <ele>883.584202</ele>
        <time>2021-10-27T11:00:57.999Z</time>
      </trkpt>
      <trkpt lat="47.904566" lon="8.101978">
        <ele>883.663414</ele>
        <time>2021-10-27T11:01:03.999Z</time>
      </trkpt>
      <trkpt lat="47.904491" lon="8.102057">
        <ele>883.741244</ele>
        <time>2021-10-27T11:01:10.999Z</time>
      </trkpt>
      <trkpt lat="47.904421" lon="8.102151">
        <ele>883.821084</ele>
        <time>2021-10-27T11:01:18.999Z</time>
      </trkpt>
      <trkpt lat="47.904360" lon="8.102256">
        <ele>883.900041</ele>
        <time>2021-10-27T11:01:27.999Z</time>
      </trkpt>
      <trkpt lat="47.904251" lon="8.102269">
        <ele>883.992734</ele>
        <time>2021-10-27T11:01:34.999Z</time>
      </trkpt>
      <trkpt lat="47.904187" lon="8.102172">
        <ele>884.070076</ele>
        <time>2021-10-27T11:01:41.999Z</time>
      </trkpt>
      <trkpt lat="47.904102" lon="8.102100">
        <ele>884.152936</ele>
        <time>2021-10-27T11:01:48.999Z</time>
      </trkpt>
      <trkpt lat="47.904018" lon="8.102050">
        <ele>884.229602</ele>
        <time>2021-10-27T11:02:06.000Z</time>
      </trkpt>
      <trkpt lat="47.903932" lon="8.101981">
        <ele>884.312380</ele>
        <time>2021-10-27T11:02:13.000Z</time>
      </trkpt>
      <trkpt lat="47.903835" lon="8.101963">
        <ele>884.395240</ele>
        <time>2021-10-27T11:02:20.000Z</time>
      </trkpt>
      <trkpt lat="47.903724" lon="8.101943">
        <ele>884.490018</ele>
        <time>2021-10-27T11:02:28.000Z</time>
      </trkpt>
      <trkpt lat="47.903625" lon="8.101946">
        <ele>884.573957</ele>
        <time>2021-10-27T11:02:34.000Z</time>
      </trkpt>
      <trkpt lat="47.903530" lon="8.101966">
        <ele>884.655286</ele>
        <time>2021-10-27T11:02:40.999Z</time>
      </trkpt>
      <trkpt lat="47.903457" lon="8.102051">
        <ele>884.733788</ele>
        <time>2021-10-27T11:02:48.999Z</time>
      </trkpt>
      <trkpt lat="47.903382" lon="8.102138">
        <ele>884.785248</ele>
        <time>2021-10-27T11:02:56.999Z</time>
      </trkpt>
      <trkpt lat="47.903296" lon="8.102197">
        <ele>884.727650</ele>
        <time>2021-10-27T11:03:03.999Z</time>
      </trkpt>
      <trkpt lat="47.903280" lon="8.102343">
        <ele>884.667303</ele>
        <time>2021-10-27T11:03:12.999Z</time>
      </trkpt>
      <trkpt lat="47.903298" lon="8.102489">
        <ele>884.606749</ele>
        <time>2021-10-27T11:03:19.999Z</time>
      </trkpt>
      <trkpt lat="47.903321" lon="8.102640">
        <ele>884.543583</ele>
        <time>2021-10-27T11:03:26.999Z</time>
      </trkpt>
      <trkpt lat="47.903343" lon="8.102788">
        <ele>884.481745</ele>
        <time>2021-10-27T11:03:33.999Z</time>
      </trkpt>
      <trkpt lat="47.903369" lon="8.102945">
        <ele>884.415777</ele>
        <time>2021-10-27T11:03:41.999Z</time>
      </trkpt>
      <trkpt lat="47.903329" lon="8.103070">
        <ele>884.359276</ele>
        <time>2021-10-27T11:03:49.999Z</time>
      </trkpt>
      <trkpt lat="47.903229" lon="8.103088">
        <ele>884.297987</ele>
        <time>2021-10-27T11:03:57.999Z</time>
      </trkpt>
      <trkpt lat="47.903132" lon="8.103075">
        <ele>884.238726</ele>
        <time>2021-10-27T11:04:04.999Z</time>
      </trkpt>
      <trkpt lat="47.903035" lon="8.103085">
        <ele>884.179562</ele>
        <time>2021-10-27T11:04:12.000Z</time>
      </trkpt>
      <trkpt lat="47.902945" lon="8.103126">
        <ele>884.122302</ele>
        <time>2021-10-27T11:04:19.000Z</time>
      </trkpt>
      <trkpt lat="47.902861" lon="8.103185">
        <ele>884.065807</ele>
        <time>2021-10-27T11:04:26.000Z</time>
      </trkpt>
      <trkpt lat="47.902781" lon="8.103250">
        <ele>884.010375</ele>
        <time>2021-10-27T11:04:33.000Z</time>
      </trkpt>
      <trkpt lat="47.902698" lon="8.103330">
        <ele>883.950245</ele>
        <time>2021-10-27T11:04:42.000Z</time>
      </trkpt>
      <trkpt lat="47.902607" lon="8.103381">
        <ele>883.891094</ele>
        <time>2021-10-27T11:04:49.000Z</time>
      </trkpt>
      <trkpt lat="47.902529" lon="8.103465">
        <ele>883.832556</ele>
        <time>2021-10-27T11:04:55.000Z</time>
      </trkpt>
      <trkpt lat="47.902482" lon="8.103579">
        <ele>883.777962</ele>
        <time>2021-10-27T11:05:02.999Z</time>
      </trkpt>
      <trkpt lat="47.902404" lon="8.103665">
        <ele>883.718943</ele>
        <time>2021-10-27T11:05:10.999Z</time>
      </trkpt>
      <trkpt lat="47.902314" lon="8.103705">
        <ele>883.859279</ele>
        <time>2021-10-27T11:05:15.999Z</time>
      </trkpt>
      <trkpt lat="47.902231" lon="8.103764">
        <ele>884.071782</ele>
        <time>2021-10-27T11:05:25.999Z</time>
      </trkpt>
      <trkpt lat="47.902193" lon="8.103627">
        <ele>884.301510</ele>
        <time>2021-10-27T11:05:34.999Z</time>
      </trkpt>
      <trkpt lat="47.902153" lon="8.103493">
        <ele>884.528790</ele>
        <time>2021-10-27T11:05:42.999Z</time>
      </trkpt>
      <trkpt lat="47.902116" lon="8.103357">
        <ele>884.756208</ele>
        <time>2021-10-27T11:05:49.999Z</time>
      </trkpt>
      <trkpt lat="47.902079" lon="8.103225">
        <ele>884.977896</ele>
        <time>2021-10-27T11:05:57.999Z</time>
      </trkpt>
      <trkpt lat="47.902050" lon="8.103089">
        <ele>885.199026</ele>
        <time>2021-10-27T11:06:05.999Z</time>
      </trkpt>
      <trkpt lat="47.902000" lon="8.102975">
        <ele>885.410109</ele>
        <time>2021-10-27T11:06:12.999Z</time>
      </trkpt>
      <trkpt lat="47.901960" lon="8.102842">
        <ele>885.635976</ele>
        <time>2021-10-27T11:06:19.000Z</time>
      </trkpt>
      <trkpt lat="47.901912" lon="8.102726">
        <ele>885.847195</ele>
        <time>2021-10-27T11:06:24.000Z</time>
      </trkpt>
      <trkpt lat="47.901866" lon="8.102603">
        <ele>886.065429</ele>
        <time>2021-10-27T11:06:30.000Z</time>
      </trkpt>
      <trkpt lat="47.901816" lon="8.102476">
        <ele>886.293636</ele>
        <time>2021-10-27T11:06:36.000Z</time>
      </trkpt>
      <trkpt lat="47.901777" lon="8.102349">
        <ele>886.510081</ele>
        <time>2021-10-27T11:06:42.000Z</time>
      </trkpt>
      <trkpt lat="47.901726" lon="8.102218">
        <ele>886.744806</ele>
        <time>2021-10-27T11:06:49.000Z</time>
      </trkpt>
      <trkpt lat="47.901688" lon="8.102080">
        <ele>886.975968</ele>
        <time>2021-10-27T11:06:57.000Z</time>
      </trkpt>
      <trkpt lat="47.901622" lon="8.101979">
        <ele>887.194511</ele>
        <time>2021-10-27T11:07:03.999Z</time>
      </trkpt>
      <trkpt lat="47.901528" lon="8.102027">
        <ele>887.424147</ele>
        <time>2021-10-27T11:07:11.999Z</time>
      </trkpt>
      <trkpt lat="47.901433" lon="8.102086">
        <ele>887.661987</ele>
        <time>2021-10-27T11:07:19.999Z</time>
      </trkpt>
      <trkpt lat="47.901349" lon="8.102179">
        <ele>887.840028</ele>
        <time>2021-10-27T11:07:26.999Z</time>
      </trkpt>
      <trkpt lat="47.901269" lon="8.102244">
        <ele>887.743391</ele>
        <time>2021-10-27T11:07:31.999Z</time>
      </trkpt>
      <trkpt lat="47.901198" lon="8.102355">
        <ele>887.634286</ele>
        <time>2021-10-27T11:07:37.999Z</time>
      </trkpt>
      <trkpt lat="47.901132" lon="8.102457">
        <ele>887.533471</ele>
        <time>2021-10-27T11:07:43.999Z</time>
      </trkpt>
      <trkpt lat="47.901062" lon="8.102564">
        <ele>887.427148</ele>
        <time>2021-10-27T11:07:49.999Z</time>
      </trkpt>
      <trkpt lat="47.900989" lon="8.102654">
        <ele>887.326683</ele>
        <time>2021-10-27T11:07:55.999Z</time>
      </trkpt>
      <trkpt lat="47.900913" lon="8.102756">
        <ele>887.218232</ele>
        <time>2021-10-27T11:08:02.999Z</time>
      </trkpt>
      <trkpt lat="47.900838" lon="8.102847">
        <ele>887.115674</ele>
        <time>2021-10-27T11:08:10.999Z</time>
      </trkpt>
      <trkpt lat="47.900767" lon="8.102943">
        <ele>887.014019</ele>
        <time>2021-10-27T11:08:17.999Z</time>
      </trkpt>
      <trkpt lat="47.900707" lon="8.103060">
        <ele>886.909260</ele>
        <time>2021-10-27T11:08:26.000Z</time>
      </trkpt>
      <trkpt lat="47.900643" lon="8.103154">
        <ele>886.813981</ele>
        <time>2021-10-27T11:08:34.000Z</time>
      </trkpt>
      <trkpt lat="47.900548" lon="8.103217">
        <ele>886.703694</ele>
        <time>2021-10-27T11:08:42.000Z</time>
      </trkpt>
      <trkpt lat="47.900442" lon="8.103207">
        <ele>886.591025</ele>
        <time>2021-10-27T11:08:50.000Z</time>
      </trkpt>
      <trkpt lat="47.900349" lon="8.103224">
        <ele>886.491633</ele>
        <time>2021-10-27T11:08:57.000Z</time>
      </trkpt>
      <trkpt lat="47.900259" lon="8.103252">
        <ele>886.394107</ele>
        <time>2021-10-27T11:09:03.000Z</time>
      </trkpt>
      <trkpt lat="47.900160" lon="8.103284">
        <ele>886.286651</ele>
        <time>2021-10-27T11:09:10.000Z</time>
      </trkpt>
      <trkpt lat="47.900065" lon="8.103312">
        <ele>886.183926</ele>
        <time>2021-10-27T11:09:17.000Z</time>
      </trkpt>
      <trkpt lat="47.899968" lon="8.103353">
        <ele>886.076978</ele>
        <time>2021-10-27T11:09:23.999Z</time>
      </trkpt>
      <trkpt lat="47.899880" lon="8.103410">
        <ele>885.975206</ele>
        <time>2021-10-27T11:09:29.999Z</time>
      </trkpt>
      <trkpt lat="47.899808" lon="8.103511">
        <ele>886.032662</ele>
        <time>2021-10-27T11:09:36.999Z</time>
      </trkpt>
      <trkpt lat="47.899731" lon="8.103617">
        <ele>886.142245</ele>
        <time>2021-10-27T11:09:42.999Z</time>
      </trkpt>
      <trkpt lat="47.899676" lon="8.103724">
        <ele>886.236780</ele>
        <time>2021-10-27T11:09:48.999Z</time>
      </trkpt>
      <trkpt lat="47.899625" lon="8.103848">
        <ele>886.338778</ele>
        <time>2021-10-27T11:09:54.999Z</time>
      </trkpt>
      <trkpt lat="47.899575" lon="8.103971">
        <ele>886.439634</ele>
        <time>2021-10-27T11:10:01.999Z</time>
      </trkpt>
      <trkpt lat="47.899551" lon="8.104118">
        <ele>886.545714</ele>
        <time>2021-10-27T11:10:08.999Z</time>
      </trkpt>
      <trkpt lat="47.899572" lon="8.104272">
        <ele>886.655902</ele>
        <time>2021-10-27T11:10:15.999Z</time>
      </trkpt>
      <trkpt lat="47.899607" lon="8.104399">
        <ele>886.752177</ele>
        <time>2021-10-27T11:10:22.999Z</time>
      </trkpt>
      <trkpt lat="47.899590" lon="8.104543">
        <ele>886.854695</ele>
        <time>2021-10-27T11:10:30.000Z</time>
      </trkpt>
      <trkpt lat="47.899492" lon="8.104538">
        <ele>886.957245</ele>
        <time>2021-10-27T11:10:37.000Z</time>
      </trkpt>
      <trkpt lat="47.899395" lon="8.104499">
        <ele>887.062310</ele>
        <time>2021-10-27T11:10:43.000Z</time>
      </trkpt>
      <trkpt lat="47.899309" lon="8.104435">
        <ele>887.162822</ele>
        <time>2021-10-27T11:10:52.000Z</time>
      </trkpt>
      <trkpt lat="47.899218" lon="8.104378">
        <ele>887.266042</ele>
        <time>2021-10-27T11:11:00.000Z</time>
      </trkpt>
      <trkpt lat="47.899138" lon="8.104315">
        <ele>887.360652</ele>
        <time>2021-10-27T11:11:07.000Z</time>
      </trkpt>
      <trkpt lat="47.899053" lon="8.104246">
        <ele>887.461859</ele>
        <time>2021-10-27T11:11:12.999Z</time>
      </trkpt>
      <trkpt lat="47.898962" lon="8.104195">
        <ele>887.563524</ele>
        <time>2021-10-27T11:11:19.999Z</time>
      </trkpt>
      <trkpt lat="47.898869" lon="8.104115">
        <ele>887.675800</ele>
        <time>2021-10-27T11:11:26.999Z</time>
      </trkpt>
      <trkpt lat="47.898782" lon="8.104063">
        <ele>887.773819</ele>
        <time>2021-10-27T11:11:32.999Z</time>
      </trkpt>
      <trkpt lat="47.898698" lon="8.104009">
        <ele>887.875188</ele>
        <time>2021-10-27T11:11:38.999Z</time>
      </trkpt>
      <trkpt lat="47.898623" lon="8.103925">
        <ele>887.988680</ele>
        <time>2021-10-27T11:11:50.999Z</time>
      </trkpt>
      <trkpt lat="47.898534" lon="8.103945">
        <ele>888.097591</ele>
        <time>2021-10-27T11:12:11.999Z</time>
      </trkpt>
      <trkpt lat="47.898441" lon="8.103983">
        <ele>888.214273</ele>
        <time>2021-10-27T11:12:18.999Z</time>
      </trkpt>
      <trkpt lat="47.898348" lon="8.104014">
        <ele>888.329584</ele>
        <time>2021-10-27T11:12:24.999Z</time>
      </trkpt>
      <trkpt lat="47.898254" lon="8.104036">
        <ele>888.444722</ele>
        <time>2021-10-27T11:12:30.999Z</time>
      </trkpt>
      <trkpt lat="47.898165" lon="8.104070">
        <ele>888.555894</ele>
        <time>2021-10-27T11:12:37.000Z</time>
      </trkpt>
      <trkpt lat="47.898073" lon="8.104087">
        <ele>888.668070</ele>
        <time>2021-10-27T11:12:43.000Z</time>
      </trkpt>
      <trkpt lat="47.897975" lon="8.104114">
        <ele>888.788662</ele>
        <time>2021-10-27T11:12:50.000Z</time>
      </trkpt>
      <trkpt lat="47.897884" lon="8.104139">
        <ele>888.900630</ele>
        <time>2021-10-27T11:12:57.000Z</time>
      </trkpt>
      <trkpt lat="47.897799" lon="8.104224">
        <ele>889.024463</ele>
        <time>2021-10-27T11:13:04.000Z</time>
      </trkpt>
      <trkpt lat="47.897747" lon="8.104366">
        <ele>889.155730</ele>
        <time>2021-10-27T11:13:11.000Z</time>
      </trkpt>
      <trkpt lat="47.897699" lon="8.104508">
        <ele>889.284748</ele>
        <time>2021-10-27T11:13:17.999Z</time>
      </trkpt>
      <trkpt lat="47.897677" lon="8.104646">
        <ele>889.399828</ele>
        <time>2021-10-27T11:13:23.999Z</time>
      </trkpt>
      <trkpt lat="47.897646" lon="8.104791">
        <ele>889.523301</ele>
        <time>2021-10-27T11:13:29.999Z</time>
      </trkpt>
      <trkpt lat="47.897619" lon="8.104930">
        <ele>889.640708</ele>
        <time>2021-10-27T11:13:35.999Z</time>
      </trkpt>
      <trkpt lat="47.897594" lon="8.105071">
        <ele>889.759033</ele>
        <time>2021-10-27T11:13:41.999Z</time>
      </trkpt>
      <trkpt lat="47.897586" lon="8.105207">
        <ele>889.869793</ele>
        <time>2021-10-27T11:13:49.999Z</time>
      </trkpt>
      <trkpt lat="47.897568" lon="8.105348">
        <ele>889.986241</ele>
        <time>2021-10-27T11:14:06.999Z</time>
      </trkpt>
      <trkpt lat="47.897539" lon="8.105501">
        <ele>890.674619</ele>
        <time>2021-10-27T11:14:14.999Z</time>
      </trkpt>
      <trkpt lat="47.897504" lon="8.105630">
        <ele>891.385374</ele>
        <time>2021-10-27T11:14:20.999Z</time>
      </trkpt>
      <trkpt lat="47.897464" lon="8.105770">
        <ele>892.162626</ele>
        <time>2021-10-27T11:14:27.999Z</time>
      </trkpt>
      <trkpt lat="47.897426" lon="8.105901">
        <ele>892.891630</ele>
        <time>2021-10-27T11:14:33.999Z</time>
      </trkpt>
      <trkpt lat="47.897395" lon="8.106036">
        <ele>893.620447</ele>
        <time>2021-10-27T11:14:41.000Z</time>
      </trkpt>
      <trkpt lat="47.897302" lon="8.106066">
        <ele>894.345277</ele>
        <time>2021-10-27T11:14:50.000Z</time>
      </trkpt>
      <trkpt lat="47.897216" lon="8.106001">
        <ele>895.079717</ele>
        <time>2021-10-27T11:14:57.000Z</time>
      </trkpt>
      <trkpt lat="47.897120" lon="8.105940">
        <ele>895.874619</ele>
        <time>2021-10-27T11:15:04.000Z</time>
      </trkpt>
      <trkpt lat="47.897032" lon="8.105878">
        <ele>896.616008</ele>
        <time>2021-10-27T11:15:10.999Z</time>
      </trkpt>
      <trkpt lat="47.896936" lon="8.105872">
        <ele>897.347953</ele>
        <time>2021-10-27T11:15:17.999Z</time>
      </trkpt>
      <trkpt lat="47.896896" lon="8.106000">
        <ele>898.069229</ele>
        <time>2021-10-27T11:15:25.999Z</time>
      </trkpt>
      <trkpt lat="47.896859" lon="8.106139">
        <ele>898.833069</ele>
        <time>2021-10-27T11:15:32.999Z</time>
      </trkpt>
      <trkpt lat="47.896798" lon="8.106239">
        <ele>899.523569</ele>
        <time>2021-10-27T11:15:38.999Z</time>
      </trkpt>
      <trkpt lat="47.896706" lon="8.106271">
        <ele>900.243206</ele>
        <time>2021-10-27T11:15:45.999Z</time>
      </trkpt>
      <trkpt lat="47.896615" lon="8.106264">
        <ele>900.937342</ele>
        <time>2021-10-27T11:15:52.999Z</time>
      </trkpt>
      <trkpt lat="47.896525" lon="8.106294">
        <ele>901.639852</ele>
        <time>2021-10-27T11:16:02.999Z</time>
      </trkpt>
      <trkpt lat="47.896436" lon="8.106315">
        <ele>902.326262</ele>
        <time>2021-10-27T11:16:11.999Z</time>
      </trkpt>
      <trkpt lat="47.896464" lon="8.106456">
        <ele>903.077341</ele>
        <time>2021-10-27T11:16:41.999Z</time>
      </trkpt>
      <trkpt lat="47.896538" lon="8.106556">
        <ele>903.687976</ele>
        <time>2021-10-27T11:16:50.000Z</time>
      </trkpt>
      <trkpt lat="47.896622" lon="8.106641">
        <ele>903.546409</ele>
        <time>2021-10-27T11:16:57.000Z</time>
      </trkpt>
      <trkpt lat="47.896709" lon="8.106685">
        <ele>903.418290</ele>
        <time>2021-10-27T11:17:05.000Z</time>
      </trkpt>
      <trkpt lat="47.896807" lon="8.106738">
        <ele>903.272907</ele>
        <time>2021-10-27T11:17:12.999Z</time>
      </trkpt>
      <trkpt lat="47.896896" lon="8.106771">
        <ele>903.145007</ele>
        <time>2021-10-27T11:17:19.999Z</time>
      </trkpt>
      <trkpt lat="47.896996" lon="8.106785">
        <ele>903.004930</ele>
        <time>2021-10-27T11:17:27.999Z</time>
      </trkpt>
      <trkpt lat="47.897081" lon="8.106847">
        <ele>902.872969</ele>
        <time>2021-10-27T11:17:35.999Z</time>
      </trkpt>
      <trkpt lat="47.897173" lon="8.106869">
        <ele>902.743023</ele>
        <time>2021-10-27T11:17:42.000Z</time>
      </trkpt>
      <trkpt lat="47.897263" lon="8.106897">
        <ele>902.614804</ele>
        <time>2021-10-27T11:17:48.000Z</time>
      </trkpt>
      <trkpt lat="47.897360" lon="8.106931">
        <ele>902.475839</ele>
        <time>2021-10-27T11:17:55.000Z</time>
      </trkpt>
      <trkpt lat="47.897447" lon="8.107000">
        <ele>902.338418</ele>
        <time>2021-10-27T11:18:01.000Z</time>
      </trkpt>
      <trkpt lat="47.897536" lon="8.107044">
        <ele>902.207655</ele>
        <time>2021-10-27T11:18:07.000Z</time>
      </trkpt>
      <trkpt lat="47.897628" lon="8.107094">
        <ele>902.071095</ele>
        <time>2021-10-27T11:18:14.000Z</time>
      </trkpt>
      <trkpt lat="47.897732" lon="8.107098">
        <ele>901.926005</ele>
        <time>2021-10-27T11:18:20.000Z</time>
      </trkpt>
      <trkpt lat="47.897813" lon="8.107168">
        <ele>901.795447</ele>
        <time>2021-10-27T11:18:28.000Z</time>
      </trkpt>
      <trkpt lat="47.897916" lon="8.107214">
        <ele>901.645498</ele>
        <time>2021-10-27T11:18:37.000Z</time>
      </trkpt>
      <trkpt lat="47.897998" lon="8.107307">
        <ele>901.501831</ele>
        <time>2021-10-27T11:18:46.000Z</time>
      </trkpt>
      <trkpt lat="47.898075" lon="8.107389">
        <ele>901.369881</ele>
        <time>2021-10-27T11:18:54.000Z</time>
      </trkpt>
      <trkpt lat="47.898143" lon="8.107501">
        <ele>901.228598</ele>
        <time>2021-10-27T11:19:01.001Z</time>
      </trkpt>
      <trkpt lat="47.898226" lon="8.107575">
        <ele>901.289938</ele>
        <time>2021-10-27T11:19:06.001Z</time>
      </trkpt>
      <trkpt lat="47.898303" lon="8.107662">
        <ele>901.397716</ele>
        <time>2021-10-27T11:19:11.001Z</time>
      </trkpt>
      <trkpt lat="47.898376" lon="8.107761">
        <ele>901.507799</ele>
        <time>2021-10-27T11:19:17.000Z</time>
      </trkpt>
      <trkpt lat="47.898458" lon="8.107837">
        <ele>901.615514</ele>
        <time>2021-10-27T11:19:23.000Z</time>
      </trkpt>
      <trkpt lat="47.898528" lon="8.107938">
        <ele>901.724178</ele>
        <time>2021-10-27T11:19:33.000Z</time>
      </trkpt>
      <trkpt lat="47.898604" lon="8.108011">
        <ele>901.825036</ele>
        <time>2021-10-27T11:19:39.000Z</time>
      </trkpt>
      <trkpt lat="47.898663" lon="8.108136">
        <ele>901.939389</ele>
        <time>2021-10-27T11:19:45.000Z</time>
      </trkpt>
      <trkpt lat="47.898728" lon="8.108261">
        <ele>902.057721</ele>
        <time>2021-10-27T11:19:52.000Z</time>
      </trkpt>
      <trkpt lat="47.898823" lon="8.108301">
        <ele>902.167858</ele>
        <time>2021-10-27T11:19:59.000Z</time>
      </trkpt>
      <trkpt lat="47.898916" lon="8.108343">
        <ele>902.276274</ele>
        <time>2021-10-27T11:20:06.000Z</time>
      </trkpt>
      <trkpt lat="47.899011" lon="8.108368">
        <ele>902.383906</ele>
        <time>2021-10-27T11:20:12.000Z</time>
      </trkpt>
      <trkpt lat="47.899105" lon="8.108391">
        <ele>902.490186</ele>
        <time>2021-10-27T11:20:18.000Z</time>
      </trkpt>
      <trkpt lat="47.899191" lon="8.108437">
        <ele>902.592123</ele>
        <time>2021-10-27T11:20:24.000Z</time>
      </trkpt>
      <trkpt lat="47.899293" lon="8.108492">
        <ele>902.713136</ele>
        <time>2021-10-27T11:20:32.000Z</time>
      </trkpt>
      <trkpt lat="47.899365" lon="8.108595">
        <ele>902.824445</ele>
        <time>2021-10-27T11:20:40.000Z</time>
      </trkpt>
      <trkpt lat="47.899424" lon="8.108708">
        <ele>902.931581</ele>
        <time>2021-10-27T11:20:47.000Z</time>
      </trkpt>
      <trkpt lat="47.899490" lon="8.108824">
        <ele>903.045387</ele>
        <time>2021-10-27T11:20:55.000Z</time>
      </trkpt>
      <trkpt lat="47.899568" lon="8.108922">
        <ele>903.159174</ele>
        <time>2021-10-27T11:21:02.000Z</time>
      </trkpt>
      <trkpt lat="47.899616" lon="8.109050">
        <ele>903.277068</ele>
        <time>2021-10-27T11:21:10.000Z</time>
      </trkpt>
      <trkpt lat="47.899677" lon="8.109156">
        <ele>903.395980</ele>
        <time>2021-10-27T11:21:17.000Z</time>
      </trkpt>
      <trkpt lat="47.899729" lon="8.109290">
        <ele>903.527774</ele>
        <time>2021-10-27T11:21:26.000Z</time>
      </trkpt>
      <trkpt lat="47.899738" lon="8.109442">
        <ele>903.657664</ele>
        <time>2021-10-27T11:21:35.000Z</time>
      </trkpt>
      <trkpt lat="47.899779" lon="8.109565">
        <ele>903.774592</ele>
        <time>2021-10-27T11:21:42.000Z</time>
      </trkpt>
      <trkpt lat="47.899785" lon="8.109705">
        <ele>903.894007</ele>
        <time>2021-10-27T11:21:49.000Z</time>
      </trkpt>
      <trkpt lat="47.899829" lon="8.109836">
        <ele>904.018729</ele>
        <time>2021-10-27T11:21:57.000Z</time>
      </trkpt>
      <trkpt lat="47.899875" lon="8.109975">
        <ele>904.150679</ele>
        <time>2021-10-27T11:22:04.000Z</time>
      </trkpt>
      <trkpt lat="47.899926" lon="8.110090">
        <ele>904.268048</ele>
        <time>2021-10-27T11:22:11.000Z</time>
      </trkpt>
      <trkpt lat="47.899986" lon="8.110200">
        <ele>904.388758</ele>
        <time>2021-10-27T11:22:19.000Z</time>
      </trkpt>
      <trkpt lat="47.900028" lon="8.110324">
        <ele>904.507015</ele>
        <time>2021-10-27T11:22:26.000Z</time>
      </trkpt>
      <trkpt lat="47.900081" lon="8.110450">
        <ele>904.633631</ele>
        <time>2021-10-27T11:22:32.000Z</time>
      </trkpt>
      <trkpt lat="47.900148" lon="8.110559">
        <ele>904.759509</ele>
        <time>2021-10-27T11:22:38.000Z</time>
      </trkpt>
      <trkpt lat="47.900235" lon="8.110594">
        <ele>904.873918</ele>
        <time>2021-10-27T11:22:44.000Z</time>
      </trkpt>
      <trkpt lat="47.900323" lon="8.110619">
        <ele>904.987658</ele>
        <time>2021-10-27T11:22:50.000Z</time>
      </trkpt>
      <trkpt lat="47.900408" lon="8.110672">
        <ele>905.104630</ele>
        <time>2021-10-27T11:23:31.000Z</time>
      </trkpt>
      <trkpt lat="47.900490" lon="8.110752">
        <ele>905.229035</ele>
        <time>2021-10-27T11:23:37.000Z</time>
      </trkpt>
      <trkpt lat="47.900546" lon="8.110875">
        <ele>905.355595</ele>
        <time>2021-10-27T11:23:44.000Z</time>
      </trkpt>
      <trkpt lat="47.900545" lon="8.111010">
        <ele>905.470516</ele>
        <time>2021-10-27T11:23:51.000Z</time>
      </trkpt>
      <trkpt lat="47.900490" lon="8.111133">
        <ele>905.728508</ele>
        <time>2021-10-27T11:23:59.000Z</time>
      </trkpt>
      <trkpt lat="47.900416" lon="8.111226">
        <ele>906.008783</ele>
        <time>2021-10-27T11:24:06.000Z</time>
      </trkpt>
      <trkpt lat="47.900339" lon="8.111306">
        <ele>906.280580</ele>
        <time>2021-10-27T11:24:13.000Z</time>
      </trkpt>
      <trkpt lat="47.900264" lon="8.111391">
        <ele>906.553407</ele>
        <time>2021-10-27T11:24:21.000Z</time>
      </trkpt>
      <trkpt lat="47.900195" lon="8.111493">
        <ele>906.834785</ele>
        <time>2021-10-27T11:24:44.000Z</time>
      </trkpt>
      <trkpt lat="47.900133" lon="8.111594">
        <ele>907.100708</ele>
        <time>2021-10-27T11:24:51.000Z</time>
      </trkpt>
      <trkpt lat="47.900078" lon="8.111707">
        <ele>907.371867</ele>
        <time>2021-10-27T11:24:58.000Z</time>
      </trkpt>
      <trkpt lat="47.900026" lon="8.111836">
        <ele>907.664160</ele>
        <time>2021-10-27T11:25:05.000Z</time>
      </trkpt>
      <trkpt lat="47.899977" lon="8.111964">
        <ele>907.950384</ele>
        <time>2021-10-27T11:25:12.000Z</time>
      </trkpt>
      <trkpt lat="47.899933" lon="8.112101">
        <ele>908.245370</ele>
        <time>2021-10-27T11:25:20.000Z</time>
      </trkpt>
      <trkpt lat="47.899948" lon="8.112248">
        <ele>908.534111</ele>
        <time>2021-10-27T11:25:28.000Z</time>
      </trkpt>
      <trkpt lat="47.899970" lon="8.112398">
        <ele>908.832279</ele>
        <time>2021-10-27T11:25:35.000Z</time>
      </trkpt>
      <trkpt lat="47.899986" lon="8.112533">
        <ele>909.098495</ele>
        <time>2021-10-27T11:25:41.000Z</time>
      </trkpt>
      <trkpt lat="47.900025" lon="8.112663">
        <ele>909.375058</ele>
        <time>2021-10-27T11:25:48.000Z</time>
      </trkpt>
      <trkpt lat="47.900089" lon="8.112780">
        <ele>909.668285</ele>
        <time>2021-10-27T11:25:55.000Z</time>
      </trkpt>
      <trkpt lat="47.900159" lon="8.112886">
        <ele>909.957209</ele>
        <time>2021-10-27T11:26:02.000Z</time>
      </trkpt>
      <trkpt lat="47.900235" lon="8.113003">
        <ele>910.273556</ele>
        <time>2021-10-27T11:26:09.000Z</time>
      </trkpt>
      <trkpt lat="47.900297" lon="8.113118">
        <ele>910.560118</ele>
        <time>2021-10-27T11:26:16.000Z</time>
      </trkpt>
      <trkpt lat="47.900370" lon="8.113226">
        <ele>910.418388</ele>
        <time>2021-10-27T11:26:23.000Z</time>
      </trkpt>
      <trkpt lat="47.900431" lon="8.113329">
        <ele>909.928508</ele>
        <time>2021-10-27T11:26:29.000Z</time>
      </trkpt>
      <trkpt lat="47.900515" lon="8.113386">
        <ele>909.437851</ele>
        <time>2021-10-27T11:26:36.000Z</time>
      </trkpt>
      <trkpt lat="47.900599" lon="8.113335">
        <ele>908.955658</ele>
        <time>2021-10-27T11:26:42.000Z</time>
      </trkpt>
      <trkpt lat="47.900695" lon="8.113289">
        <ele>908.419554</ele>
        <time>2021-10-27T11:26:48.000Z</time>
      </trkpt>
      <trkpt lat="47.900796" lon="8.113287">
        <ele>907.882508</ele>
        <time>2021-10-27T11:26:54.000Z</time>
      </trkpt>
      <trkpt lat="47.900893" lon="8.113340">
        <ele>907.333264</ele>
        <time>2021-10-27T11:27:01.000Z</time>
      </trkpt>
      <trkpt lat="47.900977" lon="8.113416">
        <ele>906.810914</ele>
        <time>2021-10-27T11:27:08.000Z</time>
      </trkpt>
      <trkpt lat="47.901059" lon="8.113482">
        <ele>906.315513</ele>
        <time>2021-10-27T11:27:14.000Z</time>
      </trkpt>
      <trkpt lat="47.901149" lon="8.113540">
        <ele>905.794248</ele>
        <time>2021-10-27T11:27:22.000Z</time>
      </trkpt>
      <trkpt lat="47.901227" lon="8.113611">
        <ele>905.308416</ele>
        <time>2021-10-27T11:27:30.001Z</time>
      </trkpt>
      <trkpt lat="47.901319" lon="8.113671">
        <ele>904.774558</ele>
        <time>2021-10-27T11:27:37.000Z</time>
      </trkpt>
      <trkpt lat="47.901424" lon="8.113709">
        <ele>904.200095</ele>
        <time>2021-10-27T11:27:45.000Z</time>
      </trkpt>
      <trkpt lat="47.901514" lon="8.113710">
        <ele>903.721569</ele>
        <time>2021-10-27T11:27:52.000Z</time>
      </trkpt>
      <trkpt lat="47.901607" lon="8.113666">
        <ele>903.202828</ele>
        <time>2021-10-27T11:27:59.000Z</time>
      </trkpt>
      <trkpt lat="47.901692" lon="8.113603">
        <ele>902.698182</ele>
        <time>2021-10-27T11:28:05.000Z</time>
      </trkpt>
      <trkpt lat="47.901772" lon="8.113531">
        <ele>902.201411</ele>
        <time>2021-10-27T11:28:12.000Z</time>
      </trkpt>
      <trkpt lat="47.901869" lon="8.113467">
        <ele>901.637480</ele>
        <time>2021-10-27T11:28:18.000Z</time>
      </trkpt>
      <trkpt lat="47.901942" lon="8.113385">
        <ele>901.151608</ele>
        <time>2021-10-27T11:28:24.000Z</time>
      </trkpt>
      <trkpt lat="47.902027" lon="8.113294">
        <ele>900.496175</ele>
        <time>2021-10-27T11:28:31.000Z</time>
      </trkpt>
      <trkpt lat="47.902106" lon="8.113197">
        <ele>899.853091</ele>
        <time>2021-10-27T11:28:38.000Z</time>
      </trkpt>
      <trkpt lat="47.902177" lon="8.113105">
        <ele>899.262007</ele>
        <time>2021-10-27T11:28:44.000Z</time>
      </trkpt>
      <trkpt lat="47.902239" lon="8.112985">
        <ele>898.623667</ele>
        <time>2021-10-27T11:28:51.000Z</time>
      </trkpt>
      <trkpt lat="47.902302" lon="8.112866">
        <ele>897.984784</ele>
        <time>2021-10-27T11:28:58.000Z</time>
      </trkpt>
      <trkpt lat="47.902355" lon="8.112750">
        <ele>897.393315</ele>
        <time>2021-10-27T11:29:05.000Z</time>
      </trkpt>
      <trkpt lat="47.902414" lon="8.112631">
        <ele>896.769700</ele>
        <time>2021-10-27T11:29:12.000Z</time>
      </trkpt>
      <trkpt lat="47.902488" lon="8.112554">
        <ele>896.202639</ele>
        <time>2021-10-27T11:29:18.000Z</time>
      </trkpt>
      <trkpt lat="47.902576" lon="8.112493">
        <ele>895.592765</ele>
        <time>2021-10-27T11:29:25.001Z</time>
      </trkpt>
      <trkpt lat="47.902669" lon="8.112507">
        <ele>895.005299</ele>
        <time>2021-10-27T11:29:33.001Z</time>
      </trkpt>
      <trkpt lat="47.902753" lon="8.112566">
        <ele>894.421767</ele>
        <time>2021-10-27T11:29:40.001Z</time>
      </trkpt>
      <trkpt lat="47.902831" lon="8.112638">
        <ele>893.845271</ele>
        <time>2021-10-27T11:29:48.000Z</time>
      </trkpt>
      <trkpt lat="47.902925" lon="8.112689">
        <ele>893.216624</ele>
        <time>2021-10-27T11:29:56.000Z</time>
      </trkpt>
      <trkpt lat="47.903007" lon="8.112751">
        <ele>892.638836</ele>
        <time>2021-10-27T11:30:03.000Z</time>
      </trkpt>
      <trkpt lat="47.903109" lon="8.112816">
        <ele>891.941725</ele>
        <time>2021-10-27T11:30:11.000Z</time>
      </trkpt>
      <trkpt lat="47.903203" lon="8.112862">
        <ele>891.319964</ele>
        <time>2021-10-27T11:30:17.000Z</time>
      </trkpt>
      <trkpt lat="47.903284" lon="8.112928">
        <ele>890.739887</ele>
        <time>2021-10-27T11:30:26.000Z</time>
      </trkpt>
      <trkpt lat="47.903356" lon="8.113017">
        <ele>890.152195</ele>
        <time>2021-10-27T11:30:33.000Z</time>
      </trkpt>
      <trkpt lat="47.903432" lon="8.113092">
        <ele>889.806339</ele>
        <time>2021-10-27T11:30:39.000Z</time>
      </trkpt>
      <trkpt lat="47.903508" lon="8.113167">
        <ele>889.741039</ele>
        <time>2021-10-27T11:30:45.000Z</time>
      </trkpt>
      <trkpt lat="47.903591" lon="8.113235">
        <ele>889.673182</ele>
        <time>2021-10-27T11:30:51.000Z</time>
      </trkpt>
      <trkpt lat="47.903680" lon="8.113288">
        <ele>889.604512</ele>
        <time>2021-10-27T11:30:58.000Z</time>
      </trkpt>
      <trkpt lat="47.903757" lon="8.113361">
        <ele>889.539134</ele>
        <time>2021-10-27T11:31:04.000Z</time>
      </trkpt>
      <trkpt lat="47.903825" lon="8.113451">
        <ele>889.473991</ele>
        <time>2021-10-27T11:31:11.000Z</time>
      </trkpt>
      <trkpt lat="47.903907" lon="8.113540">
        <ele>889.401323</ele>
        <time>2021-10-27T11:31:18.000Z</time>
      </trkpt>
      <trkpt lat="47.903994" lon="8.113612">
        <ele>889.330028</ele>
        <time>2021-10-27T11:31:25.000Z</time>
      </trkpt>
      <trkpt lat="47.904066" lon="8.113695">
        <ele>889.264823</ele>
        <time>2021-10-27T11:31:32.000Z</time>
      </trkpt>
      <trkpt lat="47.904159" lon="8.113744">
        <ele>889.194145</ele>
        <time>2021-10-27T11:31:40.000Z</time>
      </trkpt>
      <trkpt lat="47.904238" lon="8.113809">
        <ele>889.129495</ele>
        <time>2021-10-27T11:31:47.000Z</time>
      </trkpt>
      <trkpt lat="47.904322" lon="8.113906">
        <ele>889.053373</ele>
        <time>2021-10-27T11:31:55.000Z</time>
      </trkpt>
      <trkpt lat="47.904423" lon="8.113985">
        <ele>888.971652</ele>
        <time>2021-10-27T11:32:02.000Z</time>
      </trkpt>
      <trkpt lat="47.904483" lon="8.114094">
        <ele>888.903901</ele>
        <time>2021-10-27T11:32:09.000Z</time>
      </trkpt>
      <trkpt lat="47.904550" lon="8.114188">
        <ele>888.837991</ele>
        <time>2021-10-27T11:32:15.000Z</time>
      </trkpt>
      <trkpt lat="47.904612" lon="8.114287">
        <ele>888.772910</ele>
        <time>2021-10-27T11:32:22.000Z</time>
      </trkpt>
      <trkpt lat="47.904677" lon="8.114398">
        <ele>888.702109</ele>
        <time>2021-10-27T11:32:29.000Z</time>
      </trkpt>
      <trkpt lat="47.904730" lon="8.114523">
        <ele>888.631060</ele>
        <time>2021-10-27T11:32:36.000Z</time>
      </trkpt>
      <trkpt lat="47.904774" lon="8.114642">
        <ele>888.565776</ele>
        <time>2021-10-27T11:32:43.000Z</time>
      </trkpt>
      <trkpt lat="47.904806" lon="8.114771">
        <ele>888.600753</ele>
        <time>2021-10-27T11:32:49.000Z</time>
      </trkpt>
      <trkpt lat="47.904869" lon="8.114897">
        <ele>888.687764</ele>
        <time>2021-10-27T11:32:56.000Z</time>
      </trkpt>
      <trkpt lat="47.904885" lon="8.115056">
        <ele>888.776764</ele>
        <time>2021-10-27T11:33:03.000Z</time>
      </trkpt>
      <trkpt lat="47.904901" lon="8.115203">
        <ele>888.859202</ele>
        <time>2021-10-27T11:33:19.000Z</time>
      </trkpt>
      <trkpt lat="47.904933" lon="8.115330">
        <ele>888.934304</ele>
        <time>2021-10-27T11:33:26.000Z</time>
      </trkpt>
      <trkpt lat="47.904985" lon="8.115461">
        <ele>889.018579</ele>
        <time>2021-10-27T11:33:34.001Z</time>
      </trkpt>
      <trkpt lat="47.905028" lon="8.115595">
        <ele>889.100815</ele>
        <time>2021-10-27T11:33:43.001Z</time>
      </trkpt>
      <trkpt lat="47.905072" lon="8.115729">
        <ele>889.183410</ele>
        <time>2021-10-27T11:33:52.000Z</time>
      </trkpt>
      <trkpt lat="47.905122" lon="8.115864">
        <ele>889.268786</ele>
        <time>2021-10-27T11:34:00.000Z</time>
      </trkpt>
      <trkpt lat="47.905189" lon="8.115960">
        <ele>889.345498</ele>
        <time>2021-10-27T11:34:06.000Z</time>
      </trkpt>
      <trkpt lat="47.905270" lon="8.116035">
        <ele>889.424221</ele>
        <time>2021-10-27T11:34:12.000Z</time>
      </trkpt>
      <trkpt lat="47.905361" lon="8.116098">
        <ele>889.507062</ele>
        <time>2021-10-27T11:34:19.000Z</time>
      </trkpt>
      <trkpt lat="47.905448" lon="8.116144">
        <ele>889.583280</ele>
        <time>2021-10-27T11:34:26.000Z</time>
      </trkpt>
      <trkpt lat="47.905540" lon="8.116176">
        <ele>889.661287</ele>
        <time>2021-10-27T11:34:31.000Z</time>
      </trkpt>
      <trkpt lat="47.905651" lon="8.116220">
        <ele>889.756125</ele>
        <time>2021-10-27T11:34:38.000Z</time>
      </trkpt>
      <trkpt lat="47.905749" lon="8.116255">
        <ele>889.839335</ele>
        <time>2021-10-27T11:34:44.000Z</time>
      </trkpt>
      <trkpt lat="47.905852" lon="8.116284">
        <ele>889.925889</ele>
        <time>2021-10-27T11:34:50.000Z</time>
      </trkpt>
      <trkpt lat="47.905941" lon="8.116328">
        <ele>890.003311</ele>
        <time>2021-10-27T11:34:55.000Z</time>
      </trkpt>
      <trkpt lat="47.906039" lon="8.116347">
        <ele>890.048972</ele>
        <time>2021-10-27T11:35:01.000Z</time>
      </trkpt>
      <trkpt lat="47.906139" lon="8.116366">
        <ele>890.075807</ele>
        <time>2021-10-27T11:35:07.000Z</time>
      </trkpt>
      <trkpt lat="47.906225" lon="8.116404">
        <ele>890.099683</ele>
        <time>2021-10-27T11:35:14.000Z</time>
      </trkpt>
      <trkpt lat="47.906317" lon="8.116423">
        <ele>890.124407</ele>
        <time>2021-10-27T11:35:20.000Z</time>
      </trkpt>
      <trkpt lat="47.906408" lon="8.116438">
        <ele>890.148778</ele>
        <time>2021-10-27T11:35:26.000Z</time>
      </trkpt>
      <trkpt lat="47.906501" lon="8.116444">
        <ele>890.173558</ele>
        <time>2021-10-27T11:35:32.000Z</time>
      </trkpt>
      <trkpt lat="47.906599" lon="8.116487">
        <ele>890.200751</ele>
        <time>2021-10-27T11:35:38.000Z</time>
      </trkpt>
      <trkpt lat="47.906698" lon="8.116507">
        <ele>890.227345</ele>
        <time>2021-10-27T11:35:45.000Z</time>
      </trkpt>
      <trkpt lat="47.906801" lon="8.116523">
        <ele>890.254912</ele>
        <time>2021-10-27T11:35:52.000Z</time>
      </trkpt>
      <trkpt lat="47.906903" lon="8.116556">
        <ele>890.282696</ele>
        <time>2021-10-27T11:35:59.000Z</time>
      </trkpt>
      <trkpt lat="47.906993" lon="8.116595">
        <ele>890.307644</ele>
        <time>2021-10-27T11:36:06.000Z</time>
      </trkpt>
      <trkpt lat="47.907089" lon="8.116638">
        <ele>890.334326</ele>
        <time>2021-10-27T11:36:12.000Z</time>
      </trkpt>
      <trkpt lat="47.907181" lon="8.116689">
        <ele>890.360453</ele>
        <time>2021-10-27T11:36:19.000Z</time>
      </trkpt>
      <trkpt lat="47.907270" lon="8.116730">
        <ele>890.385248</ele>
        <time>2021-10-27T11:36:26.000Z</time>
      </trkpt>
      <trkpt lat="47.907369" lon="8.116775">
        <ele>890.412798</ele>
        <time>2021-10-27T11:36:33.000Z</time>
      </trkpt>
      <trkpt lat="47.907472" lon="8.116797">
        <ele>890.440496</ele>
        <time>2021-10-27T11:36:49.000Z</time>
      </trkpt>
      <trkpt lat="47.907549" lon="8.116872">
        <ele>890.464976</ele>
        <time>2021-10-27T11:37:20.000Z</time>
      </trkpt>
      <trkpt lat="47.907618" lon="8.116966">
        <ele>890.489850</ele>
        <time>2021-10-27T11:37:27.000Z</time>
      </trkpt>
      <trkpt lat="47.907711" lon="8.117030">
        <ele>890.549085</ele>
        <time>2021-10-27T11:37:34.000Z</time>
      </trkpt>
      <trkpt lat="47.907806" lon="8.117031">
        <ele>890.699855</ele>
        <time>2021-10-27T11:37:41.000Z</time>
      </trkpt>
      <trkpt lat="47.907902" lon="8.116997">
        <ele>890.856442</ele>
        <time>2021-10-27T11:37:48.000Z</time>
      </trkpt>
      <trkpt lat="47.907992" lon="8.116926">
        <ele>891.018014</ele>
        <time>2021-10-27T11:37:55.000Z</time>
      </trkpt>
      <trkpt lat="47.908068" lon="8.116847">
        <ele>891.165019</ele>
        <time>2021-10-27T11:38:01.000Z</time>
      </trkpt>
      <trkpt lat="47.908129" lon="8.116731">
        <ele>891.321861</ele>
        <time>2021-10-27T11:38:08.000Z</time>
      </trkpt>
      <trkpt lat="47.908181" lon="8.116620">
        <ele>891.465923</ele>
        <time>2021-10-27T11:38:14.000Z</time>
      </trkpt>
      <trkpt lat="47.908211" lon="8.116484">
        <ele>891.618233</ele>
        <time>2021-10-27T11:38:21.000Z</time>
      </trkpt>
      <trkpt lat="47.908244" lon="8.116337">
        <ele>891.783149</ele>
        <time>2021-10-27T11:38:28.000Z</time>
      </trkpt>
      <trkpt lat="47.908286" lon="8.116209">
        <ele>891.934754</ele>
        <time>2021-10-27T11:38:34.000Z</time>
      </trkpt>
      <trkpt lat="47.908316" lon="8.116065">
        <ele>892.095170</ele>
        <time>2021-10-27T11:38:41.000Z</time>
      </trkpt>
      <trkpt lat="47.908338" lon="8.115934">
        <ele>892.238835</ele>
        <time>2021-10-27T11:38:47.000Z</time>
      </trkpt>
      <trkpt lat="47.908357" lon="8.115795">
        <ele>892.389747</ele>
        <time>2021-10-27T11:38:54.000Z</time>
      </trkpt>
      <trkpt lat="47.908370" lon="8.115642">
        <ele>892.553811</ele>
        <time>2021-10-27T11:39:01.000Z</time>
      </trkpt>
      <trkpt lat="47.908376" lon="8.115493">
        <ele>892.712603</ele>
        <time>2021-10-27T11:39:08.000Z</time>
      </trkpt>
      <trkpt lat="47.908406" lon="8.115363">
        <ele>892.858863</ele>
        <time>2021-10-27T11:39:14.000Z</time>
      </trkpt>
      <trkpt lat="47.908432" lon="8.115205">
        <ele>893.031934</ele>
        <time>2021-10-27T11:39:22.000Z</time>
      </trkpt>
      <trkpt lat="47.908480" lon="8.115068">
        <ele>893.196382</ele>
        <time>2021-10-27T11:39:29.000Z</time>
      </trkpt>
      <trkpt lat="47.908528" lon="8.114946">
        <ele>893.346870</ele>
        <time>2021-10-27T11:39:35.000Z</time>
      </trkpt>
      <trkpt lat="47.908572" lon="8.114824">
        <ele>893.406821</ele>
        <time>2021-10-27T11:39:42.000Z</time>
      </trkpt>
      <trkpt lat="47.908623" lon="8.114687">
        <ele>893.460646</ele>
        <time>2021-10-27T11:39:49.000Z</time>
      </trkpt>
      <trkpt lat="47.908680" lon="8.114575">
        <ele>893.508946</ele>
        <time>2021-10-27T11:39:55.000Z</time>
      </trkpt>
      <trkpt lat="47.908722" lon="8.114439">
        <ele>893.560377</ele>
        <time>2021-10-27T11:40:02.000Z</time>
      </trkpt>
      <trkpt lat="47.908771" lon="8.114308">
        <ele>893.611903</ele>
        <time>2021-10-27T11:40:09.000Z</time>
      </trkpt>
      <trkpt lat="47.908812" lon="8.114177">
        <ele>893.661560</ele>
        <time>2021-10-27T11:40:16.000Z</time>
      </trkpt>
      <trkpt lat="47.908864" lon="8.114058">
        <ele>893.710351</ele>
        <time>2021-10-27T11:40:22.000Z</time>
      </trkpt>
      <trkpt lat="47.908919" lon="8.113926">
        <ele>893.763734</ele>
        <time>2021-10-27T11:40:29.000Z</time>
      </trkpt>
      <trkpt lat="47.908956" lon="8.113791">
        <ele>893.813829</ele>
        <time>2021-10-27T11:40:35.000Z</time>
      </trkpt>
      <trkpt lat="47.909024" lon="8.113678">
        <ele>893.865986</ele>
        <time>2021-10-27T11:40:42.000Z</time>
      </trkpt>
      <trkpt lat="47.909094" lon="8.113577">
        <ele>893.915886</ele>
        <time>2021-10-27T11:40:49.000Z</time>
      </trkpt>
      <trkpt lat="47.909157" lon="8.113455">
        <ele>893.968781</ele>
        <time>2021-10-27T11:40:56.000Z</time>
      </trkpt>
      <trkpt lat="47.909205" lon="8.113322">
        <ele>894.020663</ele>
        <time>2021-10-27T11:41:03.000Z</time>
      </trkpt>
      <trkpt lat="47.909272" lon="8.113209">
        <ele>894.072480</ele>
        <time>2021-10-27T11:41:10.000Z</time>
      </trkpt>
      <trkpt lat="47.909325" lon="8.113087">
        <ele>894.122413</ele>
        <time>2021-10-27T11:41:17.000Z</time>
      </trkpt>
      <trkpt lat="47.909382" lon="8.112970">
        <ele>894.172091</ele>
        <time>2021-10-27T11:41:24.000Z</time>
      </trkpt>
      <trkpt lat="47.909428" lon="8.112851">
        <ele>894.219273</ele>
        <time>2021-10-27T11:41:33.000Z</time>
      </trkpt>
      <trkpt lat="47.909479" lon="8.112737">
        <ele>894.266348</ele>
        <time>2021-10-27T11:41:39.000Z</time>
      </trkpt>
      <trkpt lat="47.909551" lon="8.112632">
        <ele>894.023100</ele>
        <time>2021-10-27T11:41:47.000Z</time>
      </trkpt>
      <trkpt lat="47.909614" lon="8.112525">
        <ele>893.609416</ele>
        <time>2021-10-27T11:41:54.000Z</time>
      </trkpt>
      <trkpt lat="47.909702" lon="8.112462">
        <ele>893.186436</ele>
        <time>2021-10-27T11:42:06.000Z</time>
      </trkpt>
      <trkpt lat="47.909753" lon="8.112332">
        <ele>892.748902</ele>
        <time>2021-10-27T11:42:13.000Z</time>
      </trkpt>
      <trkpt lat="47.909806" lon="8.112209">
        <ele>892.324167</ele>
        <time>2021-10-27T11:42:20.000Z</time>
      </trkpt>
      <trkpt lat="47.909855" lon="8.112089">
        <ele>891.916017</ele>
        <time>2021-10-27T11:42:27.000Z</time>
      </trkpt>
      <trkpt lat="47.909907" lon="8.111979">
        <ele>891.525030</ele>
        <time>2021-10-27T11:42:33.000Z</time>
      </trkpt>
      <trkpt lat="47.909957" lon="8.111861">
        <ele>891.119532</ele>
        <time>2021-10-27T11:42:39.000Z</time>
      </trkpt>
      <trkpt lat="47.910018" lon="8.111742">
        <ele>890.684379</ele>
        <time>2021-10-27T11:42:46.000Z</time>
      </trkpt>
      <trkpt lat="47.910070" lon="8.111615">
        <ele>890.252102</ele>
        <time>2021-10-27T11:42:53.000Z</time>
      </trkpt>
      <trkpt lat="47.909989" lon="8.111531">
        <ele>889.824618</ele>
        <time>2021-10-27T11:43:02.000Z</time>
      </trkpt>
      <trkpt lat="47.909896" lon="8.111508">
        <ele>889.416106</ele>
        <time>2021-10-27T11:43:08.000Z</time>
      </trkpt>
      <trkpt lat="47.909809" lon="8.111464">
        <ele>889.018020</ele>
        <time>2021-10-27T11:43:15.000Z</time>
      </trkpt>
      <trkpt lat="47.909714" lon="8.111425">
        <ele>888.591039</ele>
        <time>2021-10-27T11:43:22.000Z</time>
      </trkpt>
      <trkpt lat="47.909621" lon="8.111384">
        <ele>888.170798</ele>
        <time>2021-10-27T11:43:29.000Z</time>
      </trkpt>
      <trkpt lat="47.909537" lon="8.111336">
        <ele>887.780998</ele>
        <time>2021-10-27T11:43:35.000Z</time>
      </trkpt>
      <trkpt lat="47.909440" lon="8.111304">
        <ele>887.350497</ele>
        <time>2021-10-27T11:43:41.000Z</time>
      </trkpt>
      <trkpt lat="47.909341" lon="8.111278">
        <ele>886.914887</ele>
        <time>2021-10-27T11:43:49.000Z</time>
      </trkpt>
      <trkpt lat="47.909240" lon="8.111274">
        <ele>886.480253</ele>
        <time>2021-10-27T11:43:55.000Z</time>
      </trkpt>
      <trkpt lat="47.909148" lon="8.111255">
        <ele>886.161672</ele>
        <time>2021-10-27T11:44:02.000Z</time>
      </trkpt>
      <trkpt lat="47.909057" lon="8.111211">
        <ele>885.833545</ele>
        <time>2021-10-27T11:44:08.000Z</time>
      </trkpt>
      <trkpt lat="47.908968" lon="8.111182">
        <ele>885.521067</ele>
        <time>2021-10-27T11:44:13.000Z</time>
      </trkpt>
      <trkpt lat="47.908876" lon="8.111125">
        <ele>885.179363</ele>
        <time>2021-10-27T11:44:20.000Z</time>
      </trkpt>
      <trkpt lat="47.908775" lon="8.111119">
        <ele>884.832645</ele>
        <time>2021-10-27T11:44:27.000Z</time>
      </trkpt>
      <trkpt lat="47.908685" lon="8.111105">
        <ele>884.522260</ele>
        <time>2021-10-27T11:44:35.000Z</time>
      </trkpt>
      <trkpt lat="47.908593" lon="8.111112">
        <ele>884.206278</ele>
        <time>2021-10-27T11:44:41.000Z</time>
      </trkpt>
      <trkpt lat="47.908496" lon="8.111101">
        <ele>883.872596</ele>
        <time>2021-10-27T11:44:48.000Z</time>
      </trkpt>
      <trkpt lat="47.908398" lon="8.111100">
        <ele>883.536435</ele>
        <time>2021-10-27T11:44:54.000Z</time>
      </trkpt>
      <trkpt lat="47.908297" lon="8.111074">
        <ele>883.184872</ele>
        <time>2021-10-27T11:45:03.000Z</time>
      </trkpt>
      <trkpt lat="47.908207" lon="8.111033">
        <ele>882.862088</ele>
        <time>2021-10-27T11:45:12.000Z</time>
      </trkpt>
      <trkpt lat="47.908118" lon="8.111003">
        <ele>882.549110</ele>
        <time>2021-10-27T11:45:18.000Z</time>
      </trkpt>
      <trkpt lat="47.908026" lon="8.111007">
        <ele>882.233404</ele>
        <time>2021-10-27T11:45:24.000Z</time>
      </trkpt>
      <trkpt lat="47.907927" lon="8.111008">
        <ele>881.893814</ele>
        <time>2021-10-27T11:45:30.000Z</time>
      </trkpt>
      <trkpt lat="47.907826" lon="8.110981">
        <ele>881.541853</ele>
        <time>2021-10-27T11:45:37.000Z</time>
      </trkpt>
      <trkpt lat="47.907730" lon="8.110965">
        <ele>881.210511</ele>
        <time>2021-10-27T11:45:44.000Z</time>
      </trkpt>
      <trkpt lat="47.907634" lon="8.110951">
        <ele>880.879649</ele>
        <time>2021-10-27T11:45:51.000Z</time>
      </trkpt>
      <trkpt lat="47.907541" lon="8.110933">
        <ele>880.557974</ele>
        <time>2021-10-27T11:45:58.000Z</time>
      </trkpt>
      <trkpt lat="47.907435" lon="8.110913">
        <ele>880.323749</ele>
        <time>2021-10-27T11:46:06.000Z</time>
      </trkpt>
      <trkpt lat="47.907337" lon="8.110893">
        <ele>880.326129</ele>
        <time>2021-10-27T11:46:14.000Z</time>
      </trkpt>
      <trkpt lat="47.907247" lon="8.110889">
        <ele>880.328295</ele>
        <time>2021-10-27T11:46:20.000Z</time>
      </trkpt>
      <trkpt lat="47.907154" lon="8.110863">
        <ele>880.330572</ele>
        <time>2021-10-27T11:46:27.000Z</time>
      </trkpt>
      <trkpt lat="47.907056" lon="8.110836">
        <ele>880.332970</ele>
        <time>2021-10-27T11:46:35.000Z</time>
      </trkpt>
      <trkpt lat="47.906961" lon="8.110817">
        <ele>880.335277</ele>
        <time>2021-10-27T11:46:44.000Z</time>
      </trkpt>
      <trkpt lat="47.906864" lon="8.110797">
        <ele>880.337633</ele>
        <time>2021-10-27T11:46:51.000Z</time>
      </trkpt>
      <trkpt lat="47.906767" lon="8.110774">
        <ele>880.339997</ele>
        <time>2021-10-27T11:46:58.000Z</time>
      </trkpt>
      <trkpt lat="47.906666" lon="8.110744">
        <ele>880.342475</ele>
        <time>2021-10-27T11:47:05.000Z</time>
      </trkpt>
      <trkpt lat="47.906576" lon="8.110716">
        <ele>880.344687</ele>
        <time>2021-10-27T11:47:10.000Z</time>
      </trkpt>
      <trkpt lat="47.906476" lon="8.110690">
        <ele>880.347130</ele>
        <time>2021-10-27T11:47:15.000Z</time>
      </trkpt>
      <trkpt lat="47.906378" lon="8.110662">
        <ele>880.349531</ele>
        <time>2021-10-27T11:47:22.000Z</time>
      </trkpt>
      <trkpt lat="47.906285" lon="8.110646">
        <ele>880.351784</ele>
        <time>2021-10-27T11:47:28.000Z</time>
      </trkpt>
      <trkpt lat="47.906192" lon="8.110632">
        <ele>880.354033</ele>
        <time>2021-10-27T11:47:35.000Z</time>
      </trkpt>
      <trkpt lat="47.906091" lon="8.110617">
        <ele>880.356475</ele>
        <time>2021-10-27T11:47:42.000Z</time>
      </trkpt>
      <trkpt lat="47.905996" lon="8.110591">
        <ele>880.358800</ele>
        <time>2021-10-27T11:47:49.000Z</time>
      </trkpt>
      <trkpt lat="47.905898" lon="8.110574">
        <ele>880.361174</ele>
        <time>2021-10-27T11:47:55.000Z</time>
      </trkpt>
      <trkpt lat="47.905807" lon="8.110563">
        <ele>880.363371</ele>
        <time>2021-10-27T11:48:01.000Z</time>
      </trkpt>
      <trkpt lat="47.905715" lon="8.110554">
        <ele>880.365589</ele>
        <time>2021-10-27T11:48:07.000Z</time>
      </trkpt>
      <trkpt lat="47.905622" lon="8.110553">
        <ele>880.478216</ele>
        <time>2021-10-27T11:48:13.000Z</time>
      </trkpt>
      <trkpt lat="47.905530" lon="8.110532">
        <ele>880.624335</ele>
        <time>2021-10-27T11:48:20.000Z</time>
      </trkpt>
      <trkpt lat="47.905436" lon="8.110507">
        <ele>880.774239</ele>
        <time>2021-10-27T11:48:27.000Z</time>
      </trkpt>
      <trkpt lat="47.905343" lon="8.110485">
        <ele>880.922071</ele>
        <time>2021-10-27T11:48:34.000Z</time>
      </trkpt>
      <trkpt lat="47.905253" lon="8.110470">
        <ele>881.064248</ele>
        <time>2021-10-27T11:48:40.000Z</time>
      </trkpt>
      <trkpt lat="47.905175" lon="8.110397">
        <ele>881.208812</ele>
        <time>2021-10-27T11:48:46.000Z</time>
      </trkpt>
      <trkpt lat="47.905094" lon="8.110337">
        <ele>881.350795</ele>
        <time>2021-10-27T11:48:52.000Z</time>
      </trkpt>
      <trkpt lat="47.905007" lon="8.110294">
        <ele>881.494685</ele>
        <time>2021-10-27T11:48:58.000Z</time>
      </trkpt>
      <trkpt lat="47.904915" lon="8.110269">
        <ele>881.641500</ele>
        <time>2021-10-27T11:49:04.000Z</time>
      </trkpt>
      <trkpt lat="47.904827" lon="8.110231">
        <ele>881.785330</ele>
        <time>2021-10-27T11:49:11.000Z</time>
      </trkpt>
      <trkpt lat="47.904738" lon="8.110212">
        <ele>881.926481</ele>
        <time>2021-10-27T11:49:17.000Z</time>
      </trkpt>
      <trkpt lat="47.904639" lon="8.110196">
        <ele>882.082818</ele>
        <time>2021-10-27T11:49:24.000Z</time>
      </trkpt>
      <trkpt lat="47.904542" lon="8.110170">
        <ele>882.237545</ele>
        <time>2021-10-27T11:49:31.000Z</time>
      </trkpt>
      <trkpt lat="47.904447" lon="8.110133">
        <ele>882.391692</ele>
        <time>2021-10-27T11:49:38.000Z</time>
      </trkpt>
      <trkpt lat="47.904348" lon="8.110100">
        <ele>882.550953</ele>
        <time>2021-10-27T11:49:45.000Z</time>
      </trkpt>
      <trkpt lat="47.904350" lon="8.109949">
        <ele>882.709906</ele>
        <time>2021-10-27T11:49:58.000Z</time>
      </trkpt>
      <trkpt lat="47.904348" lon="8.109803">
        <ele>882.863598</ele>
        <time>2021-10-27T11:50:06.000Z</time>
      </trkpt>
      <trkpt lat="47.904342" lon="8.109665">
        <ele>883.009143</ele>
        <time>2021-10-27T11:50:13.000Z</time>
      </trkpt>
      <trkpt lat="47.904411" lon="8.109577">
        <ele>883.151667</ele>
        <time>2021-10-27T11:50:20.000Z</time>
      </trkpt>
      <trkpt lat="47.904493" lon="8.109497">
        <ele>883.192634</ele>
        <time>2021-10-27T11:50:27.000Z</time>
      </trkpt>
      <trkpt lat="47.904548" lon="8.109382">
        <ele>883.196108</ele>
        <time>2021-10-27T11:50:34.000Z</time>
      </trkpt>
      <trkpt lat="47.904617" lon="8.109279">
        <ele>883.199689</ele>
        <time>2021-10-27T11:50:41.000Z</time>
      </trkpt>
      <trkpt lat="47.904706" lon="8.109175">
        <ele>883.203836</ele>
        <time>2021-10-27T11:50:48.000Z</time>
      </trkpt>
      <trkpt lat="47.904778" lon="8.109063">
        <ele>883.207652</ele>
        <time>2021-10-27T11:50:55.000Z</time>
      </trkpt>
      <trkpt lat="47.904765" lon="8.108920">
        <ele>883.211201</ele>
        <time>2021-10-27T11:51:03.000Z</time>
      </trkpt>
      <trkpt lat="47.904748" lon="8.108779">
        <ele>883.214724</ele>
        <time>2021-10-27T11:51:12.000Z</time>
      </trkpt>
      <trkpt lat="47.904795" lon="8.108660">
        <ele>883.218120</ele>
        <time>2021-10-27T11:51:20.000Z</time>
      </trkpt>
      <trkpt lat="47.904846" lon="8.108543">
        <ele>883.221552</ele>
        <time>2021-10-27T11:51:28.000Z</time>
      </trkpt>
      <trkpt lat="47.904893" lon="8.108409">
        <ele>883.225271</ele>
        <time>2021-10-27T11:51:36.000Z</time>
      </trkpt>
      <trkpt lat="47.904950" lon="8.108279">
        <ele>883.229091</ele>
        <time>2021-10-27T11:51:44.000Z</time>
      </trkpt>
      <trkpt lat="47.905004" lon="8.108156">
        <ele>883.232707</ele>
        <time>2021-10-27T11:51:51.000Z</time>
      </trkpt>
      <trkpt lat="47.905049" lon="8.108033">
        <ele>883.236152</ele>
        <time>2021-10-27T11:51:58.000Z</time>
      </trkpt>
      <trkpt lat="47.905111" lon="8.107918">
        <ele>883.239781</ele>
        <time>2021-10-27T11:52:05.000Z</time>
      </trkpt>
      <trkpt lat="47.905167" lon="8.107781">
        <ele>883.243727</ele>
        <time>2021-10-27T11:52:13.000Z</time>
      </trkpt>
      <trkpt lat="47.905227" lon="8.107649">
        <ele>883.247649</ele>
        <time>2021-10-27T11:52:20.000Z</time>
      </trkpt>
      <trkpt lat="47.905285" lon="8.107543">
        <ele>883.251014</ele>
        <time>2021-10-27T11:52:27.000Z</time>
      </trkpt>
      <trkpt lat="47.905336" lon="8.107431">
        <ele>883.254343</ele>
        <time>2021-10-27T11:52:33.000Z</time>
      </trkpt>
      <trkpt lat="47.905400" lon="8.107319">
        <ele>883.255914</ele>
        <time>2021-10-27T11:52:40.001Z</time>
      </trkpt>
      <trkpt lat="47.905460" lon="8.107207">
        <ele>883.255914</ele>
        <time>2021-10-27T11:52:46.001Z</time>
      </trkpt>
      <trkpt lat="47.905499" lon="8.107078">
        <ele>883.255914</ele>
        <time>2021-10-27T11:52:53.000Z</time>
      </trkpt>
      <trkpt lat="47.905560" lon="8.106975">
        <ele>883.255914</ele>
        <time>2021-10-27T11:53:01.000Z</time>
      </trkpt>
      <trkpt lat="47.905626" lon="8.106870">
        <ele>883.255914</ele>
        <time>2021-10-27T11:53:09.000Z</time>
      </trkpt>
      <trkpt lat="47.905664" lon="8.106745">
        <ele>883.255914</ele>
        <time>2021-10-27T11:53:16.000Z</time>
      </trkpt>
      <trkpt lat="47.905736" lon="8.106631">
        <ele>883.255914</ele>
        <time>2021-10-27T11:53:22.000Z</time>
      </trkpt>
      <trkpt lat="47.905804" lon="8.106514">
        <ele>883.255914</ele>
        <time>2021-10-27T11:53:29.000Z</time>
      </trkpt>
      <trkpt lat="47.905868" lon="8.106418">
        <ele>883.255914</ele>
        <time>2021-10-27T11:53:35.000Z</time>
      </trkpt>
      <trkpt lat="47.905934" lon="8.106314">
        <ele>883.255914</ele>
        <time>2021-10-27T11:53:43.000Z</time>
      </trkpt>
    </trkseg>
  </trk>
</gpx>