<?xml version='1.0' encoding='UTF-8'?>
<gpx version="1.1" creator="https://www.komoot.de" xmlns="http://www.topografix.com/GPX/1/1" xmlns:xsi="http://www.w3.org/2001/XMLSchema-instance" xsi:schemaLocation="http://www.topografix.com/GPX/1/1 http://www.topografix.com/GPX/1/1/gpx.xsd">
  <metadata>
    <name>DVV Rheinau-Helmlingen-Naturpark Helmlingen</name>
    <author>
      <link href="https://www.komoot.de">
        <text>komoot</text>
        <type>text/html</type>
      </link>
    </author>
  </metadata>
  <trk>
    <name>DVV Rheinau-Helmlingen-Naturpark Helmlingen</name>
    <trkseg>
      <trkpt lat="48.710510" lon="7.964910">
        <ele>124.630231</ele>
        <time>2022-11-11T07:38:51.898Z</time>
      </trkpt>
      <trkpt lat="48.710650" lon="7.964690">
        <ele>124.630231</ele>
        <time>2022-11-11T07:39:12.081Z</time>
      </trkpt>
      <trkpt lat="48.710520" lon="7.964260">
        <ele>124.630231</ele>
        <time>2022-11-11T07:39:43.316Z</time>
      </trkpt>
      <trkpt lat="48.710150" lon="7.964650">
        <ele>124.591436</ele>
        <time>2022-11-11T07:40:28.420Z</time>
      </trkpt>
      <trkpt lat="48.710139" lon="7.964618">
        <ele>124.577260</ele>
        <time>2022-11-11T07:40:30.835Z</time>
      </trkpt>
      <trkpt lat="48.709207" lon="7.965367">
        <ele>123.949154</ele>
        <time>2022-11-11T07:42:18.045Z</time>
      </trkpt>
      <trkpt lat="48.708738" lon="7.965665">
        <ele>123.646362</ele>
        <time>2022-11-11T07:43:09.422Z</time>
      </trkpt>
      <trkpt lat="48.708420" lon="7.965797">
        <ele>123.558160</ele>
        <time>2022-11-11T07:43:42.709Z</time>
      </trkpt>
      <trkpt lat="48.706155" lon="7.966233">
        <ele>123.710404</ele>
        <time>2022-11-11T07:47:31.995Z</time>
      </trkpt>
      <trkpt lat="48.705982" lon="7.966355">
        <ele>123.756826</ele>
        <time>2022-11-11T07:47:51.232Z</time>
      </trkpt>
      <trkpt lat="48.705760" lon="7.966694">
        <ele>123.833502</ele>
        <time>2022-11-11T07:48:23.161Z</time>
      </trkpt>
      <trkpt lat="48.705788" lon="7.966724">
        <ele>123.841844</ele>
        <time>2022-11-11T07:48:26.636Z</time>
      </trkpt>
      <trkpt lat="48.705877" lon="7.966817">
        <ele>123.868145</ele>
        <time>2022-11-11T07:48:37.452Z</time>
      </trkpt>
      <trkpt lat="48.705914" lon="7.966854">
        <ele>123.878930</ele>
        <time>2022-11-11T07:48:41.975Z</time>
      </trkpt>
      <trkpt lat="48.705989" lon="7.966932">
        <ele>123.901061</ele>
        <time>2022-11-11T07:48:51.186Z</time>
      </trkpt>
      <trkpt lat="48.706028" lon="7.966975">
        <ele>123.912794</ele>
        <time>2022-11-11T07:48:56.079Z</time>
      </trkpt>
      <trkpt lat="48.706115" lon="7.967072">
        <ele>123.939072</ele>
        <time>2022-11-11T07:49:06.987Z</time>
      </trkpt>
      <trkpt lat="48.706204" lon="7.967174">
        <ele>123.966219</ele>
        <time>2022-11-11T07:49:18.311Z</time>
      </trkpt>
      <trkpt lat="48.706010" lon="7.967589">
        <ele>124.091432</ele>
        <time>2022-11-11T07:49:52.527Z</time>
      </trkpt>
      <trkpt lat="48.705855" lon="7.968107">
        <ele>124.246471</ele>
        <time>2022-11-11T07:50:30.500Z</time>
      </trkpt>
      <trkpt lat="48.706066" lon="7.968718">
        <ele>124.434449</ele>
        <time>2022-11-11T07:51:16.579Z</time>
      </trkpt>
      <trkpt lat="48.706071" lon="7.968877">
        <ele>124.477840</ele>
        <time>2022-11-11T07:51:27.224Z</time>
      </trkpt>
      <trkpt lat="48.705876" lon="7.969037">
        <ele>124.569437</ele>
        <time>2022-11-11T07:51:49.617Z</time>
      </trkpt>
      <trkpt lat="48.705709" lon="7.969370">
        <ele>124.683446</ele>
        <time>2022-11-11T07:52:17.954Z</time>
      </trkpt>
      <trkpt lat="48.705546" lon="7.969704">
        <ele>124.824116</ele>
        <time>2022-11-11T07:52:45.885Z</time>
      </trkpt>
      <trkpt lat="48.705576" lon="7.969899">
        <ele>124.900624</ele>
        <time>2022-11-11T07:52:59.330Z</time>
      </trkpt>
      <trkpt lat="48.705594" lon="7.970012">
        <ele>124.945041</ele>
        <time>2022-11-11T07:53:07.159Z</time>
      </trkpt>
      <trkpt lat="48.704870" lon="7.971600">
        <ele>125.682547</ele>
        <time>2022-11-11T07:55:17.153Z</time>
      </trkpt>
      <trkpt lat="48.704623" lon="7.972142">
        <ele>125.945474</ele>
        <time>2022-11-11T07:56:02.015Z</time>
      </trkpt>
      <trkpt lat="48.704608" lon="7.972175">
        <ele>125.961832</ele>
        <time>2022-11-11T07:56:04.688Z</time>
      </trkpt>
      <trkpt lat="48.704427" lon="7.972719">
        <ele>126.210545</ele>
        <time>2022-11-11T07:56:46.060Z</time>
      </trkpt>
      <trkpt lat="48.704165" lon="7.973408">
        <ele>126.535177</ele>
        <time>2022-11-11T07:57:39.712Z</time>
      </trkpt>
      <trkpt lat="48.703733" lon="7.973967">
        <ele>126.884606</ele>
        <time>2022-11-11T07:58:37.531Z</time>
      </trkpt>
      <trkpt lat="48.703563" lon="7.974112">
        <ele>126.947104</ele>
        <time>2022-11-11T07:58:57.318Z</time>
      </trkpt>
      <trkpt lat="48.703185" lon="7.974437">
        <ele>127.086339</ele>
        <time>2022-11-11T07:59:41.632Z</time>
      </trkpt>
      <trkpt lat="48.702959" lon="7.974700">
        <ele>127.177631</ele>
        <time>2022-11-11T08:00:10.564Z</time>
      </trkpt>
      <trkpt lat="48.702105" lon="7.975587">
        <ele>127.444035</ele>
        <time>2022-11-11T08:01:54.936Z</time>
      </trkpt>
      <trkpt lat="48.701421" lon="7.976257">
        <ele>127.368502</ele>
        <time>2022-11-11T08:03:16.604Z</time>
      </trkpt>
      <trkpt lat="48.701280" lon="7.976677">
        <ele>127.339662</ele>
        <time>2022-11-11T08:03:47.762Z</time>
      </trkpt>
      <trkpt lat="48.701113" lon="7.976697">
        <ele>127.324127</ele>
        <time>2022-11-11T08:04:04.639Z</time>
      </trkpt>
      <trkpt lat="48.699870" lon="7.977238">
        <ele>126.794480</ele>
        <time>2022-11-11T08:06:15.472Z</time>
      </trkpt>
      <trkpt lat="48.699445" lon="7.977642">
        <ele>126.530584</ele>
        <time>2022-11-11T08:07:06.492Z</time>
      </trkpt>
      <trkpt lat="48.699326" lon="7.977829">
        <ele>126.440406</ele>
        <time>2022-11-11T08:07:23.814Z</time>
      </trkpt>
      <trkpt lat="48.699304" lon="7.977863">
        <ele>126.423876</ele>
        <time>2022-11-11T08:07:27.037Z</time>
      </trkpt>
      <trkpt lat="48.699187" lon="7.978199">
        <ele>126.336694</ele>
        <time>2022-11-11T08:07:52.365Z</time>
      </trkpt>
      <trkpt lat="48.699083" lon="7.978055">
        <ele>126.324112</ele>
        <time>2022-11-11T08:08:06.597Z</time>
      </trkpt>
      <trkpt lat="48.699026" lon="7.977913">
        <ele>126.314316</ele>
        <time>2022-11-11T08:08:17.559Z</time>
      </trkpt>
      <trkpt lat="48.699002" lon="7.977849">
        <ele>126.309978</ele>
        <time>2022-11-11T08:08:22.435Z</time>
      </trkpt>
      <trkpt lat="48.698775" lon="7.977273">
        <ele>126.270435</ele>
        <time>2022-11-11T08:09:06.788Z</time>
      </trkpt>
      <trkpt lat="48.698147" lon="7.977109">
        <ele>126.213524</ele>
        <time>2022-11-11T08:10:10.719Z</time>
      </trkpt>
      <trkpt lat="48.697895" lon="7.976548">
        <ele>126.153497</ele>
        <time>2022-11-11T08:10:55.831Z</time>
      </trkpt>
      <trkpt lat="48.697683" lon="7.975701">
        <ele>126.008568</ele>
        <time>2022-11-11T08:11:55.702Z</time>
      </trkpt>
      <trkpt lat="48.697636" lon="7.975369">
        <ele>125.954243</ele>
        <time>2022-11-11T08:12:18.272Z</time>
      </trkpt>
      <trkpt lat="48.697623" lon="7.975206">
        <ele>125.927975</ele>
        <time>2022-11-11T08:12:29.174Z</time>
      </trkpt>
      <trkpt lat="48.697567" lon="7.974266">
        <ele>125.776971</ele>
        <time>2022-11-11T08:13:31.912Z</time>
      </trkpt>
      <trkpt lat="48.697567" lon="7.971992">
        <ele>124.834264</ele>
        <time>2022-11-11T08:16:04.398Z</time>
      </trkpt>
      <trkpt lat="48.697654" lon="7.971711">
        <ele>124.699068</ele>
        <time>2022-11-11T08:16:25.134Z</time>
      </trkpt>
      <trkpt lat="48.697888" lon="7.971400">
        <ele>124.521429</ele>
        <time>2022-11-11T08:16:56.788Z</time>
      </trkpt>
      <trkpt lat="48.698020" lon="7.971132">
        <ele>124.434783</ele>
        <time>2022-11-11T08:17:19.283Z</time>
      </trkpt>
      <trkpt lat="48.698109" lon="7.970795">
        <ele>124.340731</ele>
        <time>2022-11-11T08:17:43.466Z</time>
      </trkpt>
      <trkpt lat="48.698055" lon="7.969176">
        <ele>123.920691</ele>
        <time>2022-11-11T08:19:31.295Z</time>
      </trkpt>
      <trkpt lat="48.697652" lon="7.967711">
        <ele>123.914915</ele>
        <time>2022-11-11T08:21:16.279Z</time>
      </trkpt>
      <trkpt lat="48.697609" lon="7.966365">
        <ele>123.974140</ele>
        <time>2022-11-11T08:22:45.456Z</time>
      </trkpt>
      <trkpt lat="48.697513" lon="7.966100">
        <ele>124.085322</ele>
        <time>2022-11-11T08:23:05.894Z</time>
      </trkpt>
      <trkpt lat="48.697459" lon="7.966023">
        <ele>124.132127</ele>
        <time>2022-11-11T08:23:13.472Z</time>
      </trkpt>
      <trkpt lat="48.696977" lon="7.965376">
        <ele>124.538588</ele>
        <time>2022-11-11T08:24:19.680Z</time>
      </trkpt>
      <trkpt lat="48.696942" lon="7.965314">
        <ele>124.572576</ele>
        <time>2022-11-11T08:24:25.214Z</time>
      </trkpt>
      <trkpt lat="48.696515" lon="7.964035">
        <ele>125.166549</ele>
        <time>2022-11-11T08:26:02.369Z</time>
      </trkpt>
      <trkpt lat="48.695617" lon="7.961468">
        <ele>126.221874</ele>
        <time>2022-11-11T08:29:18.431Z</time>
      </trkpt>
      <trkpt lat="48.695220" lon="7.959917">
        <ele>126.411775</ele>
        <time>2022-11-11T08:31:08.364Z</time>
      </trkpt>
      <trkpt lat="48.695127" lon="7.959399">
        <ele>126.473056</ele>
        <time>2022-11-11T08:31:43.865Z</time>
      </trkpt>
      <trkpt lat="48.694319" lon="7.954889">
        <ele>127.554596</ele>
        <time>2022-11-11T08:36:56.182Z</time>
      </trkpt>
      <trkpt lat="48.694315" lon="7.954657">
        <ele>127.624826</ele>
        <time>2022-11-11T08:37:12.029Z</time>
      </trkpt>
      <trkpt lat="48.693780" lon="7.951415">
        <ele>128.494687</ele>
        <time>2022-11-11T08:40:57.448Z</time>
      </trkpt>
      <trkpt lat="48.697520" lon="7.951899">
        <ele>126.850150</ele>
        <time>2022-11-11T08:47:18.248Z</time>
      </trkpt>
      <trkpt lat="48.697747" lon="7.951789">
        <ele>127.137406</ele>
        <time>2022-11-11T08:47:42.694Z</time>
      </trkpt>
      <trkpt lat="48.699511" lon="7.950343">
        <ele>129.483253</ele>
        <time>2022-11-11T08:51:15.036Z</time>
      </trkpt>
      <trkpt lat="48.699571" lon="7.950371">
        <ele>129.550201</ele>
        <time>2022-11-11T08:51:21.638Z</time>
      </trkpt>
      <trkpt lat="48.700532" lon="7.949628">
        <ele>130.700685</ele>
        <time>2022-11-11T08:53:13.531Z</time>
      </trkpt>
      <trkpt lat="48.701193" lon="7.949117">
        <ele>130.514887</ele>
        <time>2022-11-11T08:54:28.029Z</time>
      </trkpt>
      <trkpt lat="48.701395" lon="7.948969">
        <ele>130.388708</ele>
        <time>2022-11-11T08:54:50.764Z</time>
      </trkpt>
      <trkpt lat="48.703406" lon="7.947973">
        <ele>128.527659</ele>
        <time>2022-11-11T08:58:27.388Z</time>
      </trkpt>
      <trkpt lat="48.703480" lon="7.947988">
        <ele>128.441764</ele>
        <time>2022-11-11T08:58:35.065Z</time>
      </trkpt>
      <trkpt lat="48.703596" lon="7.946924">
        <ele>127.650006</ele>
        <time>2022-11-11T08:59:48.126Z</time>
      </trkpt>
      <trkpt lat="48.703918" lon="7.946949">
        <ele>127.346635</ele>
        <time>2022-11-11T09:00:21.209Z</time>
      </trkpt>
      <trkpt lat="48.704272" lon="7.947059">
        <ele>127.006620</ele>
        <time>2022-11-11T09:00:58.222Z</time>
      </trkpt>
      <trkpt lat="48.704390" lon="7.947095">
        <ele>126.893364</ele>
        <time>2022-11-11T09:01:10.598Z</time>
      </trkpt>
      <trkpt lat="48.706651" lon="7.947912">
        <ele>125.483174</ele>
        <time>2022-11-11T09:05:06.286Z</time>
      </trkpt>
      <trkpt lat="48.706712" lon="7.947934">
        <ele>125.457562</ele>
        <time>2022-11-11T09:05:12.715Z</time>
      </trkpt>
      <trkpt lat="48.707249" lon="7.948207">
        <ele>125.512628</ele>
        <time>2022-11-11T09:06:10.309Z</time>
      </trkpt>
      <trkpt lat="48.707526" lon="7.948590">
        <ele>125.730487</ele>
        <time>2022-11-11T09:06:48.586Z</time>
      </trkpt>
      <trkpt lat="48.707613" lon="7.948692">
        <ele>125.794395</ele>
        <time>2022-11-11T09:06:59.801Z</time>
      </trkpt>
      <trkpt lat="48.707995" lon="7.949059">
        <ele>126.057178</ele>
        <time>2022-11-11T09:07:46.121Z</time>
      </trkpt>
      <trkpt lat="48.708980" lon="7.950270">
        <ele>126.275985</ele>
        <time>2022-11-11T09:09:57.142Z</time>
      </trkpt>
      <trkpt lat="48.717565" lon="7.960891">
        <ele>124.755172</ele>
        <time>2022-11-11T09:28:31.606Z</time>
      </trkpt>
      <trkpt lat="48.717825" lon="7.961448">
        <ele>124.811581</ele>
        <time>2022-11-11T09:29:17.053Z</time>
      </trkpt>
      <trkpt lat="48.717840" lon="7.961596">
        <ele>124.823960</ele>
        <time>2022-11-11T09:29:27.029Z</time>
      </trkpt>
      <trkpt lat="48.717722" lon="7.961795">
        <ele>124.846081</ele>
        <time>2022-11-11T09:29:45.117Z</time>
      </trkpt>
      <trkpt lat="48.717001" lon="7.960869">
        <ele>125.482721</ele>
        <time>2022-11-11T09:31:23.391Z</time>
      </trkpt>
      <trkpt lat="48.716293" lon="7.960035">
        <ele>126.136224</ele>
        <time>2022-11-11T09:32:55.193Z</time>
      </trkpt>
      <trkpt lat="48.712783" lon="7.955637">
        <ele>127.488065</ele>
        <time>2022-11-11T09:40:36.225Z</time>
      </trkpt>
      <trkpt lat="48.712661" lon="7.955506">
        <ele>127.502630</ele>
        <time>2022-11-11T09:40:51.291Z</time>
      </trkpt>
      <trkpt lat="48.712541" lon="7.955475">
        <ele>127.514488</ele>
        <time>2022-11-11T09:41:03.465Z</time>
      </trkpt>
      <trkpt lat="48.712284" lon="7.955454">
        <ele>127.539558</ele>
        <time>2022-11-11T09:41:29.290Z</time>
      </trkpt>
      <trkpt lat="48.711750" lon="7.954870">
        <ele>127.391035</ele>
        <time>2022-11-11T09:42:35.484Z</time>
      </trkpt>
      <trkpt lat="48.710133" lon="7.953910">
        <ele>126.309854</ele>
        <time>2022-11-11T09:45:32.000Z</time>
      </trkpt>
      <trkpt lat="48.708376" lon="7.951193">
        <ele>124.512360</ele>
        <time>2022-11-11T09:49:47.052Z</time>
      </trkpt>
      <trkpt lat="48.708337" lon="7.951103">
        <ele>124.462336</ele>
        <time>2022-11-11T09:49:54.281Z</time>
      </trkpt>
      <trkpt lat="48.708040" lon="7.950420">
        <ele>124.082308</ele>
        <time>2022-11-11T09:50:48.936Z</time>
      </trkpt>
      <trkpt lat="48.707633" lon="7.949901">
        <ele>123.863474</ele>
        <time>2022-11-11T09:51:42.962Z</time>
      </trkpt>
      <trkpt lat="48.706984" lon="7.949137">
        <ele>123.717189</ele>
        <time>2022-11-11T09:53:06.333Z</time>
      </trkpt>
      <trkpt lat="48.706538" lon="7.948624">
        <ele>123.617520</ele>
        <time>2022-11-11T09:54:02.885Z</time>
      </trkpt>
      <trkpt lat="48.706049" lon="7.948476">
        <ele>124.193170</ele>
        <time>2022-11-11T09:54:54.372Z</time>
      </trkpt>
      <trkpt lat="48.705764" lon="7.948725">
        <ele>124.713330</ele>
        <time>2022-11-11T09:55:28.918Z</time>
      </trkpt>
      <trkpt lat="48.705261" lon="7.950651">
        <ele>126.816084</ele>
        <time>2022-11-11T09:57:55.803Z</time>
      </trkpt>
      <trkpt lat="48.704759" lon="7.952884">
        <ele>128.889263</ele>
        <time>2022-11-11T10:00:39.574Z</time>
      </trkpt>
      <trkpt lat="48.704788" lon="7.953379">
        <ele>128.775755</ele>
        <time>2022-11-11T10:01:12.474Z</time>
      </trkpt>
      <trkpt lat="48.704863" lon="7.953554">
        <ele>128.728094</ele>
        <time>2022-11-11T10:01:26.443Z</time>
      </trkpt>
      <trkpt lat="48.706919" lon="7.955422">
        <ele>127.912558</ele>
        <time>2022-11-11T10:05:29.909Z</time>
      </trkpt>
      <trkpt lat="48.706986" lon="7.955534">
        <ele>127.879319</ele>
        <time>2022-11-11T10:05:39.914Z</time>
      </trkpt>
      <trkpt lat="48.707024" lon="7.955791">
        <ele>127.821409</ele>
        <time>2022-11-11T10:05:57.568Z</time>
      </trkpt>
      <trkpt lat="48.706863" lon="7.958183">
        <ele>127.486455</ele>
        <time>2022-11-11T10:08:37.483Z</time>
      </trkpt>
      <trkpt lat="48.706653" lon="7.961259">
        <ele>126.270451</ele>
        <time>2022-11-11T10:12:05.048Z</time>
      </trkpt>
      <trkpt lat="48.706642" lon="7.961386">
        <ele>126.203496</ele>
        <time>2022-11-11T10:12:13.719Z</time>
      </trkpt>
      <trkpt lat="48.706575" lon="7.961876">
        <ele>125.946664</ele>
        <time>2022-11-11T10:12:47.546Z</time>
      </trkpt>
      <trkpt lat="48.706522" lon="7.962691">
        <ele>125.667768</ele>
        <time>2022-11-11T10:13:42.464Z</time>
      </trkpt>
      <trkpt lat="48.706654" lon="7.963449">
        <ele>125.400791</ele>
        <time>2022-11-11T10:14:34.699Z</time>
      </trkpt>
      <trkpt lat="48.706665" lon="7.963506">
        <ele>125.380566</ele>
        <time>2022-11-11T10:14:38.615Z</time>
      </trkpt>
      <trkpt lat="48.709409" lon="7.963725">
        <ele>124.612163</ele>
        <time>2022-11-11T10:19:15.222Z</time>
      </trkpt>
      <trkpt lat="48.710053" lon="7.964102">
        <ele>124.612163</ele>
        <time>2022-11-11T10:20:24.865Z</time>
      </trkpt>
      <trkpt lat="48.710551" lon="7.964207">
        <ele>124.612163</ele>
        <time>2022-11-11T10:21:15.724Z</time>
      </trkpt>
      <trkpt lat="48.710570" lon="7.964329">
        <ele>124.612163</ele>
        <time>2022-11-11T10:21:23.991Z</time>
      </trkpt>
      <trkpt lat="48.710619" lon="7.964473">
        <ele>124.612163</ele>
        <time>2022-11-11T10:21:34.779Z</time>
      </trkpt>
      <trkpt lat="48.710708" lon="7.964686">
        <ele>124.612163</ele>
        <time>2022-11-11T10:21:51.683Z</time>
      </trkpt>
      <trkpt lat="48.710494" lon="7.964866">
        <ele>124.612163</ele>
        <time>2022-11-11T10:22:16.313Z</time>
      </trkpt>
    </trkseg>
  </trk>
</gpx>