<?xml version='1.0' encoding='UTF-8'?>
<gpx version="1.1" creator="https://www.komoot.de" xmlns="http://www.topografix.com/GPX/1/1" xmlns:xsi="http://www.w3.org/2001/XMLSchema-instance" xsi:schemaLocation="http://www.topografix.com/GPX/1/1 http://www.topografix.com/GPX/1/1/gpx.xsd">
  <metadata>
    <name>DVV Rheinau-Helmlingen-Naturpark Helmlingen</name>
    <author>
      <link href="https://www.komoot.de">
        <text>komoot</text>
        <type>text/html</type>
      </link>
    </author>
  </metadata>
  <trk>
    <name>DVV Rheinau-Helmlingen-Naturpark Helmlingen</name>
    <trkseg>
      <trkpt lat="48.710494" lon="7.964866">
        <ele>124.372544</ele>
        <time>2022-11-13T13:08:40.079Z</time>
      </trkpt>
      <trkpt lat="48.710708" lon="7.964686">
        <ele>124.372544</ele>
        <time>2022-11-13T13:09:04.710Z</time>
      </trkpt>
      <trkpt lat="48.710619" lon="7.964473">
        <ele>124.372544</ele>
        <time>2022-11-13T13:09:21.565Z</time>
      </trkpt>
      <trkpt lat="48.710570" lon="7.964329">
        <ele>124.372544</ele>
        <time>2022-11-13T13:09:32.382Z</time>
      </trkpt>
      <trkpt lat="48.710551" lon="7.964207">
        <ele>124.372544</ele>
        <time>2022-11-13T13:09:40.664Z</time>
      </trkpt>
      <trkpt lat="48.710313" lon="7.964477">
        <ele>124.372544</ele>
        <time>2022-11-13T13:10:10.707Z</time>
      </trkpt>
      <trkpt lat="48.710139" lon="7.964618">
        <ele>124.273659</ele>
        <time>2022-11-13T13:10:30.774Z</time>
      </trkpt>
      <trkpt lat="48.709207" lon="7.965367">
        <ele>123.741497</ele>
        <time>2022-11-13T13:12:17.815Z</time>
      </trkpt>
      <trkpt lat="48.708738" lon="7.965665">
        <ele>123.484957</ele>
        <time>2022-11-13T13:13:09.066Z</time>
      </trkpt>
      <trkpt lat="48.708420" lon="7.965797">
        <ele>123.481095</ele>
        <time>2022-11-13T13:13:42.198Z</time>
      </trkpt>
      <trkpt lat="48.706155" lon="7.966233">
        <ele>123.746485</ele>
        <time>2022-11-13T13:17:31.917Z</time>
      </trkpt>
      <trkpt lat="48.705982" lon="7.966355">
        <ele>123.791541</ele>
        <time>2022-11-13T13:17:51.088Z</time>
      </trkpt>
      <trkpt lat="48.705760" lon="7.966694">
        <ele>123.865961</ele>
        <time>2022-11-13T13:18:23.040Z</time>
      </trkpt>
      <trkpt lat="48.705788" lon="7.966724">
        <ele>123.874058</ele>
        <time>2022-11-13T13:18:26.513Z</time>
      </trkpt>
      <trkpt lat="48.705877" lon="7.966817">
        <ele>123.899585</ele>
        <time>2022-11-13T13:18:37.342Z</time>
      </trkpt>
      <trkpt lat="48.705914" lon="7.966854">
        <ele>123.910053</ele>
        <time>2022-11-13T13:18:41.922Z</time>
      </trkpt>
      <trkpt lat="48.705989" lon="7.966932">
        <ele>123.931532</ele>
        <time>2022-11-13T13:18:51.129Z</time>
      </trkpt>
      <trkpt lat="48.706028" lon="7.966975">
        <ele>123.942921</ele>
        <time>2022-11-13T13:18:56.007Z</time>
      </trkpt>
      <trkpt lat="48.706115" lon="7.967072">
        <ele>123.968425</ele>
        <time>2022-11-13T13:19:06.844Z</time>
      </trkpt>
      <trkpt lat="48.705981" lon="7.967356">
        <ele>124.045856</ele>
        <time>2022-11-13T13:19:30.292Z</time>
      </trkpt>
      <trkpt lat="48.705950" lon="7.967521">
        <ele>124.090344</ele>
        <time>2022-11-13T13:19:41.762Z</time>
      </trkpt>
      <trkpt lat="48.706010" lon="7.967589">
        <ele>124.119787</ele>
        <time>2022-11-13T13:19:49.414Z</time>
      </trkpt>
      <trkpt lat="48.705855" lon="7.968107">
        <ele>124.267281</ele>
        <time>2022-11-13T13:20:27.418Z</time>
      </trkpt>
      <trkpt lat="48.706066" lon="7.968718">
        <ele>124.446112</ele>
        <time>2022-11-13T13:21:13.517Z</time>
      </trkpt>
      <trkpt lat="48.706071" lon="7.968877">
        <ele>124.487391</ele>
        <time>2022-11-13T13:21:24.143Z</time>
      </trkpt>
      <trkpt lat="48.705876" lon="7.969037">
        <ele>124.574531</ele>
        <time>2022-11-13T13:21:46.545Z</time>
      </trkpt>
      <trkpt lat="48.705709" lon="7.969370">
        <ele>124.682992</ele>
        <time>2022-11-13T13:22:14.741Z</time>
      </trkpt>
      <trkpt lat="48.705546" lon="7.969704">
        <ele>124.833486</ele>
        <time>2022-11-13T13:22:42.666Z</time>
      </trkpt>
      <trkpt lat="48.705576" lon="7.969899">
        <ele>124.908600</ele>
        <time>2022-11-13T13:22:56.111Z</time>
      </trkpt>
      <trkpt lat="48.705594" lon="7.970012">
        <ele>124.952208</ele>
        <time>2022-11-13T13:23:03.939Z</time>
      </trkpt>
      <trkpt lat="48.704870" lon="7.971600">
        <ele>125.676272</ele>
        <time>2022-11-13T13:25:13.907Z</time>
      </trkpt>
      <trkpt lat="48.704623" lon="7.972142">
        <ele>125.949998</ele>
        <time>2022-11-13T13:25:58.796Z</time>
      </trkpt>
      <trkpt lat="48.704608" lon="7.972175">
        <ele>125.966974</ele>
        <time>2022-11-13T13:26:01.470Z</time>
      </trkpt>
      <trkpt lat="48.704427" lon="7.972719">
        <ele>126.225071</ele>
        <time>2022-11-13T13:26:42.872Z</time>
      </trkpt>
      <trkpt lat="48.704165" lon="7.973408">
        <ele>126.561954</ele>
        <time>2022-11-13T13:27:36.543Z</time>
      </trkpt>
      <trkpt lat="48.703733" lon="7.973967">
        <ele>126.899140</ele>
        <time>2022-11-13T13:28:34.341Z</time>
      </trkpt>
      <trkpt lat="48.703185" lon="7.974437">
        <ele>127.099835</ele>
        <time>2022-11-13T13:29:38.452Z</time>
      </trkpt>
      <trkpt lat="48.702959" lon="7.974700">
        <ele>127.190657</ele>
        <time>2022-11-13T13:30:07.400Z</time>
      </trkpt>
      <trkpt lat="48.702105" lon="7.975587">
        <ele>127.429364</ele>
        <time>2022-11-13T13:31:51.729Z</time>
      </trkpt>
      <trkpt lat="48.701421" lon="7.976257">
        <ele>127.374505</ele>
        <time>2022-11-13T13:33:13.384Z</time>
      </trkpt>
      <trkpt lat="48.701280" lon="7.976677">
        <ele>127.353559</ele>
        <time>2022-11-13T13:33:44.542Z</time>
      </trkpt>
      <trkpt lat="48.701113" lon="7.976697">
        <ele>127.342276</ele>
        <time>2022-11-13T13:34:01.419Z</time>
      </trkpt>
      <trkpt lat="48.699870" lon="7.977238">
        <ele>126.783369</ele>
        <time>2022-11-13T13:36:12.252Z</time>
      </trkpt>
      <trkpt lat="48.699445" lon="7.977642">
        <ele>126.518428</ele>
        <time>2022-11-13T13:37:03.273Z</time>
      </trkpt>
      <trkpt lat="48.699304" lon="7.977863">
        <ele>126.411299</ele>
        <time>2022-11-13T13:37:23.817Z</time>
      </trkpt>
      <trkpt lat="48.699187" lon="7.978199">
        <ele>126.354912</ele>
        <time>2022-11-13T13:37:49.158Z</time>
      </trkpt>
      <trkpt lat="48.699083" lon="7.978055">
        <ele>126.339766</ele>
        <time>2022-11-13T13:38:03.377Z</time>
      </trkpt>
      <trkpt lat="48.699026" lon="7.977913">
        <ele>126.327974</ele>
        <time>2022-11-13T13:38:14.339Z</time>
      </trkpt>
      <trkpt lat="48.699002" lon="7.977849">
        <ele>126.322752</ele>
        <time>2022-11-13T13:38:19.219Z</time>
      </trkpt>
      <trkpt lat="48.698775" lon="7.977273">
        <ele>126.275152</ele>
        <time>2022-11-13T13:39:03.585Z</time>
      </trkpt>
      <trkpt lat="48.698147" lon="7.977109">
        <ele>126.206647</ele>
        <time>2022-11-13T13:40:07.543Z</time>
      </trkpt>
      <trkpt lat="48.697895" lon="7.976548">
        <ele>126.135909</ele>
        <time>2022-11-13T13:40:52.654Z</time>
      </trkpt>
      <trkpt lat="48.697683" lon="7.975701">
        <ele>126.007079</ele>
        <time>2022-11-13T13:41:52.525Z</time>
      </trkpt>
      <trkpt lat="48.697636" lon="7.975369">
        <ele>125.958788</ele>
        <time>2022-11-13T13:42:15.095Z</time>
      </trkpt>
      <trkpt lat="48.697623" lon="7.975206">
        <ele>125.935438</ele>
        <time>2022-11-13T13:42:25.997Z</time>
      </trkpt>
      <trkpt lat="48.697567" lon="7.974266">
        <ele>125.801208</ele>
        <time>2022-11-13T13:43:28.737Z</time>
      </trkpt>
      <trkpt lat="48.697567" lon="7.971992">
        <ele>124.829656</ele>
        <time>2022-11-13T13:46:01.221Z</time>
      </trkpt>
      <trkpt lat="48.697654" lon="7.971711">
        <ele>124.694867</ele>
        <time>2022-11-13T13:46:21.958Z</time>
      </trkpt>
      <trkpt lat="48.697888" lon="7.971400">
        <ele>124.534878</ele>
        <time>2022-11-13T13:46:53.612Z</time>
      </trkpt>
      <trkpt lat="48.698020" lon="7.971132">
        <ele>124.443915</ele>
        <time>2022-11-13T13:47:16.106Z</time>
      </trkpt>
      <trkpt lat="48.698109" lon="7.970795">
        <ele>124.345179</ele>
        <time>2022-11-13T13:47:40.289Z</time>
      </trkpt>
      <trkpt lat="48.698055" lon="7.969176">
        <ele>123.904219</ele>
        <time>2022-11-13T13:49:28.118Z</time>
      </trkpt>
      <trkpt lat="48.697652" lon="7.967711">
        <ele>123.910278</ele>
        <time>2022-11-13T13:51:13.103Z</time>
      </trkpt>
      <trkpt lat="48.697609" lon="7.966365">
        <ele>123.978543</ele>
        <time>2022-11-13T13:52:42.280Z</time>
      </trkpt>
      <trkpt lat="48.697513" lon="7.966100">
        <ele>124.101066</ele>
        <time>2022-11-13T13:53:02.718Z</time>
      </trkpt>
      <trkpt lat="48.697459" lon="7.966023">
        <ele>124.146603</ele>
        <time>2022-11-13T13:53:10.296Z</time>
      </trkpt>
      <trkpt lat="48.696977" lon="7.965376">
        <ele>124.542049</ele>
        <time>2022-11-13T13:54:16.503Z</time>
      </trkpt>
      <trkpt lat="48.696942" lon="7.965314">
        <ele>124.575117</ele>
        <time>2022-11-13T13:54:22.037Z</time>
      </trkpt>
      <trkpt lat="48.696515" lon="7.964035">
        <ele>125.148348</ele>
        <time>2022-11-13T13:55:59.193Z</time>
      </trkpt>
      <trkpt lat="48.695617" lon="7.961468">
        <ele>126.135397</ele>
        <time>2022-11-13T13:59:15.115Z</time>
      </trkpt>
      <trkpt lat="48.695220" lon="7.959917">
        <ele>126.366250</ele>
        <time>2022-11-13T14:01:05.132Z</time>
      </trkpt>
      <trkpt lat="48.694319" lon="7.954889">
        <ele>127.515548</ele>
        <time>2022-11-13T14:06:53.261Z</time>
      </trkpt>
      <trkpt lat="48.694315" lon="7.954657">
        <ele>127.578940</ele>
        <time>2022-11-13T14:07:09.136Z</time>
      </trkpt>
      <trkpt lat="48.693780" lon="7.951415">
        <ele>128.453080</ele>
        <time>2022-11-13T14:10:54.695Z</time>
      </trkpt>
      <trkpt lat="48.697520" lon="7.951899">
        <ele>125.423243</ele>
        <time>2022-11-13T14:17:17.813Z</time>
      </trkpt>
      <trkpt lat="48.697747" lon="7.951789">
        <ele>125.341890</ele>
        <time>2022-11-13T14:17:41.995Z</time>
      </trkpt>
      <trkpt lat="48.697907" lon="7.952200">
        <ele>125.234385</ele>
        <time>2022-11-13T14:18:13.889Z</time>
      </trkpt>
      <trkpt lat="48.698631" lon="7.954319">
        <ele>124.990806</ele>
        <time>2022-11-13T14:20:51.655Z</time>
      </trkpt>
      <trkpt lat="48.699184" lon="7.955092">
        <ele>125.197324</ele>
        <time>2022-11-13T14:22:08.235Z</time>
      </trkpt>
      <trkpt lat="48.700115" lon="7.955855">
        <ele>125.570245</ele>
        <time>2022-11-13T14:23:55.208Z</time>
      </trkpt>
      <trkpt lat="48.700660" lon="7.956564">
        <ele>125.888286</ele>
        <time>2022-11-13T14:25:07.874Z</time>
      </trkpt>
      <trkpt lat="48.701095" lon="7.957119">
        <ele>126.140072</ele>
        <time>2022-11-13T14:26:05.748Z</time>
      </trkpt>
      <trkpt lat="48.701282" lon="7.957339">
        <ele>126.446434</ele>
        <time>2022-11-13T14:26:30.053Z</time>
      </trkpt>
      <trkpt lat="48.701673" lon="7.957745">
        <ele>127.101149</ele>
        <time>2022-11-13T14:27:19.626Z</time>
      </trkpt>
      <trkpt lat="48.701995" lon="7.957961">
        <ele>127.587547</ele>
        <time>2022-11-13T14:27:56.987Z</time>
      </trkpt>
      <trkpt lat="48.702750" lon="7.958071">
        <ele>128.634747</ele>
        <time>2022-11-13T14:29:17.620Z</time>
      </trkpt>
      <trkpt lat="48.702944" lon="7.957829">
        <ele>128.828426</ele>
        <time>2022-11-13T14:29:44.400Z</time>
      </trkpt>
      <trkpt lat="48.703279" lon="7.957087">
        <ele>129.285726</ele>
        <time>2022-11-13T14:30:46.711Z</time>
      </trkpt>
      <trkpt lat="48.704293" lon="7.958326">
        <ele>129.677264</ele>
        <time>2022-11-13T14:32:57.871Z</time>
      </trkpt>
      <trkpt lat="48.706653" lon="7.961259">
        <ele>126.258407</ele>
        <time>2022-11-13T14:38:11.820Z</time>
      </trkpt>
      <trkpt lat="48.706642" lon="7.961386">
        <ele>126.153215</ele>
        <time>2022-11-13T14:38:20.445Z</time>
      </trkpt>
      <trkpt lat="48.706575" lon="7.961876">
        <ele>125.900981</ele>
        <time>2022-11-13T14:38:54.097Z</time>
      </trkpt>
      <trkpt lat="48.706522" lon="7.962691">
        <ele>125.620123</ele>
        <time>2022-11-13T14:39:48.825Z</time>
      </trkpt>
      <trkpt lat="48.706654" lon="7.963449">
        <ele>125.351269</ele>
        <time>2022-11-13T14:40:40.975Z</time>
      </trkpt>
      <trkpt lat="48.706665" lon="7.963506">
        <ele>125.330902</ele>
        <time>2022-11-13T14:40:44.891Z</time>
      </trkpt>
      <trkpt lat="48.709409" lon="7.963725">
        <ele>124.639649</ele>
        <time>2022-11-13T14:45:21.498Z</time>
      </trkpt>
      <trkpt lat="48.710053" lon="7.964102">
        <ele>124.639649</ele>
        <time>2022-11-13T14:46:31.141Z</time>
      </trkpt>
      <trkpt lat="48.710551" lon="7.964207">
        <ele>124.639649</ele>
        <time>2022-11-13T14:47:22.000Z</time>
      </trkpt>
      <trkpt lat="48.710570" lon="7.964329">
        <ele>124.639649</ele>
        <time>2022-11-13T14:47:30.267Z</time>
      </trkpt>
      <trkpt lat="48.710619" lon="7.964473">
        <ele>124.639649</ele>
        <time>2022-11-13T14:47:41.055Z</time>
      </trkpt>
      <trkpt lat="48.710708" lon="7.964686">
        <ele>124.639649</ele>
        <time>2022-11-13T14:47:57.959Z</time>
      </trkpt>
      <trkpt lat="48.710494" lon="7.964866">
        <ele>124.639649</ele>
        <time>2022-11-13T14:48:22.581Z</time>
      </trkpt>
    </trkseg>
  </trk>
</gpx>