<?xml version='1.0' encoding='UTF-8'?>
<gpx version="1.1" creator="https://www.komoot.de" xmlns="http://www.topografix.com/GPX/1/1" xmlns:xsi="http://www.w3.org/2001/XMLSchema-instance" xsi:schemaLocation="http://www.topografix.com/GPX/1/1 http://www.topografix.com/GPX/1/1/gpx.xsd">
  <metadata>
    <name>Bad Rappenau 14 km Grenzweg</name>
    <author>
      <link href="https://www.komoot.de">
        <text>komoot</text>
        <type>text/html</type>
      </link>
    </author>
  </metadata>
  <trk>
    <name>Bad Rappenau 14 km Grenzweg</name>
    <trkseg>
      <trkpt lat="49.238256" lon="9.102111">
        <ele>235.108687</ele>
        <time>2022-04-06T07:23:03.380Z</time>
      </trkpt>
      <trkpt lat="49.238203" lon="9.101922">
        <ele>235.108687</ele>
        <time>2022-04-06T07:23:17.183Z</time>
      </trkpt>
      <trkpt lat="49.238158" lon="9.101920">
        <ele>235.108687</ele>
        <time>2022-04-06T07:23:21.741Z</time>
      </trkpt>
      <trkpt lat="49.238110" lon="9.101919">
        <ele>235.108687</ele>
        <time>2022-04-06T07:23:26.648Z</time>
      </trkpt>
      <trkpt lat="49.238069" lon="9.101926">
        <ele>235.108687</ele>
        <time>2022-04-06T07:23:30.853Z</time>
      </trkpt>
      <trkpt lat="49.238069" lon="9.101927">
        <ele>235.108687</ele>
        <time>2022-04-06T07:23:31.018Z</time>
      </trkpt>
      <trkpt lat="49.238069" lon="9.101926">
        <ele>235.108687</ele>
        <time>2022-04-06T07:23:31.257Z</time>
      </trkpt>
      <trkpt lat="49.238053" lon="9.101856">
        <ele>235.108687</ele>
        <time>2022-04-06T07:23:36.279Z</time>
      </trkpt>
      <trkpt lat="49.237896" lon="9.101913">
        <ele>235.108687</ele>
        <time>2022-04-06T07:23:53.306Z</time>
      </trkpt>
      <trkpt lat="49.237897" lon="9.101920">
        <ele>235.108687</ele>
        <time>2022-04-06T07:23:53.750Z</time>
      </trkpt>
      <trkpt lat="49.237903" lon="9.101995">
        <ele>235.108687</ele>
        <time>2022-04-06T07:23:58.900Z</time>
      </trkpt>
      <trkpt lat="49.238042" lon="9.103587">
        <ele>235.579317</ele>
        <time>2022-04-06T07:25:48.187Z</time>
      </trkpt>
      <trkpt lat="49.238060" lon="9.103656">
        <ele>235.612744</ele>
        <time>2022-04-06T07:25:53.228Z</time>
      </trkpt>
      <trkpt lat="49.238054" lon="9.103663">
        <ele>235.617941</ele>
        <time>2022-04-06T07:25:54.301Z</time>
      </trkpt>
      <trkpt lat="49.238060" lon="9.103656">
        <ele>235.623137</ele>
        <time>2022-04-06T07:25:55.180Z</time>
      </trkpt>
      <trkpt lat="49.238076" lon="9.103757">
        <ele>235.669892</ele>
        <time>2022-04-06T07:26:02.225Z</time>
      </trkpt>
      <trkpt lat="49.237914" lon="9.103956">
        <ele>235.812978</ele>
        <time>2022-04-06T07:26:23.544Z</time>
      </trkpt>
      <trkpt lat="49.237885" lon="9.104178">
        <ele>235.914828</ele>
        <time>2022-04-06T07:26:38.572Z</time>
      </trkpt>
      <trkpt lat="49.237879" lon="9.104173">
        <ele>235.919535</ele>
        <time>2022-04-06T07:26:39.272Z</time>
      </trkpt>
      <trkpt lat="49.237885" lon="9.104178">
        <ele>235.924241</ele>
        <time>2022-04-06T07:26:39.943Z</time>
      </trkpt>
      <trkpt lat="49.238342" lon="9.107200">
        <ele>236.907410</ele>
        <time>2022-04-06T07:30:03.468Z</time>
      </trkpt>
      <trkpt lat="49.238578" lon="9.107926">
        <ele>237.377578</ele>
        <time>2022-04-06T07:30:58.613Z</time>
      </trkpt>
      <trkpt lat="49.238539" lon="9.108342">
        <ele>237.991819</ele>
        <time>2022-04-06T07:31:27.277Z</time>
      </trkpt>
      <trkpt lat="49.238576" lon="9.108601">
        <ele>238.379315</ele>
        <time>2022-04-06T07:31:45.823Z</time>
      </trkpt>
      <trkpt lat="49.238560" lon="9.108608">
        <ele>238.416564</ele>
        <time>2022-04-06T07:31:47.740Z</time>
      </trkpt>
      <trkpt lat="49.238576" lon="9.108601">
        <ele>238.453813</ele>
        <time>2022-04-06T07:31:49.502Z</time>
      </trkpt>
      <trkpt lat="49.238715" lon="9.109010">
        <ele>239.127718</ele>
        <time>2022-04-06T07:32:21.511Z</time>
      </trkpt>
      <trkpt lat="49.238734" lon="9.109177">
        <ele>239.375474</ele>
        <time>2022-04-06T07:32:33.505Z</time>
      </trkpt>
      <trkpt lat="49.238693" lon="9.109506">
        <ele>239.865003</ele>
        <time>2022-04-06T07:32:57.368Z</time>
      </trkpt>
      <trkpt lat="49.238589" lon="9.109758">
        <ele>240.300721</ele>
        <time>2022-04-06T07:33:19.039Z</time>
      </trkpt>
      <trkpt lat="49.238581" lon="9.109754">
        <ele>240.319559</ele>
        <time>2022-04-06T07:33:19.901Z</time>
      </trkpt>
      <trkpt lat="49.238373" lon="9.109649">
        <ele>240.809809</ele>
        <time>2022-04-06T07:33:44.704Z</time>
      </trkpt>
      <trkpt lat="49.238251" lon="9.109560">
        <ele>241.115801</ele>
        <time>2022-04-06T07:33:59.636Z</time>
      </trkpt>
      <trkpt lat="49.238171" lon="9.109500">
        <ele>241.343560</ele>
        <time>2022-04-06T07:34:09.565Z</time>
      </trkpt>
      <trkpt lat="49.237912" lon="9.109353">
        <ele>242.049803</ele>
        <time>2022-04-06T07:34:41.037Z</time>
      </trkpt>
      <trkpt lat="49.237911" lon="9.109344">
        <ele>242.065044</ele>
        <time>2022-04-06T07:34:41.677Z</time>
      </trkpt>
      <trkpt lat="49.237912" lon="9.109353">
        <ele>242.080285</ele>
        <time>2022-04-06T07:34:42.459Z</time>
      </trkpt>
      <trkpt lat="49.237984" lon="9.109807">
        <ele>242.860249</ele>
        <time>2022-04-06T07:35:16.981Z</time>
      </trkpt>
      <trkpt lat="49.238020" lon="9.110030">
        <ele>243.243744</ele>
        <time>2022-04-06T07:35:33.548Z</time>
      </trkpt>
      <trkpt lat="49.238072" lon="9.110363">
        <ele>243.815345</ele>
        <time>2022-04-06T07:35:58.426Z</time>
      </trkpt>
      <trkpt lat="49.238103" lon="9.110558">
        <ele>244.150396</ele>
        <time>2022-04-06T07:36:12.539Z</time>
      </trkpt>
      <trkpt lat="49.238163" lon="9.110934">
        <ele>244.796579</ele>
        <time>2022-04-06T07:36:39.107Z</time>
      </trkpt>
      <trkpt lat="49.238215" lon="9.111278">
        <ele>245.386054</ele>
        <time>2022-04-06T07:37:03.319Z</time>
      </trkpt>
      <trkpt lat="49.238222" lon="9.111324">
        <ele>245.464906</ele>
        <time>2022-04-06T07:37:06.512Z</time>
      </trkpt>
      <trkpt lat="49.238245" lon="9.111481">
        <ele>245.689298</ele>
        <time>2022-04-06T07:37:17.459Z</time>
      </trkpt>
      <trkpt lat="49.238309" lon="9.111930">
        <ele>245.732774</ele>
        <time>2022-04-06T07:37:48.726Z</time>
      </trkpt>
      <trkpt lat="49.238310" lon="9.111934">
        <ele>245.733179</ele>
        <time>2022-04-06T07:37:49.106Z</time>
      </trkpt>
      <trkpt lat="49.238330" lon="9.112093">
        <ele>245.748497</ele>
        <time>2022-04-06T07:37:59.883Z</time>
      </trkpt>
      <trkpt lat="49.238342" lon="9.112235">
        <ele>245.762043</ele>
        <time>2022-04-06T07:38:09.426Z</time>
      </trkpt>
      <trkpt lat="49.238392" lon="9.112715">
        <ele>245.808025</ele>
        <time>2022-04-06T07:38:41.423Z</time>
      </trkpt>
      <trkpt lat="49.238101" lon="9.112811">
        <ele>245.851155</ele>
        <time>2022-04-06T07:39:11.367Z</time>
      </trkpt>
      <trkpt lat="49.238090" lon="9.112846">
        <ele>245.854830</ele>
        <time>2022-04-06T07:39:13.940Z</time>
      </trkpt>
      <trkpt lat="49.238101" lon="9.112811">
        <ele>245.858505</ele>
        <time>2022-04-06T07:39:16.602Z</time>
      </trkpt>
      <trkpt lat="49.237753" lon="9.112943">
        <ele>245.910450</ele>
        <time>2022-04-06T07:39:52.567Z</time>
      </trkpt>
      <trkpt lat="49.237678" lon="9.112984">
        <ele>245.921988</ele>
        <time>2022-04-06T07:40:00.715Z</time>
      </trkpt>
      <trkpt lat="49.237470" lon="9.113101">
        <ele>246.001140</ele>
        <time>2022-04-06T07:40:23.435Z</time>
      </trkpt>
      <trkpt lat="49.237225" lon="9.113162">
        <ele>246.284232</ele>
        <time>2022-04-06T07:40:49.156Z</time>
      </trkpt>
      <trkpt lat="49.236491" lon="9.113453">
        <ele>247.148955</ele>
        <time>2022-04-06T07:42:05.428Z</time>
      </trkpt>
      <trkpt lat="49.236475" lon="9.113479">
        <ele>247.175561</ele>
        <time>2022-04-06T07:42:08.075Z</time>
      </trkpt>
      <trkpt lat="49.236491" lon="9.113453">
        <ele>247.202166</ele>
        <time>2022-04-06T07:42:10.462Z</time>
      </trkpt>
      <trkpt lat="49.236496" lon="9.113568">
        <ele>247.287994</ele>
        <time>2022-04-06T07:42:18.584Z</time>
      </trkpt>
      <trkpt lat="49.236533" lon="9.114416">
        <ele>247.920890</ele>
        <time>2022-04-06T07:43:20.049Z</time>
      </trkpt>
      <trkpt lat="49.236515" lon="9.114420">
        <ele>247.941634</ele>
        <time>2022-04-06T07:43:22.302Z</time>
      </trkpt>
      <trkpt lat="49.236286" lon="9.114461">
        <ele>248.560072</ele>
        <time>2022-04-06T07:43:48.147Z</time>
      </trkpt>
      <trkpt lat="49.235514" lon="9.114624">
        <ele>250.982763</ele>
        <time>2022-04-06T07:45:16.327Z</time>
      </trkpt>
      <trkpt lat="49.235041" lon="9.114712">
        <ele>252.464034</ele>
        <time>2022-04-06T07:46:09.618Z</time>
      </trkpt>
      <trkpt lat="49.234894" lon="9.114738">
        <ele>252.924065</ele>
        <time>2022-04-06T07:46:25.896Z</time>
      </trkpt>
      <trkpt lat="49.234541" lon="9.114750">
        <ele>253.642237</ele>
        <time>2022-04-06T07:47:03.817Z</time>
      </trkpt>
      <trkpt lat="49.234352" lon="9.114641">
        <ele>253.717913</ele>
        <time>2022-04-06T07:47:25.287Z</time>
      </trkpt>
      <trkpt lat="49.234290" lon="9.114679">
        <ele>253.742937</ele>
        <time>2022-04-06T07:47:32.280Z</time>
      </trkpt>
      <trkpt lat="49.234060" lon="9.114463">
        <ele>253.844036</ele>
        <time>2022-04-06T07:48:00.242Z</time>
      </trkpt>
      <trkpt lat="49.233980" lon="9.114389">
        <ele>253.879057</ele>
        <time>2022-04-06T07:48:09.681Z</time>
      </trkpt>
      <trkpt lat="49.233892" lon="9.114308">
        <ele>253.917530</ele>
        <time>2022-04-06T07:48:20.053Z</time>
      </trkpt>
      <trkpt lat="49.233405" lon="9.113856">
        <ele>254.130914</ele>
        <time>2022-04-06T07:49:17.486Z</time>
      </trkpt>
      <trkpt lat="49.233377" lon="9.113829">
        <ele>254.143313</ele>
        <time>2022-04-06T07:49:20.831Z</time>
      </trkpt>
      <trkpt lat="49.233311" lon="9.113756">
        <ele>254.173820</ele>
        <time>2022-04-06T07:49:29.242Z</time>
      </trkpt>
      <trkpt lat="49.233285" lon="9.113781">
        <ele>254.185324</ele>
        <time>2022-04-06T07:49:32.341Z</time>
      </trkpt>
      <trkpt lat="49.233264" lon="9.113801">
        <ele>254.194590</ele>
        <time>2022-04-06T07:49:34.831Z</time>
      </trkpt>
      <trkpt lat="49.233301" lon="9.114060">
        <ele>254.259462</ele>
        <time>2022-04-06T07:49:52.419Z</time>
      </trkpt>
      <trkpt lat="49.233336" lon="9.114445">
        <ele>254.155118</ele>
        <time>2022-04-06T07:50:18.417Z</time>
      </trkpt>
      <trkpt lat="49.233351" lon="9.114618">
        <ele>254.103570</ele>
        <time>2022-04-06T07:50:30.021Z</time>
      </trkpt>
      <trkpt lat="49.233621" lon="9.116669">
        <ele>253.485582</ele>
        <time>2022-04-06T07:52:47.442Z</time>
      </trkpt>
      <trkpt lat="49.234060" lon="9.120010">
        <ele>251.484806</ele>
        <time>2022-04-06T07:56:33.408Z</time>
      </trkpt>
      <trkpt lat="49.234469" lon="9.123585">
        <ele>245.906170</ele>
        <time>2022-04-06T08:00:41.510Z</time>
      </trkpt>
      <trkpt lat="49.235067" lon="9.127957">
        <ele>234.333034</ele>
        <time>2022-04-06T08:05:58.077Z</time>
      </trkpt>
      <trkpt lat="49.235128" lon="9.128324">
        <ele>233.189697</ele>
        <time>2022-04-06T08:06:25.937Z</time>
      </trkpt>
      <trkpt lat="49.235541" lon="9.130809">
        <ele>225.914599</ele>
        <time>2022-04-06T08:09:29.293Z</time>
      </trkpt>
      <trkpt lat="49.235589" lon="9.131371">
        <ele>224.679021</ele>
        <time>2022-04-06T08:10:08.792Z</time>
      </trkpt>
      <trkpt lat="49.235843" lon="9.132691">
        <ele>221.679122</ele>
        <time>2022-04-06T08:11:43.960Z</time>
      </trkpt>
      <trkpt lat="49.236038" lon="9.133445">
        <ele>219.909357</ele>
        <time>2022-04-06T08:12:39.868Z</time>
      </trkpt>
      <trkpt lat="49.236553" lon="9.135440">
        <ele>215.225703</ele>
        <time>2022-04-06T08:15:10.203Z</time>
      </trkpt>
      <trkpt lat="49.236608" lon="9.135683">
        <ele>214.643368</ele>
        <time>2022-04-06T08:15:28.301Z</time>
      </trkpt>
      <trkpt lat="49.236852" lon="9.136807">
        <ele>211.935752</ele>
        <time>2022-04-06T08:16:51.006Z</time>
      </trkpt>
      <trkpt lat="49.236881" lon="9.137734">
        <ele>209.814312</ele>
        <time>2022-04-06T08:17:55.994Z</time>
      </trkpt>
      <trkpt lat="49.236917" lon="9.139797">
        <ele>204.829358</ele>
        <time>2022-04-06T08:20:21.131Z</time>
      </trkpt>
      <trkpt lat="49.236970" lon="9.142861">
        <ele>198.088389</ele>
        <time>2022-04-06T08:23:57.069Z</time>
      </trkpt>
      <trkpt lat="49.236879" lon="9.143269">
        <ele>197.203444</ele>
        <time>2022-04-06T08:24:26.708Z</time>
      </trkpt>
      <trkpt lat="49.236700" lon="9.143700">
        <ele>196.369206</ele>
        <time>2022-04-06T08:25:01.231Z</time>
      </trkpt>
      <trkpt lat="49.236665" lon="9.145081">
        <ele>195.955819</ele>
        <time>2022-04-06T08:26:32.703Z</time>
      </trkpt>
      <trkpt lat="49.236653" lon="9.145234">
        <ele>195.909726</ele>
        <time>2022-04-06T08:26:42.989Z</time>
      </trkpt>
      <trkpt lat="49.236624" lon="9.145250">
        <ele>195.895605</ele>
        <time>2022-04-06T08:26:46.210Z</time>
      </trkpt>
      <trkpt lat="49.236653" lon="9.145234">
        <ele>195.881484</ele>
        <time>2022-04-06T08:26:49.399Z</time>
      </trkpt>
      <trkpt lat="49.236659" lon="9.145406">
        <ele>195.829963</ele>
        <time>2022-04-06T08:27:00.657Z</time>
      </trkpt>
      <trkpt lat="49.236663" lon="9.145471">
        <ele>195.810434</ele>
        <time>2022-04-06T08:27:04.949Z</time>
      </trkpt>
      <trkpt lat="49.236922" lon="9.145437">
        <ele>195.691350</ele>
        <time>2022-04-06T08:27:30.999Z</time>
      </trkpt>
      <trkpt lat="49.237468" lon="9.145550">
        <ele>195.341411</ele>
        <time>2022-04-06T08:28:27.083Z</time>
      </trkpt>
      <trkpt lat="49.237875" lon="9.145438">
        <ele>195.022607</ele>
        <time>2022-04-06T08:29:09.143Z</time>
      </trkpt>
      <trkpt lat="49.237909" lon="9.145429">
        <ele>194.996006</ele>
        <time>2022-04-06T08:29:12.638Z</time>
      </trkpt>
      <trkpt lat="49.238971" lon="9.146245">
        <ele>193.715475</ele>
        <time>2022-04-06T08:31:14.975Z</time>
      </trkpt>
      <trkpt lat="49.239770" lon="9.147935">
        <ele>189.339110</ele>
        <time>2022-04-06T08:33:40.673Z</time>
      </trkpt>
      <trkpt lat="49.240234" lon="9.148400">
        <ele>187.270521</ele>
        <time>2022-04-06T08:34:41.076Z</time>
      </trkpt>
      <trkpt lat="49.240418" lon="9.148497">
        <ele>186.436377</ele>
        <time>2022-04-06T08:35:02.009Z</time>
      </trkpt>
      <trkpt lat="49.240858" lon="9.148689">
        <ele>184.475227</ele>
        <time>2022-04-06T08:35:52.193Z</time>
      </trkpt>
      <trkpt lat="49.241231" lon="9.149145">
        <ele>182.429477</ele>
        <time>2022-04-06T08:36:44.660Z</time>
      </trkpt>
      <trkpt lat="49.241681" lon="9.149711">
        <ele>180.385737</ele>
        <time>2022-04-06T08:37:47.209Z</time>
      </trkpt>
      <trkpt lat="49.241656" lon="9.149776">
        <ele>180.298051</ele>
        <time>2022-04-06T08:37:52.900Z</time>
      </trkpt>
      <trkpt lat="49.241632" lon="9.149838">
        <ele>180.214272</ele>
        <time>2022-04-06T08:37:58.326Z</time>
      </trkpt>
      <trkpt lat="49.241975" lon="9.150441">
        <ele>179.284693</ele>
        <time>2022-04-06T08:38:53.374Z</time>
      </trkpt>
      <trkpt lat="49.242390" lon="9.150646">
        <ele>178.508389</ele>
        <time>2022-04-06T08:39:38.494Z</time>
      </trkpt>
      <trkpt lat="49.242604" lon="9.150630">
        <ele>178.126948</ele>
        <time>2022-04-06T08:40:00.755Z</time>
      </trkpt>
      <trkpt lat="49.242805" lon="9.149700">
        <ele>178.695830</ele>
        <time>2022-04-06T08:41:06.167Z</time>
      </trkpt>
      <trkpt lat="49.242916" lon="9.149192">
        <ele>180.131528</ele>
        <time>2022-04-06T08:41:44.686Z</time>
      </trkpt>
      <trkpt lat="49.243616" lon="9.146109">
        <ele>190.070824</ele>
        <time>2022-04-06T08:46:00.277Z</time>
      </trkpt>
      <trkpt lat="49.244058" lon="9.143622">
        <ele>197.744879</ele>
        <time>2022-04-06T08:49:16.920Z</time>
      </trkpt>
      <trkpt lat="49.243964" lon="9.143001">
        <ele>199.333550</ele>
        <time>2022-04-06T08:50:03.630Z</time>
      </trkpt>
      <trkpt lat="49.243885" lon="9.142476">
        <ele>200.676229</ele>
        <time>2022-04-06T08:50:41.827Z</time>
      </trkpt>
      <trkpt lat="49.243877" lon="9.142463">
        <ele>200.720751</ele>
        <time>2022-04-06T08:50:43.772Z</time>
      </trkpt>
      <trkpt lat="49.243885" lon="9.142476">
        <ele>200.765274</ele>
        <time>2022-04-06T08:50:45.142Z</time>
      </trkpt>
      <trkpt lat="49.243949" lon="9.142427">
        <ele>201.038405</ele>
        <time>2022-04-06T08:50:52.998Z</time>
      </trkpt>
      <trkpt lat="49.244138" lon="9.142284">
        <ele>201.768218</ele>
        <time>2022-04-06T08:51:15.687Z</time>
      </trkpt>
      <trkpt lat="49.244172" lon="9.142257">
        <ele>201.892551</ele>
        <time>2022-04-06T08:51:19.848Z</time>
      </trkpt>
      <trkpt lat="49.243992" lon="9.141642">
        <ele>203.321015</ele>
        <time>2022-04-06T08:52:08.096Z</time>
      </trkpt>
      <trkpt lat="49.243456" lon="9.140575">
        <ele>206.174490</ele>
        <time>2022-04-06T08:53:46.203Z</time>
      </trkpt>
      <trkpt lat="49.243292" lon="9.140129">
        <ele>207.303273</ele>
        <time>2022-04-06T08:54:23.699Z</time>
      </trkpt>
      <trkpt lat="49.243280" lon="9.140096">
        <ele>207.428498</ele>
        <time>2022-04-06T08:54:26.797Z</time>
      </trkpt>
      <trkpt lat="49.243375" lon="9.140030">
        <ele>207.958201</ele>
        <time>2022-04-06T08:54:39.242Z</time>
      </trkpt>
      <trkpt lat="49.243471" lon="9.139805">
        <ele>208.849270</ele>
        <time>2022-04-06T08:54:58.779Z</time>
      </trkpt>
      <trkpt lat="49.243483" lon="9.139424">
        <ele>210.113795</ele>
        <time>2022-04-06T08:55:28.275Z</time>
      </trkpt>
      <trkpt lat="49.243405" lon="9.138906">
        <ele>211.876108</ele>
        <time>2022-04-06T08:56:09.487Z</time>
      </trkpt>
      <trkpt lat="49.243168" lon="9.138186">
        <ele>214.549227</ele>
        <time>2022-04-06T08:57:12.384Z</time>
      </trkpt>
      <trkpt lat="49.243142" lon="9.138126">
        <ele>214.787963</ele>
        <time>2022-04-06T08:57:18.346Z</time>
      </trkpt>
      <trkpt lat="49.243201" lon="9.137848">
        <ele>215.757043</ele>
        <time>2022-04-06T08:57:41.572Z</time>
      </trkpt>
      <trkpt lat="49.243197" lon="9.137508">
        <ele>216.627744</ele>
        <time>2022-04-06T08:58:07.948Z</time>
      </trkpt>
      <trkpt lat="49.243255" lon="9.137170">
        <ele>217.264088</ele>
        <time>2022-04-06T08:58:34.685Z</time>
      </trkpt>
      <trkpt lat="49.243335" lon="9.136915">
        <ele>217.779227</ele>
        <time>2022-04-06T08:58:55.962Z</time>
      </trkpt>
      <trkpt lat="49.243459" lon="9.136494">
        <ele>218.620196</ele>
        <time>2022-04-06T08:59:29.576Z</time>
      </trkpt>
      <trkpt lat="49.243477" lon="9.136162">
        <ele>219.226789</ele>
        <time>2022-04-06T08:59:53.226Z</time>
      </trkpt>
      <trkpt lat="49.243477" lon="9.136162">
        <ele>219.226789</ele>
        <time>2022-04-06T08:59:53.504Z</time>
      </trkpt>
      <trkpt lat="49.243651" lon="9.135892">
        <ele>219.917586</ele>
        <time>2022-04-06T09:00:20.152Z</time>
      </trkpt>
      <trkpt lat="49.244004" lon="9.135767">
        <ele>220.928085</ele>
        <time>2022-04-06T09:00:58.158Z</time>
      </trkpt>
      <trkpt lat="49.244536" lon="9.135629">
        <ele>221.137804</ele>
        <time>2022-04-06T09:01:52.212Z</time>
      </trkpt>
      <trkpt lat="49.244889" lon="9.135575">
        <ele>220.963768</ele>
        <time>2022-04-06T09:02:29.192Z</time>
      </trkpt>
      <trkpt lat="49.245353" lon="9.135520">
        <ele>220.735460</ele>
        <time>2022-04-06T09:03:17.108Z</time>
      </trkpt>
      <trkpt lat="49.245442" lon="9.135573">
        <ele>220.688615</ele>
        <time>2022-04-06T09:03:26.839Z</time>
      </trkpt>
      <trkpt lat="49.245492" lon="9.135666">
        <ele>220.650031</ele>
        <time>2022-04-06T09:03:35.163Z</time>
      </trkpt>
      <trkpt lat="49.245638" lon="9.136632">
        <ele>221.139531</ele>
        <time>2022-04-06T09:04:40.014Z</time>
      </trkpt>
      <trkpt lat="49.245713" lon="9.136786">
        <ele>221.503572</ele>
        <time>2022-04-06T09:04:52.716Z</time>
      </trkpt>
      <trkpt lat="49.245722" lon="9.136826">
        <ele>221.583737</ele>
        <time>2022-04-06T09:04:55.610Z</time>
      </trkpt>
      <trkpt lat="49.245713" lon="9.136786">
        <ele>221.663902</ele>
        <time>2022-04-06T09:04:58.863Z</time>
      </trkpt>
      <trkpt lat="49.245811" lon="9.136837">
        <ele>221.964304</ele>
        <time>2022-04-06T09:05:10.422Z</time>
      </trkpt>
      <trkpt lat="49.246296" lon="9.136695">
        <ele>223.397452</ele>
        <time>2022-04-06T09:06:05.289Z</time>
      </trkpt>
      <trkpt lat="49.246778" lon="9.136529">
        <ele>224.831331</ele>
        <time>2022-04-06T09:07:02.359Z</time>
      </trkpt>
      <trkpt lat="49.247057" lon="9.136433">
        <ele>225.661279</ele>
        <time>2022-04-06T09:07:35.828Z</time>
      </trkpt>
      <trkpt lat="49.248306" lon="9.136563">
        <ele>229.621744</ele>
        <time>2022-04-06T09:10:00.666Z</time>
      </trkpt>
      <trkpt lat="49.249261" lon="9.136627">
        <ele>230.903013</ele>
        <time>2022-04-06T09:11:38.297Z</time>
      </trkpt>
      <trkpt lat="49.249634" lon="9.136583">
        <ele>230.481458</ele>
        <time>2022-04-06T09:12:16.931Z</time>
      </trkpt>
      <trkpt lat="49.250329" lon="9.136403">
        <ele>229.687192</ele>
        <time>2022-04-06T09:13:30.819Z</time>
      </trkpt>
      <trkpt lat="49.251159" lon="9.136198">
        <ele>229.582148</ele>
        <time>2022-04-06T09:14:57.513Z</time>
      </trkpt>
      <trkpt lat="49.251147" lon="9.136320">
        <ele>229.620035</ele>
        <time>2022-04-06T09:15:05.929Z</time>
      </trkpt>
      <trkpt lat="49.251159" lon="9.136198">
        <ele>229.657922</ele>
        <time>2022-04-06T09:15:14.411Z</time>
      </trkpt>
      <trkpt lat="49.251385" lon="9.136156">
        <ele>229.765022</ele>
        <time>2022-04-06T09:15:37.479Z</time>
      </trkpt>
      <trkpt lat="49.251872" lon="9.136097">
        <ele>229.994846</ele>
        <time>2022-04-06T09:16:28.107Z</time>
      </trkpt>
      <trkpt lat="49.253112" lon="9.136321">
        <ele>232.753887</ele>
        <time>2022-04-06T09:18:46.922Z</time>
      </trkpt>
      <trkpt lat="49.253843" lon="9.136677">
        <ele>235.064052</ele>
        <time>2022-04-06T09:20:13.033Z</time>
      </trkpt>
      <trkpt lat="49.254309" lon="9.136796">
        <ele>235.925860</ele>
        <time>2022-04-06T09:21:05.118Z</time>
      </trkpt>
      <trkpt lat="49.254205" lon="9.132469">
        <ele>237.412739</ele>
        <time>2022-04-06T09:25:53.637Z</time>
      </trkpt>
      <trkpt lat="49.254111" lon="9.131330">
        <ele>236.768009</ele>
        <time>2022-04-06T09:27:11.311Z</time>
      </trkpt>
      <trkpt lat="49.253853" lon="9.130000">
        <ele>234.854213</ele>
        <time>2022-04-06T09:28:45.470Z</time>
      </trkpt>
      <trkpt lat="49.253842" lon="9.129922">
        <ele>234.744144</ele>
        <time>2022-04-06T09:28:51.519Z</time>
      </trkpt>
      <trkpt lat="49.253353" lon="9.126562">
        <ele>229.159789</ele>
        <time>2022-04-06T09:32:47.759Z</time>
      </trkpt>
      <trkpt lat="49.253018" lon="9.126341">
        <ele>228.107311</ele>
        <time>2022-04-06T09:33:26.730Z</time>
      </trkpt>
      <trkpt lat="49.253028" lon="9.126415">
        <ele>227.958417</ele>
        <time>2022-04-06T09:33:31.883Z</time>
      </trkpt>
      <trkpt lat="49.253018" lon="9.126341">
        <ele>227.809523</ele>
        <time>2022-04-06T09:33:37.437Z</time>
      </trkpt>
      <trkpt lat="49.253033" lon="9.126021">
        <ele>227.177404</ele>
        <time>2022-04-06T09:33:59.419Z</time>
      </trkpt>
      <trkpt lat="49.253098" lon="9.125949">
        <ele>226.935283</ele>
        <time>2022-04-06T09:34:08.274Z</time>
      </trkpt>
      <trkpt lat="49.253222" lon="9.125812">
        <ele>226.473799</ele>
        <time>2022-04-06T09:34:24.931Z</time>
      </trkpt>
      <trkpt lat="49.253011" lon="9.125196">
        <ele>225.103126</ele>
        <time>2022-04-06T09:35:12.777Z</time>
      </trkpt>
      <trkpt lat="49.252932" lon="9.124807">
        <ele>224.300438</ele>
        <time>2022-04-06T09:35:41.646Z</time>
      </trkpt>
      <trkpt lat="49.252863" lon="9.124804">
        <ele>224.092071</ele>
        <time>2022-04-06T09:35:48.867Z</time>
      </trkpt>
      <trkpt lat="49.252842" lon="9.124829">
        <ele>224.011792</ele>
        <time>2022-04-06T09:35:51.667Z</time>
      </trkpt>
      <trkpt lat="49.252863" lon="9.124804">
        <ele>223.931513</ele>
        <time>2022-04-06T09:35:54.426Z</time>
      </trkpt>
      <trkpt lat="49.252932" lon="9.124807">
        <ele>223.723146</ele>
        <time>2022-04-06T09:36:02.097Z</time>
      </trkpt>
      <trkpt lat="49.252925" lon="9.124738">
        <ele>223.585563</ele>
        <time>2022-04-06T09:36:06.764Z</time>
      </trkpt>
      <trkpt lat="49.252884" lon="9.124742">
        <ele>223.461550</ele>
        <time>2022-04-06T09:36:11.390Z</time>
      </trkpt>
      <trkpt lat="49.252800" lon="9.124285">
        <ele>223.177888</ele>
        <time>2022-04-06T09:36:44.061Z</time>
      </trkpt>
      <trkpt lat="49.252644" lon="9.124381">
        <ele>223.040584</ele>
        <time>2022-04-06T09:37:01.392Z</time>
      </trkpt>
      <trkpt lat="49.252441" lon="9.124737">
        <ele>222.788580</ele>
        <time>2022-04-06T09:37:33.504Z</time>
      </trkpt>
      <trkpt lat="49.251253" lon="9.126737">
        <ele>222.317841</ele>
        <time>2022-04-06T09:40:32.162Z</time>
      </trkpt>
      <trkpt lat="49.250304" lon="9.128805">
        <ele>223.129253</ele>
        <time>2022-04-06T09:43:21.074Z</time>
      </trkpt>
      <trkpt lat="49.250049" lon="9.129022">
        <ele>223.270057</ele>
        <time>2022-04-06T09:43:50.727Z</time>
      </trkpt>
      <trkpt lat="49.249774" lon="9.129017">
        <ele>223.402808</ele>
        <time>2022-04-06T09:44:18.711Z</time>
      </trkpt>
      <trkpt lat="49.249599" lon="9.128927">
        <ele>223.491914</ele>
        <time>2022-04-06T09:44:37.534Z</time>
      </trkpt>
      <trkpt lat="49.249561" lon="9.128901">
        <ele>223.512003</ele>
        <time>2022-04-06T09:44:41.783Z</time>
      </trkpt>
      <trkpt lat="49.248592" lon="9.128253">
        <ele>223.994511</ele>
        <time>2022-04-06T09:46:28.677Z</time>
      </trkpt>
      <trkpt lat="49.247701" lon="9.126969">
        <ele>224.579559</ele>
        <time>2022-04-06T09:48:32.919Z</time>
      </trkpt>
      <trkpt lat="49.247511" lon="9.127064">
        <ele>224.809803</ele>
        <time>2022-04-06T09:48:53.313Z</time>
      </trkpt>
      <trkpt lat="49.247474" lon="9.127112">
        <ele>224.865659</ele>
        <time>2022-04-06T09:48:58.566Z</time>
      </trkpt>
      <trkpt lat="49.246935" lon="9.127814">
        <ele>225.680677</ele>
        <time>2022-04-06T09:50:12.943Z</time>
      </trkpt>
      <trkpt lat="49.245862" lon="9.129253">
        <ele>227.687813</ele>
        <time>2022-04-06T09:52:41.788Z</time>
      </trkpt>
      <trkpt lat="49.245837" lon="9.129132">
        <ele>227.829680</ele>
        <time>2022-04-06T09:52:50.544Z</time>
      </trkpt>
      <trkpt lat="49.245822" lon="9.129049">
        <ele>227.925948</ele>
        <time>2022-04-06T09:52:56.351Z</time>
      </trkpt>
      <trkpt lat="49.245704" lon="9.128391">
        <ele>228.688717</ele>
        <time>2022-04-06T09:53:43.871Z</time>
      </trkpt>
      <trkpt lat="49.245531" lon="9.127765">
        <ele>229.448589</ele>
        <time>2022-04-06T09:54:31.781Z</time>
      </trkpt>
      <trkpt lat="49.245491" lon="9.127646">
        <ele>229.598207</ele>
        <time>2022-04-06T09:54:41.267Z</time>
      </trkpt>
      <trkpt lat="49.245276" lon="9.126906">
        <ele>230.991631</ele>
        <time>2022-04-06T09:55:38.509Z</time>
      </trkpt>
      <trkpt lat="49.244957" lon="9.126046">
        <ele>232.732717</ele>
        <time>2022-04-06T09:56:48.834Z</time>
      </trkpt>
      <trkpt lat="49.244615" lon="9.125470">
        <ele>234.103237</ele>
        <time>2022-04-06T09:57:45.523Z</time>
      </trkpt>
      <trkpt lat="49.244090" lon="9.124307">
        <ele>236.371125</ele>
        <time>2022-04-06T09:59:28.214Z</time>
      </trkpt>
      <trkpt lat="49.243581" lon="9.122762">
        <ele>238.937046</ele>
        <time>2022-04-06T10:01:28.627Z</time>
      </trkpt>
      <trkpt lat="49.243242" lon="9.121427">
        <ele>239.792690</ele>
        <time>2022-04-06T10:03:07.254Z</time>
      </trkpt>
      <trkpt lat="49.242614" lon="9.119711">
        <ele>239.971297</ele>
        <time>2022-04-06T10:05:16.097Z</time>
      </trkpt>
      <trkpt lat="49.242258" lon="9.118594">
        <ele>239.177502</ele>
        <time>2022-04-06T10:06:39.887Z</time>
      </trkpt>
      <trkpt lat="49.241671" lon="9.116639">
        <ele>237.791644</ele>
        <time>2022-04-06T10:09:04.253Z</time>
      </trkpt>
      <trkpt lat="49.241624" lon="9.116677">
        <ele>237.739002</ele>
        <time>2022-04-06T10:09:09.914Z</time>
      </trkpt>
      <trkpt lat="49.241364" lon="9.116888">
        <ele>237.447554</ele>
        <time>2022-04-06T10:09:40.244Z</time>
      </trkpt>
      <trkpt lat="49.241242" lon="9.117032">
        <ele>237.294993</ele>
        <time>2022-04-06T10:09:55.736Z</time>
      </trkpt>
      <trkpt lat="49.241215" lon="9.117226">
        <ele>237.166718</ele>
        <time>2022-04-06T10:10:09.044Z</time>
      </trkpt>
      <trkpt lat="49.241285" lon="9.118482">
        <ele>236.361250</ele>
        <time>2022-04-06T10:11:32.304Z</time>
      </trkpt>
      <trkpt lat="49.241272" lon="9.118968">
        <ele>236.051850</ele>
        <time>2022-04-06T10:12:04.171Z</time>
      </trkpt>
      <trkpt lat="49.241100" lon="9.120100">
        <ele>235.312547</ele>
        <time>2022-04-06T10:13:22.197Z</time>
      </trkpt>
      <trkpt lat="49.240609" lon="9.121702">
        <ele>233.782748</ele>
        <time>2022-04-06T10:15:22.196Z</time>
      </trkpt>
      <trkpt lat="49.240234" lon="9.122917">
        <ele>232.807373</ele>
        <time>2022-04-06T10:16:51.943Z</time>
      </trkpt>
      <trkpt lat="49.240234" lon="9.122917">
        <ele>232.807373</ele>
        <time>2022-04-06T10:16:52.078Z</time>
      </trkpt>
      <trkpt lat="49.240234" lon="9.122917">
        <ele>232.807373</ele>
        <time>2022-04-06T10:16:52.273Z</time>
      </trkpt>
      <trkpt lat="49.239881" lon="9.122720">
        <ele>233.046665</ele>
        <time>2022-04-06T10:17:30.173Z</time>
      </trkpt>
      <trkpt lat="49.239826" lon="9.122703">
        <ele>233.082401</ele>
        <time>2022-04-06T10:17:35.840Z</time>
      </trkpt>
      <trkpt lat="49.238979" lon="9.122383">
        <ele>233.638040</ele>
        <time>2022-04-06T10:19:03.873Z</time>
      </trkpt>
      <trkpt lat="49.237511" lon="9.121887">
        <ele>237.592426</ele>
        <time>2022-04-06T10:21:50.586Z</time>
      </trkpt>
      <trkpt lat="49.236888" lon="9.122096">
        <ele>239.704961</ele>
        <time>2022-04-06T10:23:03.579Z</time>
      </trkpt>
      <trkpt lat="49.236877" lon="9.122102">
        <ele>239.743639</ele>
        <time>2022-04-06T10:23:05.702Z</time>
      </trkpt>
      <trkpt lat="49.236888" lon="9.122096">
        <ele>239.782317</ele>
        <time>2022-04-06T10:23:07.137Z</time>
      </trkpt>
      <trkpt lat="49.236847" lon="9.120369">
        <ele>243.035587</ele>
        <time>2022-04-06T10:25:14.987Z</time>
      </trkpt>
      <trkpt lat="49.236832" lon="9.120152">
        <ele>243.445422</ele>
        <time>2022-04-06T10:25:30.663Z</time>
      </trkpt>
      <trkpt lat="49.236742" lon="9.119150">
        <ele>244.969346</ele>
        <time>2022-04-06T10:26:40.891Z</time>
      </trkpt>
      <trkpt lat="49.236718" lon="9.118877">
        <ele>244.900263</ele>
        <time>2022-04-06T10:26:59.116Z</time>
      </trkpt>
      <trkpt lat="49.236700" lon="9.118347">
        <ele>244.767166</ele>
        <time>2022-04-06T10:27:34.229Z</time>
      </trkpt>
      <trkpt lat="49.236624" lon="9.117740">
        <ele>244.612165</ele>
        <time>2022-04-06T10:28:15.405Z</time>
      </trkpt>
      <trkpt lat="49.236604" lon="9.117534">
        <ele>244.559935</ele>
        <time>2022-04-06T10:28:29.131Z</time>
      </trkpt>
      <trkpt lat="49.236610" lon="9.116847">
        <ele>244.387628</ele>
        <time>2022-04-06T10:29:14.722Z</time>
      </trkpt>
      <trkpt lat="49.236611" lon="9.116847">
        <ele>244.387244</ele>
        <time>2022-04-06T10:29:15.514Z</time>
      </trkpt>
      <trkpt lat="49.237257" lon="9.116454">
        <ele>244.124555</ele>
        <time>2022-04-06T10:30:25.862Z</time>
      </trkpt>
      <trkpt lat="49.237411" lon="9.116359">
        <ele>244.062139</ele>
        <time>2022-04-06T10:30:43.077Z</time>
      </trkpt>
      <trkpt lat="49.237422" lon="9.116351">
        <ele>244.057561</ele>
        <time>2022-04-06T10:30:44.310Z</time>
      </trkpt>
      <trkpt lat="49.237744" lon="9.116169">
        <ele>243.928525</ele>
        <time>2022-04-06T10:31:19.206Z</time>
      </trkpt>
      <trkpt lat="49.237905" lon="9.115953">
        <ele>243.848059</ele>
        <time>2022-04-06T10:31:40.879Z</time>
      </trkpt>
      <trkpt lat="49.237865" lon="9.115317">
        <ele>243.691220</ele>
        <time>2022-04-06T10:32:23.126Z</time>
      </trkpt>
      <trkpt lat="49.237843" lon="9.115313">
        <ele>243.682891</ele>
        <time>2022-04-06T10:32:25.438Z</time>
      </trkpt>
      <trkpt lat="49.237865" lon="9.115317">
        <ele>243.674563</ele>
        <time>2022-04-06T10:32:27.824Z</time>
      </trkpt>
      <trkpt lat="49.238157" lon="9.115241">
        <ele>243.907356</ele>
        <time>2022-04-06T10:32:58.531Z</time>
      </trkpt>
      <trkpt lat="49.238157" lon="9.115241">
        <ele>243.907356</ele>
        <time>2022-04-06T10:32:58.602Z</time>
      </trkpt>
      <trkpt lat="49.238157" lon="9.115241">
        <ele>243.907356</ele>
        <time>2022-04-06T10:32:58.652Z</time>
      </trkpt>
      <trkpt lat="49.238186" lon="9.115464">
        <ele>244.081995</ele>
        <time>2022-04-06T10:33:14.162Z</time>
      </trkpt>
      <trkpt lat="49.238232" lon="9.115451">
        <ele>244.137020</ele>
        <time>2022-04-06T10:33:19.167Z</time>
      </trkpt>
      <trkpt lat="49.238341" lon="9.116205">
        <ele>244.730153</ele>
        <time>2022-04-06T10:34:13.238Z</time>
      </trkpt>
      <trkpt lat="49.238417" lon="9.116742">
        <ele>245.152171</ele>
        <time>2022-04-06T10:34:51.244Z</time>
      </trkpt>
      <trkpt lat="49.238368" lon="9.116758">
        <ele>245.211107</ele>
        <time>2022-04-06T10:34:56.315Z</time>
      </trkpt>
      <trkpt lat="49.238417" lon="9.116742">
        <ele>245.270043</ele>
        <time>2022-04-06T10:35:01.595Z</time>
      </trkpt>
      <trkpt lat="49.238610" lon="9.116679">
        <ele>245.502175</ele>
        <time>2022-04-06T10:35:22.185Z</time>
      </trkpt>
      <trkpt lat="49.238944" lon="9.116571">
        <ele>245.772452</ele>
        <time>2022-04-06T10:35:57.206Z</time>
      </trkpt>
      <trkpt lat="49.239367" lon="9.116432">
        <ele>245.808751</ele>
        <time>2022-04-06T10:36:41.457Z</time>
      </trkpt>
      <trkpt lat="49.239450" lon="9.116401">
        <ele>245.815919</ele>
        <time>2022-04-06T10:36:50.267Z</time>
      </trkpt>
      <trkpt lat="49.239523" lon="9.116375">
        <ele>245.822208</ele>
        <time>2022-04-06T10:36:58.037Z</time>
      </trkpt>
      <trkpt lat="49.239539" lon="9.116369">
        <ele>245.823590</ele>
        <time>2022-04-06T10:36:59.812Z</time>
      </trkpt>
      <trkpt lat="49.239689" lon="9.116349">
        <ele>245.836223</ele>
        <time>2022-04-06T10:37:15.137Z</time>
      </trkpt>
      <trkpt lat="49.239840" lon="9.116250">
        <ele>245.850004</ele>
        <time>2022-04-06T10:37:31.976Z</time>
      </trkpt>
      <trkpt lat="49.239930" lon="9.115989">
        <ele>245.866173</ele>
        <time>2022-04-06T10:37:52.194Z</time>
      </trkpt>
      <trkpt lat="49.239943" lon="9.115949">
        <ele>245.868621</ele>
        <time>2022-04-06T10:37:55.273Z</time>
      </trkpt>
      <trkpt lat="49.239873" lon="9.115381">
        <ele>245.900286</ele>
        <time>2022-04-06T10:38:33.354Z</time>
      </trkpt>
      <trkpt lat="49.239809" lon="9.114973">
        <ele>245.605066</ele>
        <time>2022-04-06T10:39:01.598Z</time>
      </trkpt>
      <trkpt lat="49.239671" lon="9.114078">
        <ele>244.050805</ele>
        <time>2022-04-06T10:40:05.456Z</time>
      </trkpt>
      <trkpt lat="49.239671" lon="9.114078">
        <ele>244.050805</ele>
        <time>2022-04-06T10:40:05.830Z</time>
      </trkpt>
      <trkpt lat="49.239820" lon="9.114009">
        <ele>243.647853</ele>
        <time>2022-04-06T10:40:22.358Z</time>
      </trkpt>
      <trkpt lat="49.240510" lon="9.113436">
        <ele>241.616047</ele>
        <time>2022-04-06T10:41:45.620Z</time>
      </trkpt>
      <trkpt lat="49.240524" lon="9.113425">
        <ele>241.575316</ele>
        <time>2022-04-06T10:41:47.243Z</time>
      </trkpt>
      <trkpt lat="49.240574" lon="9.113386">
        <ele>241.430067</ele>
        <time>2022-04-06T10:41:53.252Z</time>
      </trkpt>
      <trkpt lat="49.240525" lon="9.113426">
        <ele>241.286333</ele>
        <time>2022-04-06T10:41:59.066Z</time>
      </trkpt>
      <trkpt lat="49.240574" lon="9.113427">
        <ele>241.155193</ele>
        <time>2022-04-06T10:42:04.221Z</time>
      </trkpt>
      <trkpt lat="49.240561" lon="9.113368">
        <ele>241.045340</ele>
        <time>2022-04-06T10:42:08.482Z</time>
      </trkpt>
      <trkpt lat="49.240523" lon="9.113418">
        <ele>240.909974</ele>
        <time>2022-04-06T10:42:13.752Z</time>
      </trkpt>
      <trkpt lat="49.240577" lon="9.113434">
        <ele>240.761354</ele>
        <time>2022-04-06T10:42:19.796Z</time>
      </trkpt>
      <trkpt lat="49.240597" lon="9.113425">
        <ele>240.705028</ele>
        <time>2022-04-06T10:42:22.007Z</time>
      </trkpt>
      <trkpt lat="49.240589" lon="9.113386">
        <ele>240.632909</ele>
        <time>2022-04-06T10:42:24.846Z</time>
      </trkpt>
      <trkpt lat="49.240581" lon="9.113390">
        <ele>240.610170</ele>
        <time>2022-04-06T10:42:25.725Z</time>
      </trkpt>
      <trkpt lat="49.240589" lon="9.113386">
        <ele>240.587430</ele>
        <time>2022-04-06T10:42:26.689Z</time>
      </trkpt>
      <trkpt lat="49.240580" lon="9.113342">
        <ele>240.506087</ele>
        <time>2022-04-06T10:42:29.939Z</time>
      </trkpt>
      <trkpt lat="49.240553" lon="9.113098">
        <ele>240.069491</ele>
        <time>2022-04-06T10:42:46.939Z</time>
      </trkpt>
      <trkpt lat="49.240394" lon="9.112509">
        <ele>238.945076</ele>
        <time>2022-04-06T10:43:31.619Z</time>
      </trkpt>
      <trkpt lat="49.240390" lon="9.112497">
        <ele>238.921306</ele>
        <time>2022-04-06T10:43:32.704Z</time>
      </trkpt>
      <trkpt lat="49.240249" lon="9.112236">
        <ele>238.323666</ele>
        <time>2022-04-06T10:43:56.128Z</time>
      </trkpt>
      <trkpt lat="49.240214" lon="9.111835">
        <ele>237.609936</ele>
        <time>2022-04-06T10:44:23.842Z</time>
      </trkpt>
      <trkpt lat="49.240213" lon="9.111832">
        <ele>237.603994</ele>
        <time>2022-04-06T10:44:24.098Z</time>
      </trkpt>
      <trkpt lat="49.240081" lon="9.111321">
        <ele>236.634500</ele>
        <time>2022-04-06T10:45:01.341Z</time>
      </trkpt>
      <trkpt lat="49.240106" lon="9.110771">
        <ele>235.875217</ele>
        <time>2022-04-06T10:45:38.743Z</time>
      </trkpt>
      <trkpt lat="49.240106" lon="9.110760">
        <ele>235.861442</ele>
        <time>2022-04-06T10:45:39.627Z</time>
      </trkpt>
      <trkpt lat="49.239957" lon="9.110608">
        <ele>235.518081</ele>
        <time>2022-04-06T10:45:57.964Z</time>
      </trkpt>
      <trkpt lat="49.239659" lon="9.109663">
        <ele>234.203923</ele>
        <time>2022-04-06T10:47:09.560Z</time>
      </trkpt>
      <trkpt lat="49.239325" lon="9.108442">
        <ele>232.676080</ele>
        <time>2022-04-06T10:48:39.367Z</time>
      </trkpt>
      <trkpt lat="49.239315" lon="9.108446">
        <ele>232.662676</ele>
        <time>2022-04-06T10:48:40.671Z</time>
      </trkpt>
      <trkpt lat="49.239325" lon="9.108442">
        <ele>232.649272</ele>
        <time>2022-04-06T10:48:41.896Z</time>
      </trkpt>
      <trkpt lat="49.239491" lon="9.108199">
        <ele>232.351474</ele>
        <time>2022-04-06T10:49:05.673Z</time>
      </trkpt>
      <trkpt lat="49.239652" lon="9.108093">
        <ele>232.124201</ele>
        <time>2022-04-06T10:49:23.685Z</time>
      </trkpt>
      <trkpt lat="49.239667" lon="9.108083">
        <ele>232.102985</ele>
        <time>2022-04-06T10:49:25.408Z</time>
      </trkpt>
      <trkpt lat="49.239607" lon="9.107867">
        <ele>231.904225</ele>
        <time>2022-04-06T10:49:41.240Z</time>
      </trkpt>
      <trkpt lat="49.239666" lon="9.107819">
        <ele>231.817584</ele>
        <time>2022-04-06T10:49:48.074Z</time>
      </trkpt>
      <trkpt lat="49.239661" lon="9.107717">
        <ele>231.730974</ele>
        <time>2022-04-06T10:49:54.768Z</time>
      </trkpt>
      <trkpt lat="49.239616" lon="9.107113">
        <ele>231.216226</ele>
        <time>2022-04-06T10:50:35.770Z</time>
      </trkpt>
      <trkpt lat="49.239613" lon="9.107065">
        <ele>231.175397</ele>
        <time>2022-04-06T10:50:39.042Z</time>
      </trkpt>
      <trkpt lat="49.239570" lon="9.106247">
        <ele>230.622673</ele>
        <time>2022-04-06T10:51:33.884Z</time>
      </trkpt>
      <trkpt lat="49.239543" lon="9.105905">
        <ele>230.639976</ele>
        <time>2022-04-06T10:51:56.594Z</time>
      </trkpt>
      <trkpt lat="49.239473" lon="9.105004">
        <ele>230.685549</ele>
        <time>2022-04-06T10:52:56.306Z</time>
      </trkpt>
      <trkpt lat="49.239431" lon="9.104477">
        <ele>230.712215</ele>
        <time>2022-04-06T10:53:31.319Z</time>
      </trkpt>
      <trkpt lat="49.239417" lon="9.104480">
        <ele>230.713303</ele>
        <time>2022-04-06T10:53:33.180Z</time>
      </trkpt>
      <trkpt lat="49.239431" lon="9.104477">
        <ele>230.714390</ele>
        <time>2022-04-06T10:53:34.846Z</time>
      </trkpt>
      <trkpt lat="49.239389" lon="9.103843">
        <ele>230.746397</ele>
        <time>2022-04-06T10:54:17.190Z</time>
      </trkpt>
      <trkpt lat="49.239148" lon="9.103392">
        <ele>230.753080</ele>
        <time>2022-04-06T10:54:56.162Z</time>
      </trkpt>
      <trkpt lat="49.239035" lon="9.102915">
        <ele>230.753080</ele>
        <time>2022-04-06T10:55:30.520Z</time>
      </trkpt>
      <trkpt lat="49.239018" lon="9.102920">
        <ele>230.753080</ele>
        <time>2022-04-06T10:55:32.286Z</time>
      </trkpt>
      <trkpt lat="49.239035" lon="9.102915">
        <ele>230.753080</ele>
        <time>2022-04-06T10:55:33.971Z</time>
      </trkpt>
      <trkpt lat="49.238946" lon="9.102534">
        <ele>230.753080</ele>
        <time>2022-04-06T10:56:01.872Z</time>
      </trkpt>
      <trkpt lat="49.238938" lon="9.102506">
        <ele>230.753080</ele>
        <time>2022-04-06T10:56:04.035Z</time>
      </trkpt>
      <trkpt lat="49.238911" lon="9.102408">
        <ele>230.753080</ele>
        <time>2022-04-06T10:56:11.192Z</time>
      </trkpt>
      <trkpt lat="49.238886" lon="9.102320">
        <ele>230.753080</ele>
        <time>2022-04-06T10:56:17.762Z</time>
      </trkpt>
      <trkpt lat="49.238869" lon="9.102257">
        <ele>230.753080</ele>
        <time>2022-04-06T10:56:22.436Z</time>
      </trkpt>
      <trkpt lat="49.238855" lon="9.102267">
        <ele>230.753080</ele>
        <time>2022-04-06T10:56:24.060Z</time>
      </trkpt>
      <trkpt lat="49.238697" lon="9.102389">
        <ele>230.753080</ele>
        <time>2022-04-06T10:56:42.500Z</time>
      </trkpt>
      <trkpt lat="49.238687" lon="9.102398">
        <ele>230.753080</ele>
        <time>2022-04-06T10:56:43.722Z</time>
      </trkpt>
      <trkpt lat="49.238666" lon="9.102415">
        <ele>230.753080</ele>
        <time>2022-04-06T10:56:46.176Z</time>
      </trkpt>
      <trkpt lat="49.238550" lon="9.102508">
        <ele>230.753080</ele>
        <time>2022-04-06T10:56:59.786Z</time>
      </trkpt>
      <trkpt lat="49.238521" lon="9.102532">
        <ele>230.753080</ele>
        <time>2022-04-06T10:57:03.291Z</time>
      </trkpt>
      <trkpt lat="49.238443" lon="9.102595">
        <ele>230.753080</ele>
        <time>2022-04-06T10:57:12.416Z</time>
      </trkpt>
      <trkpt lat="49.238423" lon="9.102612">
        <ele>230.753080</ele>
        <time>2022-04-06T10:57:14.821Z</time>
      </trkpt>
      <trkpt lat="49.238403" lon="9.102628">
        <ele>230.753080</ele>
        <time>2022-04-06T10:57:17.201Z</time>
      </trkpt>
      <trkpt lat="49.238406" lon="9.102637">
        <ele>230.753080</ele>
        <time>2022-04-06T10:57:17.877Z</time>
      </trkpt>
      <trkpt lat="49.238403" lon="9.102628">
        <ele>230.753080</ele>
        <time>2022-04-06T10:57:18.560Z</time>
      </trkpt>
      <trkpt lat="49.238263" lon="9.102136">
        <ele>230.753080</ele>
        <time>2022-04-06T10:57:54.986Z</time>
      </trkpt>
    </trkseg>
  </trk>
</gpx>