<?xml version='1.0' encoding='UTF-8'?>
<gpx version="1.1" creator="https://www.komoot.de" xmlns="http://www.topografix.com/GPX/1/1" xmlns:xsi="http://www.w3.org/2001/XMLSchema-instance" xsi:schemaLocation="http://www.topografix.com/GPX/1/1 http://www.topografix.com/GPX/1/1/gpx.xsd">
  <metadata>
    <name>PW Siegelsbach 12 km</name>
    <author>
      <link href="https://www.komoot.de">
        <text>komoot</text>
        <type>text/html</type>
      </link>
    </author>
  </metadata>
  <trk>
    <name>PW Siegelsbach 12 km</name>
    <trkseg>
      <trkpt lat="49.268307" lon="9.090459">
        <ele>269.079512</ele>
        <time>2022-04-07T06:38:29.140Z</time>
      </trkpt>
      <trkpt lat="49.268439" lon="9.090511">
        <ele>269.079512</ele>
        <time>2022-04-07T06:38:43.065Z</time>
      </trkpt>
      <trkpt lat="49.268520" lon="9.090503">
        <ele>269.079512</ele>
        <time>2022-04-07T06:38:51.497Z</time>
      </trkpt>
      <trkpt lat="49.268541" lon="9.090559">
        <ele>269.079512</ele>
        <time>2022-04-07T06:38:55.840Z</time>
      </trkpt>
      <trkpt lat="49.268563" lon="9.090549">
        <ele>269.079512</ele>
        <time>2022-04-07T06:38:58.170Z</time>
      </trkpt>
      <trkpt lat="49.268679" lon="9.090876">
        <ele>269.079512</ele>
        <time>2022-04-07T06:39:23.194Z</time>
      </trkpt>
      <trkpt lat="49.268672" lon="9.090888">
        <ele>269.079512</ele>
        <time>2022-04-07T06:39:24.459Z</time>
      </trkpt>
      <trkpt lat="49.268390" lon="9.091372">
        <ele>268.928448</ele>
        <time>2022-04-07T06:40:08.528Z</time>
      </trkpt>
      <trkpt lat="49.268148" lon="9.091658">
        <ele>268.158967</ele>
        <time>2022-04-07T06:40:40.548Z</time>
      </trkpt>
      <trkpt lat="49.267771" lon="9.092503">
        <ele>266.477123</ele>
        <time>2022-04-07T06:41:51.105Z</time>
      </trkpt>
      <trkpt lat="49.267337" lon="9.093885">
        <ele>264.171476</ele>
        <time>2022-04-07T06:43:36.872Z</time>
      </trkpt>
      <trkpt lat="49.267278" lon="9.094197">
        <ele>263.830477</ele>
        <time>2022-04-07T06:43:58.987Z</time>
      </trkpt>
      <trkpt lat="49.267304" lon="9.094427">
        <ele>263.585437</ele>
        <time>2022-04-07T06:44:15.003Z</time>
      </trkpt>
      <trkpt lat="49.267292" lon="9.094440">
        <ele>263.561795</ele>
        <time>2022-04-07T06:44:16.547Z</time>
      </trkpt>
      <trkpt lat="49.267213" lon="9.094526">
        <ele>263.405904</ele>
        <time>2022-04-07T06:44:26.570Z</time>
      </trkpt>
      <trkpt lat="49.266987" lon="9.094800">
        <ele>262.942308</ele>
        <time>2022-04-07T06:44:56.481Z</time>
      </trkpt>
      <trkpt lat="49.266958" lon="9.094929">
        <ele>262.799078</ele>
        <time>2022-04-07T06:45:05.539Z</time>
      </trkpt>
      <trkpt lat="49.266703" lon="9.096066">
        <ele>261.628692</ele>
        <time>2022-04-07T06:46:25.662Z</time>
      </trkpt>
      <trkpt lat="49.266465" lon="9.097427">
        <ele>261.279048</ele>
        <time>2022-04-07T06:47:58.423Z</time>
      </trkpt>
      <trkpt lat="49.264940" lon="9.103774">
        <ele>260.280769</ele>
        <time>2022-04-07T06:55:21.669Z</time>
      </trkpt>
      <trkpt lat="49.264940" lon="9.103774">
        <ele>260.280769</ele>
        <time>2022-04-07T06:55:21.715Z</time>
      </trkpt>
      <trkpt lat="49.264940" lon="9.103774">
        <ele>260.280769</ele>
        <time>2022-04-07T06:55:21.776Z</time>
      </trkpt>
      <trkpt lat="49.264541" lon="9.103585">
        <ele>259.686855</ele>
        <time>2022-04-07T06:56:03.891Z</time>
      </trkpt>
      <trkpt lat="49.264242" lon="9.103751">
        <ele>259.234596</ele>
        <time>2022-04-07T06:56:36.279Z</time>
      </trkpt>
      <trkpt lat="49.263289" lon="9.105122">
        <ele>256.863218</ele>
        <time>2022-04-07T06:58:52.072Z</time>
      </trkpt>
      <trkpt lat="49.260926" lon="9.108558">
        <ele>245.005930</ele>
        <time>2022-04-07T07:04:43.677Z</time>
      </trkpt>
      <trkpt lat="49.260659" lon="9.108954">
        <ele>243.510406</ele>
        <time>2022-04-07T07:05:23.532Z</time>
      </trkpt>
      <trkpt lat="49.260159" lon="9.110108">
        <ele>239.821898</ele>
        <time>2022-04-07T07:07:01.854Z</time>
      </trkpt>
      <trkpt lat="49.259814" lon="9.111054">
        <ele>236.929239</ele>
        <time>2022-04-07T07:08:18.716Z</time>
      </trkpt>
      <trkpt lat="49.259727" lon="9.111331">
        <ele>236.096780</ele>
        <time>2022-04-07T07:08:40.217Z</time>
      </trkpt>
      <trkpt lat="49.259727" lon="9.111331">
        <ele>236.096780</ele>
        <time>2022-04-07T07:08:41.077Z</time>
      </trkpt>
      <trkpt lat="49.259701" lon="9.111825">
        <ele>234.754686</ele>
        <time>2022-04-07T07:09:15.415Z</time>
      </trkpt>
      <trkpt lat="49.259739" lon="9.112319">
        <ele>233.407675</ele>
        <time>2022-04-07T07:09:50.531Z</time>
      </trkpt>
      <trkpt lat="49.259839" lon="9.112661">
        <ele>232.392838</ele>
        <time>2022-04-07T07:10:17.132Z</time>
      </trkpt>
      <trkpt lat="49.259849" lon="9.112935">
        <ele>231.649689</ele>
        <time>2022-04-07T07:10:36.484Z</time>
      </trkpt>
      <trkpt lat="49.259580" lon="9.114150">
        <ele>228.200321</ele>
        <time>2022-04-07T07:12:08.515Z</time>
      </trkpt>
      <trkpt lat="49.259635" lon="9.114625">
        <ele>226.913076</ele>
        <time>2022-04-07T07:12:42.379Z</time>
      </trkpt>
      <trkpt lat="49.259579" lon="9.115060">
        <ele>225.729991</ele>
        <time>2022-04-07T07:13:13.444Z</time>
      </trkpt>
      <trkpt lat="49.259560" lon="9.115400">
        <ele>224.819443</ele>
        <time>2022-04-07T07:13:37.751Z</time>
      </trkpt>
      <trkpt lat="49.259613" lon="9.116250">
        <ele>222.541043</ele>
        <time>2022-04-07T07:14:38.485Z</time>
      </trkpt>
      <trkpt lat="49.259558" lon="9.117200">
        <ele>221.637278</ele>
        <time>2022-04-07T07:15:44.947Z</time>
      </trkpt>
      <trkpt lat="49.259672" lon="9.118008">
        <ele>220.860808</ele>
        <time>2022-04-07T07:16:39.712Z</time>
      </trkpt>
      <trkpt lat="49.259675" lon="9.118025">
        <ele>220.844266</ele>
        <time>2022-04-07T07:16:41.852Z</time>
      </trkpt>
      <trkpt lat="49.259678" lon="9.118180">
        <ele>220.698614</ele>
        <time>2022-04-07T07:16:52.608Z</time>
      </trkpt>
      <trkpt lat="49.259703" lon="9.118514">
        <ele>220.382839</ele>
        <time>2022-04-07T07:17:16.667Z</time>
      </trkpt>
      <trkpt lat="49.259723" lon="9.118720">
        <ele>220.187218</ele>
        <time>2022-04-07T07:17:31.379Z</time>
      </trkpt>
      <trkpt lat="49.259749" lon="9.118943">
        <ele>219.974443</ele>
        <time>2022-04-07T07:17:48.225Z</time>
      </trkpt>
      <trkpt lat="49.259749" lon="9.119099">
        <ele>220.194968</ele>
        <time>2022-04-07T07:17:59.377Z</time>
      </trkpt>
      <trkpt lat="49.259749" lon="9.118943">
        <ele>220.527667</ele>
        <time>2022-04-07T07:18:10.783Z</time>
      </trkpt>
      <trkpt lat="49.259848" lon="9.118926">
        <ele>220.853207</ele>
        <time>2022-04-07T07:18:22.749Z</time>
      </trkpt>
      <trkpt lat="49.260075" lon="9.118679">
        <ele>221.763014</ele>
        <time>2022-04-07T07:18:50.737Z</time>
      </trkpt>
      <trkpt lat="49.260190" lon="9.118490">
        <ele>222.314099</ele>
        <time>2022-04-07T07:19:10.788Z</time>
      </trkpt>
      <trkpt lat="49.260218" lon="9.118241">
        <ele>222.852958</ele>
        <time>2022-04-07T07:19:27.372Z</time>
      </trkpt>
      <trkpt lat="49.260358" lon="9.118137">
        <ele>223.361383</ele>
        <time>2022-04-07T07:19:46.504Z</time>
      </trkpt>
      <trkpt lat="49.260491" lon="9.117930">
        <ele>223.980884</ele>
        <time>2022-04-07T07:20:07.733Z</time>
      </trkpt>
      <trkpt lat="49.260966" lon="9.117586">
        <ele>225.697739</ele>
        <time>2022-04-07T07:21:09.766Z</time>
      </trkpt>
      <trkpt lat="49.261063" lon="9.117596">
        <ele>226.255909</ele>
        <time>2022-04-07T07:21:21.094Z</time>
      </trkpt>
      <trkpt lat="49.261244" lon="9.117470">
        <ele>227.696033</ele>
        <time>2022-04-07T07:21:44.109Z</time>
      </trkpt>
      <trkpt lat="49.261603" lon="9.117365">
        <ele>230.343569</ele>
        <time>2022-04-07T07:22:30.783Z</time>
      </trkpt>
      <trkpt lat="49.261704" lon="9.117374">
        <ele>231.076447</ele>
        <time>2022-04-07T07:22:43.166Z</time>
      </trkpt>
      <trkpt lat="49.261854" lon="9.117505">
        <ele>232.327133</ele>
        <time>2022-04-07T07:23:04.612Z</time>
      </trkpt>
      <trkpt lat="49.262087" lon="9.117892">
        <ele>234.816299</ele>
        <time>2022-04-07T07:23:48.859Z</time>
      </trkpt>
      <trkpt lat="49.262271" lon="9.118374">
        <ele>237.456122</ele>
        <time>2022-04-07T07:24:35.389Z</time>
      </trkpt>
      <trkpt lat="49.262362" lon="9.118827">
        <ele>239.482201</ele>
        <time>2022-04-07T07:25:14.524Z</time>
      </trkpt>
      <trkpt lat="49.262360" lon="9.119014">
        <ele>240.143044</ele>
        <time>2022-04-07T07:25:30.129Z</time>
      </trkpt>
      <trkpt lat="49.262360" lon="9.119014">
        <ele>240.143044</ele>
        <time>2022-04-07T07:25:32.422Z</time>
      </trkpt>
      <trkpt lat="49.262536" lon="9.119039">
        <ele>241.100070</ele>
        <time>2022-04-07T07:25:52.786Z</time>
      </trkpt>
      <trkpt lat="49.262783" lon="9.118789">
        <ele>242.702838</ele>
        <time>2022-04-07T07:26:29.462Z</time>
      </trkpt>
      <trkpt lat="49.262917" lon="9.118760">
        <ele>243.435573</ele>
        <time>2022-04-07T07:26:44.651Z</time>
      </trkpt>
      <trkpt lat="49.263365" lon="9.118937">
        <ele>245.940569</ele>
        <time>2022-04-07T07:27:40.127Z</time>
      </trkpt>
      <trkpt lat="49.263462" lon="9.119094">
        <ele>246.704487</ele>
        <time>2022-04-07T07:27:57.273Z</time>
      </trkpt>
      <trkpt lat="49.264090" lon="9.120637">
        <ele>250.311099</ele>
        <time>2022-04-07T07:30:04.300Z</time>
      </trkpt>
      <trkpt lat="49.264390" lon="9.121917">
        <ele>252.135676</ele>
        <time>2022-04-07T07:31:38.441Z</time>
      </trkpt>
      <trkpt lat="49.265069" lon="9.125092">
        <ele>256.020121</ele>
        <time>2022-04-07T07:35:31.544Z</time>
      </trkpt>
      <trkpt lat="49.265063" lon="9.125095">
        <ele>256.029499</ele>
        <time>2022-04-07T07:35:32.205Z</time>
      </trkpt>
      <trkpt lat="49.265069" lon="9.125092">
        <ele>256.038878</ele>
        <time>2022-04-07T07:35:32.831Z</time>
      </trkpt>
      <trkpt lat="49.265518" lon="9.124852">
        <ele>256.745516</ele>
        <time>2022-04-07T07:36:21.375Z</time>
      </trkpt>
      <trkpt lat="49.267188" lon="9.123815">
        <ele>261.218162</ele>
        <time>2022-04-07T07:39:32.371Z</time>
      </trkpt>
      <trkpt lat="49.267343" lon="9.123813">
        <ele>261.795772</ele>
        <time>2022-04-07T07:39:51.300Z</time>
      </trkpt>
      <trkpt lat="49.267655" lon="9.123581">
        <ele>263.088037</ele>
        <time>2022-04-07T07:40:31.099Z</time>
      </trkpt>
      <trkpt lat="49.268158" lon="9.123367">
        <ele>265.100028</ele>
        <time>2022-04-07T07:41:32.002Z</time>
      </trkpt>
      <trkpt lat="49.268667" lon="9.123052">
        <ele>268.533533</ele>
        <time>2022-04-07T07:42:41.013Z</time>
      </trkpt>
      <trkpt lat="49.268685" lon="9.122946">
        <ele>268.980569</ele>
        <time>2022-04-07T07:42:49.773Z</time>
      </trkpt>
      <trkpt lat="49.269639" lon="9.122701">
        <ele>275.030904</ele>
        <time>2022-04-07T07:44:47.528Z</time>
      </trkpt>
      <trkpt lat="49.270171" lon="9.122607">
        <ele>277.821824</ele>
        <time>2022-04-07T07:45:52.156Z</time>
      </trkpt>
      <trkpt lat="49.270892" lon="9.122590">
        <ele>281.184247</ele>
        <time>2022-04-07T07:47:17.195Z</time>
      </trkpt>
      <trkpt lat="49.271445" lon="9.122665">
        <ele>283.772965</ele>
        <time>2022-04-07T07:48:20.561Z</time>
      </trkpt>
      <trkpt lat="49.271627" lon="9.122630">
        <ele>284.585441</ele>
        <time>2022-04-07T07:48:41.088Z</time>
      </trkpt>
      <trkpt lat="49.271863" lon="9.122474">
        <ele>284.866914</ele>
        <time>2022-04-07T07:49:09.217Z</time>
      </trkpt>
      <trkpt lat="49.272009" lon="9.122294">
        <ele>285.072120</ele>
        <time>2022-04-07T07:49:28.934Z</time>
      </trkpt>
      <trkpt lat="49.272039" lon="9.122257">
        <ele>285.114292</ele>
        <time>2022-04-07T07:49:33.014Z</time>
      </trkpt>
      <trkpt lat="49.272134" lon="9.122237">
        <ele>285.219310</ele>
        <time>2022-04-07T07:49:43.833Z</time>
      </trkpt>
      <trkpt lat="49.272673" lon="9.124682">
        <ele>285.581643</ele>
        <time>2022-04-07T07:52:34.069Z</time>
      </trkpt>
      <trkpt lat="49.272803" lon="9.125929">
        <ele>283.919206</ele>
        <time>2022-04-07T07:54:01.044Z</time>
      </trkpt>
      <trkpt lat="49.272856" lon="9.127342">
        <ele>281.681254</ele>
        <time>2022-04-07T07:55:39.759Z</time>
      </trkpt>
      <trkpt lat="49.272818" lon="9.128737">
        <ele>279.039519</ele>
        <time>2022-04-07T07:57:16.860Z</time>
      </trkpt>
      <trkpt lat="49.272762" lon="9.130009">
        <ele>277.068211</ele>
        <time>2022-04-07T07:58:44.188Z</time>
      </trkpt>
      <trkpt lat="49.272835" lon="9.133391">
        <ele>273.834429</ele>
        <time>2022-04-07T08:02:31.884Z</time>
      </trkpt>
      <trkpt lat="49.273057" lon="9.135741">
        <ele>272.552078</ele>
        <time>2022-04-07T08:05:09.151Z</time>
      </trkpt>
      <trkpt lat="49.273442" lon="9.139878">
        <ele>271.957580</ele>
        <time>2022-04-07T08:09:43.964Z</time>
      </trkpt>
      <trkpt lat="49.273479" lon="9.140212">
        <ele>271.954054</ele>
        <time>2022-04-07T08:10:06.953Z</time>
      </trkpt>
      <trkpt lat="49.273442" lon="9.139878">
        <ele>272.015158</ele>
        <time>2022-04-07T08:10:29.742Z</time>
      </trkpt>
      <trkpt lat="49.273879" lon="9.139855">
        <ele>272.290779</ele>
        <time>2022-04-07T08:11:15.471Z</time>
      </trkpt>
      <trkpt lat="49.274685" lon="9.140135">
        <ele>272.811718</ele>
        <time>2022-04-07T08:12:41.075Z</time>
      </trkpt>
      <trkpt lat="49.274871" lon="9.140067">
        <ele>272.932250</ele>
        <time>2022-04-07T08:13:00.968Z</time>
      </trkpt>
      <trkpt lat="49.275260" lon="9.139353">
        <ele>272.129782</ele>
        <time>2022-04-07T08:14:02.015Z</time>
      </trkpt>
      <trkpt lat="49.275991" lon="9.138440">
        <ele>269.647329</ele>
        <time>2022-04-07T08:15:42.862Z</time>
      </trkpt>
      <trkpt lat="49.276459" lon="9.138160">
        <ele>268.305285</ele>
        <time>2022-04-07T08:16:37.024Z</time>
      </trkpt>
      <trkpt lat="49.276459" lon="9.138160">
        <ele>268.305285</ele>
        <time>2022-04-07T08:16:37.386Z</time>
      </trkpt>
      <trkpt lat="49.276683" lon="9.137423">
        <ele>265.864524</ele>
        <time>2022-04-07T08:17:35.132Z</time>
      </trkpt>
      <trkpt lat="49.276769" lon="9.136882">
        <ele>264.192946</ele>
        <time>2022-04-07T08:18:14.575Z</time>
      </trkpt>
      <trkpt lat="49.277228" lon="9.135649">
        <ele>259.982054</ele>
        <time>2022-04-07T08:19:57.042Z</time>
      </trkpt>
      <trkpt lat="49.277238" lon="9.135361">
        <ele>259.422854</ele>
        <time>2022-04-07T08:20:17.753Z</time>
      </trkpt>
      <trkpt lat="49.277164" lon="9.134643">
        <ele>258.013443</ele>
        <time>2022-04-07T08:21:09.426Z</time>
      </trkpt>
      <trkpt lat="49.277198" lon="9.134210">
        <ele>257.167830</ele>
        <time>2022-04-07T08:21:39.640Z</time>
      </trkpt>
      <trkpt lat="49.277335" lon="9.133062">
        <ele>254.905017</ele>
        <time>2022-04-07T08:22:59.022Z</time>
      </trkpt>
      <trkpt lat="49.277347" lon="9.132965">
        <ele>254.726070</ele>
        <time>2022-04-07T08:23:05.679Z</time>
      </trkpt>
      <trkpt lat="49.277277" lon="9.132457">
        <ele>254.536412</ele>
        <time>2022-04-07T08:23:40.108Z</time>
      </trkpt>
      <trkpt lat="49.277443" lon="9.132298">
        <ele>254.426813</ele>
        <time>2022-04-07T08:24:01.050Z</time>
      </trkpt>
      <trkpt lat="49.277709" lon="9.132336">
        <ele>254.277233</ele>
        <time>2022-04-07T08:24:28.130Z</time>
      </trkpt>
      <trkpt lat="49.278227" lon="9.132850">
        <ele>253.931734</ele>
        <time>2022-04-07T08:25:30.809Z</time>
      </trkpt>
      <trkpt lat="49.278565" lon="9.133115">
        <ele>253.704123</ele>
        <time>2022-04-07T08:26:09.409Z</time>
      </trkpt>
      <trkpt lat="49.278664" lon="9.133193">
        <ele>253.297983</ele>
        <time>2022-04-07T08:26:21.906Z</time>
      </trkpt>
      <trkpt lat="49.278828" lon="9.133278">
        <ele>252.666323</ele>
        <time>2022-04-07T08:26:39.665Z</time>
      </trkpt>
      <trkpt lat="49.279119" lon="9.133331">
        <ele>251.597094</ele>
        <time>2022-04-07T08:27:10.608Z</time>
      </trkpt>
      <trkpt lat="49.279291" lon="9.133323">
        <ele>250.969236</ele>
        <time>2022-04-07T08:27:28.949Z</time>
      </trkpt>
      <trkpt lat="49.280282" lon="9.133796">
        <ele>247.182187</ele>
        <time>2022-04-07T08:29:22.078Z</time>
      </trkpt>
      <trkpt lat="49.280286" lon="9.133751">
        <ele>246.954721</ele>
        <time>2022-04-07T08:29:25.409Z</time>
      </trkpt>
      <trkpt lat="49.280266" lon="9.133638">
        <ele>246.285446</ele>
        <time>2022-04-07T08:29:34.805Z</time>
      </trkpt>
      <trkpt lat="49.280238" lon="9.133579">
        <ele>245.868394</ele>
        <time>2022-04-07T08:29:40.334Z</time>
      </trkpt>
      <trkpt lat="49.280167" lon="9.133492">
        <ele>245.071937</ele>
        <time>2022-04-07T08:29:50.748Z</time>
      </trkpt>
      <trkpt lat="49.279995" lon="9.133459">
        <ele>243.553070</ele>
        <time>2022-04-07T08:30:10.576Z</time>
      </trkpt>
      <trkpt lat="49.279683" lon="9.133158">
        <ele>240.322876</ele>
        <time>2022-04-07T08:30:53.493Z</time>
      </trkpt>
      <trkpt lat="49.279683" lon="9.133158">
        <ele>240.322876</ele>
        <time>2022-04-07T08:30:53.905Z</time>
      </trkpt>
      <trkpt lat="49.279366" lon="9.132922">
        <ele>237.234976</ele>
        <time>2022-04-07T08:31:35.095Z</time>
      </trkpt>
      <trkpt lat="49.278357" lon="9.131185">
        <ele>221.398322</ele>
        <time>2022-04-07T08:34:38.670Z</time>
      </trkpt>
      <trkpt lat="49.278243" lon="9.129966">
        <ele>211.960058</ele>
        <time>2022-04-07T08:36:20.155Z</time>
      </trkpt>
      <trkpt lat="49.278322" lon="9.129467">
        <ele>208.848975</ele>
        <time>2022-04-07T08:37:01.358Z</time>
      </trkpt>
      <trkpt lat="49.278343" lon="9.129222">
        <ele>207.650894</ele>
        <time>2022-04-07T08:37:20.990Z</time>
      </trkpt>
      <trkpt lat="49.278384" lon="9.128985">
        <ele>206.462096</ele>
        <time>2022-04-07T08:37:39.970Z</time>
      </trkpt>
      <trkpt lat="49.278397" lon="9.128910">
        <ele>206.085846</ele>
        <time>2022-04-07T08:37:45.903Z</time>
      </trkpt>
      <trkpt lat="49.278566" lon="9.128752">
        <ele>204.614673</ele>
        <time>2022-04-07T08:38:09.548Z</time>
      </trkpt>
      <trkpt lat="49.278886" lon="9.128611">
        <ele>202.140160</ele>
        <time>2022-04-07T08:38:48.132Z</time>
      </trkpt>
      <trkpt lat="49.279040" lon="9.128154">
        <ele>199.646306</ele>
        <time>2022-04-07T08:39:26.310Z</time>
      </trkpt>
      <trkpt lat="49.279317" lon="9.127564">
        <ele>197.232514</ele>
        <time>2022-04-07T08:40:16.945Z</time>
      </trkpt>
      <trkpt lat="49.279540" lon="9.126389">
        <ele>199.755827</ele>
        <time>2022-04-07T08:41:43.036Z</time>
      </trkpt>
      <trkpt lat="49.279582" lon="9.125756">
        <ele>201.067812</ele>
        <time>2022-04-07T08:42:32.784Z</time>
      </trkpt>
      <trkpt lat="49.279494" lon="9.125230">
        <ele>202.187527</ele>
        <time>2022-04-07T08:43:15.934Z</time>
      </trkpt>
      <trkpt lat="49.279250" lon="9.124539">
        <ele>204.565987</ele>
        <time>2022-04-07T08:44:18.956Z</time>
      </trkpt>
      <trkpt lat="49.279165" lon="9.124192">
        <ele>205.804775</ele>
        <time>2022-04-07T08:44:48.732Z</time>
      </trkpt>
      <trkpt lat="49.279064" lon="9.123779">
        <ele>207.278884</ele>
        <time>2022-04-07T08:45:23.728Z</time>
      </trkpt>
      <trkpt lat="49.278669" lon="9.122537">
        <ele>211.842411</ele>
        <time>2022-04-07T08:47:06.883Z</time>
      </trkpt>
      <trkpt lat="49.278635" lon="9.121886">
        <ele>212.786969</ele>
        <time>2022-04-07T08:47:53.834Z</time>
      </trkpt>
      <trkpt lat="49.278370" lon="9.120520">
        <ele>214.848129</ele>
        <time>2022-04-07T08:49:33.309Z</time>
      </trkpt>
      <trkpt lat="49.278045" lon="9.119746">
        <ele>215.993136</ele>
        <time>2022-04-07T08:50:36.250Z</time>
      </trkpt>
      <trkpt lat="49.277684" lon="9.119292">
        <ele>216.535179</ele>
        <time>2022-04-07T08:51:25.128Z</time>
      </trkpt>
      <trkpt lat="49.277448" lon="9.118948">
        <ele>216.913220</ele>
        <time>2022-04-07T08:51:59.622Z</time>
      </trkpt>
      <trkpt lat="49.276940" lon="9.117942">
        <ele>217.875142</ele>
        <time>2022-04-07T08:53:26.695Z</time>
      </trkpt>
      <trkpt lat="49.276814" lon="9.117460">
        <ele>216.594855</ele>
        <time>2022-04-07T08:54:00.714Z</time>
      </trkpt>
      <trkpt lat="49.276568" lon="9.116862">
        <ele>214.851763</ele>
        <time>2022-04-07T08:54:48.129Z</time>
      </trkpt>
      <trkpt lat="49.275974" lon="9.116258">
        <ele>212.157791</ele>
        <time>2022-04-07T08:56:07.349Z</time>
      </trkpt>
      <trkpt lat="49.275240" lon="9.116123">
        <ele>207.933885</ele>
        <time>2022-04-07T08:57:33.633Z</time>
      </trkpt>
      <trkpt lat="49.275152" lon="9.116112">
        <ele>207.321936</ele>
        <time>2022-04-07T08:57:43.707Z</time>
      </trkpt>
      <trkpt lat="49.275240" lon="9.116123">
        <ele>206.709987</ele>
        <time>2022-04-07T08:57:54.277Z</time>
      </trkpt>
      <trkpt lat="49.275245" lon="9.116059">
        <ele>206.418515</ele>
        <time>2022-04-07T08:57:59.150Z</time>
      </trkpt>
      <trkpt lat="49.275258" lon="9.115925">
        <ele>205.805914</ele>
        <time>2022-04-07T08:58:09.296Z</time>
      </trkpt>
      <trkpt lat="49.275264" lon="9.115886">
        <ele>205.624722</ele>
        <time>2022-04-07T08:58:12.301Z</time>
      </trkpt>
      <trkpt lat="49.275282" lon="9.115786">
        <ele>205.155634</ele>
        <time>2022-04-07T08:58:20.108Z</time>
      </trkpt>
      <trkpt lat="49.275341" lon="9.115635">
        <ele>204.359737</ele>
        <time>2022-04-07T08:58:33.743Z</time>
      </trkpt>
      <trkpt lat="49.275461" lon="9.115641">
        <ele>203.527580</ele>
        <time>2022-04-07T08:58:47.161Z</time>
      </trkpt>
      <trkpt lat="49.275656" lon="9.115547">
        <ele>202.110779</ele>
        <time>2022-04-07T08:59:10.334Z</time>
      </trkpt>
      <trkpt lat="49.275719" lon="9.115517">
        <ele>201.653541</ele>
        <time>2022-04-07T08:59:18.042Z</time>
      </trkpt>
      <trkpt lat="49.275144" lon="9.115125">
        <ele>198.555218</ele>
        <time>2022-04-07T09:00:27.641Z</time>
      </trkpt>
      <trkpt lat="49.274949" lon="9.114996">
        <ele>198.491532</ele>
        <time>2022-04-07T09:00:51.277Z</time>
      </trkpt>
      <trkpt lat="49.274795" lon="9.114778">
        <ele>198.428672</ele>
        <time>2022-04-07T09:01:14.673Z</time>
      </trkpt>
      <trkpt lat="49.274192" lon="9.114449">
        <ele>198.236744</ele>
        <time>2022-04-07T09:02:22.305Z</time>
      </trkpt>
      <trkpt lat="49.273601" lon="9.114580">
        <ele>198.304301</ele>
        <time>2022-04-07T09:03:29.256Z</time>
      </trkpt>
      <trkpt lat="49.273250" lon="9.114532">
        <ele>199.898756</ele>
        <time>2022-04-07T09:04:09.201Z</time>
      </trkpt>
      <trkpt lat="49.272721" lon="9.114351">
        <ele>202.351206</ele>
        <time>2022-04-07T09:05:11.894Z</time>
      </trkpt>
      <trkpt lat="49.272143" lon="9.114356">
        <ele>204.966486</ele>
        <time>2022-04-07T09:06:18.351Z</time>
      </trkpt>
      <trkpt lat="49.271606" lon="9.114468">
        <ele>207.810270</ele>
        <time>2022-04-07T09:07:24.304Z</time>
      </trkpt>
      <trkpt lat="49.271489" lon="9.114493">
        <ele>208.518157</ele>
        <time>2022-04-07T09:07:38.000Z</time>
      </trkpt>
      <trkpt lat="49.271369" lon="9.114433">
        <ele>209.274540</ele>
        <time>2022-04-07T09:07:53.679Z</time>
      </trkpt>
      <trkpt lat="49.271230" lon="9.114326">
        <ele>210.206639</ele>
        <time>2022-04-07T09:08:12.755Z</time>
      </trkpt>
      <trkpt lat="49.271333" lon="9.114005">
        <ele>211.605267</ele>
        <time>2022-04-07T09:08:40.808Z</time>
      </trkpt>
      <trkpt lat="49.271605" lon="9.113878">
        <ele>213.309148</ele>
        <time>2022-04-07T09:09:14.874Z</time>
      </trkpt>
      <trkpt lat="49.271531" lon="9.113575">
        <ele>214.574106</ele>
        <time>2022-04-07T09:09:41.407Z</time>
      </trkpt>
      <trkpt lat="49.271423" lon="9.113375">
        <ele>215.589152</ele>
        <time>2022-04-07T09:10:01.477Z</time>
      </trkpt>
      <trkpt lat="49.271164" lon="9.113229">
        <ele>217.184054</ele>
        <time>2022-04-07T09:10:35.209Z</time>
      </trkpt>
      <trkpt lat="49.270377" lon="9.113119">
        <ele>220.821706</ele>
        <time>2022-04-07T09:12:08.710Z</time>
      </trkpt>
      <trkpt lat="49.270122" lon="9.113199">
        <ele>222.019830</ele>
        <time>2022-04-07T09:12:39.264Z</time>
      </trkpt>
      <trkpt lat="49.269404" lon="9.113425">
        <ele>225.461768</ele>
        <time>2022-04-07T09:14:00.257Z</time>
      </trkpt>
      <trkpt lat="49.269079" lon="9.113031">
        <ele>228.404384</ele>
        <time>2022-04-07T09:14:47.685Z</time>
      </trkpt>
      <trkpt lat="49.268873" lon="9.113009">
        <ele>229.870755</ele>
        <time>2022-04-07T09:15:11.662Z</time>
      </trkpt>
      <trkpt lat="49.268571" lon="9.113092">
        <ele>232.049494</ele>
        <time>2022-04-07T09:15:47.367Z</time>
      </trkpt>
      <trkpt lat="49.268298" lon="9.112989">
        <ele>234.045973</ele>
        <time>2022-04-07T09:16:22.937Z</time>
      </trkpt>
      <trkpt lat="49.268202" lon="9.112623">
        <ele>235.873751</ele>
        <time>2022-04-07T09:16:57.938Z</time>
      </trkpt>
      <trkpt lat="49.268168" lon="9.111114">
        <ele>245.573377</ele>
        <time>2022-04-07T09:19:18.110Z</time>
      </trkpt>
      <trkpt lat="49.268156" lon="9.110621">
        <ele>249.139027</ele>
        <time>2022-04-07T09:20:07.552Z</time>
      </trkpt>
      <trkpt lat="49.268106" lon="9.110312">
        <ele>251.439979</ele>
        <time>2022-04-07T09:20:38.732Z</time>
      </trkpt>
      <trkpt lat="49.268083" lon="9.110183">
        <ele>252.406510</ele>
        <time>2022-04-07T09:20:50.327Z</time>
      </trkpt>
      <trkpt lat="49.267968" lon="9.109995">
        <ele>254.268980</ele>
        <time>2022-04-07T09:21:12.529Z</time>
      </trkpt>
      <trkpt lat="49.267784" lon="9.109839">
        <ele>256.598120</ele>
        <time>2022-04-07T09:21:40.566Z</time>
      </trkpt>
      <trkpt lat="49.267445" lon="9.109866">
        <ele>258.790780</ele>
        <time>2022-04-07T09:22:24.535Z</time>
      </trkpt>
      <trkpt lat="49.267342" lon="9.109898">
        <ele>259.193003</ele>
        <time>2022-04-07T09:22:37.115Z</time>
      </trkpt>
      <trkpt lat="49.266973" lon="9.110147">
        <ele>260.736096</ele>
        <time>2022-04-07T09:23:26.835Z</time>
      </trkpt>
      <trkpt lat="49.266580" lon="9.110427">
        <ele>262.394800</ele>
        <time>2022-04-07T09:24:13.443Z</time>
      </trkpt>
      <trkpt lat="49.265848" lon="9.110673">
        <ele>265.003712</ele>
        <time>2022-04-07T09:25:29.028Z</time>
      </trkpt>
      <trkpt lat="49.265188" lon="9.110641">
        <ele>265.955482</ele>
        <time>2022-04-07T09:26:35.705Z</time>
      </trkpt>
      <trkpt lat="49.265188" lon="9.110641">
        <ele>265.955482</ele>
        <time>2022-04-07T09:26:36.886Z</time>
      </trkpt>
      <trkpt lat="49.265781" lon="9.109574">
        <ele>267.273710</ele>
        <time>2022-04-07T09:28:14.460Z</time>
      </trkpt>
      <trkpt lat="49.266067" lon="9.108819">
        <ele>268.145252</ele>
        <time>2022-04-07T09:29:17.554Z</time>
      </trkpt>
      <trkpt lat="49.266805" lon="9.106194">
        <ele>269.760259</ele>
        <time>2022-04-07T09:32:32.497Z</time>
      </trkpt>
      <trkpt lat="49.267225" lon="9.105191">
        <ele>269.056669</ele>
        <time>2022-04-07T09:33:53.380Z</time>
      </trkpt>
      <trkpt lat="49.267969" lon="9.104207">
        <ele>268.093302</ele>
        <time>2022-04-07T09:35:35.558Z</time>
      </trkpt>
      <trkpt lat="49.268165" lon="9.103129">
        <ele>267.320399</ele>
        <time>2022-04-07T09:36:50.948Z</time>
      </trkpt>
      <trkpt lat="49.268350" lon="9.102114">
        <ele>266.770239</ele>
        <time>2022-04-07T09:38:00.090Z</time>
      </trkpt>
      <trkpt lat="49.268839" lon="9.100701">
        <ele>267.482478</ele>
        <time>2022-04-07T09:39:48.454Z</time>
      </trkpt>
      <trkpt lat="49.269114" lon="9.099906">
        <ele>267.883163</ele>
        <time>2022-04-07T09:40:48.368Z</time>
      </trkpt>
      <trkpt lat="49.269109" lon="9.097551">
        <ele>269.508275</ele>
        <time>2022-04-07T09:43:27.085Z</time>
      </trkpt>
      <trkpt lat="49.269170" lon="9.096498">
        <ele>270.432836</ele>
        <time>2022-04-07T09:44:40.409Z</time>
      </trkpt>
      <trkpt lat="49.269275" lon="9.095235">
        <ele>271.746450</ele>
        <time>2022-04-07T09:46:09.076Z</time>
      </trkpt>
      <trkpt lat="49.269234" lon="9.094918">
        <ele>272.079873</ele>
        <time>2022-04-07T09:46:31.822Z</time>
      </trkpt>
      <trkpt lat="49.269190" lon="9.094606">
        <ele>272.409207</ele>
        <time>2022-04-07T09:46:53.538Z</time>
      </trkpt>
      <trkpt lat="49.269138" lon="9.094148">
        <ele>272.703177</ele>
        <time>2022-04-07T09:47:25.117Z</time>
      </trkpt>
      <trkpt lat="49.269116" lon="9.093681">
        <ele>272.699963</ele>
        <time>2022-04-07T09:47:56.514Z</time>
      </trkpt>
      <trkpt lat="49.269167" lon="9.093220">
        <ele>272.696752</ele>
        <time>2022-04-07T09:48:27.216Z</time>
      </trkpt>
      <trkpt lat="49.269204" lon="9.092833">
        <ele>272.694067</ele>
        <time>2022-04-07T09:48:52.926Z</time>
      </trkpt>
      <trkpt lat="49.269213" lon="9.092729">
        <ele>272.693346</ele>
        <time>2022-04-07T09:48:59.821Z</time>
      </trkpt>
      <trkpt lat="49.269091" lon="9.092375">
        <ele>272.690598</ele>
        <time>2022-04-07T09:49:26.462Z</time>
      </trkpt>
      <trkpt lat="49.268986" lon="9.091714">
        <ele>272.685926</ele>
        <time>2022-04-07T09:50:11.407Z</time>
      </trkpt>
      <trkpt lat="49.268974" lon="9.091673">
        <ele>272.685618</ele>
        <time>2022-04-07T09:50:14.366Z</time>
      </trkpt>
      <trkpt lat="49.268889" lon="9.091425">
        <ele>272.685478</ele>
        <time>2022-04-07T09:50:33.081Z</time>
      </trkpt>
      <trkpt lat="49.268766" lon="9.091102">
        <ele>272.685478</ele>
        <time>2022-04-07T09:50:57.878Z</time>
      </trkpt>
      <trkpt lat="49.268679" lon="9.090876">
        <ele>272.685478</ele>
        <time>2022-04-07T09:51:15.357Z</time>
      </trkpt>
      <trkpt lat="49.268563" lon="9.090549">
        <ele>272.685478</ele>
        <time>2022-04-07T09:51:40.217Z</time>
      </trkpt>
      <trkpt lat="49.268541" lon="9.090559">
        <ele>272.685478</ele>
        <time>2022-04-07T09:51:42.540Z</time>
      </trkpt>
      <trkpt lat="49.268520" lon="9.090503">
        <ele>272.685478</ele>
        <time>2022-04-07T09:51:46.859Z</time>
      </trkpt>
      <trkpt lat="49.268439" lon="9.090511">
        <ele>272.685478</ele>
        <time>2022-04-07T09:51:55.108Z</time>
      </trkpt>
      <trkpt lat="49.268307" lon="9.090459">
        <ele>272.685478</ele>
        <time>2022-04-07T09:52:09.011Z</time>
      </trkpt>
      <trkpt lat="49.268285" lon="9.090450">
        <ele>272.685478</ele>
        <time>2022-04-07T09:52:11.265Z</time>
      </trkpt>
      <trkpt lat="49.268257" lon="9.090387">
        <ele>272.685478</ele>
        <time>2022-04-07T09:52:16.350Z</time>
      </trkpt>
    </trkseg>
  </trk>
</gpx>