<?xml version="1.0" encoding="UTF-8" standalone="no" ?>
<gpx xmlns="http://www.topografix.com/GPX/1/1" creator="MapSource 6.16.3" version="1.1" xmlns:xsi="http://www.w3.org/2001/XMLSchema-instance" xsi:schemaLocation="http://www.topografix.com/GPX/1/1 http://www.topografix.com/GPX/1/1/gpx.xsd">

  <metadata>
    <link href="http://www.garmin.com">
      <text>Garmin International</text>
    </link>
    <time>2021-08-23T09:51:04Z</time>
    <bounds maxlat="48.525382457301021" maxlon="8.971044765785337" minlat="48.501014588400722" minlon="8.923764042556286"/>
  </metadata>

  <trk>
    <name>PW408_Rottenburg-Märchensee_13km</name>
    <extensions>
      <gpxx:TrackExtension xmlns:gpxx="http://www.garmin.com/xmlschemas/GpxExtensions/v3">
        <gpxx:DisplayColor>Red</gpxx:DisplayColor>
      </gpxx:TrackExtension>
    </extensions>
    <trkseg>
      <trkpt lat="48.503108555451035" lon="8.962500086054206">
        <ele>346.4375</ele>
      </trkpt>
      <trkpt lat="48.50294510833919" lon="8.962730756029487">
        <ele>345.6875</ele>
      </trkpt>
      <trkpt lat="48.5028444416821" lon="8.962951367720962">
        <ele>345.3046875</ele>
      </trkpt>
      <trkpt lat="48.502756431698799" lon="8.96325227804482">
        <ele>345.1015625</ele>
      </trkpt>
      <trkpt lat="48.50275014527142" lon="8.96325227804482">
        <ele>345.0859375</ele>
      </trkpt>
      <trkpt lat="48.502668421715498" lon="8.963703559711576">
        <ele>344.96484375</ele>
      </trkpt>
      <trkpt lat="48.502586698159575" lon="8.964275205507875">
        <ele>344.8828125</ele>
      </trkpt>
      <trkpt lat="48.502511177212" lon="8.964846851304174">
        <ele>344.6640625</ele>
      </trkpt>
      <trkpt lat="48.502460885792971" lon="8.965548919513822">
        <ele>345.19921875</ele>
      </trkpt>
      <trkpt lat="48.502385448664427" lon="8.965759472921491">
        <ele>345.46484375</ele>
      </trkpt>
      <trkpt lat="48.502228204160929" lon="8.965899869799614">
        <ele>345.1875</ele>
      </trkpt>
      <trkpt lat="48.502058470621705" lon="8.966010175645351">
        <ele>344.6796875</ele>
      </trkpt>
      <trkpt lat="48.501788070425391" lon="8.966130539774895">
        <ele>343.58203125</ele>
      </trkpt>
      <trkpt lat="48.501498810946941" lon="8.966260962188244">
        <ele>342.40625</ele>
      </trkpt>
      <trkpt lat="48.501429660245776" lon="8.966571846976876">
        <ele>341.95703125</ele>
      </trkpt>
      <trkpt lat="48.501278702169657" lon="8.966952972114086">
        <ele>340.9296875</ele>
      </trkpt>
      <trkpt lat="48.501127827912569" lon="8.96738413721323">
        <ele>339.484375</ele>
      </trkpt>
      <trkpt lat="48.501071166247129" lon="8.967895684763789">
        <ele>338.4296875</ele>
      </trkpt>
      <trkpt lat="48.501014588400722" lon="8.968487363308668">
        <ele>337.59375</ele>
      </trkpt>
      <trkpt lat="48.501115255057812" lon="8.968677883967757">
        <ele>337.65234375</ele>
      </trkpt>
      <trkpt lat="48.501178119331598" lon="8.969008885324001">
        <ele>337.6015625</ele>
      </trkpt>
      <trkpt lat="48.50131013430655" lon="8.969189347699285">
        <ele>337.8046875</ele>
      </trkpt>
      <trkpt lat="48.501492524519563" lon="8.969319770112634">
        <ele>338.078125</ele>
      </trkpt>
      <trkpt lat="48.501624539494514" lon="8.969500316306949">
        <ele>338.27734375</ele>
      </trkpt>
      <trkpt lat="48.501788070425391" lon="8.96960056386888">
        <ele>338.56640625</ele>
      </trkpt>
      <trkpt lat="48.502121418714523" lon="8.969610622152686">
        <ele>340.33203125</ele>
      </trkpt>
      <trkpt lat="48.502272292971611" lon="8.969530407339335">
        <ele>341.4921875</ele>
      </trkpt>
      <trkpt lat="48.502442110329866" lon="8.969530407339335">
        <ele>342.51171875</ele>
      </trkpt>
      <trkpt lat="48.502662135288119" lon="8.969670804217458">
        <ele>343.69921875</ele>
      </trkpt>
      <trkpt lat="48.502857098355889" lon="8.969901474192739">
        <ele>345.38671875</ele>
      </trkpt>
      <trkpt lat="48.503102352842689" lon="8.970202300697565">
        <ele>346.3515625</ele>
      </trkpt>
      <trkpt lat="48.503328748047352" lon="8.970513185486198">
        <ele>347.859375</ele>
      </trkpt>
      <trkpt lat="48.50358028896153" lon="8.970793979242444">
        <ele>349.1796875</ele>
      </trkpt>
      <trkpt lat="48.50371859036386" lon="8.97080403752625">
        <ele>349.73046875</ele>
      </trkpt>
      <trkpt lat="48.504032995551825" lon="8.971014674752951">
        <ele>351.1328125</ele>
      </trkpt>
      <trkpt lat="48.504196526482701" lon="8.971044765785337">
        <ele>351.59375</ele>
      </trkpt>
      <trkpt lat="48.504196526482701" lon="8.970773862674832">
        <ele>349.109375</ele>
      </trkpt>
      <trkpt lat="48.504127291962504" lon="8.97010188549757">
        <ele>346.65234375</ele>
      </trkpt>
      <trkpt lat="48.50429710932076" lon="8.96964062936604">
        <ele>346.9921875</ele>
      </trkpt>
      <trkpt lat="48.504749815911055" lon="8.969981605187058">
        <ele>348.52734375</ele>
      </trkpt>
      <trkpt lat="48.505246611312032" lon="8.970272373408079">
        <ele>352.546875</ele>
      </trkpt>
      <trkpt lat="48.50540385581553" lon="8.969359751790762">
        <ele>353.8671875</ele>
      </trkpt>
      <trkpt lat="48.505397569388151" lon="8.969359751790762">
        <ele>353.8125</ele>
      </trkpt>
      <trkpt lat="48.505598735064268" lon="8.968136245384812">
        <ele>356.43359375</ele>
      </trkpt>
      <trkpt lat="48.505787411704659" lon="8.966902680695057">
        <ele>357.2265625</ele>
      </trkpt>
      <trkpt lat="48.505913140252233" lon="8.965809512883425">
        <ele>357.31640625</ele>
      </trkpt>
      <trkpt lat="48.505730833858252" lon="8.965468537062407">
        <ele>355.875</ele>
      </trkpt>
      <trkpt lat="48.505781125277281" lon="8.965157652273774">
        <ele>356.5078125</ele>
      </trkpt>
      <trkpt lat="48.505793698132038" lon="8.96480661816895">
        <ele>357.18359375</ele>
      </trkpt>
      <trkpt lat="48.505799984559417" lon="8.964425576850772">
        <ele>358.375</ele>
      </trkpt>
      <trkpt lat="48.505887994542718" lon="8.963904054835439">
        <ele>360.0703125</ele>
      </trkpt>
      <trkpt lat="48.505988661199808" lon="8.963472805917263">
        <ele>361.04296875</ele>
      </trkpt>
      <trkpt lat="48.506057811900973" lon="8.963232077658176">
        <ele>361.1875</ele>
      </trkpt>
      <trkpt lat="48.506208686158061" lon="8.96291121840477">
        <ele>360.68359375</ele>
      </trkpt>
      <trkpt lat="48.506414797157049" lon="8.963072234764695">
        <ele>361.859375</ele>
      </trkpt>
      <trkpt lat="48.506738170981407" lon="8.963358728215098">
        <ele>362.88671875</ele>
      </trkpt>
      <trkpt lat="48.507020808756351" lon="8.963602557778359">
        <ele>363.4375</ele>
      </trkpt>
      <trkpt lat="48.5072220582515" lon="8.963722921907902">
        <ele>363.203125</ele>
      </trkpt>
      <trkpt lat="48.507404364645481" lon="8.963753012940288">
        <ele>362.58984375</ele>
      </trkpt>
      <trkpt lat="48.507461026310921" lon="8.963602557778359">
        <ele>361.45703125</ele>
      </trkpt>
      <trkpt lat="48.50764961913228" lon="8.96326158195734">
        <ele>359.87890625</ele>
      </trkpt>
      <trkpt lat="48.507794290781021" lon="8.962930664420128">
        <ele>359.46484375</ele>
      </trkpt>
      <trkpt lat="48.507926305755973" lon="8.962479382753372">
        <ele>359.9453125</ele>
      </trkpt>
      <trkpt lat="48.508001742884517" lon="8.961847554892302">
        <ele>360.4921875</ele>
      </trkpt>
      <trkpt lat="48.508070977404714" lon="8.961306000128388">
        <ele>361.4921875</ele>
      </trkpt>
      <trkpt lat="48.5081338416785" lon="8.960634022951126">
        <ele>362.84375</ele>
      </trkpt>
      <trkpt lat="48.508449252694845" lon="8.960737204179168">
        <ele>362.47265625</ele>
      </trkpt>
      <trkpt lat="48.508871449157596" lon="8.960909117013216">
        <ele>363.01953125</ele>
      </trkpt>
      <trkpt lat="48.509347541257739" lon="8.961038030683994">
        <ele>364.82421875</ele>
      </trkpt>
      <trkpt lat="48.509814664721489" lon="8.961195694282651">
        <ele>366.45703125</ele>
      </trkpt>
      <trkpt lat="48.510263850912452" lon="8.961295941844583">
        <ele>367.671875</ele>
      </trkpt>
      <trkpt lat="48.510695016011596" lon="8.961381940171123">
        <ele>368.86328125</ele>
      </trkpt>
      <trkpt lat="48.51093758828938" lon="8.961439188569784">
        <ele>369.2265625</ele>
      </trkpt>
      <trkpt lat="48.511027358472347" lon="8.961009364575148">
        <ele>369.90234375</ele>
      </trkpt>
      <trkpt lat="48.511090306565166" lon="8.960550958290696">
        <ele>370.375</ele>
      </trkpt>
      <trkpt lat="48.511144202202559" lon="8.959963554516435">
        <ele>371.53515625</ele>
      </trkpt>
      <trkpt lat="48.511216035112739" lon="8.959218487143517">
        <ele>373.09765625</ele>
      </trkpt>
      <trkpt lat="48.511287868022919" lon="8.95855950191617">
        <ele>374.375</ele>
      </trkpt>
      <trkpt lat="48.511287868022919" lon="8.957914765924215">
        <ele>375.85546875</ele>
      </trkpt>
      <trkpt lat="48.511243024840951" lon="8.957141116261482">
        <ele>377.625</ele>
      </trkpt>
      <trkpt lat="48.511171108111739" lon="8.956525046378374">
        <ele>378.640625</ele>
      </trkpt>
      <trkpt lat="48.511108243837953" lon="8.955908976495266">
        <ele>379.5390625</ele>
      </trkpt>
      <trkpt lat="48.51098251529038" lon="8.955378904938698">
        <ele>379.6171875</ele>
      </trkpt>
      <trkpt lat="48.510730974376202" lon="8.954877415671945">
        <ele>378.82421875</ele>
      </trkpt>
      <trkpt lat="48.510946221649647" lon="8.954547336325049">
        <ele>380.64453125</ele>
      </trkpt>
      <trkpt lat="48.511251658201218" lon="8.954174844548106">
        <ele>383.6484375</ele>
      </trkpt>
      <trkpt lat="48.511566063389182" lon="8.953716438263655">
        <ele>388.15234375</ele>
      </trkpt>
      <trkpt lat="48.511790698394179" lon="8.953128950670362">
        <ele>392.96875</ele>
      </trkpt>
      <trkpt lat="48.511952385306358" lon="8.952785125002265">
        <ele>395.78515625</ele>
      </trkpt>
      <trkpt lat="48.512302665039897" lon="8.952598879113793">
        <ele>401.58984375</ele>
      </trkpt>
      <trkpt lat="48.51263509131968" lon="8.9525415468961">
        <ele>407.453125</ele>
      </trkpt>
      <trkpt lat="48.512913538143039" lon="8.952555879950523">
        <ele>411.625</ele>
      </trkpt>
      <trkpt lat="48.51314714178443" lon="8.952455632388592">
        <ele>415.2109375</ele>
      </trkpt>
      <trkpt lat="48.513323497027159" lon="8.952012900263071">
        <ele>419.55078125</ele>
      </trkpt>
      <trkpt lat="48.513269601389766" lon="8.951840903609991">
        <ele>419.78125</ele>
      </trkpt>
      <trkpt lat="48.513089893385768" lon="8.951583076268435">
        <ele>418.37890625</ele>
      </trkpt>
      <trkpt lat="48.513018060475588" lon="8.951095920056105">
        <ele>420.38671875</ele>
      </trkpt>
      <trkpt lat="48.513035997748375" lon="8.950551515445113">
        <ele>424.734375</ele>
      </trkpt>
      <trkpt lat="48.513215705752373" lon="8.950035693123937">
        <ele>433.6796875</ele>
      </trkpt>
      <trkpt lat="48.51323364302516" lon="8.949519954621792">
        <ele>435.01953125</ele>
      </trkpt>
      <trkpt lat="48.51323364302516" lon="8.949491288512945">
        <ele>435.02734375</ele>
      </trkpt>
      <trkpt lat="48.51316181011498" lon="8.948860885575414">
        <ele>432.80859375</ele>
      </trkpt>
      <trkpt lat="48.513089893385768" lon="8.948373813182116">
        <ele>430.4453125</ele>
      </trkpt>
      <trkpt lat="48.513179747387767" lon="8.947772076353431">
        <ele>431.82421875</ele>
      </trkpt>
      <trkpt lat="48.513449225574732" lon="8.947542831301689">
        <ele>439.1796875</ele>
      </trkpt>
      <trkpt lat="48.513808557763696" lon="8.947456832975149">
        <ele>441.47265625</ele>
      </trkpt>
      <trkpt lat="48.514149952679873" lon="8.947657411918044">
        <ele>444.62109375</ele>
      </trkpt>
      <trkpt lat="48.514491263777018" lon="8.947800742462277">
        <ele>446.87109375</ele>
      </trkpt>
      <trkpt lat="48.514814721420407" lon="8.947714744135737">
        <ele>446.84765625</ele>
      </trkpt>
      <trkpt lat="48.515030303969979" lon="8.947170339524746">
        <ele>440.15234375</ele>
      </trkpt>
      <trkpt lat="48.514904491603374" lon="8.946539936587215">
        <ele>428.7109375</ele>
      </trkpt>
      <trkpt lat="48.514904491603374" lon="8.94585220143199">
        <ele>426.4140625</ele>
      </trkpt>
      <trkpt lat="48.515156032517552" lon="8.945336462929845">
        <ele>432.58984375</ele>
      </trkpt>
      <trkpt lat="48.515461469069123" lon="8.94513588398695">
        <ele>436.1015625</ele>
      </trkpt>
      <trkpt lat="48.515820801258087" lon="8.945078551769257">
        <ele>441.13671875</ele>
      </trkpt>
      <trkpt lat="48.516120202839375" lon="8.945077210664749">
        <ele>442.703125</ele>
      </trkpt>
      <trkpt lat="48.5161292552948" lon="8.944590054452419">
        <ele>441.50390625</ele>
      </trkpt>
      <trkpt lat="48.516088183969259" lon="8.943989910185337">
        <ele>440.75</ele>
      </trkpt>
      <trkpt lat="48.516012746840715" lon="8.943578777834773">
        <ele>441.453125</ele>
      </trkpt>
      <trkpt lat="48.515824154019356" lon="8.943117437884212">
        <ele>443.8203125</ele>
      </trkpt>
      <trkpt lat="48.515648050233722" lon="8.942405395209789">
        <ele>451.1796875</ele>
      </trkpt>
      <trkpt lat="48.51584929972887" lon="8.942375304177404">
        <ele>452.30078125</ele>
      </trkpt>
      <trkpt lat="48.51637115702033" lon="8.942495668306947">
        <ele>452.90234375</ele>
      </trkpt>
      <trkpt lat="48.516792515292764" lon="8.942405395209789">
        <ele>454.5546875</ele>
      </trkpt>
      <trkpt lat="48.517188644036651" lon="8.942264998331666">
        <ele>456.01171875</ele>
      </trkpt>
      <trkpt lat="48.517660293728113" lon="8.942044302821159">
        <ele>457.390625</ele>
      </trkpt>
      <trkpt lat="48.517930693924427" lon="8.941863840445876">
        <ele>458.2265625</ele>
      </trkpt>
      <trkpt lat="48.518017027527094" lon="8.941810615360737">
        <ele>458.4453125</ele>
      </trkpt>
      <trkpt lat="48.518331432715058" lon="8.941481122747064">
        <ele>458.93359375</ele>
      </trkpt>
      <trkpt lat="48.518499406054616" lon="8.941276352852583">
        <ele>458.85546875</ele>
      </trkpt>
      <trkpt lat="48.518483899533749" lon="8.941079545766115">
        <ele>459.62890625</ele>
      </trkpt>
      <trkpt lat="48.518358170986176" lon="8.940578140318394">
        <ele>460.6328125</ele>
      </trkpt>
      <trkpt lat="48.518160525709391" lon="8.940033735707402">
        <ele>459.45703125</ele>
      </trkpt>
      <trkpt lat="48.517935974523425" lon="8.939546579495072">
        <ele>456.85546875</ele>
      </trkpt>
      <trkpt lat="48.51766649633646" lon="8.939116755500436">
        <ele>453.27734375</ele>
      </trkpt>
      <trkpt lat="48.517352091148496" lon="8.938801595941186">
        <ele>451.328125</ele>
      </trkpt>
      <trkpt lat="48.517109518870711" lon="8.938486352562904">
        <ele>448.625</ele>
      </trkpt>
      <trkpt lat="48.516929810866714" lon="8.938056528568268">
        <ele>447.5078125</ele>
      </trkpt>
      <trkpt lat="48.516615405678749" lon="8.937626788392663">
        <ele>447.12890625</ele>
      </trkpt>
      <trkpt lat="48.516202177852392" lon="8.937225630506873">
        <ele>448.171875</ele>
      </trkpt>
      <trkpt lat="48.516202177852392" lon="8.937239963561297">
        <ele>448.140625</ele>
      </trkpt>
      <trkpt lat="48.51598659530282" lon="8.936910387128592">
        <ele>448.76953125</ele>
      </trkpt>
      <trkpt lat="48.515887772664428" lon="8.936494896188378">
        <ele>447.74609375</ele>
      </trkpt>
      <trkpt lat="48.515779981389642" lon="8.935792911797762">
        <ele>443.3828125</ele>
      </trkpt>
      <trkpt lat="48.515654252842069" lon="8.935234174132347">
        <ele>438.3125</ele>
      </trkpt>
      <trkpt lat="48.515528440475464" lon="8.934589438140392">
        <ele>430.1796875</ele>
      </trkpt>
      <trkpt lat="48.515546461567283" lon="8.933844454586506">
        <ele>420.80859375</ele>
      </trkpt>
      <trkpt lat="48.515501534566283" lon="8.933128053322434">
        <ele>409.890625</ele>
      </trkpt>
      <trkpt lat="48.515762044116855" lon="8.933099387213588">
        <ele>410.2734375</ele>
      </trkpt>
      <trkpt lat="48.515995563939214" lon="8.933113720268011">
        <ele>411.28515625</ele>
      </trkpt>
      <trkpt lat="48.516292031854391" lon="8.933185385540128">
        <ele>413.29296875</ele>
      </trkpt>
      <trkpt lat="48.516301000490785" lon="8.933185385540128">
        <ele>413.328125</ele>
      </trkpt>
      <trkpt lat="48.516633426770568" lon="8.933400297537446">
        <ele>417.07421875</ele>
      </trkpt>
      <trkpt lat="48.516642395406961" lon="8.933400297537446">
        <ele>417.09765625</ele>
      </trkpt>
      <trkpt lat="48.517001727595925" lon="8.933457629755139">
        <ele>418.38671875</ele>
      </trkpt>
      <trkpt lat="48.517010696232319" lon="8.933457629755139">
        <ele>418.3984375</ele>
      </trkpt>
      <trkpt lat="48.51731613278389" lon="8.933414630591869">
        <ele>418.65625</ele>
      </trkpt>
      <trkpt lat="48.517486788332462" lon="8.933027805760503">
        <ele>417.16015625</ele>
      </trkpt>
      <trkpt lat="48.517621569335461" lon="8.932540649548173">
        <ele>418.4765625</ele>
      </trkpt>
      <trkpt lat="48.517720391973853" lon="8.93208215944469">
        <ele>418.109375</ele>
      </trkpt>
      <trkpt lat="48.51785508915782" lon="8.931709667667747">
        <ele>416.65234375</ele>
      </trkpt>
      <trkpt lat="48.517576642334461" lon="8.931308509781957">
        <ele>413.265625</ele>
      </trkpt>
      <trkpt lat="48.517280174419284" lon="8.930864436551929">
        <ele>411.27734375</ele>
      </trkpt>
      <trkpt lat="48.517001727595925" lon="8.9305205270648">
        <ele>409.5703125</ele>
      </trkpt>
      <trkpt lat="48.516840040683746" lon="8.930133702233434">
        <ele>407.7421875</ele>
      </trkpt>
      <trkpt lat="48.516597468405962" lon="8.929589297622442">
        <ele>405.859375</ele>
      </trkpt>
      <trkpt lat="48.516399823129177" lon="8.929130807518959">
        <ele>404.140625</ele>
      </trkpt>
      <trkpt lat="48.516148282214999" lon="8.928758315742016">
        <ele>402.52734375</ele>
      </trkpt>
      <trkpt lat="48.515959521755576" lon="8.928328324109316">
        <ele>400.53515625</ele>
      </trkpt>
      <trkpt lat="48.516237968578935" lon="8.928041830658913">
        <ele>399.046875</ele>
      </trkpt>
      <trkpt lat="48.516471572220325" lon="8.927697921171784">
        <ele>397.796875</ele>
      </trkpt>
      <trkpt lat="48.516606269404292" lon="8.92749734222889">
        <ele>397.66796875</ele>
      </trkpt>
      <trkpt lat="48.516732081770897" lon="8.92749734222889">
        <ele>398.09375</ele>
      </trkpt>
      <trkpt lat="48.516875831410289" lon="8.927110517397523">
        <ele>398.30078125</ele>
      </trkpt>
      <trkpt lat="48.517046486958861" lon="8.926523113623262">
        <ele>397.9296875</ele>
      </trkpt>
      <trkpt lat="48.517217142507434" lon="8.925993042066693">
        <ele>398.28515625</ele>
      </trkpt>
      <trkpt lat="48.517414787784219" lon="8.925520218908787">
        <ele>399.88671875</ele>
      </trkpt>
      <trkpt lat="48.51760346442461" lon="8.925104727968574">
        <ele>401.56640625</ele>
      </trkpt>
      <trkpt lat="48.517658617347479" lon="8.924907334148884">
        <ele>401.47265625</ele>
      </trkpt>
      <trkpt lat="48.517771773040295" lon="8.924646573141217">
        <ele>401.77734375</ele>
      </trkpt>
      <trkpt lat="48.517910158261657" lon="8.924305597320199">
        <ele>401.45703125</ele>
      </trkpt>
      <trkpt lat="48.518004454672337" lon="8.924014745280147">
        <ele>401.296875</ele>
      </trkpt>
      <trkpt lat="48.518105037510395" lon="8.923764042556286">
        <ele>401.40234375</ele>
      </trkpt>
      <trkpt lat="48.518375437706709" lon="8.923794133588672">
        <ele>403.171875</ele>
      </trkpt>
      <trkpt lat="48.518708702176809" lon="8.923834199085832">
        <ele>405.12890625</ele>
      </trkpt>
      <trkpt lat="48.518972815945745" lon="8.923904439434409">
        <ele>406.44921875</ele>
      </trkpt>
      <trkpt lat="48.519224356859922" lon="8.923944504931569">
        <ele>407.59765625</ele>
      </trkpt>
      <trkpt lat="48.519507329910994" lon="8.923994712531567">
        <ele>408.89453125</ele>
      </trkpt>
      <trkpt lat="48.519784016534686" lon="8.924014745280147">
        <ele>411.25</ele>
      </trkpt>
      <trkpt lat="48.520085848867893" lon="8.924044836312532">
        <ele>413.6640625</ele>
      </trkpt>
      <trkpt lat="48.520368821918964" lon="8.924064869061112">
        <ele>415.40625</ele>
      </trkpt>
      <trkpt lat="48.52067694067955" lon="8.924084901809692">
        <ele>416.8203125</ele>
      </trkpt>
      <trkpt lat="48.52092856541276" lon="8.924084901809692">
        <ele>417.64453125</ele>
      </trkpt>
      <trkpt lat="48.521161247044802" lon="8.924084901809692">
        <ele>417.90625</ele>
      </trkpt>
      <trkpt lat="48.521425360813737" lon="8.924074927344918">
        <ele>418.109375</ele>
      </trkpt>
      <trkpt lat="48.521431647241116" lon="8.924074927344918">
        <ele>418.109375</ele>
      </trkpt>
      <trkpt lat="48.521632812917233" lon="8.924054810777307">
        <ele>418.08203125</ele>
      </trkpt>
      <trkpt lat="48.521657958626747" lon="8.924205265939236">
        <ele>418.4921875</ele>
      </trkpt>
      <trkpt lat="48.52167229168117" lon="8.924423614516854">
        <ele>418.63671875</ele>
      </trkpt>
      <trkpt lat="48.521596770733595" lon="8.924714466556907">
        <ele>418.89453125</ele>
      </trkpt>
      <trkpt lat="48.521584197878838" lon="8.925225930288434">
        <ele>419.015625</ele>
      </trkpt>
      <trkpt lat="48.521577911451459" lon="8.925807634368539">
        <ele>422.67578125</ele>
      </trkpt>
      <trkpt lat="48.522074706852436" lon="8.926118519157171">
        <ele>424.00390625</ele>
      </trkpt>
      <trkpt lat="48.522148551419377" lon="8.926179287955165">
        <ele>424.5703125</ele>
      </trkpt>
      <trkpt lat="48.52227427996695" lon="8.926236620172858">
        <ele>424.71875</ele>
      </trkpt>
      <trkpt lat="48.522489862516522" lon="8.92633686773479">
        <ele>423.99609375</ele>
      </trkpt>
      <trkpt lat="48.522696476429701" lon="8.9264658652246">
        <ele>423.26171875</ele>
      </trkpt>
      <trkpt lat="48.523010881617665" lon="8.926566112786531">
        <ele>420.74609375</ele>
      </trkpt>
      <trkpt lat="48.52320852689445" lon="8.926666444167495">
        <ele>419.50390625</ele>
      </trkpt>
      <trkpt lat="48.52325345389545" lon="8.92682402394712">
        <ele>421.8359375</ele>
      </trkpt>
      <trkpt lat="48.523343307897449" lon="8.926995936781168">
        <ele>423.328125</ele>
      </trkpt>
      <trkpt lat="48.523496026173234" lon="8.927067602053285">
        <ele>421.6796875</ele>
      </trkpt>
      <trkpt lat="48.523810431361198" lon="8.927325429394841">
        <ele>419.3203125</ele>
      </trkpt>
      <trkpt lat="48.52402601391077" lon="8.927655005827546">
        <ele>418.03125</ele>
      </trkpt>
      <trkpt lat="48.524268586188555" lon="8.928013164550066">
        <ele>415.48828125</ele>
      </trkpt>
      <trkpt lat="48.524385346099734" lon="8.928371323272586">
        <ele>414.71875</ele>
      </trkpt>
      <trkpt lat="48.524475200101733" lon="8.928829813376069">
        <ele>414.578125</ele>
      </trkpt>
      <trkpt lat="48.524654824286699" lon="8.929302552714944">
        <ele>413.4765625</ele>
      </trkpt>
      <trkpt lat="48.524852469563484" lon="8.929975954815745">
        <ele>415.7109375</ele>
      </trkpt>
      <trkpt lat="48.525023125112057" lon="8.93057769164443">
        <ele>415.87109375</ele>
      </trkpt>
      <trkpt lat="48.525193864479661" lon="8.931150762364268">
        <ele>415.7890625</ele>
      </trkpt>
      <trkpt lat="48.525346498936415" lon="8.931680917739868">
        <ele>414</ele>
      </trkpt>
      <trkpt lat="48.525382457301021" lon="8.932196656242013">
        <ele>414.328125</ele>
      </trkpt>
      <trkpt lat="48.525274666026235" lon="8.932282570749521">
        <ele>416.37109375</ele>
      </trkpt>
      <trkpt lat="48.525014156475663" lon="8.932354236021638">
        <ele>421.6640625</ele>
      </trkpt>
      <trkpt lat="48.524753646925092" lon="8.93249748274684">
        <ele>428.2421875</ele>
      </trkpt>
      <trkpt lat="48.524457179009914" lon="8.932712394744158">
        <ele>431.265625</ele>
      </trkpt>
      <trkpt lat="48.524268586188555" lon="8.932597814127803">
        <ele>435.87109375</ele>
      </trkpt>
      <trkpt lat="48.524034982547164" lon="8.93249748274684">
        <ele>440.26171875</ele>
      </trkpt>
      <trkpt lat="48.523819399997592" lon="8.932354236021638">
        <ele>443.4140625</ele>
      </trkpt>
      <trkpt lat="48.523540953174233" lon="8.932239655405283">
        <ele>447.28125</ele>
      </trkpt>
      <trkpt lat="48.523262422531843" lon="8.93222532235086">
        <ele>449.55078125</ele>
      </trkpt>
      <trkpt lat="48.522903090342879" lon="8.932153657078743">
        <ele>454.45703125</ele>
      </trkpt>
      <trkpt lat="48.522642580792308" lon="8.932325569912791">
        <ele>456.05078125</ele>
      </trkpt>
      <trkpt lat="48.522489862516522" lon="8.932597814127803">
        <ele>456.25390625</ele>
      </trkpt>
      <trkpt lat="48.522346196696162" lon="8.933142218738794">
        <ele>456.4921875</ele>
      </trkpt>
      <trkpt lat="48.52220244705677" lon="8.933686623349786">
        <ele>456.03125</ele>
      </trkpt>
      <trkpt lat="48.521950906142592" lon="8.934460356831551">
        <ele>454.19140625</ele>
      </trkpt>
      <trkpt lat="48.521798187866807" lon="8.935004761442542">
        <ele>453.23828125</ele>
      </trkpt>
      <trkpt lat="48.521546646952629" lon="8.935520499944687">
        <ele>452.015625</ele>
      </trkpt>
      <trkpt lat="48.521304158493876" lon="8.936107903718948">
        <ele>453.515625</ele>
      </trkpt>
      <trkpt lat="48.521133419126272" lon="8.936709640547633">
        <ele>456.6328125</ele>
      </trkpt>
      <trkpt lat="48.52103459648788" lon="8.937254128977656">
        <ele>458.44921875</ele>
      </trkpt>
      <trkpt lat="48.521016659215093" lon="8.937755534425378">
        <ele>459.109375</ele>
      </trkpt>
      <trkpt lat="48.521008025854826" lon="8.938300525769591">
        <ele>459.51171875</ele>
      </trkpt>
      <trkpt lat="48.52090023458004" lon="8.938816264271736">
        <ele>460.234375</ele>
      </trkpt>
      <trkpt lat="48.520612735301256" lon="8.939532665535808">
        <ele>460.31640625</ele>
      </trkpt>
      <trkpt lat="48.520388184115291" lon="8.940005404874682">
        <ele>459.84765625</ele>
      </trkpt>
      <trkpt lat="48.520163632929325" lon="8.940191650763154">
        <ele>459.21484375</ele>
      </trkpt>
      <trkpt lat="48.519822238013148" lon="8.940334981307387">
        <ele>458.99609375</ele>
      </trkpt>
      <trkpt lat="48.519426947459579" lon="8.940521227195859">
        <ele>458.5</ele>
      </trkpt>
      <trkpt lat="48.519004750996828" lon="8.940764721482992">
        <ele>458.48046875</ele>
      </trkpt>
      <trkpt lat="48.518681712448597" lon="8.941094297915697">
        <ele>458.51953125</ele>
      </trkpt>
      <trkpt lat="48.518546847626567" lon="8.941222876310349">
        <ele>458.71875</ele>
      </trkpt>
      <trkpt lat="48.518546847626567" lon="8.941222876310349">
        <ele>458.71875</ele>
      </trkpt>
      <trkpt lat="48.518259348347783" lon="8.941566701978445">
        <ele>458.890625</ele>
      </trkpt>
      <trkpt lat="48.517846120521426" lon="8.941924860700965">
        <ele>457.91796875</ele>
      </trkpt>
      <trkpt lat="48.517558705061674" lon="8.94208244048059">
        <ele>457.19140625</ele>
      </trkpt>
      <trkpt lat="48.517549652606249" lon="8.94208244048059">
        <ele>457.20703125</ele>
      </trkpt>
      <trkpt lat="48.51727120578289" lon="8.942197104915977">
        <ele>456.55078125</ele>
      </trkpt>
      <trkpt lat="48.516992758959532" lon="8.942297352477908">
        <ele>455.6015625</ele>
      </trkpt>
      <trkpt lat="48.516714228317142" lon="8.942454932257533">
        <ele>454.0546875</ele>
      </trkpt>
      <trkpt lat="48.516408791765571" lon="8.942512264475226">
        <ele>452.83984375</ele>
      </trkpt>
      <trkpt lat="48.516175271943212" lon="8.942469265311956">
        <ele>452.55859375</ele>
      </trkpt>
      <trkpt lat="48.516139313578606" lon="8.942454932257533">
        <ele>452.56640625</ele>
      </trkpt>
      <trkpt lat="48.51566213183105" lon="8.942369353026152">
        <ele>451.625</ele>
      </trkpt>
      <trkpt lat="48.515473455190659" lon="8.942254772409797">
        <ele>452.21484375</ele>
      </trkpt>
      <trkpt lat="48.515293831005692" lon="8.942154441028833">
        <ele>452.7890625</ele>
      </trkpt>
      <trkpt lat="48.515302799642086" lon="8.941882280632854">
        <ele>456.32421875</ele>
      </trkpt>
      <trkpt lat="48.515356695279479" lon="8.941610036417842">
        <ele>459.3359375</ele>
      </trkpt>
      <trkpt lat="48.515491392463446" lon="8.941294876858592">
        <ele>462.48046875</ele>
      </trkpt>
      <trkpt lat="48.515707058832049" lon="8.941208878532052">
        <ele>463.5390625</ele>
      </trkpt>
      <trkpt lat="48.515904620289803" lon="8.941309209913015">
        <ele>463.25</ele>
      </trkpt>
      <trkpt lat="48.516093296930194" lon="8.941481122747064">
        <ele>462.20703125</ele>
      </trkpt>
      <trkpt lat="48.516290942206979" lon="8.941610036417842">
        <ele>461.4765625</ele>
      </trkpt>
      <trkpt lat="48.516506524756551" lon="8.941667368635535">
        <ele>461.30859375</ele>
      </trkpt>
      <trkpt lat="48.516776002943516" lon="8.941681701689959">
        <ele>461.58984375</ele>
      </trkpt>
      <trkpt lat="48.516784971579909" lon="8.941681701689959">
        <ele>461.58984375</ele>
      </trkpt>
      <trkpt lat="48.517027543857694" lon="8.941810615360737">
        <ele>460.65625</ele>
      </trkpt>
      <trkpt lat="48.517315043136477" lon="8.941810615360737">
        <ele>460.53515625</ele>
      </trkpt>
      <trkpt lat="48.517476730048656" lon="8.941624369472265">
        <ele>461.55078125</ele>
      </trkpt>
      <trkpt lat="48.51748569868505" lon="8.941208878532052">
        <ele>463.546875</ele>
      </trkpt>
      <trkpt lat="48.51736893877387" lon="8.940822053700686">
        <ele>463.7890625</ele>
      </trkpt>
      <trkpt lat="48.51713533513248" lon="8.940478228032589">
        <ele>463.41796875</ele>
      </trkpt>
      <trkpt lat="48.516883794218302" lon="8.940248982980847">
        <ele>463.5390625</ele>
      </trkpt>
      <trkpt lat="48.51662328466773" lon="8.940034070983529">
        <ele>464.1640625</ele>
      </trkpt>
      <trkpt lat="48.516192119568586" lon="8.939847825095058">
        <ele>466.625</ele>
      </trkpt>
      <trkpt lat="48.51573396474123" lon="8.939718911424279">
        <ele>467.8203125</ele>
      </trkpt>
      <trkpt lat="48.515374632552266" lon="8.939632913097739">
        <ele>467.58203125</ele>
      </trkpt>
      <trkpt lat="48.514979341998696" lon="8.939546998590231">
        <ele>468.05859375</ele>
      </trkpt>
      <trkpt lat="48.514754790812731" lon="8.939489666372538">
        <ele>468.34765625</ele>
      </trkpt>
      <trkpt lat="48.514521270990372" lon="8.939403668045998">
        <ele>468.4765625</ele>
      </trkpt>
      <trkpt lat="48.514323625713587" lon="8.939332086592913">
        <ele>468.2109375</ele>
      </trkpt>
      <trkpt lat="48.514206865802407" lon="8.939188756048679">
        <ele>467.65625</ele>
      </trkpt>
      <trkpt lat="48.514143917709589" lon="8.938945261761546">
        <ele>466.8984375</ele>
      </trkpt>
      <trkpt lat="48.513874439522624" lon="8.93887359648943">
        <ele>465.48046875</ele>
      </trkpt>
      <trkpt lat="48.513569002971053" lon="8.938887929543853">
        <ele>462.62890625</ele>
      </trkpt>
      <trkpt lat="48.513416284695268" lon="8.938945261761546">
        <ele>460.640625</ele>
      </trkpt>
      <trkpt lat="48.513263566419482" lon="8.939160173758864">
        <ele>458.078125</ele>
      </trkpt>
      <trkpt lat="48.513227691873908" lon="8.939346419647336">
        <ele>457.5625</ele>
      </trkpt>
      <trkpt lat="48.51309291087091" lon="8.939389334991574">
        <ele>454.953125</ele>
      </trkpt>
      <trkpt lat="48.512949161231518" lon="8.939575580880046">
        <ele>451.87890625</ele>
      </trkpt>
      <trkpt lat="48.512876657769084" lon="8.940175473690033">
        <ele>448.49609375</ele>
      </trkpt>
      <trkpt lat="48.512809351086617" lon="8.940798752009869">
        <ele>444.01171875</ele>
      </trkpt>
      <trkpt lat="48.512782361358404" lon="8.941378947347403">
        <ele>439.48046875</ele>
      </trkpt>
      <trkpt lat="48.512768866494298" lon="8.941980684176087">
        <ele>434.60546875</ele>
      </trkpt>
      <trkpt lat="48.51279585622251" lon="8.942517964169383">
        <ele>429.6640625</ele>
      </trkpt>
      <trkpt lat="48.512661075219512" lon="8.94290478900075">
        <ele>424.76171875</ele>
      </trkpt>
      <trkpt lat="48.512391597032547" lon="8.942818874493241">
        <ele>423.84765625</ele>
      </trkpt>
      <trkpt lat="48.512027822434902" lon="8.942431965842843">
        <ele>423.71875</ele>
      </trkpt>
      <trkpt lat="48.511690953746438" lon="8.941808771342039">
        <ele>422.7421875</ele>
      </trkpt>
      <trkpt lat="48.511340590193868" lon="8.941421946510673">
        <ele>418.97265625</ele>
      </trkpt>
      <trkpt lat="48.511327095329762" lon="8.941421946510673">
        <ele>418.83984375</ele>
      </trkpt>
      <trkpt lat="48.51111151278019" lon="8.941056579351425">
        <ele>416.81640625</ele>
      </trkpt>
      <trkpt lat="48.510936331003904" lon="8.94064829684794">
        <ele>415.28125</ele>
      </trkpt>
      <trkpt lat="48.51069375872612" lon="8.940239930525422">
        <ele>413.0078125</ele>
      </trkpt>
      <trkpt lat="48.510289583355188" lon="8.939939104020596">
        <ele>409.5625</ele>
      </trkpt>
      <trkpt lat="48.509858334437013" lon="8.939638193696737">
        <ele>406.9921875</ele>
      </trkpt>
      <trkpt lat="48.509346283972263" lon="8.939251368865371">
        <ele>405.31640625</ele>
      </trkpt>
      <trkpt lat="48.509036405012012" lon="8.938993541523814">
        <ele>404.625</ele>
      </trkpt>
      <trkpt lat="48.508726442232728" lon="8.938714172691107">
        <ele>401.84375</ele>
      </trkpt>
      <trkpt lat="48.50849736481905" lon="8.938950542360544">
        <ele>403.7890625</ele>
      </trkpt>
      <trkpt lat="48.508200980722904" lon="8.939165454357863">
        <ele>402.55859375</ele>
      </trkpt>
      <trkpt lat="48.507918007671833" lon="8.939595278352499">
        <ele>401.67578125</ele>
      </trkpt>
      <trkpt lat="48.507810216397047" lon="8.940111016854644">
        <ele>401.46875</ele>
      </trkpt>
      <trkpt lat="48.507675435394049" lon="8.94062683917582">
        <ele>400.76171875</ele>
      </trkpt>
      <trkpt lat="48.507540738210082" lon="8.941099578514695">
        <ele>400.0078125</ele>
      </trkpt>
      <trkpt lat="48.507446357980371" lon="8.941572401672602">
        <ele>400.0546875</ele>
      </trkpt>
      <trkpt lat="48.50741945207119" lon="8.942088140174747">
        <ele>399.7734375</ele>
      </trkpt>
      <trkpt lat="48.507365556433797" lon="8.942539421841502">
        <ele>399.109375</ele>
      </trkpt>
      <trkpt lat="48.507352061569691" lon="8.943463526666164">
        <ele>397.828125</ele>
      </trkpt>
      <trkpt lat="48.507352061569691" lon="8.944473629817367">
        <ele>396.3828125</ele>
      </trkpt>
      <trkpt lat="48.507352061569691" lon="8.944473629817367">
        <ele>396.3828125</ele>
      </trkpt>
      <trkpt lat="48.507284503430128" lon="8.944667167961597">
        <ele>396.02734375</ele>
      </trkpt>
      <trkpt lat="48.507192637771368" lon="8.94602713175118">
        <ele>395.0078125</ele>
      </trkpt>
      <trkpt lat="48.50705785676837" lon="8.947445517405868">
        <ele>394.265625</ele>
      </trkpt>
      <trkpt lat="48.506950065493584" lon="8.948305165395141">
        <ele>392.84375</ele>
      </trkpt>
      <trkpt lat="48.50686926394701" lon="8.949723551049829">
        <ele>388.01953125</ele>
      </trkpt>
      <trkpt lat="48.507543001323938" lon="8.950282288715243">
        <ele>382.41015625</ele>
      </trkpt>
      <trkpt lat="48.507947260513902" lon="8.950497200712562">
        <ele>379.68359375</ele>
      </trkpt>
      <trkpt lat="48.507704688236117" lon="8.952259412035346">
        <ele>376.10546875</ele>
      </trkpt>
      <trkpt lat="48.507435210049152" lon="8.953978624194861">
        <ele>374.546875</ele>
      </trkpt>
      <trkpt lat="48.507165648043156" lon="8.955568922683597">
        <ele>373.4921875</ele>
      </trkpt>
      <trkpt lat="48.506977055221796" lon="8.956944309175015">
        <ele>372.45703125</ele>
      </trkpt>
      <trkpt lat="48.506815368309617" lon="8.958104783669114">
        <ele>370.375</ele>
      </trkpt>
      <trkpt lat="48.506680587306619" lon="8.959179343655706">
        <ele>366.0546875</ele>
      </trkpt>
      <trkpt lat="48.50656189955771" lon="8.959323931485415">
        <ele>365.265625</ele>
      </trkpt>
      <trkpt lat="48.506335588172078" lon="8.95975518040359">
        <ele>362.38671875</ele>
      </trkpt>
      <trkpt lat="48.506146911531687" lon="8.960046032443643">
        <ele>359.8046875</ele>
      </trkpt>
      <trkpt lat="48.5057507827878" lon="8.960477281361818">
        <ele>356.62890625</ele>
      </trkpt>
      <trkpt lat="48.505027592182159" lon="8.961299629881978">
        <ele>355.69140625</ele>
      </trkpt>
      <trkpt lat="48.504769764840603" lon="8.961911424994469">
        <ele>354.8515625</ele>
      </trkpt>
      <trkpt lat="48.504732046276331" lon="8.962071854621172">
        <ele>354.6015625</ele>
      </trkpt>
      <trkpt lat="48.504518223926425" lon="8.962172186002135">
        <ele>353.91796875</ele>
      </trkpt>
      <trkpt lat="48.504115808755159" lon="8.96212206222117">
        <ele>352.78125</ele>
      </trkpt>
      <trkpt lat="48.503757398575544" lon="8.962031789124012">
        <ele>351.5234375</ele>
      </trkpt>
      <trkpt lat="48.503493284806609" lon="8.96197160705924">
        <ele>349.703125</ele>
      </trkpt>
      <trkpt lat="48.503260603174567" lon="8.96199163980782">
        <ele>347.9921875</ele>
      </trkpt>
      <trkpt lat="48.503034207969904" lon="8.96235273219645">
        <ele>346.2265625</ele>
      </trkpt>
      <trkpt lat="48.503141161054373" lon="8.962493129074574">
        <ele>346.5859375</ele>
      </trkpt>
    </trkseg>
  </trk>

</gpx>
