<?xml version='1.0' encoding='UTF-8'?>
<gpx version="1.1" creator="https://www.komoot.de" xmlns="http://www.topografix.com/GPX/1/1" xmlns:xsi="http://www.w3.org/2001/XMLSchema-instance" xsi:schemaLocation="http://www.topografix.com/GPX/1/1 http://www.topografix.com/GPX/1/1/gpx.xsd">
  <metadata>
    <name>Ehingen / Donau wir wandern von einem Bier zum anderen 5 km Strecke</name>
    <author>
      <link href="https://www.komoot.de">
        <text>komoot</text>
        <type>text/html</type>
      </link>
    </author>
  </metadata>
  <trk>
    <name>Ehingen / Donau wir wandern von einem Bier zum anderen 5 km Strecke</name>
    <trkseg>
      <trkpt lat="48.282431" lon="9.725669">
        <ele>517.492683</ele>
        <time>2022-09-25T13:17:51.951Z</time>
      </trkpt>
      <trkpt lat="48.282431" lon="9.725669">
        <ele>517.492683</ele>
        <time>2022-09-25T13:17:51.974Z</time>
      </trkpt>
      <trkpt lat="48.282270" lon="9.725240">
        <ele>517.492683</ele>
        <time>2022-09-25T13:18:25.383Z</time>
      </trkpt>
      <trkpt lat="48.282215" lon="9.724915">
        <ele>517.492683</ele>
        <time>2022-09-25T13:18:48.117Z</time>
      </trkpt>
      <trkpt lat="48.282126" lon="9.724390">
        <ele>517.475604</ele>
        <time>2022-09-25T13:19:24.718Z</time>
      </trkpt>
      <trkpt lat="48.282092" lon="9.724184">
        <ele>517.276498</ele>
        <time>2022-09-25T13:19:39.138Z</time>
      </trkpt>
      <trkpt lat="48.282113" lon="9.723689">
        <ele>516.811190</ele>
        <time>2022-09-25T13:20:12.894Z</time>
      </trkpt>
      <trkpt lat="48.282160" lon="9.723622">
        <ele>516.719864</ele>
        <time>2022-09-25T13:20:19.558Z</time>
      </trkpt>
      <trkpt lat="48.282339" lon="9.723611">
        <ele>516.467315</ele>
        <time>2022-09-25T13:20:37.990Z</time>
      </trkpt>
      <trkpt lat="48.282604" lon="9.723693">
        <ele>516.085904</ele>
        <time>2022-09-25T13:21:06.068Z</time>
      </trkpt>
      <trkpt lat="48.282809" lon="9.723846">
        <ele>515.763233</ele>
        <time>2022-09-25T13:21:29.931Z</time>
      </trkpt>
      <trkpt lat="48.282943" lon="9.723953">
        <ele>515.549319</ele>
        <time>2022-09-25T13:21:46.001Z</time>
      </trkpt>
      <trkpt lat="48.283185" lon="9.724142">
        <ele>515.164847</ele>
        <time>2022-09-25T13:22:14.519Z</time>
      </trkpt>
      <trkpt lat="48.283219" lon="9.723995">
        <ele>515.018856</ele>
        <time>2022-09-25T13:22:25.272Z</time>
      </trkpt>
      <trkpt lat="48.282947" lon="9.723300">
        <ele>514.966908</ele>
        <time>2022-09-25T13:23:19.598Z</time>
      </trkpt>
      <trkpt lat="48.282643" lon="9.722871">
        <ele>514.975196</ele>
        <time>2022-09-25T13:24:02.071Z</time>
      </trkpt>
      <trkpt lat="48.282643" lon="9.722871">
        <ele>514.975196</ele>
        <time>2022-09-25T13:24:02.260Z</time>
      </trkpt>
      <trkpt lat="48.282431" lon="9.722723">
        <ele>514.979842</ele>
        <time>2022-09-25T13:24:25.925Z</time>
      </trkpt>
      <trkpt lat="48.282019" lon="9.722774">
        <ele>514.988058</ele>
        <time>2022-09-25T13:25:07.677Z</time>
      </trkpt>
      <trkpt lat="48.281808" lon="9.723069">
        <ele>515.027615</ele>
        <time>2022-09-25T13:25:37.240Z</time>
      </trkpt>
      <trkpt lat="48.281677" lon="9.723454">
        <ele>515.242714</ele>
        <time>2022-09-25T13:26:07.230Z</time>
      </trkpt>
      <trkpt lat="48.281565" lon="9.723597">
        <ele>515.352575</ele>
        <time>2022-09-25T13:26:22.188Z</time>
      </trkpt>
      <trkpt lat="48.281519" lon="9.723609">
        <ele>515.387475</ele>
        <time>2022-09-25T13:26:27.266Z</time>
      </trkpt>
      <trkpt lat="48.281367" lon="9.723649">
        <ele>515.502826</ele>
        <time>2022-09-25T13:26:43.400Z</time>
      </trkpt>
      <trkpt lat="48.281383" lon="9.722943">
        <ele>515.854229</ele>
        <time>2022-09-25T13:27:32.336Z</time>
      </trkpt>
      <trkpt lat="48.281373" lon="9.722529">
        <ele>516.060309</ele>
        <time>2022-09-25T13:28:00.923Z</time>
      </trkpt>
      <trkpt lat="48.281356" lon="9.722255">
        <ele>516.197202</ele>
        <time>2022-09-25T13:28:19.303Z</time>
      </trkpt>
      <trkpt lat="48.281343" lon="9.722045">
        <ele>516.302117</ele>
        <time>2022-09-25T13:28:33.760Z</time>
      </trkpt>
      <trkpt lat="48.281323" lon="9.721732">
        <ele>516.209939</ele>
        <time>2022-09-25T13:28:54.837Z</time>
      </trkpt>
      <trkpt lat="48.281368" lon="9.720860">
        <ele>515.752357</ele>
        <time>2022-09-25T13:29:53.716Z</time>
      </trkpt>
      <trkpt lat="48.281403" lon="9.720183">
        <ele>515.397098</ele>
        <time>2022-09-25T13:30:40.044Z</time>
      </trkpt>
      <trkpt lat="48.281408" lon="9.720094">
        <ele>515.350369</ele>
        <time>2022-09-25T13:30:46.218Z</time>
      </trkpt>
      <trkpt lat="48.281184" lon="9.720065">
        <ele>515.173614</ele>
        <time>2022-09-25T13:31:09.339Z</time>
      </trkpt>
      <trkpt lat="48.281038" lon="9.720046">
        <ele>515.058402</ele>
        <time>2022-09-25T13:31:24.538Z</time>
      </trkpt>
      <trkpt lat="48.280973" lon="9.720037">
        <ele>515.007084</ele>
        <time>2022-09-25T13:31:31.188Z</time>
      </trkpt>
      <trkpt lat="48.281001" lon="9.719634">
        <ele>514.663423</ele>
        <time>2022-09-25T13:31:59.047Z</time>
      </trkpt>
      <trkpt lat="48.281008" lon="9.719535">
        <ele>514.557849</ele>
        <time>2022-09-25T13:32:05.703Z</time>
      </trkpt>
      <trkpt lat="48.281242" lon="9.719568">
        <ele>514.183333</ele>
        <time>2022-09-25T13:32:29.829Z</time>
      </trkpt>
      <trkpt lat="48.281295" lon="9.719575">
        <ele>514.098552</ele>
        <time>2022-09-25T13:32:35.350Z</time>
      </trkpt>
      <trkpt lat="48.281343" lon="9.719540">
        <ele>514.013535</ele>
        <time>2022-09-25T13:32:40.749Z</time>
      </trkpt>
      <trkpt lat="48.281366" lon="9.719312">
        <ele>513.768996</ele>
        <time>2022-09-25T13:32:56.554Z</time>
      </trkpt>
      <trkpt lat="48.281292" lon="9.718721">
        <ele>513.131286</ele>
        <time>2022-09-25T13:33:38.066Z</time>
      </trkpt>
      <trkpt lat="48.281278" lon="9.718608">
        <ele>513.009399</ele>
        <time>2022-09-25T13:33:46.028Z</time>
      </trkpt>
      <trkpt lat="48.281186" lon="9.718637">
        <ele>512.859607</ele>
        <time>2022-09-25T13:33:55.760Z</time>
      </trkpt>
      <trkpt lat="48.281187" lon="9.718666">
        <ele>512.828813</ele>
        <time>2022-09-25T13:33:57.759Z</time>
      </trkpt>
      <trkpt lat="48.281188" lon="9.718728">
        <ele>512.763047</ele>
        <time>2022-09-25T13:34:02.065Z</time>
      </trkpt>
      <trkpt lat="48.281063" lon="9.718739">
        <ele>512.563519</ele>
        <time>2022-09-25T13:34:15.160Z</time>
      </trkpt>
      <trkpt lat="48.281080" lon="9.718500">
        <ele>512.308632</ele>
        <time>2022-09-25T13:34:31.935Z</time>
      </trkpt>
      <trkpt lat="48.281101" lon="9.718304">
        <ele>512.098110</ele>
        <time>2022-09-25T13:34:45.640Z</time>
      </trkpt>
      <trkpt lat="48.281377" lon="9.718161">
        <ele>511.845365</ele>
        <time>2022-09-25T13:35:15.872Z</time>
      </trkpt>
      <trkpt lat="48.281472" lon="9.718089">
        <ele>511.760719</ele>
        <time>2022-09-25T13:35:26.860Z</time>
      </trkpt>
      <trkpt lat="48.281565" lon="9.718020">
        <ele>511.678207</ele>
        <time>2022-09-25T13:35:37.467Z</time>
      </trkpt>
      <trkpt lat="48.281780" lon="9.717818">
        <ele>511.476483</ele>
        <time>2022-09-25T13:36:03.163Z</time>
      </trkpt>
      <trkpt lat="48.281781" lon="9.717820">
        <ele>511.475159</ele>
        <time>2022-09-25T13:36:03.362Z</time>
      </trkpt>
      <trkpt lat="48.281899" lon="9.718006">
        <ele>511.339111</ele>
        <time>2022-09-25T13:36:20.717Z</time>
      </trkpt>
      <trkpt lat="48.281982" lon="9.718307">
        <ele>511.166620</ele>
        <time>2022-09-25T13:36:42.554Z</time>
      </trkpt>
      <trkpt lat="48.281992" lon="9.718352">
        <ele>511.141503</ele>
        <time>2022-09-25T13:36:45.725Z</time>
      </trkpt>
      <trkpt lat="48.282016" lon="9.718510">
        <ele>511.055705</ele>
        <time>2022-09-25T13:36:56.573Z</time>
      </trkpt>
      <trkpt lat="48.282019" lon="9.718642">
        <ele>510.985782</ele>
        <time>2022-09-25T13:37:05.414Z</time>
      </trkpt>
      <trkpt lat="48.282005" lon="9.718854">
        <ele>510.872996</ele>
        <time>2022-09-25T13:37:19.729Z</time>
      </trkpt>
      <trkpt lat="48.281869" lon="9.719419">
        <ele>510.559033</ele>
        <time>2022-09-25T13:37:59.911Z</time>
      </trkpt>
      <trkpt lat="48.281826" lon="9.719622">
        <ele>510.452760</ele>
        <time>2022-09-25T13:38:14.370Z</time>
      </trkpt>
      <trkpt lat="48.281732" lon="9.720076">
        <ele>510.215572</ele>
        <time>2022-09-25T13:38:46.345Z</time>
      </trkpt>
      <trkpt lat="48.281678" lon="9.720387">
        <ele>510.055235</ele>
        <time>2022-09-25T13:39:07.796Z</time>
      </trkpt>
      <trkpt lat="48.281670" lon="9.720693">
        <ele>509.902468</ele>
        <time>2022-09-25T13:39:28.568Z</time>
      </trkpt>
      <trkpt lat="48.281682" lon="9.721509">
        <ele>509.495305</ele>
        <time>2022-09-25T13:40:23.735Z</time>
      </trkpt>
      <trkpt lat="48.281797" lon="9.721483">
        <ele>509.408128</ele>
        <time>2022-09-25T13:40:36.001Z</time>
      </trkpt>
      <trkpt lat="48.281876" lon="9.721424">
        <ele>509.341996</ele>
        <time>2022-09-25T13:40:45.090Z</time>
      </trkpt>
      <trkpt lat="48.282141" lon="9.721735">
        <ele>508.979394</ele>
        <time>2022-09-25T13:41:19.681Z</time>
      </trkpt>
      <trkpt lat="48.282414" lon="9.721861">
        <ele>508.639447</ele>
        <time>2022-09-25T13:41:48.838Z</time>
      </trkpt>
      <trkpt lat="48.282466" lon="9.721889">
        <ele>508.573696</ele>
        <time>2022-09-25T13:41:54.531Z</time>
      </trkpt>
      <trkpt lat="48.282669" lon="9.722107">
        <ele>508.276695</ele>
        <time>2022-09-25T13:42:20.090Z</time>
      </trkpt>
      <trkpt lat="48.282767" lon="9.722238">
        <ele>508.120567</ele>
        <time>2022-09-25T13:42:33.701Z</time>
      </trkpt>
      <trkpt lat="48.282846" lon="9.722342">
        <ele>507.995549</ele>
        <time>2022-09-25T13:42:44.306Z</time>
      </trkpt>
      <trkpt lat="48.283001" lon="9.722126">
        <ele>507.743922</ele>
        <time>2022-09-25T13:43:06.596Z</time>
      </trkpt>
      <trkpt lat="48.283095" lon="9.722003">
        <ele>507.595556</ele>
        <time>2022-09-25T13:43:19.373Z</time>
      </trkpt>
      <trkpt lat="48.283197" lon="9.721949">
        <ele>507.466826</ele>
        <time>2022-09-25T13:43:30.614Z</time>
      </trkpt>
      <trkpt lat="48.283318" lon="9.721902">
        <ele>507.318061</ele>
        <time>2022-09-25T13:43:43.487Z</time>
      </trkpt>
      <trkpt lat="48.283403" lon="9.722108">
        <ele>507.138524</ele>
        <time>2022-09-25T13:43:59.713Z</time>
      </trkpt>
      <trkpt lat="48.283486" lon="9.722311">
        <ele>507.165432</ele>
        <time>2022-09-25T13:44:16.032Z</time>
      </trkpt>
      <trkpt lat="48.283568" lon="9.722451">
        <ele>507.186495</ele>
        <time>2022-09-25T13:44:28.551Z</time>
      </trkpt>
      <trkpt lat="48.283647" lon="9.722590">
        <ele>507.207140</ele>
        <time>2022-09-25T13:44:40.720Z</time>
      </trkpt>
      <trkpt lat="48.283760" lon="9.722528">
        <ele>507.227557</ele>
        <time>2022-09-25T13:44:52.991Z</time>
      </trkpt>
      <trkpt lat="48.283892" lon="9.722574">
        <ele>507.250554</ele>
        <time>2022-09-25T13:45:06.926Z</time>
      </trkpt>
      <trkpt lat="48.284018" lon="9.722719">
        <ele>507.277488</ele>
        <time>2022-09-25T13:45:22.849Z</time>
      </trkpt>
      <trkpt lat="48.284218" lon="9.722994">
        <ele>507.323496</ele>
        <time>2022-09-25T13:45:50.255Z</time>
      </trkpt>
      <trkpt lat="48.284378" lon="9.723121">
        <ele>507.354206</ele>
        <time>2022-09-25T13:46:08.706Z</time>
      </trkpt>
      <trkpt lat="48.284401" lon="9.723365">
        <ele>507.382038</ele>
        <time>2022-09-25T13:46:25.747Z</time>
      </trkpt>
      <trkpt lat="48.284427" lon="9.723409">
        <ele>507.388683</ele>
        <time>2022-09-25T13:46:29.802Z</time>
      </trkpt>
      <trkpt lat="48.284498" lon="9.723354">
        <ele>507.402240</ele>
        <time>2022-09-25T13:46:37.862Z</time>
      </trkpt>
      <trkpt lat="48.284748" lon="9.723360">
        <ele>507.450598</ele>
        <time>2022-09-25T13:47:03.819Z</time>
      </trkpt>
      <trkpt lat="48.284844" lon="9.723801">
        <ele>507.629980</ele>
        <time>2022-09-25T13:47:35.798Z</time>
      </trkpt>
      <trkpt lat="48.285126" lon="9.724560">
        <ele>507.966050</ele>
        <time>2022-09-25T13:48:35.425Z</time>
      </trkpt>
      <trkpt lat="48.285217" lon="9.724713">
        <ele>508.045384</ele>
        <time>2022-09-25T13:48:49.682Z</time>
      </trkpt>
      <trkpt lat="48.284689" lon="9.725058">
        <ele>508.379883</ele>
        <time>2022-09-25T13:49:47.702Z</time>
      </trkpt>
      <trkpt lat="48.284725" lon="9.725159">
        <ele>508.424178</ele>
        <time>2022-09-25T13:49:55.414Z</time>
      </trkpt>
      <trkpt lat="48.284765" lon="9.725216">
        <ele>508.456204</ele>
        <time>2022-09-25T13:50:01.002Z</time>
      </trkpt>
      <trkpt lat="48.284798" lon="9.725265">
        <ele>508.483156</ele>
        <time>2022-09-25T13:50:05.685Z</time>
      </trkpt>
      <trkpt lat="48.284841" lon="9.725327">
        <ele>508.512178</ele>
        <time>2022-09-25T13:50:11.703Z</time>
      </trkpt>
      <trkpt lat="48.285108" lon="9.725726">
        <ele>508.690870</ele>
        <time>2022-09-25T13:50:49.628Z</time>
      </trkpt>
      <trkpt lat="48.285269" lon="9.725704">
        <ele>508.767590</ele>
        <time>2022-09-25T13:51:05.809Z</time>
      </trkpt>
      <trkpt lat="48.285516" lon="9.726081">
        <ele>508.934663</ele>
        <time>2022-09-25T13:51:41.904Z</time>
      </trkpt>
      <trkpt lat="48.285766" lon="9.726460">
        <ele>509.103184</ele>
        <time>2022-09-25T13:52:18.369Z</time>
      </trkpt>
      <trkpt lat="48.286139" lon="9.727027">
        <ele>509.380506</ele>
        <time>2022-09-25T13:53:13.255Z</time>
      </trkpt>
      <trkpt lat="48.286204" lon="9.727126">
        <ele>509.503528</ele>
        <time>2022-09-25T13:53:22.553Z</time>
      </trkpt>
      <trkpt lat="48.285990" lon="9.727267">
        <ele>509.814140</ele>
        <time>2022-09-25T13:53:46.619Z</time>
      </trkpt>
      <trkpt lat="48.285950" lon="9.727339">
        <ele>509.897106</ele>
        <time>2022-09-25T13:53:52.837Z</time>
      </trkpt>
      <trkpt lat="48.285889" lon="9.727449">
        <ele>510.023766</ele>
        <time>2022-09-25T13:54:02.723Z</time>
      </trkpt>
      <trkpt lat="48.285863" lon="9.727496">
        <ele>510.077829</ele>
        <time>2022-09-25T13:54:07.136Z</time>
      </trkpt>
      <trkpt lat="48.285548" lon="9.727284">
        <ele>510.536636</ele>
        <time>2022-09-25T13:54:42.375Z</time>
      </trkpt>
      <trkpt lat="48.285458" lon="9.727390">
        <ele>510.688638</ele>
        <time>2022-09-25T13:54:54.777Z</time>
      </trkpt>
      <trkpt lat="48.285419" lon="9.727760">
        <ele>511.020004</ele>
        <time>2022-09-25T13:55:20.462Z</time>
      </trkpt>
      <trkpt lat="48.285290" lon="9.727923">
        <ele>511.244045</ele>
        <time>2022-09-25T13:55:38.291Z</time>
      </trkpt>
      <trkpt lat="48.285229" lon="9.727778">
        <ele>511.395788</ele>
        <time>2022-09-25T13:55:50.532Z</time>
      </trkpt>
      <trkpt lat="48.285176" lon="9.727651">
        <ele>511.528392</ele>
        <time>2022-09-25T13:56:01.907Z</time>
      </trkpt>
      <trkpt lat="48.285090" lon="9.727393">
        <ele>511.799693</ele>
        <time>2022-09-25T13:56:22.444Z</time>
      </trkpt>
      <trkpt lat="48.285144" lon="9.727198">
        <ele>512.044308</ele>
        <time>2022-09-25T13:56:38.144Z</time>
      </trkpt>
      <trkpt lat="48.285353" lon="9.726876">
        <ele>512.565262</ele>
        <time>2022-09-25T13:57:10.020Z</time>
      </trkpt>
      <trkpt lat="48.285187" lon="9.726593">
        <ele>513.002180</ele>
        <time>2022-09-25T13:57:36.797Z</time>
      </trkpt>
      <trkpt lat="48.285045" lon="9.726459">
        <ele>513.294013</ele>
        <time>2022-09-25T13:57:54.937Z</time>
      </trkpt>
      <trkpt lat="48.284940" lon="9.726212">
        <ele>513.633469</ele>
        <time>2022-09-25T13:58:14.696Z</time>
      </trkpt>
      <trkpt lat="48.284850" lon="9.726150">
        <ele>513.805785</ele>
        <time>2022-09-25T13:58:25.205Z</time>
      </trkpt>
      <trkpt lat="48.284677" lon="9.726017">
        <ele>514.143999</ele>
        <time>2022-09-25T13:58:45.764Z</time>
      </trkpt>
      <trkpt lat="48.284294" lon="9.726070">
        <ele>514.813420</ele>
        <time>2022-09-25T13:59:26.055Z</time>
      </trkpt>
      <trkpt lat="48.284212" lon="9.725885">
        <ele>515.024117</ele>
        <time>2022-09-25T13:59:41.619Z</time>
      </trkpt>
      <trkpt lat="48.284037" lon="9.725487">
        <ele>515.452820</ele>
        <time>2022-09-25T14:00:15.897Z</time>
      </trkpt>
      <trkpt lat="48.283971" lon="9.725532">
        <ele>515.550699</ele>
        <time>2022-09-25T14:00:23.701Z</time>
      </trkpt>
      <trkpt lat="48.283971" lon="9.725532">
        <ele>515.550699</ele>
        <time>2022-09-25T14:00:24.021Z</time>
      </trkpt>
      <trkpt lat="48.283756" lon="9.725691">
        <ele>515.874313</ele>
        <time>2022-09-25T14:00:49.114Z</time>
      </trkpt>
      <trkpt lat="48.283646" lon="9.725785">
        <ele>516.045208</ele>
        <time>2022-09-25T14:01:03.079Z</time>
      </trkpt>
      <trkpt lat="48.283601" lon="9.725463">
        <ele>516.340898</ele>
        <time>2022-09-25T14:01:25.935Z</time>
      </trkpt>
      <trkpt lat="48.283317" lon="9.725686">
        <ele>516.773645</ele>
        <time>2022-09-25T14:01:59.155Z</time>
      </trkpt>
      <trkpt lat="48.283188" lon="9.725786">
        <ele>516.969674</ele>
        <time>2022-09-25T14:02:14.012Z</time>
      </trkpt>
      <trkpt lat="48.283235" lon="9.725917">
        <ele>517.103424</ele>
        <time>2022-09-25T14:02:24.340Z</time>
      </trkpt>
      <trkpt lat="48.283314" lon="9.726083">
        <ele>517.286832</ele>
        <time>2022-09-25T14:02:38.101Z</time>
      </trkpt>
      <trkpt lat="48.283025" lon="9.726214">
        <ele>517.259146</ele>
        <time>2022-09-25T14:03:09.144Z</time>
      </trkpt>
      <trkpt lat="48.282986" lon="9.726251">
        <ele>517.254177</ele>
        <time>2022-09-25T14:03:13.792Z</time>
      </trkpt>
      <trkpt lat="48.282889" lon="9.726341">
        <ele>517.241895</ele>
        <time>2022-09-25T14:03:25.354Z</time>
      </trkpt>
      <trkpt lat="48.282753" lon="9.726470">
        <ele>517.224568</ele>
        <time>2022-09-25T14:03:41.471Z</time>
      </trkpt>
      <trkpt lat="48.282872" lon="9.726804">
        <ele>517.197406</ele>
        <time>2022-09-25T14:04:06.820Z</time>
      </trkpt>
      <trkpt lat="48.283017" lon="9.727180">
        <ele>517.166250</ele>
        <time>2022-09-25T14:04:35.991Z</time>
      </trkpt>
      <trkpt lat="48.283039" lon="9.727238">
        <ele>517.161464</ele>
        <time>2022-09-25T14:04:40.482Z</time>
      </trkpt>
      <trkpt lat="48.283066" lon="9.727300">
        <ele>517.156151</ele>
        <time>2022-09-25T14:04:45.464Z</time>
      </trkpt>
      <trkpt lat="48.283097" lon="9.727374">
        <ele>517.149882</ele>
        <time>2022-09-25T14:04:51.394Z</time>
      </trkpt>
      <trkpt lat="48.283189" lon="9.727591">
        <ele>517.131436</ele>
        <time>2022-09-25T14:05:08.701Z</time>
      </trkpt>
      <trkpt lat="48.283285" lon="9.727836">
        <ele>517.111052</ele>
        <time>2022-09-25T14:05:27.940Z</time>
      </trkpt>
      <trkpt lat="48.283305" lon="9.727889">
        <ele>517.106684</ele>
        <time>2022-09-25T14:05:32.031Z</time>
      </trkpt>
      <trkpt lat="48.283305" lon="9.727889">
        <ele>517.106684</ele>
        <time>2022-09-25T14:05:32.054Z</time>
      </trkpt>
      <trkpt lat="48.283814" lon="9.727431">
        <ele>516.688605</ele>
        <time>2022-09-25T14:06:32.242Z</time>
      </trkpt>
      <trkpt lat="48.284015" lon="9.727994">
        <ele>516.346574</ele>
        <time>2022-09-25T14:07:15.536Z</time>
      </trkpt>
      <trkpt lat="48.284101" lon="9.728247">
        <ele>516.194486</ele>
        <time>2022-09-25T14:07:34.819Z</time>
      </trkpt>
      <trkpt lat="48.284384" lon="9.728032">
        <ele>515.939378</ele>
        <time>2022-09-25T14:08:07.307Z</time>
      </trkpt>
      <trkpt lat="48.284639" lon="9.727851">
        <ele>515.712502</ele>
        <time>2022-09-25T14:08:36.079Z</time>
      </trkpt>
      <trkpt lat="48.284846" lon="9.728489">
        <ele>515.553757</ele>
        <time>2022-09-25T14:09:23.958Z</time>
      </trkpt>
      <trkpt lat="48.284907" lon="9.728677">
        <ele>515.519678</ele>
        <time>2022-09-25T14:09:37.959Z</time>
      </trkpt>
      <trkpt lat="48.284707" lon="9.728804">
        <ele>515.466516</ele>
        <time>2022-09-25T14:09:59.842Z</time>
      </trkpt>
      <trkpt lat="48.284715" lon="9.729053">
        <ele>515.425899</ele>
        <time>2022-09-25T14:10:16.541Z</time>
      </trkpt>
      <trkpt lat="48.284608" lon="9.729127">
        <ele>515.397058</ele>
        <time>2022-09-25T14:10:28.454Z</time>
      </trkpt>
      <trkpt lat="48.284618" lon="9.729299">
        <ele>515.368927</ele>
        <time>2022-09-25T14:10:39.979Z</time>
      </trkpt>
      <trkpt lat="48.284529" lon="9.729366">
        <ele>515.344554</ele>
        <time>2022-09-25T14:10:49.990Z</time>
      </trkpt>
      <trkpt lat="48.284542" lon="9.729403">
        <ele>515.337737</ele>
        <time>2022-09-25T14:10:52.794Z</time>
      </trkpt>
      <trkpt lat="48.284639" lon="9.729603">
        <ele>515.297413</ele>
        <time>2022-09-25T14:11:09.420Z</time>
      </trkpt>
      <trkpt lat="48.285024" lon="9.729896">
        <ele>515.291116</ele>
        <time>2022-09-25T14:11:53.042Z</time>
      </trkpt>
      <trkpt lat="48.285112" lon="9.729963">
        <ele>515.397396</ele>
        <time>2022-09-25T14:12:03.258Z</time>
      </trkpt>
      <trkpt lat="48.285280" lon="9.730053">
        <ele>515.589546</ele>
        <time>2022-09-25T14:12:21.388Z</time>
      </trkpt>
      <trkpt lat="48.285364" lon="9.730094">
        <ele>515.684697</ele>
        <time>2022-09-25T14:12:30.532Z</time>
      </trkpt>
      <trkpt lat="48.285532" lon="9.730171">
        <ele>515.873922</ele>
        <time>2022-09-25T14:12:48.672Z</time>
      </trkpt>
      <trkpt lat="48.285558" lon="9.730512">
        <ele>516.119979</ele>
        <time>2022-09-25T14:13:12.563Z</time>
      </trkpt>
      <trkpt lat="48.285505" lon="9.730602">
        <ele>516.206137</ele>
        <time>2022-09-25T14:13:20.981Z</time>
      </trkpt>
      <trkpt lat="48.285511" lon="9.730723">
        <ele>516.293121</ele>
        <time>2022-09-25T14:13:29.364Z</time>
      </trkpt>
      <trkpt lat="48.285511" lon="9.730723">
        <ele>516.293121</ele>
        <time>2022-09-25T14:13:29.370Z</time>
      </trkpt>
      <trkpt lat="48.285424" lon="9.730773">
        <ele>516.393470</ele>
        <time>2022-09-25T14:13:39.170Z</time>
      </trkpt>
      <trkpt lat="48.285271" lon="9.730814">
        <ele>516.560904</ele>
        <time>2022-09-25T14:13:55.741Z</time>
      </trkpt>
      <trkpt lat="48.285161" lon="9.730824">
        <ele>516.679629</ele>
        <time>2022-09-25T14:14:07.453Z</time>
      </trkpt>
      <trkpt lat="48.285116" lon="9.730824">
        <ele>516.728110</ele>
        <time>2022-09-25T14:14:12.130Z</time>
      </trkpt>
      <trkpt lat="48.284965" lon="9.730829">
        <ele>516.890828</ele>
        <time>2022-09-25T14:14:28.164Z</time>
      </trkpt>
      <trkpt lat="48.284923" lon="9.730830">
        <ele>516.936083</ele>
        <time>2022-09-25T14:14:32.536Z</time>
      </trkpt>
      <trkpt lat="48.284803" lon="9.730829">
        <ele>517.065366</ele>
        <time>2022-09-25T14:14:45.116Z</time>
      </trkpt>
      <trkpt lat="48.284671" lon="9.730826">
        <ele>517.221154</ele>
        <time>2022-09-25T14:14:58.869Z</time>
      </trkpt>
      <trkpt lat="48.284557" lon="9.730830">
        <ele>517.371920</ele>
        <time>2022-09-25T14:15:10.752Z</time>
      </trkpt>
      <trkpt lat="48.284489" lon="9.730828">
        <ele>517.461844</ele>
        <time>2022-09-25T14:15:17.834Z</time>
      </trkpt>
      <trkpt lat="48.284283" lon="9.730778">
        <ele>517.737737</ele>
        <time>2022-09-25T14:15:39.661Z</time>
      </trkpt>
      <trkpt lat="48.284172" lon="9.730702">
        <ele>517.899011</ele>
        <time>2022-09-25T14:15:52.434Z</time>
      </trkpt>
      <trkpt lat="48.284022" lon="9.730593">
        <ele>518.119303</ele>
        <time>2022-09-25T14:16:09.846Z</time>
      </trkpt>
      <trkpt lat="48.283876" lon="9.730454">
        <ele>518.347816</ele>
        <time>2022-09-25T14:16:28.098Z</time>
      </trkpt>
      <trkpt lat="48.283793" lon="9.730354">
        <ele>518.488470</ele>
        <time>2022-09-25T14:16:39.504Z</time>
      </trkpt>
      <trkpt lat="48.283584" lon="9.730072">
        <ele>518.859840</ele>
        <time>2022-09-25T14:17:09.191Z</time>
      </trkpt>
      <trkpt lat="48.283565" lon="9.730044">
        <ele>518.895025</ele>
        <time>2022-09-25T14:17:12.078Z</time>
      </trkpt>
      <trkpt lat="48.283411" lon="9.729787">
        <ele>519.199303</ele>
        <time>2022-09-25T14:17:36.220Z</time>
      </trkpt>
      <trkpt lat="48.283365" lon="9.729705">
        <ele>519.293664</ele>
        <time>2022-09-25T14:17:43.743Z</time>
      </trkpt>
      <trkpt lat="48.283308" lon="9.729596">
        <ele>519.415633</ele>
        <time>2022-09-25T14:17:53.405Z</time>
      </trkpt>
      <trkpt lat="48.283254" lon="9.729491">
        <ele>519.534411</ele>
        <time>2022-09-25T14:18:02.507Z</time>
      </trkpt>
      <trkpt lat="48.283242" lon="9.729467">
        <ele>519.569180</ele>
        <time>2022-09-25T14:18:04.603Z</time>
      </trkpt>
      <trkpt lat="48.283129" lon="9.729249">
        <ele>519.889223</ele>
        <time>2022-09-25T14:18:23.459Z</time>
      </trkpt>
      <trkpt lat="48.282950" lon="9.728916">
        <ele>520.385010</ele>
        <time>2022-09-25T14:18:52.499Z</time>
      </trkpt>
      <trkpt lat="48.282841" lon="9.728715">
        <ele>520.685316</ele>
        <time>2022-09-25T14:19:10.062Z</time>
      </trkpt>
      <trkpt lat="48.282727" lon="9.728502">
        <ele>521.001900</ele>
        <time>2022-09-25T14:19:28.567Z</time>
      </trkpt>
      <trkpt lat="48.282579" lon="9.728229">
        <ele>521.409730</ele>
        <time>2022-09-25T14:19:52.717Z</time>
      </trkpt>
      <trkpt lat="48.282478" lon="9.728041">
        <ele>521.689573</ele>
        <time>2022-09-25T14:20:09.747Z</time>
      </trkpt>
      <trkpt lat="48.282381" lon="9.727860">
        <ele>521.958735</ele>
        <time>2022-09-25T14:20:26.245Z</time>
      </trkpt>
      <trkpt lat="48.282326" lon="9.727753">
        <ele>522.115328</ele>
        <time>2022-09-25T14:20:36.117Z</time>
      </trkpt>
      <trkpt lat="48.282158" lon="9.727358">
        <ele>522.662028</ele>
        <time>2022-09-25T14:21:10.932Z</time>
      </trkpt>
      <trkpt lat="48.282158" lon="9.727358">
        <ele>522.662028</ele>
        <time>2022-09-25T14:21:11.053Z</time>
      </trkpt>
      <trkpt lat="48.282099" lon="9.727412">
        <ele>523.028919</ele>
        <time>2022-09-25T14:21:19.009Z</time>
      </trkpt>
      <trkpt lat="48.282300" lon="9.727927">
        <ele>525.138999</ele>
        <time>2022-09-25T14:22:05.291Z</time>
      </trkpt>
      <trkpt lat="48.282186" lon="9.728001">
        <ele>525.798520</ele>
        <time>2022-09-25T14:22:19.943Z</time>
      </trkpt>
      <trkpt lat="48.282121" lon="9.728041">
        <ele>526.171557</ele>
        <time>2022-09-25T14:22:28.165Z</time>
      </trkpt>
      <trkpt lat="48.281781" lon="9.728252">
        <ele>528.125206</ele>
        <time>2022-09-25T14:23:12.001Z</time>
      </trkpt>
      <trkpt lat="48.281549" lon="9.728396">
        <ele>529.458317</ele>
        <time>2022-09-25T14:23:42.329Z</time>
      </trkpt>
      <trkpt lat="48.281392" lon="9.728475">
        <ele>530.337641</ele>
        <time>2022-09-25T14:24:02.551Z</time>
      </trkpt>
      <trkpt lat="48.281326" lon="9.728512">
        <ele>530.711762</ele>
        <time>2022-09-25T14:24:11.323Z</time>
      </trkpt>
      <trkpt lat="48.281155" lon="9.728606">
        <ele>531.678794</ele>
        <time>2022-09-25T14:24:34.015Z</time>
      </trkpt>
      <trkpt lat="48.280406" lon="9.729021">
        <ele>534.933451</ele>
        <time>2022-09-25T14:26:10.211Z</time>
      </trkpt>
      <trkpt lat="48.280082" lon="9.729188">
        <ele>536.269548</ele>
        <time>2022-09-25T14:26:48.620Z</time>
      </trkpt>
      <trkpt lat="48.279732" lon="9.729137">
        <ele>537.641185</ele>
        <time>2022-09-25T14:27:27.167Z</time>
      </trkpt>
      <trkpt lat="48.279666" lon="9.729169">
        <ele>537.911699</ele>
        <time>2022-09-25T14:27:34.718Z</time>
      </trkpt>
      <trkpt lat="48.279263" lon="9.729282">
        <ele>539.163044</ele>
        <time>2022-09-25T14:28:18.647Z</time>
      </trkpt>
      <trkpt lat="48.279118" lon="9.729426">
        <ele>539.016494</ele>
        <time>2022-09-25T14:28:37.045Z</time>
      </trkpt>
      <trkpt lat="48.278779" lon="9.729356">
        <ele>538.727971</ele>
        <time>2022-09-25T14:29:12.193Z</time>
      </trkpt>
      <trkpt lat="48.278663" lon="9.729354">
        <ele>538.630156</ele>
        <time>2022-09-25T14:29:24.150Z</time>
      </trkpt>
      <trkpt lat="48.278667" lon="9.729057">
        <ele>538.463462</ele>
        <time>2022-09-25T14:29:44.052Z</time>
      </trkpt>
      <trkpt lat="48.278673" lon="9.728696">
        <ele>538.260827</ele>
        <time>2022-09-25T14:30:09.119Z</time>
      </trkpt>
      <trkpt lat="48.278772" lon="9.728590">
        <ele>538.158328</ele>
        <time>2022-09-25T14:30:21.807Z</time>
      </trkpt>
      <trkpt lat="48.279088" lon="9.728560">
        <ele>537.891352</ele>
        <time>2022-09-25T14:30:55.380Z</time>
      </trkpt>
      <trkpt lat="48.279177" lon="9.728468">
        <ele>537.800267</ele>
        <time>2022-09-25T14:31:06.863Z</time>
      </trkpt>
      <trkpt lat="48.279225" lon="9.728290">
        <ele>537.638938</ele>
        <time>2022-09-25T14:31:20.716Z</time>
      </trkpt>
      <trkpt lat="48.279360" lon="9.728070">
        <ele>536.901155</ele>
        <time>2022-09-25T14:31:41.387Z</time>
      </trkpt>
      <trkpt lat="48.279342" lon="9.727749">
        <ele>536.106943</ele>
        <time>2022-09-25T14:32:04.194Z</time>
      </trkpt>
      <trkpt lat="48.279326" lon="9.727443">
        <ele>535.350192</ele>
        <time>2022-09-25T14:32:25.408Z</time>
      </trkpt>
      <trkpt lat="48.279323" lon="9.727421">
        <ele>535.294825</ele>
        <time>2022-09-25T14:32:27.023Z</time>
      </trkpt>
      <trkpt lat="48.279302" lon="9.727219">
        <ele>534.790765</ele>
        <time>2022-09-25T14:32:41.613Z</time>
      </trkpt>
      <trkpt lat="48.279271" lon="9.726936">
        <ele>534.083655</ele>
        <time>2022-09-25T14:33:01.810Z</time>
      </trkpt>
      <trkpt lat="48.279217" lon="9.726434">
        <ele>532.829936</ele>
        <time>2022-09-25T14:33:38.557Z</time>
      </trkpt>
      <trkpt lat="48.279187" lon="9.726156">
        <ele>532.135588</ele>
        <time>2022-09-25T14:33:59.479Z</time>
      </trkpt>
      <trkpt lat="48.279167" lon="9.725941">
        <ele>531.600362</ele>
        <time>2022-09-25T14:34:15.398Z</time>
      </trkpt>
      <trkpt lat="48.279446" lon="9.725853">
        <ele>530.488485</ele>
        <time>2022-09-25T14:34:47.046Z</time>
      </trkpt>
      <trkpt lat="48.279631" lon="9.725789">
        <ele>529.706880</ele>
        <time>2022-09-25T14:35:07.921Z</time>
      </trkpt>
      <trkpt lat="48.279700" lon="9.725771">
        <ele>529.418545</ele>
        <time>2022-09-25T14:35:15.684Z</time>
      </trkpt>
      <trkpt lat="48.279954" lon="9.725702">
        <ele>528.355828</ele>
        <time>2022-09-25T14:35:43.972Z</time>
      </trkpt>
      <trkpt lat="48.280344" lon="9.725632">
        <ele>526.738712</ele>
        <time>2022-09-25T14:36:26.559Z</time>
      </trkpt>
      <trkpt lat="48.280373" lon="9.725627">
        <ele>526.618530</ele>
        <time>2022-09-25T14:36:29.680Z</time>
      </trkpt>
      <trkpt lat="48.280710" lon="9.725531">
        <ele>525.206327</ele>
        <time>2022-09-25T14:37:06.584Z</time>
      </trkpt>
      <trkpt lat="48.280853" lon="9.726181">
        <ele>523.639584</ele>
        <time>2022-09-25T14:37:55.370Z</time>
      </trkpt>
      <trkpt lat="48.280940" lon="9.726137">
        <ele>523.639584</ele>
        <time>2022-09-25T14:38:05.222Z</time>
      </trkpt>
      <trkpt lat="48.281194" lon="9.725968">
        <ele>523.639584</ele>
        <time>2022-09-25T14:38:34.635Z</time>
      </trkpt>
      <trkpt lat="48.281644" lon="9.725694">
        <ele>523.639584</ele>
        <time>2022-09-25T14:39:25.554Z</time>
      </trkpt>
      <trkpt lat="48.281656" lon="9.725740">
        <ele>523.639584</ele>
        <time>2022-09-25T14:39:28.967Z</time>
      </trkpt>
      <trkpt lat="48.281721" lon="9.725976">
        <ele>523.639584</ele>
        <time>2022-09-25T14:39:46.577Z</time>
      </trkpt>
      <trkpt lat="48.281810" lon="9.725952">
        <ele>523.639584</ele>
        <time>2022-09-25T14:39:56.049Z</time>
      </trkpt>
      <trkpt lat="48.281894" lon="9.725895">
        <ele>523.639584</ele>
        <time>2022-09-25T14:40:05.514Z</time>
      </trkpt>
      <trkpt lat="48.282081" lon="9.725773">
        <ele>523.639584</ele>
        <time>2022-09-25T14:40:26.535Z</time>
      </trkpt>
      <trkpt lat="48.282251" lon="9.725801">
        <ele>523.639584</ele>
        <time>2022-09-25T14:40:44.196Z</time>
      </trkpt>
      <trkpt lat="48.282416" lon="9.725680">
        <ele>523.639584</ele>
        <time>2022-09-25T14:41:03.036Z</time>
      </trkpt>
    </trkseg>
  </trk>
</gpx>