<?xml version="1.0"?>
<gpx xmlns="http://www.topografix.com/GPX/1/1" xmlns:xsi="http://www.w3.org/2001/XMLSchema-instance" version="1.1" creator="AllTrails.com" xsi:schemaLocation="http://www.topografix.com/GPX/1/1 http://www.topografix.com/GPX/1/1/gpx.xsd">
  <metadata>
    <name><![CDATA[PW Hardter Wald 7 km]]></name>
    <desc><![CDATA[]]></desc>
    <link href="http://www.alltrails.com">
      <text>AllTrails, LLC</text>
    </link>
    <bounds minlat="51.18225" minlon="6.30538" maxlat="51.19984" maxlon="6.33334"/>
  </metadata>
  <trk>
    <name><![CDATA[PW Hardter Wald 7 km]]></name>
    <src>AllTrails</src>
    <trkseg>
      <trkpt lat="51.19978" lon="6.33025">
        <ele>68.42</ele>
      </trkpt>
      <trkpt lat="51.19868" lon="6.32893">
        <ele>80.82</ele>
      </trkpt>
      <trkpt lat="51.19858" lon="6.32875">
        <ele>80.5</ele>
      </trkpt>
      <trkpt lat="51.19839" lon="6.32839">
        <ele>80.96</ele>
      </trkpt>
      <trkpt lat="51.19779" lon="6.32709">
        <ele>77.66</ele>
      </trkpt>
      <trkpt lat="51.19729" lon="6.32608">
        <ele>77.81</ele>
      </trkpt>
      <trkpt lat="51.19701" lon="6.32566">
        <ele>82.48</ele>
      </trkpt>
      <trkpt lat="51.19678" lon="6.32541">
        <ele>82.17</ele>
      </trkpt>
      <trkpt lat="51.19648" lon="6.3252">
        <ele>82.74</ele>
      </trkpt>
      <trkpt lat="51.19596" lon="6.32498">
        <ele>79.41</ele>
      </trkpt>
      <trkpt lat="51.19538" lon="6.32465">
        <ele>78.68</ele>
      </trkpt>
      <trkpt lat="51.1947" lon="6.32428">
        <ele>82.44</ele>
      </trkpt>
      <trkpt lat="51.19442" lon="6.32413">
        <ele>81.74</ele>
      </trkpt>
      <trkpt lat="51.19438" lon="6.32349">
        <ele>81.87</ele>
      </trkpt>
      <trkpt lat="51.19473" lon="6.32311">
        <ele>83.81</ele>
      </trkpt>
      <trkpt lat="51.19489" lon="6.32278">
        <ele>84.39</ele>
      </trkpt>
      <trkpt lat="51.19524" lon="6.32137">
        <ele>81.8</ele>
      </trkpt>
      <trkpt lat="51.19553" lon="6.32004">
        <ele>78.25</ele>
      </trkpt>
      <trkpt lat="51.19636" lon="6.3183">
        <ele>77.49</ele>
      </trkpt>
      <trkpt lat="51.19663" lon="6.31778">
        <ele>75.15</ele>
      </trkpt>
      <trkpt lat="51.19722" lon="6.31676">
        <ele>77.32</ele>
      </trkpt>
      <trkpt lat="51.19755" lon="6.316">
        <ele>79.19</ele>
      </trkpt>
      <trkpt lat="51.19476" lon="6.31225">
        <ele>70.38</ele>
      </trkpt>
      <trkpt lat="51.19354" lon="6.30765">
        <ele>74.04</ele>
      </trkpt>
      <trkpt lat="51.19325" lon="6.30538">
        <ele>65.18</ele>
      </trkpt>
      <trkpt lat="51.1922" lon="6.30647">
        <ele>64.81</ele>
      </trkpt>
      <trkpt lat="51.19104" lon="6.30842">
        <ele>69.77</ele>
      </trkpt>
      <trkpt lat="51.18998" lon="6.30865">
        <ele>64.92</ele>
      </trkpt>
      <trkpt lat="51.18763" lon="6.31298">
        <ele>70.47</ele>
      </trkpt>
      <trkpt lat="51.18722" lon="6.31371">
        <ele>74.09</ele>
      </trkpt>
      <trkpt lat="51.18677" lon="6.31401">
        <ele>74.42</ele>
      </trkpt>
      <trkpt lat="51.1864" lon="6.31417">
        <ele>74.92</ele>
      </trkpt>
      <trkpt lat="51.18575" lon="6.31361">
        <ele>70.41</ele>
      </trkpt>
      <trkpt lat="51.18592" lon="6.3141">
        <ele>69.76</ele>
      </trkpt>
      <trkpt lat="51.18597" lon="6.31432">
        <ele>70.6</ele>
      </trkpt>
      <trkpt lat="51.18589" lon="6.31452">
        <ele>72.24</ele>
      </trkpt>
      <trkpt lat="51.18548" lon="6.31479">
        <ele>72.94</ele>
      </trkpt>
      <trkpt lat="51.18482" lon="6.31597">
        <ele>73.55</ele>
      </trkpt>
      <trkpt lat="51.18455" lon="6.31653">
        <ele>76.76</ele>
      </trkpt>
      <trkpt lat="51.18437" lon="6.31688">
        <ele>77.9</ele>
      </trkpt>
      <trkpt lat="51.18392" lon="6.31751">
        <ele>76.65</ele>
      </trkpt>
      <trkpt lat="51.18369" lon="6.31809">
        <ele>78.77</ele>
      </trkpt>
      <trkpt lat="51.18355" lon="6.31851">
        <ele>77.52</ele>
      </trkpt>
      <trkpt lat="51.1833" lon="6.3186">
        <ele>80.72</ele>
      </trkpt>
      <trkpt lat="51.18298" lon="6.31878">
        <ele>78.67</ele>
      </trkpt>
      <trkpt lat="51.18268" lon="6.31914">
        <ele>77.74</ele>
      </trkpt>
      <trkpt lat="51.18225" lon="6.31963">
        <ele>87.87</ele>
      </trkpt>
      <trkpt lat="51.18267" lon="6.32229">
        <ele>81.18</ele>
      </trkpt>
      <trkpt lat="51.18269" lon="6.32334">
        <ele>76.06</ele>
      </trkpt>
      <trkpt lat="51.18291" lon="6.32531">
        <ele>76.32</ele>
      </trkpt>
      <trkpt lat="51.18334" lon="6.32845">
        <ele>74.13</ele>
      </trkpt>
      <trkpt lat="51.1835" lon="6.33227">
        <ele>73.0</ele>
      </trkpt>
      <trkpt lat="51.19243" lon="6.3327">
        <ele>84.9</ele>
      </trkpt>
      <trkpt lat="51.19294" lon="6.32993">
        <ele>82.35</ele>
      </trkpt>
      <trkpt lat="51.19365" lon="6.33031">
        <ele>86.77</ele>
      </trkpt>
      <trkpt lat="51.1944" lon="6.3311">
        <ele>78.37</ele>
      </trkpt>
      <trkpt lat="51.19501" lon="6.33134">
        <ele>84.89</ele>
      </trkpt>
      <trkpt lat="51.19612" lon="6.33127">
        <ele>84.21</ele>
      </trkpt>
      <trkpt lat="51.19685" lon="6.3314">
        <ele>87.13</ele>
      </trkpt>
      <trkpt lat="51.19705" lon="6.33152">
        <ele>90.9</ele>
      </trkpt>
      <trkpt lat="51.19717" lon="6.33167">
        <ele>94.87</ele>
      </trkpt>
      <trkpt lat="51.19891" lon="6.33334">
        <ele>65.9</ele>
      </trkpt>
      <trkpt lat="51.19984" lon="6.33061">
        <ele>67.79</ele>
      </trkpt>
      <trkpt lat="51.19968" lon="6.33046">
        <ele>67.55</ele>
      </trkpt>
    </trkseg>
  </trk>
</gpx>

