<?xml version="1.0" encoding="UTF-8"?>
<gpx xmlns="http://www.topografix.com/GPX/1/1" xmlns:gpsies="https://www.gpsies.com/GPX/1/0" creator="AllTrails https://www.alltrails.com/ - Gpsies_ivvpw" version="1.1" xmlns:xsi="http://www.w3.org/2001/XMLSchema-instance" xsi:schemaLocation="http://www.topografix.com/GPX/1/1 http://www.topografix.com/GPX/1/1/gpx.xsd https://www.gpsies.com/GPX/1/0 https://www.gpsies.com/gpsies.xsd">
  <metadata>
    <name>Gpsies_ivvpw</name>
    <link href="https://www.gpsies.com/">
      <text>Gpsies_ivvpw on AllTrails</text>
    </link>
    <time>2019-12-29T11:54:24Z</time>
  </metadata>
  <trk>
    <name>DVV Bornheim-Heimatblicke im Vorgebirge</name>
    <link href="https://www.gpsies.com/map.do?fileId=skzonvcwmayxkdde">
      <type>trackOnWeb</type>
    </link>
    <link href="https://www.gpsies.com/charts/sk/map/skzonvcwmayxkdde_map.png">
      <type>elevationChartUrlMap</type>
    </link>
    <link href="https://www.gpsies.com/charts/sk/mapThumb/skzonvcwmayxkdde_mapThumb.png">
      <type>elevationChartUrlMapThumb</type>
    </link>
    <link href="https://www.gpsies.com/charts/sk/tab/skzonvcwmayxkdde_tab.png">
      <type>elevationChartUrlTab</type>
    </link>
    <trkseg>
      <trkpt lat="50.76319220" lon="6.988388290">
        <ele>63.000000</ele>
      </trkpt>
      <trkpt lat="50.76309040" lon="6.988490220">
        <ele>63.000000</ele>
      </trkpt>
      <trkpt lat="50.76304800" lon="6.988441940">
        <ele>63.000000</ele>
      </trkpt>
      <trkpt lat="50.76301740" lon="6.988431210">
        <ele>63.000000</ele>
      </trkpt>
      <trkpt lat="50.76299540" lon="6.988443280">
        <ele>63.000000</ele>
      </trkpt>
      <trkpt lat="50.76291990" lon="6.988636400">
        <ele>63.000000</ele>
      </trkpt>
      <trkpt lat="50.76278840" lon="6.989034710">
        <ele>63.000000</ele>
      </trkpt>
      <trkpt lat="50.76251520" lon="6.990013710">
        <ele>64.000000</ele>
      </trkpt>
      <trkpt lat="50.76243470" lon="6.989970800">
        <ele>64.000000</ele>
      </trkpt>
      <trkpt lat="50.76240500" lon="6.990032490">
        <ele>64.000000</ele>
      </trkpt>
      <trkpt lat="50.76235320" lon="6.990009690">
        <ele>65.000000</ele>
      </trkpt>
      <trkpt lat="50.76228790" lon="6.989942640">
        <ele>65.000000</ele>
      </trkpt>
      <trkpt lat="50.76203760" lon="6.989301590">
        <ele>67.000000</ele>
      </trkpt>
      <trkpt lat="50.76195880" lon="6.989144680">
        <ele>68.000000</ele>
      </trkpt>
      <trkpt lat="50.76189850" lon="6.989019960">
        <ele>68.000000</ele>
      </trkpt>
      <trkpt lat="50.76125300" lon="6.988613600">
        <ele>73.000000</ele>
      </trkpt>
      <trkpt lat="50.76107650" lon="6.990362400">
        <ele>72.000000</ele>
      </trkpt>
      <trkpt lat="50.76087970" lon="6.991746420">
        <ele>74.000000</ele>
      </trkpt>
      <trkpt lat="50.76064890" lon="6.993162630">
        <ele>74.000000</ele>
      </trkpt>
      <trkpt lat="50.76030960" lon="6.994568100">
        <ele>72.000000</ele>
      </trkpt>
      <trkpt lat="50.76009240" lon="6.994847050">
        <ele>76.000000</ele>
      </trkpt>
      <trkpt lat="50.75992280" lon="6.994793410">
        <ele>78.000000</ele>
      </trkpt>
      <trkpt lat="50.75896580" lon="6.993892190">
        <ele>92.000000</ele>
      </trkpt>
      <trkpt lat="50.75930520" lon="6.992508170">
        <ele>89.000000</ele>
      </trkpt>
      <trkpt lat="50.75953590" lon="6.992390150">
        <ele>87.000000</ele>
      </trkpt>
      <trkpt lat="50.76024850" lon="6.989482640">
        <ele>78.000000</ele>
      </trkpt>
      <trkpt lat="50.76015350" lon="6.989375350">
        <ele>78.000000</ele>
      </trkpt>
      <trkpt lat="50.76007210" lon="6.989257330">
        <ele>79.000000</ele>
      </trkpt>
      <trkpt lat="50.76037750" lon="6.988227360">
        <ele>78.000000</ele>
      </trkpt>
      <trkpt lat="50.75923050" lon="6.987834420">
        <ele>87.000000</ele>
      </trkpt>
      <trkpt lat="50.75922030" lon="6.987955120">
        <ele>87.000000</ele>
      </trkpt>
      <trkpt lat="50.75914990" lon="6.988011440">
        <ele>88.000000</ele>
      </trkpt>
      <trkpt lat="50.75909140" lon="6.988161650">
        <ele>89.000000</ele>
      </trkpt>
      <trkpt lat="50.75895900" lon="6.988795990">
        <ele>92.000000</ele>
      </trkpt>
      <trkpt lat="50.75882770" lon="6.989504500">
        <ele>95.000000</ele>
      </trkpt>
      <trkpt lat="50.75873250" lon="6.989733420">
        <ele>97.000000</ele>
      </trkpt>
      <trkpt lat="50.75856030" lon="6.990571610">
        <ele>102.00000</ele>
      </trkpt>
      <trkpt lat="50.75846610" lon="6.991411140">
        <ele>103.00000</ele>
      </trkpt>
      <trkpt lat="50.75839830" lon="6.991828230">
        <ele>103.00000</ele>
      </trkpt>
      <trkpt lat="50.75836520" lon="6.991962340">
        <ele>103.00000</ele>
      </trkpt>
      <trkpt lat="50.75820650" lon="6.991798720">
        <ele>106.00000</ele>
      </trkpt>
      <trkpt lat="50.75804370" lon="6.991597560">
        <ele>108.00000</ele>
      </trkpt>
      <trkpt lat="50.75759660" lon="6.991325310">
        <ele>114.00000</ele>
      </trkpt>
      <trkpt lat="50.75744210" lon="6.991203270">
        <ele>116.00000</ele>
      </trkpt>
      <trkpt lat="50.75726910" lon="6.991142920">
        <ele>118.00000</ele>
      </trkpt>
      <trkpt lat="50.75708330" lon="6.991117440">
        <ele>120.00000</ele>
      </trkpt>
      <trkpt lat="50.75691190" lon="6.991116100">
        <ele>122.00000</ele>
      </trkpt>
      <trkpt lat="50.75667720" lon="6.991162500">
        <ele>125.00000</ele>
      </trkpt>
      <trkpt lat="50.75568340" lon="6.991578780">
        <ele>132.00000</ele>
      </trkpt>
      <trkpt lat="50.75558670" lon="6.991594880">
        <ele>133.00000</ele>
      </trkpt>
      <trkpt lat="50.75540940" lon="6.991569390">
        <ele>134.00000</ele>
      </trkpt>
      <trkpt lat="50.75484690" lon="6.991094640">
        <ele>140.00000</ele>
      </trkpt>
      <trkpt lat="50.75423510" lon="6.990725840">
        <ele>147.00000</ele>
      </trkpt>
      <trkpt lat="50.75383210" lon="6.990365080">
        <ele>151.00000</ele>
      </trkpt>
      <trkpt lat="50.75372780" lon="6.990302050">
        <ele>152.00000</ele>
      </trkpt>
      <trkpt lat="50.75302780" lon="6.990011030">
        <ele>157.00000</ele>
      </trkpt>
      <trkpt lat="50.75273500" lon="6.989980190">
        <ele>159.00000</ele>
      </trkpt>
      <trkpt lat="50.75253330" lon="6.989934300">
        <ele>160.00000</ele>
      </trkpt>
      <trkpt lat="50.75216320" lon="6.989770970">
        <ele>160.00000</ele>
      </trkpt>
      <trkpt lat="50.75216490" lon="6.989773660">
        <ele>160.00000</ele>
      </trkpt>
      <trkpt lat="50.75201130" lon="6.989677100">
        <ele>160.00000</ele>
      </trkpt>
      <trkpt lat="50.75123320" lon="6.988983750">
        <ele>158.00000</ele>
      </trkpt>
      <trkpt lat="50.75118150" lon="6.988978380">
        <ele>158.00000</ele>
      </trkpt>
      <trkpt lat="50.75113480" lon="6.989023980">
        <ele>159.00000</ele>
      </trkpt>
      <trkpt lat="50.75085900" lon="6.990241700">
        <ele>162.00000</ele>
      </trkpt>
      <trkpt lat="50.75068450" lon="6.990686600">
        <ele>163.00000</ele>
      </trkpt>
      <trkpt lat="50.75047070" lon="6.990978300">
        <ele>164.00000</ele>
      </trkpt>
      <trkpt lat="50.74952090" lon="6.991859070">
        <ele>165.00000</ele>
      </trkpt>
      <trkpt lat="50.74943610" lon="6.991781290">
        <ele>165.00000</ele>
      </trkpt>
      <trkpt lat="50.74885820" lon="6.991051730">
        <ele>165.00000</ele>
      </trkpt>
      <trkpt lat="50.74874030" lon="6.990940420">
        <ele>165.00000</ele>
      </trkpt>
      <trkpt lat="50.74850260" lon="6.991300600">
        <ele>165.00000</ele>
      </trkpt>
      <trkpt lat="50.74841780" lon="6.991380300">
        <ele>165.00000</ele>
      </trkpt>
      <trkpt lat="50.74825230" lon="6.991440650">
        <ele>165.00000</ele>
      </trkpt>
      <trkpt lat="50.74810050" lon="6.991553300">
        <ele>164.00000</ele>
      </trkpt>
      <trkpt lat="50.74796550" lon="6.991758490">
        <ele>164.00000</ele>
      </trkpt>
      <trkpt lat="50.74754210" lon="6.992599360">
        <ele>163.00000</ele>
      </trkpt>
      <trkpt lat="50.74724680" lon="6.993281990">
        <ele>162.00000</ele>
      </trkpt>
      <trkpt lat="50.74713990" lon="6.993480470">
        <ele>162.00000</ele>
      </trkpt>
      <trkpt lat="50.74683620" lon="6.993926000">
        <ele>162.00000</ele>
      </trkpt>
      <trkpt lat="50.74613820" lon="6.995016000">
        <ele>164.00000</ele>
      </trkpt>
      <trkpt lat="50.74604440" lon="6.994982510">
        <ele>164.00000</ele>
      </trkpt>
      <trkpt lat="50.74567010" lon="6.994317320">
        <ele>162.00000</ele>
      </trkpt>
      <trkpt lat="50.74536890" lon="6.993605190">
        <ele>161.00000</ele>
      </trkpt>
      <trkpt lat="50.74526190" lon="6.993347700">
        <ele>160.00000</ele>
      </trkpt>
      <trkpt lat="50.74516690" lon="6.993182740">
        <ele>160.00000</ele>
      </trkpt>
      <trkpt lat="50.74495560" lon="6.992927930">
        <ele>161.00000</ele>
      </trkpt>
      <trkpt lat="50.74484270" lon="6.992827350">
        <ele>161.00000</ele>
      </trkpt>
      <trkpt lat="50.74477570" lon="6.992791140">
        <ele>161.00000</ele>
      </trkpt>
      <trkpt lat="50.74421640" lon="6.992585950">
        <ele>161.00000</ele>
      </trkpt>
      <trkpt lat="50.74403480" lon="6.992431730">
        <ele>161.00000</ele>
      </trkpt>
      <trkpt lat="50.74363430" lon="6.991865780">
        <ele>161.00000</ele>
      </trkpt>
      <trkpt lat="50.74286540" lon="6.990497850">
        <ele>163.00000</ele>
      </trkpt>
      <trkpt lat="50.74266940" lon="6.990145140">
        <ele>164.00000</ele>
      </trkpt>
      <trkpt lat="50.74256670" lon="6.990008350">
        <ele>165.00000</ele>
      </trkpt>
      <trkpt lat="50.74223150" lon="6.989761590">
        <ele>166.00000</ele>
      </trkpt>
      <trkpt lat="50.74153220" lon="6.989282810">
        <ele>168.00000</ele>
      </trkpt>
      <trkpt lat="50.74054430" lon="6.988436570">
        <ele>166.00000</ele>
      </trkpt>
      <trkpt lat="50.74038390" lon="6.988270280">
        <ele>164.00000</ele>
      </trkpt>
      <trkpt lat="50.74023200" lon="6.987961820">
        <ele>164.00000</ele>
      </trkpt>
      <trkpt lat="50.73997230" lon="6.987433430">
        <ele>163.00000</ele>
      </trkpt>
      <trkpt lat="50.73958020" lon="6.986829930">
        <ele>165.00000</ele>
      </trkpt>
      <trkpt lat="50.73916090" lon="6.986382000">
        <ele>167.00000</ele>
      </trkpt>
      <trkpt lat="50.73828840" lon="6.985590750">
        <ele>170.00000</ele>
      </trkpt>
      <trkpt lat="50.73752620" lon="6.985215240">
        <ele>169.00000</ele>
      </trkpt>
      <trkpt lat="50.73690150" lon="6.984826320">
        <ele>166.00000</ele>
      </trkpt>
      <trkpt lat="50.73567930" lon="6.983903640">
        <ele>169.00000</ele>
      </trkpt>
      <trkpt lat="50.73516830" lon="6.983630060">
        <ele>173.00000</ele>
      </trkpt>
      <trkpt lat="50.73364730" lon="6.982659100">
        <ele>182.00000</ele>
      </trkpt>
      <trkpt lat="50.73316170" lon="6.982329180">
        <ele>181.00000</ele>
      </trkpt>
      <trkpt lat="50.73166300" lon="6.981145000">
        <ele>178.00000</ele>
      </trkpt>
      <trkpt lat="50.73073850" lon="6.980584700">
        <ele>172.00000</ele>
      </trkpt>
      <trkpt lat="50.73027390" lon="6.980167320">
        <ele>171.00000</ele>
      </trkpt>
      <trkpt lat="50.72976800" lon="6.979652340">
        <ele>172.00000</ele>
      </trkpt>
      <trkpt lat="50.72923320" lon="6.979081030">
        <ele>173.00000</ele>
      </trkpt>
      <trkpt lat="50.72870180" lon="6.978391700">
        <ele>175.00000</ele>
      </trkpt>
      <trkpt lat="50.72836390" lon="6.977908900">
        <ele>174.00000</ele>
      </trkpt>
      <trkpt lat="50.72783080" lon="6.976911120">
        <ele>174.00000</ele>
      </trkpt>
      <trkpt lat="50.72650650" lon="6.974609790">
        <ele>173.00000</ele>
      </trkpt>
      <trkpt lat="50.72636550" lon="6.974405940">
        <ele>172.00000</ele>
      </trkpt>
      <trkpt lat="50.72619740" lon="6.974100170">
        <ele>170.00000</ele>
      </trkpt>
      <trkpt lat="50.72590710" lon="6.973410840">
        <ele>166.00000</ele>
      </trkpt>
      <trkpt lat="50.72583410" lon="6.973217720">
        <ele>165.00000</ele>
      </trkpt>
      <trkpt lat="50.72576960" lon="6.972885130">
        <ele>164.00000</ele>
      </trkpt>
      <trkpt lat="50.72570160" lon="6.972745650">
        <ele>164.00000</ele>
      </trkpt>
      <trkpt lat="50.72574580" lon="6.972531080">
        <ele>164.00000</ele>
      </trkpt>
      <trkpt lat="50.72597670" lon="6.972337960">
        <ele>166.00000</ele>
      </trkpt>
      <trkpt lat="50.72635020" lon="6.972241400">
        <ele>169.00000</ele>
      </trkpt>
      <trkpt lat="50.72685960" lon="6.972069740">
        <ele>172.00000</ele>
      </trkpt>
      <trkpt lat="50.72714490" lon="6.971833700">
        <ele>173.00000</ele>
      </trkpt>
      <trkpt lat="50.72764060" lon="6.971640580">
        <ele>173.00000</ele>
      </trkpt>
      <trkpt lat="50.72802770" lon="6.971399180">
        <ele>175.00000</ele>
      </trkpt>
      <trkpt lat="50.72826540" lon="6.971216790">
        <ele>176.00000</ele>
      </trkpt>
      <trkpt lat="50.72834350" lon="6.971227520">
        <ele>176.00000</ele>
      </trkpt>
      <trkpt lat="50.72844540" lon="6.971286530">
        <ele>176.00000</ele>
      </trkpt>
      <trkpt lat="50.72881890" lon="6.971474280">
        <ele>175.00000</ele>
      </trkpt>
      <trkpt lat="50.72897170" lon="6.971506470">
        <ele>174.00000</ele>
      </trkpt>
      <trkpt lat="50.72916870" lon="6.971452830">
        <ele>174.00000</ele>
      </trkpt>
      <trkpt lat="50.72931130" lon="6.971420640">
        <ele>174.00000</ele>
      </trkpt>
      <trkpt lat="50.72946410" lon="6.971463560">
        <ele>174.00000</ele>
      </trkpt>
      <trkpt lat="50.72977650" lon="6.971645950">
        <ele>174.00000</ele>
      </trkpt>
      <trkpt lat="50.73005150" lon="6.971914170">
        <ele>174.00000</ele>
      </trkpt>
      <trkpt lat="50.73037750" lon="6.972616910">
        <ele>173.00000</ele>
      </trkpt>
      <trkpt lat="50.73058120" lon="6.973249910">
        <ele>173.00000</ele>
      </trkpt>
      <trkpt lat="50.73071710" lon="6.973491310">
        <ele>172.00000</ele>
      </trkpt>
      <trkpt lat="50.73104300" lon="6.973888270">
        <ele>172.00000</ele>
      </trkpt>
      <trkpt lat="50.73134180" lon="6.974376440">
        <ele>173.00000</ele>
      </trkpt>
      <trkpt lat="50.73166780" lon="6.975213280">
        <ele>177.00000</ele>
      </trkpt>
      <trkpt lat="50.73218390" lon="6.976109140">
        <ele>174.00000</ele>
      </trkpt>
      <trkpt lat="50.73253700" lon="6.976661680">
        <ele>173.00000</ele>
      </trkpt>
      <trkpt lat="50.73296820" lon="6.977149840">
        <ele>174.00000</ele>
      </trkpt>
      <trkpt lat="50.73371520" lon="6.977568260">
        <ele>176.00000</ele>
      </trkpt>
      <trkpt lat="50.73406490" lon="6.977632640">
        <ele>177.00000</ele>
      </trkpt>
      <trkpt lat="50.73440780" lon="6.977578990">
        <ele>178.00000</ele>
      </trkpt>
      <trkpt lat="50.73513100" lon="6.977235670">
        <ele>177.00000</ele>
      </trkpt>
      <trkpt lat="50.73551800" lon="6.977042550">
        <ele>176.00000</ele>
      </trkpt>
      <trkpt lat="50.73570820" lon="6.976650950">
        <ele>175.00000</ele>
      </trkpt>
      <trkpt lat="50.73588470" lon="6.976060860">
        <ele>176.00000</ele>
      </trkpt>
      <trkpt lat="50.73611900" lon="6.975604890">
        <ele>175.00000</ele>
      </trkpt>
      <trkpt lat="50.73622080" lon="6.975551240">
        <ele>175.00000</ele>
      </trkpt>
      <trkpt lat="50.73638720" lon="6.975679990">
        <ele>175.00000</ele>
      </trkpt>
      <trkpt lat="50.73652980" lon="6.975594160">
        <ele>175.00000</ele>
      </trkpt>
      <trkpt lat="50.73661810" lon="6.975390310">
        <ele>175.00000</ele>
      </trkpt>
      <trkpt lat="50.73672670" lon="6.974601740">
        <ele>173.00000</ele>
      </trkpt>
      <trkpt lat="50.73682850" lon="6.974333520">
        <ele>171.00000</ele>
      </trkpt>
      <trkpt lat="50.73713750" lon="6.973979470">
        <ele>166.00000</ele>
      </trkpt>
      <trkpt lat="50.73848530" lon="6.970326300">
        <ele>159.00000</ele>
      </trkpt>
      <trkpt lat="50.73919140" lon="6.967601180">
        <ele>154.00000</ele>
      </trkpt>
      <trkpt lat="50.73990440" lon="6.967214940">
        <ele>155.00000</ele>
      </trkpt>
      <trkpt lat="50.74064100" lon="6.967472430">
        <ele>155.00000</ele>
      </trkpt>
      <trkpt lat="50.74195140" lon="6.968502400">
        <ele>151.00000</ele>
      </trkpt>
      <trkpt lat="50.74300030" lon="6.968411200">
        <ele>148.00000</ele>
      </trkpt>
      <trkpt lat="50.74341110" lon="6.968625780">
        <ele>149.00000</ele>
      </trkpt>
      <trkpt lat="50.74358520" lon="6.968602100">
        <ele>147.00000</ele>
      </trkpt>
      <trkpt lat="50.74388070" lon="6.968586800">
        <ele>145.00000</ele>
      </trkpt>
      <trkpt lat="50.74521360" lon="6.969097850">
        <ele>141.00000</ele>
      </trkpt>
      <trkpt lat="50.74639140" lon="6.969816680">
        <ele>137.00000</ele>
      </trkpt>
      <trkpt lat="50.74663580" lon="6.969929330">
        <ele>135.00000</ele>
      </trkpt>
      <trkpt lat="50.74814290" lon="6.970417490">
        <ele>133.00000</ele>
      </trkpt>
      <trkpt lat="50.74810550" lon="6.971125600">
        <ele>130.00000</ele>
      </trkpt>
      <trkpt lat="50.74862490" lon="6.971479650">
        <ele>128.00000</ele>
      </trkpt>
      <trkpt lat="50.74941570" lon="6.972016090">
        <ele>127.00000</ele>
      </trkpt>
      <trkpt lat="50.74964690" lon="6.972087300">
        <ele>126.00000</ele>
      </trkpt>
      <trkpt lat="50.75179120" lon="6.971780100">
        <ele>123.00000</ele>
      </trkpt>
      <trkpt lat="50.75314310" lon="6.971703300">
        <ele>128.00000</ele>
      </trkpt>
      <trkpt lat="50.75335270" lon="6.971812240">
        <ele>128.00000</ele>
      </trkpt>
      <trkpt lat="50.75434030" lon="6.972455970">
        <ele>127.00000</ele>
      </trkpt>
      <trkpt lat="50.75449640" lon="6.972665190">
        <ele>127.00000</ele>
      </trkpt>
      <trkpt lat="50.75482560" lon="6.973147980">
        <ele>126.00000</ele>
      </trkpt>
      <trkpt lat="50.75504210" lon="6.973392200">
        <ele>126.00000</ele>
      </trkpt>
      <trkpt lat="50.75536860" lon="6.973823900">
        <ele>124.00000</ele>
      </trkpt>
      <trkpt lat="50.75558920" lon="6.973791200">
        <ele>124.00000</ele>
      </trkpt>
      <trkpt lat="50.75588110" lon="6.974478360">
        <ele>123.00000</ele>
      </trkpt>
      <trkpt lat="50.75619330" lon="6.974853870">
        <ele>119.00000</ele>
      </trkpt>
      <trkpt lat="50.75625570" lon="6.975119200">
        <ele>118.00000</ele>
      </trkpt>
      <trkpt lat="50.75620010" lon="6.975679990">
        <ele>119.00000</ele>
      </trkpt>
      <trkpt lat="50.75630190" lon="6.976098410">
        <ele>118.00000</ele>
      </trkpt>
      <trkpt lat="50.75637320" lon="6.976168150">
        <ele>118.00000</ele>
      </trkpt>
      <trkpt lat="50.75645460" lon="6.976152060">
        <ele>118.00000</ele>
      </trkpt>
      <trkpt lat="50.75671480" lon="6.975633600">
        <ele>116.00000</ele>
      </trkpt>
      <trkpt lat="50.75672110" lon="6.975633600">
        <ele>115.00000</ele>
      </trkpt>
      <trkpt lat="50.75712350" lon="6.975963600">
        <ele>109.00000</ele>
      </trkpt>
      <trkpt lat="50.75768950" lon="6.976654400">
        <ele>102.00000</ele>
      </trkpt>
      <trkpt lat="50.75846020" lon="6.978158350">
        <ele>92.000000</ele>
      </trkpt>
      <trkpt lat="50.75921690" lon="6.979896420">
        <ele>83.000000</ele>
      </trkpt>
      <trkpt lat="50.75942390" lon="6.980454320">
        <ele>81.000000</ele>
      </trkpt>
      <trkpt lat="50.76002460" lon="6.981323360">
        <ele>78.000000</ele>
      </trkpt>
      <trkpt lat="50.76061670" lon="6.981916120">
        <ele>76.000000</ele>
      </trkpt>
      <trkpt lat="50.76062180" lon="6.982248720">
        <ele>75.000000</ele>
      </trkpt>
      <trkpt lat="50.76065400" lon="6.982404290">
        <ele>75.000000</ele>
      </trkpt>
      <trkpt lat="50.76088380" lon="6.982718500">
        <ele>74.000000</ele>
      </trkpt>
      <trkpt lat="50.76126110" lon="6.983117800">
        <ele>73.000000</ele>
      </trkpt>
      <trkpt lat="50.76156170" lon="6.983584460">
        <ele>72.000000</ele>
      </trkpt>
      <trkpt lat="50.76201570" lon="6.983954400">
        <ele>71.000000</ele>
      </trkpt>
      <trkpt lat="50.76242020" lon="6.984201370">
        <ele>71.000000</ele>
      </trkpt>
      <trkpt lat="50.76279690" lon="6.984453490">
        <ele>69.000000</ele>
      </trkpt>
      <trkpt lat="50.76306830" lon="6.984560780">
        <ele>68.000000</ele>
      </trkpt>
      <trkpt lat="50.76353150" lon="6.984694890">
        <ele>66.000000</ele>
      </trkpt>
      <trkpt lat="50.76361970" lon="6.984799500">
        <ele>65.000000</ele>
      </trkpt>
      <trkpt lat="50.76361800" lon="6.985116000">
        <ele>66.000000</ele>
      </trkpt>
      <trkpt lat="50.76338560" lon="6.985797280">
        <ele>67.000000</ele>
      </trkpt>
      <trkpt lat="50.76321760" lon="6.986352500">
        <ele>66.000000</ele>
      </trkpt>
      <trkpt lat="50.76312770" lon="6.987015000">
        <ele>65.000000</ele>
      </trkpt>
      <trkpt lat="50.76312600" lon="6.987564860">
        <ele>65.000000</ele>
      </trkpt>
      <trkpt lat="50.76311580" lon="6.988184450">
        <ele>63.000000</ele>
      </trkpt>
      <trkpt lat="50.76315320" lon="6.988171040">
        <ele>63.000000</ele>
      </trkpt>
      <trkpt lat="50.76319560" lon="6.988388290">
        <ele>62.000000</ele>
      </trkpt>
    </trkseg>
  </trk>
</gpx>
