<?xml version="1.0" encoding="UTF-8" standalone="yes"?>
<gpx version="1.1" creator="MagicMaps Tour Explorer"
     xmlns:xsi="http://www.w3.org/2001/XMLSchema-instance"
     xmlns="http://www.topografix.com/GPX/1/1">
  <trk>
    <name>6.2 km Strecke</name>
    <trkseg>
      <trkpt lat="51.137758122" lon="7.150910717">
        <ele>168.3</ele>
      </trkpt>
      <trkpt lat="51.137958254" lon="7.151059907">
        <ele>171.0</ele>
      </trkpt>
      <trkpt lat="51.138166692" lon="7.151165898">
        <ele>169.1</ele>
      </trkpt>
      <trkpt lat="51.138373551" lon="7.151171925">
        <ele>164.4</ele>
      </trkpt>
      <trkpt lat="51.138545150" lon="7.151222230">
        <ele>163.2</ele>
      </trkpt>
      <trkpt lat="51.138583343" lon="7.151363602">
        <ele>165.0</ele>
      </trkpt>
      <trkpt lat="51.138637924" lon="7.151404291">
        <ele>163.5</ele>
      </trkpt>
      <trkpt lat="51.138675709" lon="7.152088688">
        <ele>162.6</ele>
      </trkpt>
      <trkpt lat="51.138876555" lon="7.152852318">
        <ele>153.1</ele>
      </trkpt>
      <trkpt lat="51.138984589" lon="7.152862296">
        <ele>149.6</ele>
      </trkpt>
      <trkpt lat="51.139014886" lon="7.152503842">
        <ele>144.7</ele>
      </trkpt>
      <trkpt lat="51.138991278" lon="7.152147539">
        <ele>144.2</ele>
      </trkpt>
      <trkpt lat="51.139120353" lon="7.151213546">
        <ele>133.3</ele>
      </trkpt>
      <trkpt lat="51.139029337" lon="7.150574140">
        <ele>121.2</ele>
      </trkpt>
      <trkpt lat="51.138784287" lon="7.149855455">
        <ele>108.6</ele>
      </trkpt>
      <trkpt lat="51.138428209" lon="7.149512144">
        <ele>103.8</ele>
      </trkpt>
      <trkpt lat="51.138246495" lon="7.149390802">
        <ele>102.7</ele>
      </trkpt>
      <trkpt lat="51.137813625" lon="7.148736504">
        <ele>93.7</ele>
      </trkpt>
      <trkpt lat="51.137914425" lon="7.148289499">
        <ele>93.8</ele>
      </trkpt>
      <trkpt lat="51.137813114" lon="7.148136367">
        <ele>94.0</ele>
      </trkpt>
      <trkpt lat="51.137309218" lon="7.148671242">
        <ele>92.5</ele>
      </trkpt>
      <trkpt lat="51.136850584" lon="7.149232270">
        <ele>91.7</ele>
      </trkpt>
      <trkpt lat="51.136956015" lon="7.149642743">
        <ele>95.7</ele>
      </trkpt>
      <trkpt lat="51.136437653" lon="7.149834931">
        <ele>93.1</ele>
      </trkpt>
      <trkpt lat="51.135852110" lon="7.149758311">
        <ele>94.0</ele>
      </trkpt>
      <trkpt lat="51.135344939" lon="7.149521384">
        <ele>103.0</ele>
      </trkpt>
      <trkpt lat="51.135135369" lon="7.149344009">
        <ele>109.0</ele>
      </trkpt>
      <trkpt lat="51.134876812" lon="7.148911400">
        <ele>108.9</ele>
      </trkpt>
      <trkpt lat="51.134796802" lon="7.148400213">
        <ele>100.7</ele>
      </trkpt>
      <trkpt lat="51.134632829" lon="7.148263886">
        <ele>102.9</ele>
      </trkpt>
      <trkpt lat="51.134545250" lon="7.148410274">
        <ele>107.8</ele>
      </trkpt>
      <trkpt lat="51.134454280" lon="7.148342470">
        <ele>111.3</ele>
      </trkpt>
      <trkpt lat="51.134322563" lon="7.147404705">
        <ele>113.2</ele>
      </trkpt>
      <trkpt lat="51.134077905" lon="7.147285599">
        <ele>120.4</ele>
      </trkpt>
      <trkpt lat="51.133665255" lon="7.146773450">
        <ele>121.1</ele>
      </trkpt>
      <trkpt lat="51.133068848" lon="7.146011484">
        <ele>119.2</ele>
      </trkpt>
      <trkpt lat="51.132894756" lon="7.145804136">
        <ele>122.6</ele>
      </trkpt>
      <trkpt lat="51.132963685" lon="7.145615632">
        <ele>121.0</ele>
      </trkpt>
      <trkpt lat="51.133113017" lon="7.145395331">
        <ele>117.9</ele>
      </trkpt>
      <trkpt lat="51.133180866" lon="7.145135731">
        <ele>116.2</ele>
      </trkpt>
      <trkpt lat="51.133175604" lon="7.144807015">
        <ele>115.4</ele>
      </trkpt>
      <trkpt lat="51.133058961" lon="7.144254458">
        <ele>115.3</ele>
      </trkpt>
      <trkpt lat="51.132737468" lon="7.143253205">
        <ele>116.0</ele>
      </trkpt>
      <trkpt lat="51.132563006" lon="7.142459781">
        <ele>114.7</ele>
      </trkpt>
      <trkpt lat="51.132166963" lon="7.139032632">
        <ele>121.6</ele>
      </trkpt>
      <trkpt lat="51.132187044" lon="7.138602892">
        <ele>127.0</ele>
      </trkpt>
      <trkpt lat="51.132442015" lon="7.137678221">
        <ele>129.9</ele>
      </trkpt>
      <trkpt lat="51.132757077" lon="7.137137197">
        <ele>125.2</ele>
      </trkpt>
      <trkpt lat="51.132751391" lon="7.136780228">
        <ele>132.4</ele>
      </trkpt>
      <trkpt lat="51.132997026" lon="7.136398855">
        <ele>127.6</ele>
      </trkpt>
      <trkpt lat="51.133016469" lon="7.135926569">
        <ele>129.5</ele>
      </trkpt>
      <trkpt lat="51.133122280" lon="7.135236182">
        <ele>138.0</ele>
      </trkpt>
      <trkpt lat="51.133404530" lon="7.134896187">
        <ele>134.9</ele>
      </trkpt>
      <trkpt lat="51.133566852" lon="7.134361288">
        <ele>143.2</ele>
      </trkpt>
      <trkpt lat="51.133752499" lon="7.134167758">
        <ele>143.5</ele>
      </trkpt>
      <trkpt lat="51.133993980" lon="7.134086886">
        <ele>133.2</ele>
      </trkpt>
      <trkpt lat="51.134264964" lon="7.133604448">
        <ele>138.7</ele>
      </trkpt>
      <trkpt lat="51.134514409" lon="7.133465494">
        <ele>136.8</ele>
      </trkpt>
      <trkpt lat="51.134829303" lon="7.133481375">
        <ele>130.1</ele>
      </trkpt>
      <trkpt lat="51.134997544" lon="7.133317719">
        <ele>131.6</ele>
      </trkpt>
      <trkpt lat="51.135322105" lon="7.133376075">
        <ele>126.9</ele>
      </trkpt>
      <trkpt lat="51.135800574" lon="7.132942104">
        <ele>125.8</ele>
      </trkpt>
      <trkpt lat="51.135245675" lon="7.133093383">
        <ele>134.2</ele>
      </trkpt>
      <trkpt lat="51.134597693" lon="7.133048072">
        <ele>144.5</ele>
      </trkpt>
      <trkpt lat="51.133984639" lon="7.133501443">
        <ele>153.0</ele>
      </trkpt>
      <trkpt lat="51.133712061" lon="7.133883925">
        <ele>154.7</ele>
      </trkpt>
      <trkpt lat="51.133400585" lon="7.134082226">
        <ele>157.3</ele>
      </trkpt>
      <trkpt lat="51.133350098" lon="7.134298582">
        <ele>153.9</ele>
      </trkpt>
      <trkpt lat="51.133219439" lon="7.134561032">
        <ele>151.8</ele>
      </trkpt>
      <trkpt lat="51.132542930" lon="7.135545575">
        <ele>149.0</ele>
      </trkpt>
      <trkpt lat="51.132012887" lon="7.136695646">
        <ele>150.9</ele>
      </trkpt>
      <trkpt lat="51.131827177" lon="7.138017581">
        <ele>145.3</ele>
      </trkpt>
      <trkpt lat="51.131653059" lon="7.138938987">
        <ele>143.8</ele>
      </trkpt>
      <trkpt lat="51.131417863" lon="7.139977140">
        <ele>157.4</ele>
      </trkpt>
      <trkpt lat="51.130984648" lon="7.141566152">
        <ele>169.8</ele>
      </trkpt>
      <trkpt lat="51.130445556" lon="7.141587488">
        <ele>176.2</ele>
      </trkpt>
      <trkpt lat="51.130470191" lon="7.142572316">
        <ele>175.3</ele>
      </trkpt>
      <trkpt lat="51.130584121" lon="7.142953500">
        <ele>177.1</ele>
      </trkpt>
      <trkpt lat="51.130719644" lon="7.143562417">
        <ele>180.2</ele>
      </trkpt>
      <trkpt lat="51.130780346" lon="7.143988602">
        <ele>183.7</ele>
      </trkpt>
      <trkpt lat="51.130915638" lon="7.144583247">
        <ele>189.0</ele>
      </trkpt>
      <trkpt lat="51.130919262" lon="7.144811699">
        <ele>191.4</ele>
      </trkpt>
      <trkpt lat="51.131032052" lon="7.145121501">
        <ele>192.9</ele>
      </trkpt>
      <trkpt lat="51.131017534" lon="7.145336695">
        <ele>194.8</ele>
      </trkpt>
      <trkpt lat="51.130592205" lon="7.146296387">
        <ele>202.9</ele>
      </trkpt>
      <trkpt lat="51.130401119" lon="7.146718365">
        <ele>206.0</ele>
      </trkpt>
      <trkpt lat="51.130319650" lon="7.147250250">
        <ele>208.1</ele>
      </trkpt>
      <trkpt lat="51.129892549" lon="7.148095986">
        <ele>213.9</ele>
      </trkpt>
      <trkpt lat="51.129582288" lon="7.148937337">
        <ele>216.7</ele>
      </trkpt>
      <trkpt lat="51.128912952" lon="7.149249526">
        <ele>215.0</ele>
      </trkpt>
      <trkpt lat="51.128308364" lon="7.149673712">
        <ele>214.5</ele>
      </trkpt>
      <trkpt lat="51.128323269" lon="7.150616027">
        <ele>215.0</ele>
      </trkpt>
      <trkpt lat="51.128393479" lon="7.151642155">
        <ele>211.8</ele>
      </trkpt>
      <trkpt lat="51.129655756" lon="7.151877507">
        <ele>196.4</ele>
      </trkpt>
      <trkpt lat="51.130085411" lon="7.151760348">
        <ele>192.0</ele>
      </trkpt>
      <trkpt lat="51.130412446" lon="7.151975889">
        <ele>190.3</ele>
      </trkpt>
      <trkpt lat="51.130590587" lon="7.152440257">
        <ele>185.0</ele>
      </trkpt>
      <trkpt lat="51.130903938" lon="7.152927809">
        <ele>179.9</ele>
      </trkpt>
      <trkpt lat="51.131183571" lon="7.152988091">
        <ele>176.0</ele>
      </trkpt>
      <trkpt lat="51.131478014" lon="7.152847758">
        <ele>172.3</ele>
      </trkpt>
      <trkpt lat="51.131851510" lon="7.152589968">
        <ele>163.8</ele>
      </trkpt>
      <trkpt lat="51.132142118" lon="7.152206893">
        <ele>157.4</ele>
      </trkpt>
      <trkpt lat="51.132701977" lon="7.151227262">
        <ele>147.7</ele>
      </trkpt>
      <trkpt lat="51.132908158" lon="7.151190453">
        <ele>143.1</ele>
      </trkpt>
      <trkpt lat="51.133227520" lon="7.150920515">
        <ele>139.4</ele>
      </trkpt>
      <trkpt lat="51.133603991" lon="7.151419853">
        <ele>147.4</ele>
      </trkpt>
      <trkpt lat="51.133688640" lon="7.151087845">
        <ele>139.8</ele>
      </trkpt>
      <trkpt lat="51.134303345" lon="7.150734663">
        <ele>140.9</ele>
      </trkpt>
      <trkpt lat="51.134710739" lon="7.150346889">
        <ele>149.4</ele>
      </trkpt>
      <trkpt lat="51.134823014" lon="7.150056633">
        <ele>144.7</ele>
      </trkpt>
      <trkpt lat="51.134818144" lon="7.150885562">
        <ele>158.1</ele>
      </trkpt>
      <trkpt lat="51.134970283" lon="7.151979705">
        <ele>165.0</ele>
      </trkpt>
      <trkpt lat="51.135098129" lon="7.152674743">
        <ele>166.6</ele>
      </trkpt>
      <trkpt lat="51.135366368" lon="7.153721402">
        <ele>165.6</ele>
      </trkpt>
      <trkpt lat="51.135622654" lon="7.154011245">
        <ele>157.8</ele>
      </trkpt>
      <trkpt lat="51.136153220" lon="7.155161780">
        <ele>163.4</ele>
      </trkpt>
      <trkpt lat="51.136312255" lon="7.155555534">
        <ele>164.3</ele>
      </trkpt>
      <trkpt lat="51.136918690" lon="7.155817155">
        <ele>162.9</ele>
      </trkpt>
      <trkpt lat="51.137004026" lon="7.155527971">
        <ele>167.9</ele>
      </trkpt>
      <trkpt lat="51.136882054" lon="7.155204181">
        <ele>166.8</ele>
      </trkpt>
      <trkpt lat="51.136903825" lon="7.154874662">
        <ele>167.8</ele>
      </trkpt>
      <trkpt lat="51.137167232" lon="7.153906784">
        <ele>185.0</ele>
      </trkpt>
      <trkpt lat="51.137440552" lon="7.153567230">
        <ele>191.0</ele>
      </trkpt>
      <trkpt lat="51.137259655" lon="7.152931126">
        <ele>191.0</ele>
      </trkpt>
      <trkpt lat="51.137179663" lon="7.152419905">
        <ele>189.5</ele>
      </trkpt>
      <trkpt lat="51.137137184" lon="7.152007213">
        <ele>186.2</ele>
      </trkpt>
      <trkpt lat="51.137080347" lon="7.151823722">
        <ele>182.4</ele>
      </trkpt>
      <trkpt lat="51.137114026" lon="7.151679485">
        <ele>180.1</ele>
      </trkpt>
      <trkpt lat="51.137211045" lon="7.151561297">
        <ele>178.9</ele>
      </trkpt>
      <trkpt lat="51.137291224" lon="7.151515228">
        <ele>178.7</ele>
      </trkpt>
      <trkpt lat="51.137222467" lon="7.151146452">
        <ele>167.3</ele>
      </trkpt>
      <trkpt lat="51.137400342" lon="7.151025034">
        <ele>166.5</ele>
      </trkpt>
      <trkpt lat="51.137560474" lon="7.150918612">
        <ele>166.2</ele>
      </trkpt>
      <trkpt lat="51.137731170" lon="7.150911793">
        <ele>168.3</ele>
      </trkpt>
    </trkseg>
  </trk>
</gpx>
