<?xml version="1.0"?>
<gpx xmlns="http://www.topografix.com/GPX/1/1" xmlns:xsi="http://www.w3.org/2001/XMLSchema-instance" version="1.1" creator="AllTrails.com" xsi:schemaLocation="http://www.topografix.com/GPX/1/1 http://www.topografix.com/GPX/1/1/gpx.xsd">
  <metadata>
    <name><![CDATA[PW Rasseln 11 Km]]></name>
    <desc><![CDATA[]]></desc>
    <link href="http://www.alltrails.com">
      <text>AllTrails, LLC</text>
    </link>
    <bounds minlat="51.20458" minlon="6.3412" maxlat="51.2256" maxlon="6.3812"/>
  </metadata>
  <trk>
    <name><![CDATA[PW Rasseln 11 Km]]></name>
    <src>AllTrails</src>
    <trkseg>
      <trkpt lat="51.20468" lon="6.34369">
        <ele>76.6</ele>
      </trkpt>
      <trkpt lat="51.20486" lon="6.34338">
        <ele>77.74</ele>
      </trkpt>
      <trkpt lat="51.20519" lon="6.34363">
        <ele>78.61</ele>
      </trkpt>
      <trkpt lat="51.20572" lon="6.344">
        <ele>70.58</ele>
      </trkpt>
      <trkpt lat="51.20651" lon="6.34445">
        <ele>75.01</ele>
      </trkpt>
      <trkpt lat="51.20671" lon="6.34267">
        <ele>65.88</ele>
      </trkpt>
      <trkpt lat="51.20745" lon="6.34315">
        <ele>80.24</ele>
      </trkpt>
      <trkpt lat="51.20771" lon="6.3412">
        <ele>71.67</ele>
      </trkpt>
      <trkpt lat="51.20974" lon="6.34139">
        <ele>73.82</ele>
      </trkpt>
      <trkpt lat="51.21058" lon="6.34147">
        <ele>69.91</ele>
      </trkpt>
      <trkpt lat="51.21101" lon="6.34154">
        <ele>72.74</ele>
      </trkpt>
      <trkpt lat="51.21189" lon="6.3417">
        <ele>74.86</ele>
      </trkpt>
      <trkpt lat="51.21199" lon="6.34169">
        <ele>73.6</ele>
      </trkpt>
      <trkpt lat="51.21241" lon="6.34179">
        <ele>71.32</ele>
      </trkpt>
      <trkpt lat="51.21287" lon="6.34199">
        <ele>72.82</ele>
      </trkpt>
      <trkpt lat="51.21311" lon="6.34215">
        <ele>75.8</ele>
      </trkpt>
      <trkpt lat="51.21335" lon="6.34236">
        <ele>76.95</ele>
      </trkpt>
      <trkpt lat="51.21381" lon="6.34273">
        <ele>78.2</ele>
      </trkpt>
      <trkpt lat="51.21438" lon="6.34315">
        <ele>74.09</ele>
      </trkpt>
      <trkpt lat="51.21492" lon="6.34348">
        <ele>71.5</ele>
      </trkpt>
      <trkpt lat="51.21511" lon="6.34363">
        <ele>70.79</ele>
      </trkpt>
      <trkpt lat="51.2153" lon="6.34391">
        <ele>71.87</ele>
      </trkpt>
      <trkpt lat="51.21542" lon="6.34419">
        <ele>72.09</ele>
      </trkpt>
      <trkpt lat="51.21556" lon="6.34449">
        <ele>75.13</ele>
      </trkpt>
      <trkpt lat="51.2162" lon="6.34463">
        <ele>69.35</ele>
      </trkpt>
      <trkpt lat="51.21695" lon="6.34477">
        <ele>68.96</ele>
      </trkpt>
      <trkpt lat="51.21773" lon="6.345">
        <ele>67.0</ele>
      </trkpt>
      <trkpt lat="51.21841" lon="6.34525">
        <ele>65.12</ele>
      </trkpt>
      <trkpt lat="51.21881" lon="6.34541">
        <ele>67.8</ele>
      </trkpt>
      <trkpt lat="51.21917" lon="6.34559">
        <ele>71.16</ele>
      </trkpt>
      <trkpt lat="51.21917" lon="6.3458">
        <ele>71.89</ele>
      </trkpt>
      <trkpt lat="51.21927" lon="6.34621">
        <ele>70.63</ele>
      </trkpt>
      <trkpt lat="51.2193" lon="6.34652">
        <ele>69.98</ele>
      </trkpt>
      <trkpt lat="51.2193" lon="6.34683">
        <ele>69.39</ele>
      </trkpt>
      <trkpt lat="51.21927" lon="6.34926">
        <ele>65.83</ele>
      </trkpt>
      <trkpt lat="51.21926" lon="6.34957">
        <ele>65.0</ele>
      </trkpt>
      <trkpt lat="51.21953" lon="6.34957">
        <ele>65.7</ele>
      </trkpt>
      <trkpt lat="51.21985" lon="6.34951">
        <ele>67.75</ele>
      </trkpt>
      <trkpt lat="51.22039" lon="6.34941">
        <ele>67.55</ele>
      </trkpt>
      <trkpt lat="51.22067" lon="6.34931">
        <ele>69.24</ele>
      </trkpt>
      <trkpt lat="51.22148" lon="6.35098">
        <ele>84.21</ele>
      </trkpt>
      <trkpt lat="51.22173" lon="6.35142">
        <ele>82.17</ele>
      </trkpt>
      <trkpt lat="51.22202" lon="6.35178">
        <ele>81.32</ele>
      </trkpt>
      <trkpt lat="51.22217" lon="6.3519">
        <ele>80.35</ele>
      </trkpt>
      <trkpt lat="51.22409" lon="6.35173">
        <ele>69.34</ele>
      </trkpt>
      <trkpt lat="51.22547" lon="6.35156">
        <ele>59.23</ele>
      </trkpt>
      <trkpt lat="51.2256" lon="6.35564">
        <ele>60.88</ele>
      </trkpt>
      <trkpt lat="51.22411" lon="6.35646">
        <ele>61.74</ele>
      </trkpt>
      <trkpt lat="51.22333" lon="6.35676">
        <ele>59.72</ele>
      </trkpt>
      <trkpt lat="51.22239" lon="6.35694">
        <ele>69.17</ele>
      </trkpt>
      <trkpt lat="51.21949" lon="6.35733">
        <ele>62.38</ele>
      </trkpt>
      <trkpt lat="51.21851" lon="6.35746">
        <ele>65.04</ele>
      </trkpt>
      <trkpt lat="51.21699" lon="6.35741">
        <ele>69.13</ele>
      </trkpt>
      <trkpt lat="51.21748" lon="6.35843">
        <ele>69.54</ele>
      </trkpt>
      <trkpt lat="51.21797" lon="6.35957">
        <ele>68.92</ele>
      </trkpt>
      <trkpt lat="51.21882" lon="6.36172">
        <ele>62.44</ele>
      </trkpt>
      <trkpt lat="51.21895" lon="6.36219">
        <ele>65.67</ele>
      </trkpt>
      <trkpt lat="51.219" lon="6.36251">
        <ele>66.75</ele>
      </trkpt>
      <trkpt lat="51.21904" lon="6.3628">
        <ele>65.5</ele>
      </trkpt>
      <trkpt lat="51.21912" lon="6.36341">
        <ele>63.89</ele>
      </trkpt>
      <trkpt lat="51.21926" lon="6.3639">
        <ele>62.65</ele>
      </trkpt>
      <trkpt lat="51.21937" lon="6.36418">
        <ele>63.13</ele>
      </trkpt>
      <trkpt lat="51.21982" lon="6.36501">
        <ele>62.09</ele>
      </trkpt>
      <trkpt lat="51.22" lon="6.36541">
        <ele>63.0</ele>
      </trkpt>
      <trkpt lat="51.22019" lon="6.36584">
        <ele>66.07</ele>
      </trkpt>
      <trkpt lat="51.22036" lon="6.36619">
        <ele>69.61</ele>
      </trkpt>
      <trkpt lat="51.22059" lon="6.36655">
        <ele>71.18</ele>
      </trkpt>
      <trkpt lat="51.22086" lon="6.36682">
        <ele>73.28</ele>
      </trkpt>
      <trkpt lat="51.22059" lon="6.36716">
        <ele>68.4</ele>
      </trkpt>
      <trkpt lat="51.22006" lon="6.36779">
        <ele>63.38</ele>
      </trkpt>
      <trkpt lat="51.21954" lon="6.36846">
        <ele>69.28</ele>
      </trkpt>
      <trkpt lat="51.22057" lon="6.37029">
        <ele>70.39</ele>
      </trkpt>
      <trkpt lat="51.22134" lon="6.37107">
        <ele>84.1</ele>
      </trkpt>
      <trkpt lat="51.22064" lon="6.37279">
        <ele>77.51</ele>
      </trkpt>
      <trkpt lat="51.2204" lon="6.37349">
        <ele>82.8</ele>
      </trkpt>
      <trkpt lat="51.22018" lon="6.37427">
        <ele>85.97</ele>
      </trkpt>
      <trkpt lat="51.21843" lon="6.3734">
        <ele>75.07</ele>
      </trkpt>
      <trkpt lat="51.21667" lon="6.37551">
        <ele>69.91</ele>
      </trkpt>
      <trkpt lat="51.21655" lon="6.3812">
        <ele>84.64</ele>
      </trkpt>
      <trkpt lat="51.21607" lon="6.38051">
        <ele>80.84</ele>
      </trkpt>
      <trkpt lat="51.21553" lon="6.37972">
        <ele>75.28</ele>
      </trkpt>
      <trkpt lat="51.21481" lon="6.37858">
        <ele>81.62</ele>
      </trkpt>
      <trkpt lat="51.21439" lon="6.378">
        <ele>75.22</ele>
      </trkpt>
      <trkpt lat="51.21397" lon="6.37781">
        <ele>62.77</ele>
      </trkpt>
      <trkpt lat="51.21411" lon="6.37704">
        <ele>66.34</ele>
      </trkpt>
      <trkpt lat="51.21424" lon="6.37658">
        <ele>67.76</ele>
      </trkpt>
      <trkpt lat="51.21434" lon="6.37637">
        <ele>69.66</ele>
      </trkpt>
      <trkpt lat="51.21449" lon="6.37619">
        <ele>67.93</ele>
      </trkpt>
      <trkpt lat="51.2147" lon="6.37603">
        <ele>67.62</ele>
      </trkpt>
      <trkpt lat="51.21483" lon="6.37598">
        <ele>67.37</ele>
      </trkpt>
      <trkpt lat="51.21515" lon="6.37586">
        <ele>67.01</ele>
      </trkpt>
      <trkpt lat="51.21537" lon="6.37568">
        <ele>66.08</ele>
      </trkpt>
      <trkpt lat="51.2155" lon="6.37552">
        <ele>64.17</ele>
      </trkpt>
      <trkpt lat="51.21676" lon="6.37326">
        <ele>65.92</ele>
      </trkpt>
      <trkpt lat="51.21592" lon="6.37098">
        <ele>73.26</ele>
      </trkpt>
      <trkpt lat="51.21584" lon="6.37088">
        <ele>73.69</ele>
      </trkpt>
      <trkpt lat="51.21577" lon="6.37082">
        <ele>73.78</ele>
      </trkpt>
      <trkpt lat="51.21285" lon="6.36961">
        <ele>64.61</ele>
      </trkpt>
      <trkpt lat="51.21032" lon="6.36883">
        <ele>72.97</ele>
      </trkpt>
      <trkpt lat="51.20954" lon="6.36858">
        <ele>75.7</ele>
      </trkpt>
      <trkpt lat="51.20906" lon="6.36835">
        <ele>76.34</ele>
      </trkpt>
      <trkpt lat="51.20846" lon="6.36804">
        <ele>66.22</ele>
      </trkpt>
      <trkpt lat="51.20642" lon="6.36818">
        <ele>66.6</ele>
      </trkpt>
      <trkpt lat="51.20647" lon="6.36761">
        <ele>68.43</ele>
      </trkpt>
      <trkpt lat="51.20644" lon="6.3665">
        <ele>68.51</ele>
      </trkpt>
      <trkpt lat="51.20635" lon="6.36423">
        <ele>66.01</ele>
      </trkpt>
      <trkpt lat="51.2063" lon="6.36226">
        <ele>66.05</ele>
      </trkpt>
      <trkpt lat="51.20635" lon="6.36025">
        <ele>67.06</ele>
      </trkpt>
      <trkpt lat="51.20655" lon="6.35463">
        <ele>69.44</ele>
      </trkpt>
      <trkpt lat="51.20656" lon="6.35285">
        <ele>69.19</ele>
      </trkpt>
      <trkpt lat="51.20651" lon="6.35133">
        <ele>72.69</ele>
      </trkpt>
      <trkpt lat="51.20644" lon="6.3498">
        <ele>71.37</ele>
      </trkpt>
      <trkpt lat="51.2064" lon="6.34889">
        <ele>69.16</ele>
      </trkpt>
      <trkpt lat="51.2064" lon="6.34841">
        <ele>69.09</ele>
      </trkpt>
      <trkpt lat="51.20645" lon="6.34775">
        <ele>74.09</ele>
      </trkpt>
      <trkpt lat="51.20642" lon="6.34762">
        <ele>73.17</ele>
      </trkpt>
      <trkpt lat="51.20637" lon="6.34742">
        <ele>72.02</ele>
      </trkpt>
      <trkpt lat="51.20633" lon="6.34672">
        <ele>71.72</ele>
      </trkpt>
      <trkpt lat="51.20638" lon="6.34551">
        <ele>72.26</ele>
      </trkpt>
      <trkpt lat="51.2061" lon="6.34541">
        <ele>70.97</ele>
      </trkpt>
      <trkpt lat="51.20558" lon="6.3451">
        <ele>70.27</ele>
      </trkpt>
      <trkpt lat="51.20509" lon="6.34458">
        <ele>73.35</ele>
      </trkpt>
      <trkpt lat="51.20458" lon="6.34389">
        <ele>75.0</ele>
      </trkpt>
      <trkpt lat="51.20469" lon="6.34369">
        <ele>76.73</ele>
      </trkpt>
    </trkseg>
  </trk>
</gpx>

