<?xml version='1.0' encoding='UTF-8'?>
<gpx version="1.1" creator="https://www.komoot.de" xmlns="http://www.topografix.com/GPX/1/1" xmlns:xsi="http://www.w3.org/2001/XMLSchema-instance" xsi:schemaLocation="http://www.topografix.com/GPX/1/1 http://www.topografix.com/GPX/1/1/gpx.xsd">
  <metadata>
    <name>PW Senden 5 km</name>
    <author>
      <link href="https://www.komoot.de">
        <text>komoot</text>
        <type>text/html</type>
      </link>
    </author>
  </metadata>
  <trk>
    <name>PW Senden 5 km</name>
    <trkseg>
      <trkpt lat="51.854135" lon="7.478285">
        <ele>58.108399</ele>
        <time>2023-01-24T10:17:50.459Z</time>
      </trkpt>
      <trkpt lat="51.854237" lon="7.478291">
        <ele>58.108399</ele>
        <time>2023-01-24T10:18:00.737Z</time>
      </trkpt>
      <trkpt lat="51.854127" lon="7.478531">
        <ele>58.108399</ele>
        <time>2023-01-24T10:18:19.549Z</time>
      </trkpt>
      <trkpt lat="51.854037" lon="7.478725">
        <ele>58.108399</ele>
        <time>2023-01-24T10:18:34.811Z</time>
      </trkpt>
      <trkpt lat="51.853724" lon="7.479394">
        <ele>58.083328</ele>
        <time>2023-01-24T10:19:27.957Z</time>
      </trkpt>
      <trkpt lat="51.853294" lon="7.480320">
        <ele>57.760566</ele>
        <time>2023-01-24T10:20:40.812Z</time>
      </trkpt>
      <trkpt lat="51.853121" lon="7.480671">
        <ele>57.635458</ele>
        <time>2023-01-24T10:21:08.882Z</time>
      </trkpt>
      <trkpt lat="51.853068" lon="7.480793">
        <ele>57.593903</ele>
        <time>2023-01-24T10:21:18.242Z</time>
      </trkpt>
      <trkpt lat="51.853044" lon="7.480767">
        <ele>57.580878</ele>
        <time>2023-01-24T10:21:21.189Z</time>
      </trkpt>
      <trkpt lat="51.853037" lon="7.480760">
        <ele>57.577166</ele>
        <time>2023-01-24T10:21:21.974Z</time>
      </trkpt>
      <trkpt lat="51.852901" lon="7.480890">
        <ele>57.505929</ele>
        <time>2023-01-24T10:21:37.870Z</time>
      </trkpt>
      <trkpt lat="51.852783" lon="7.480918">
        <ele>57.452136</ele>
        <time>2023-01-24T10:21:49.780Z</time>
      </trkpt>
      <trkpt lat="51.852586" lon="7.480723">
        <ele>57.347986</ele>
        <time>2023-01-24T10:22:12.956Z</time>
      </trkpt>
      <trkpt lat="51.852489" lon="7.480627">
        <ele>57.297836</ele>
        <time>2023-01-24T10:22:24.544Z</time>
      </trkpt>
      <trkpt lat="51.852375" lon="7.480501">
        <ele>57.407464</ele>
        <time>2023-01-24T10:22:38.431Z</time>
      </trkpt>
      <trkpt lat="51.852144" lon="7.480233">
        <ele>57.633172</ele>
        <time>2023-01-24T10:23:07.537Z</time>
      </trkpt>
      <trkpt lat="51.851632" lon="7.479537">
        <ele>58.164150</ele>
        <time>2023-01-24T10:24:16.666Z</time>
      </trkpt>
      <trkpt lat="51.851531" lon="7.479363">
        <ele>58.281287</ele>
        <time>2023-01-24T10:24:31.967Z</time>
      </trkpt>
      <trkpt lat="51.851442" lon="7.479212">
        <ele>58.383678</ele>
        <time>2023-01-24T10:24:45.512Z</time>
      </trkpt>
      <trkpt lat="51.851081" lon="7.478528">
        <ele>58.808912</ele>
        <time>2023-01-24T10:25:43.450Z</time>
      </trkpt>
      <trkpt lat="51.851009" lon="7.478367">
        <ele>58.890602</ele>
        <time>2023-01-24T10:25:56.055Z</time>
      </trkpt>
      <trkpt lat="51.850890" lon="7.478101">
        <ele>59.025584</ele>
        <time>2023-01-24T10:26:16.772Z</time>
      </trkpt>
      <trkpt lat="51.850689" lon="7.477568">
        <ele>59.282237</ele>
        <time>2023-01-24T10:26:55.995Z</time>
      </trkpt>
      <trkpt lat="51.850502" lon="7.476951">
        <ele>59.564697</ele>
        <time>2023-01-24T10:27:39.384Z</time>
      </trkpt>
      <trkpt lat="51.850454" lon="7.476767">
        <ele>59.646786</ele>
        <time>2023-01-24T10:27:51.873Z</time>
      </trkpt>
      <trkpt lat="51.850247" lon="7.475874">
        <ele>59.994286</ele>
        <time>2023-01-24T10:28:52.308Z</time>
      </trkpt>
      <trkpt lat="51.850239" lon="7.475718">
        <ele>60.034035</ele>
        <time>2023-01-24T10:29:02.112Z</time>
      </trkpt>
      <trkpt lat="51.850174" lon="7.475740">
        <ele>60.061333</ele>
        <time>2023-01-24T10:29:09.055Z</time>
      </trkpt>
      <trkpt lat="51.850057" lon="7.475786">
        <ele>60.110827</ele>
        <time>2023-01-24T10:29:21.495Z</time>
      </trkpt>
      <trkpt lat="51.849967" lon="7.475810">
        <ele>60.148323</ele>
        <time>2023-01-24T10:29:30.743Z</time>
      </trkpt>
      <trkpt lat="51.849865" lon="7.475812">
        <ele>60.190255</ele>
        <time>2023-01-24T10:29:41.045Z</time>
      </trkpt>
      <trkpt lat="51.849836" lon="7.475644">
        <ele>60.234550</ele>
        <time>2023-01-24T10:29:52.394Z</time>
      </trkpt>
      <trkpt lat="51.849524" lon="7.473885">
        <ele>60.594017</ele>
        <time>2023-01-24T10:31:46.735Z</time>
      </trkpt>
      <trkpt lat="51.849498" lon="7.473897">
        <ele>60.573986</ele>
        <time>2023-01-24T10:31:49.443Z</time>
      </trkpt>
      <trkpt lat="51.849451" lon="7.473919">
        <ele>60.537738</ele>
        <time>2023-01-24T10:31:54.446Z</time>
      </trkpt>
      <trkpt lat="51.849496" lon="7.473921">
        <ele>60.504385</ele>
        <time>2023-01-24T10:31:58.991Z</time>
      </trkpt>
      <trkpt lat="51.849492" lon="7.473898">
        <ele>60.493450</ele>
        <time>2023-01-24T10:32:00.517Z</time>
      </trkpt>
      <trkpt lat="51.849445" lon="7.473920">
        <ele>60.457201</ele>
        <time>2023-01-24T10:32:05.482Z</time>
      </trkpt>
      <trkpt lat="51.849060" lon="7.474088">
        <ele>60.161776</ele>
        <time>2023-01-24T10:32:45.532Z</time>
      </trkpt>
      <trkpt lat="51.849018" lon="7.474104">
        <ele>60.129808</ele>
        <time>2023-01-24T10:32:49.872Z</time>
      </trkpt>
      <trkpt lat="51.849022" lon="7.474132">
        <ele>60.116655</ele>
        <time>2023-01-24T10:32:51.698Z</time>
      </trkpt>
      <trkpt lat="51.849056" lon="7.474094">
        <ele>60.086044</ele>
        <time>2023-01-24T10:32:55.829Z</time>
      </trkpt>
      <trkpt lat="51.849010" lon="7.474110">
        <ele>60.051185</ele>
        <time>2023-01-24T10:33:00.565Z</time>
      </trkpt>
      <trkpt lat="51.848985" lon="7.474119">
        <ele>60.032211</ele>
        <time>2023-01-24T10:33:03.127Z</time>
      </trkpt>
      <trkpt lat="51.848723" lon="7.472680">
        <ele>59.345601</ele>
        <time>2023-01-24T10:34:38.169Z</time>
      </trkpt>
      <trkpt lat="51.848593" lon="7.472126">
        <ele>58.994819</ele>
        <time>2023-01-24T10:35:15.900Z</time>
      </trkpt>
      <trkpt lat="51.848370" lon="7.471544">
        <ele>58.583483</ele>
        <time>2023-01-24T10:35:59.344Z</time>
      </trkpt>
      <trkpt lat="51.848163" lon="7.471163">
        <ele>58.278737</ele>
        <time>2023-01-24T10:36:31.408Z</time>
      </trkpt>
      <trkpt lat="51.847765" lon="7.470631">
        <ele>57.776903</ele>
        <time>2023-01-24T10:37:23.879Z</time>
      </trkpt>
      <trkpt lat="51.847726" lon="7.470584">
        <ele>57.729631</ele>
        <time>2023-01-24T10:37:28.830Z</time>
      </trkpt>
      <trkpt lat="51.847346" lon="7.470216">
        <ele>57.510885</ele>
        <time>2023-01-24T10:38:13.556Z</time>
      </trkpt>
      <trkpt lat="51.846772" lon="7.469852">
        <ele>57.362844</ele>
        <time>2023-01-24T10:39:15.534Z</time>
      </trkpt>
      <trkpt lat="51.846234" lon="7.469623">
        <ele>57.229257</ele>
        <time>2023-01-24T10:40:11.379Z</time>
      </trkpt>
      <trkpt lat="51.845638" lon="7.469369">
        <ele>57.143501</ele>
        <time>2023-01-24T10:41:13.097Z</time>
      </trkpt>
      <trkpt lat="51.845598" lon="7.469350">
        <ele>57.142767</ele>
        <time>2023-01-24T10:41:17.288Z</time>
      </trkpt>
      <trkpt lat="51.845552" lon="7.469331">
        <ele>57.141932</ele>
        <time>2023-01-24T10:41:22.044Z</time>
      </trkpt>
      <trkpt lat="51.845520" lon="7.469316">
        <ele>57.141346</ele>
        <time>2023-01-24T10:41:25.442Z</time>
      </trkpt>
      <trkpt lat="51.845348" lon="7.469234">
        <ele>57.138190</ele>
        <time>2023-01-24T10:41:43.359Z</time>
      </trkpt>
      <trkpt lat="51.844230" lon="7.468775">
        <ele>57.117892</ele>
        <time>2023-01-24T10:43:38.908Z</time>
      </trkpt>
      <trkpt lat="51.844326" lon="7.468175">
        <ele>57.151935</ele>
        <time>2023-01-24T10:44:17.337Z</time>
      </trkpt>
      <trkpt lat="51.845407" lon="7.468624">
        <ele>57.274901</ele>
        <time>2023-01-24T10:46:09.600Z</time>
      </trkpt>
      <trkpt lat="51.846875" lon="7.469233">
        <ele>57.338299</ele>
        <time>2023-01-24T10:48:41.723Z</time>
      </trkpt>
      <trkpt lat="51.847460" lon="7.469610">
        <ele>57.351062</ele>
        <time>2023-01-24T10:49:44.838Z</time>
      </trkpt>
      <trkpt lat="51.847971" lon="7.470032">
        <ele>57.238858</ele>
        <time>2023-01-24T10:50:42.393Z</time>
      </trkpt>
      <trkpt lat="51.848070" lon="7.470003">
        <ele>57.218515</ele>
        <time>2023-01-24T10:50:52.587Z</time>
      </trkpt>
      <trkpt lat="51.848108" lon="7.469922">
        <ele>57.205811</ele>
        <time>2023-01-24T10:50:58.947Z</time>
      </trkpt>
      <trkpt lat="51.848095" lon="7.469772">
        <ele>57.186892</ele>
        <time>2023-01-24T10:51:08.368Z</time>
      </trkpt>
      <trkpt lat="51.847890" lon="7.468906">
        <ele>57.071054</ele>
        <time>2023-01-24T10:52:06.065Z</time>
      </trkpt>
      <trkpt lat="51.847735" lon="7.468252">
        <ele>56.989884</ele>
        <time>2023-01-24T10:52:49.469Z</time>
      </trkpt>
      <trkpt lat="51.847514" lon="7.467393">
        <ele>57.049855</ele>
        <time>2023-01-24T10:53:47.103Z</time>
      </trkpt>
      <trkpt lat="51.847091" lon="7.465830">
        <ele>57.159833</ele>
        <time>2023-01-24T10:55:32.854Z</time>
      </trkpt>
      <trkpt lat="51.846541" lon="7.463975">
        <ele>58.331506</ele>
        <time>2023-01-24T10:57:45.417Z</time>
      </trkpt>
      <trkpt lat="51.846066" lon="7.462444">
        <ele>59.122361</ele>
        <time>2023-01-24T10:59:35.489Z</time>
      </trkpt>
      <trkpt lat="51.845963" lon="7.462129">
        <ele>59.176430</ele>
        <time>2023-01-24T10:59:58.280Z</time>
      </trkpt>
      <trkpt lat="51.845874" lon="7.462212">
        <ele>59.201653</ele>
        <time>2023-01-24T11:00:08.658Z</time>
      </trkpt>
      <trkpt lat="51.845915" lon="7.462356">
        <ele>59.225707</ele>
        <time>2023-01-24T11:00:18.478Z</time>
      </trkpt>
      <trkpt lat="51.845932" lon="7.462415">
        <ele>59.235583</ele>
        <time>2023-01-24T11:00:22.562Z</time>
      </trkpt>
      <trkpt lat="51.845995" lon="7.462363">
        <ele>59.252949</ele>
        <time>2023-01-24T11:00:30.034Z</time>
      </trkpt>
      <trkpt lat="51.846605" lon="7.461854">
        <ele>59.421476</ele>
        <time>2023-01-24T11:01:38.845Z</time>
      </trkpt>
      <trkpt lat="51.846701" lon="7.461775">
        <ele>59.447922</ele>
        <time>2023-01-24T11:01:49.672Z</time>
      </trkpt>
      <trkpt lat="51.846807" lon="7.462220">
        <ele>59.300368</ele>
        <time>2023-01-24T11:02:19.648Z</time>
      </trkpt>
      <trkpt lat="51.847151" lon="7.463654">
        <ele>58.507134</ele>
        <time>2023-01-24T11:03:57.073Z</time>
      </trkpt>
      <trkpt lat="51.847512" lon="7.464880">
        <ele>57.990626</ele>
        <time>2023-01-24T11:05:22.646Z</time>
      </trkpt>
      <trkpt lat="51.847983" lon="7.466569">
        <ele>58.118353</ele>
        <time>2023-01-24T11:07:18.501Z</time>
      </trkpt>
      <trkpt lat="51.848152" lon="7.467217">
        <ele>58.166834</ele>
        <time>2023-01-24T11:08:02.626Z</time>
      </trkpt>
      <trkpt lat="51.848168" lon="7.467277">
        <ele>58.182552</ele>
        <time>2023-01-24T11:08:06.681Z</time>
      </trkpt>
      <trkpt lat="51.848453" lon="7.467125">
        <ele>58.436534</ele>
        <time>2023-01-24T11:08:37.274Z</time>
      </trkpt>
      <trkpt lat="51.848707" lon="7.467155">
        <ele>58.652094</ele>
        <time>2023-01-24T11:09:03.351Z</time>
      </trkpt>
      <trkpt lat="51.848892" lon="7.467246">
        <ele>58.815750</ele>
        <time>2023-01-24T11:09:22.865Z</time>
      </trkpt>
      <trkpt lat="51.848947" lon="7.467224">
        <ele>58.863702</ele>
        <time>2023-01-24T11:09:28.598Z</time>
      </trkpt>
      <trkpt lat="51.848990" lon="7.467136">
        <ele>58.922368</ele>
        <time>2023-01-24T11:09:36.125Z</time>
      </trkpt>
      <trkpt lat="51.849969" lon="7.468298">
        <ele>60.012578</ele>
        <time>2023-01-24T11:11:42.430Z</time>
      </trkpt>
      <trkpt lat="51.850721" lon="7.469251">
        <ele>61.017498</ele>
        <time>2023-01-24T11:13:22.124Z</time>
      </trkpt>
      <trkpt lat="51.850798" lon="7.469348">
        <ele>61.120162</ele>
        <time>2023-01-24T11:13:32.440Z</time>
      </trkpt>
      <trkpt lat="51.851214" lon="7.469846">
        <ele>61.593896</ele>
        <time>2023-01-24T11:14:25.711Z</time>
      </trkpt>
      <trkpt lat="51.851438" lon="7.470173">
        <ele>61.630578</ele>
        <time>2023-01-24T11:14:56.640Z</time>
      </trkpt>
      <trkpt lat="51.851410" lon="7.470235">
        <ele>61.636347</ele>
        <time>2023-01-24T11:15:01.433Z</time>
      </trkpt>
      <trkpt lat="51.851260" lon="7.470567">
        <ele>61.667247</ele>
        <time>2023-01-24T11:15:26.977Z</time>
      </trkpt>
      <trkpt lat="51.851204" lon="7.470851">
        <ele>61.689642</ele>
        <time>2023-01-24T11:15:45.451Z</time>
      </trkpt>
      <trkpt lat="51.851203" lon="7.471785">
        <ele>61.759806</ele>
        <time>2023-01-24T11:16:43.426Z</time>
      </trkpt>
      <trkpt lat="51.851314" lon="7.472468">
        <ele>61.761818</ele>
        <time>2023-01-24T11:17:27.085Z</time>
      </trkpt>
      <trkpt lat="51.851307" lon="7.472705">
        <ele>61.683475</ele>
        <time>2023-01-24T11:17:42.175Z</time>
      </trkpt>
      <trkpt lat="51.851246" lon="7.473157">
        <ele>61.530711</ele>
        <time>2023-01-24T11:18:11.197Z</time>
      </trkpt>
      <trkpt lat="51.851250" lon="7.473351">
        <ele>61.466620</ele>
        <time>2023-01-24T11:18:23.693Z</time>
      </trkpt>
      <trkpt lat="51.851449" lon="7.473618">
        <ele>61.328464</ele>
        <time>2023-01-24T11:18:49.969Z</time>
      </trkpt>
      <trkpt lat="51.851916" lon="7.473681">
        <ele>61.077972</ele>
        <time>2023-01-24T11:19:37.869Z</time>
      </trkpt>
      <trkpt lat="51.852094" lon="7.473744">
        <ele>60.980577</ele>
        <time>2023-01-24T11:19:56.158Z</time>
      </trkpt>
      <trkpt lat="51.852077" lon="7.474738">
        <ele>60.394490</ele>
        <time>2023-01-24T11:20:59.173Z</time>
      </trkpt>
      <trkpt lat="51.852058" lon="7.475789">
        <ele>59.575619</ele>
        <time>2023-01-24T11:22:05.505Z</time>
      </trkpt>
      <trkpt lat="51.852040" lon="7.476113">
        <ele>59.322269</ele>
        <time>2023-01-24T11:22:25.874Z</time>
      </trkpt>
      <trkpt lat="51.852016" lon="7.476231">
        <ele>59.225517</ele>
        <time>2023-01-24T11:22:33.907Z</time>
      </trkpt>
      <trkpt lat="51.851759" lon="7.477479">
        <ele>58.280722</ele>
        <time>2023-01-24T11:23:58.366Z</time>
      </trkpt>
      <trkpt lat="51.851728" lon="7.477685">
        <ele>58.150876</ele>
        <time>2023-01-24T11:24:11.989Z</time>
      </trkpt>
      <trkpt lat="51.851695" lon="7.477910">
        <ele>58.009254</ele>
        <time>2023-01-24T11:24:26.857Z</time>
      </trkpt>
      <trkpt lat="51.851691" lon="7.478175">
        <ele>57.846918</ele>
        <time>2023-01-24T11:24:43.627Z</time>
      </trkpt>
      <trkpt lat="51.851740" lon="7.478672">
        <ele>57.538700</ele>
        <time>2023-01-24T11:25:15.472Z</time>
      </trkpt>
      <trkpt lat="51.851889" lon="7.479191">
        <ele>57.188210</ele>
        <time>2023-01-24T11:25:51.286Z</time>
      </trkpt>
      <trkpt lat="51.852069" lon="7.479713">
        <ele>56.822097</ele>
        <time>2023-01-24T11:26:28.474Z</time>
      </trkpt>
      <trkpt lat="51.852132" lon="7.479896">
        <ele>56.832897</ele>
        <time>2023-01-24T11:26:41.485Z</time>
      </trkpt>
      <trkpt lat="51.852289" lon="7.480253">
        <ele>56.948701</ele>
        <time>2023-01-24T11:27:08.818Z</time>
      </trkpt>
      <trkpt lat="51.852425" lon="7.480472">
        <ele>57.030763</ele>
        <time>2023-01-24T11:27:28.050Z</time>
      </trkpt>
      <trkpt lat="51.852474" lon="7.480529">
        <ele>57.056575</ele>
        <time>2023-01-24T11:27:34.242Z</time>
      </trkpt>
      <trkpt lat="51.852862" lon="7.480619">
        <ele>57.224257</ele>
        <time>2023-01-24T11:28:14.079Z</time>
      </trkpt>
      <trkpt lat="51.852901" lon="7.480628">
        <ele>57.241110</ele>
        <time>2023-01-24T11:28:18.122Z</time>
      </trkpt>
      <trkpt lat="51.853011" lon="7.480733">
        <ele>57.295739</ele>
        <time>2023-01-24T11:28:31.061Z</time>
      </trkpt>
      <trkpt lat="51.853037" lon="7.480760">
        <ele>57.308953</ele>
        <time>2023-01-24T11:28:34.265Z</time>
      </trkpt>
      <trkpt lat="51.853044" lon="7.480767">
        <ele>57.312473</ele>
        <time>2023-01-24T11:28:35.061Z</time>
      </trkpt>
      <trkpt lat="51.853068" lon="7.480793">
        <ele>57.324827</ele>
        <time>2023-01-24T11:28:38.050Z</time>
      </trkpt>
      <trkpt lat="51.853121" lon="7.480671">
        <ele>57.364239</ele>
        <time>2023-01-24T11:28:47.646Z</time>
      </trkpt>
      <trkpt lat="51.853294" lon="7.480320">
        <ele>57.482898</ele>
        <time>2023-01-24T11:29:16.111Z</time>
      </trkpt>
      <trkpt lat="51.853724" lon="7.479394">
        <ele>57.560431</ele>
        <time>2023-01-24T11:30:29.983Z</time>
      </trkpt>
      <trkpt lat="51.854037" lon="7.478725">
        <ele>57.560431</ele>
        <time>2023-01-24T11:31:23.927Z</time>
      </trkpt>
      <trkpt lat="51.854127" lon="7.478531">
        <ele>57.560431</ele>
        <time>2023-01-24T11:31:39.361Z</time>
      </trkpt>
      <trkpt lat="51.854237" lon="7.478291">
        <ele>57.560431</ele>
        <time>2023-01-24T11:31:58.443Z</time>
      </trkpt>
      <trkpt lat="51.854135" lon="7.478285">
        <ele>57.560431</ele>
        <time>2023-01-24T11:32:08.766Z</time>
      </trkpt>
      <trkpt lat="51.854043" lon="7.478280">
        <ele>57.560431</ele>
        <time>2023-01-24T11:32:18.199Z</time>
      </trkpt>
    </trkseg>
  </trk>
</gpx>