<?xml version='1.0' encoding='UTF-8'?>
<gpx version="1.1" creator="https://www.komoot.de" xmlns="http://www.topografix.com/GPX/1/1" xmlns:xsi="http://www.w3.org/2001/XMLSchema-instance" xsi:schemaLocation="http://www.topografix.com/GPX/1/1 http://www.topografix.com/GPX/1/1/gpx.xsd">
  <metadata>
    <name>PW NETTERSHEIM 06 KM</name>
    <author>
      <link href="https://www.komoot.de">
        <text>komoot</text>
        <type>text/html</type>
      </link>
    </author>
  </metadata>
  <trk>
    <name>PW NETTERSHEIM 06 KM</name>
    <trkseg>
      <trkpt lat="50.494476" lon="6.632655">
        <ele>449.717521</ele>
        <time>2024-03-23T07:46:43.176Z</time>
      </trkpt>
      <trkpt lat="50.494458" lon="6.632713">
        <ele>449.717521</ele>
        <time>2024-03-23T07:46:47.383Z</time>
      </trkpt>
      <trkpt lat="50.494392" lon="6.632782">
        <ele>449.717521</ele>
        <time>2024-03-23T07:46:55.464Z</time>
      </trkpt>
      <trkpt lat="50.494333" lon="6.632845">
        <ele>449.717521</ele>
        <time>2024-03-23T07:47:02.769Z</time>
      </trkpt>
      <trkpt lat="50.494177" lon="6.632935">
        <ele>449.717521</ele>
        <time>2024-03-23T07:47:19.751Z</time>
      </trkpt>
      <trkpt lat="50.494365" lon="6.633331">
        <ele>449.717521</ele>
        <time>2024-03-23T07:47:51.905Z</time>
      </trkpt>
      <trkpt lat="50.494384" lon="6.633372">
        <ele>449.717521</ele>
        <time>2024-03-23T07:47:55.256Z</time>
      </trkpt>
      <trkpt lat="50.494503" lon="6.633736">
        <ele>449.788906</ele>
        <time>2024-03-23T07:48:22.137Z</time>
      </trkpt>
      <trkpt lat="50.494436" lon="6.633811">
        <ele>449.878623</ele>
        <time>2024-03-23T07:48:30.697Z</time>
      </trkpt>
      <trkpt lat="50.494402" lon="6.633896">
        <ele>449.948293</ele>
        <time>2024-03-23T07:48:37.308Z</time>
      </trkpt>
      <trkpt lat="50.494356" lon="6.634042">
        <ele>450.061345</ele>
        <time>2024-03-23T07:48:48.080Z</time>
      </trkpt>
      <trkpt lat="50.494081" lon="6.634906">
        <ele>450.731715</ele>
        <time>2024-03-23T07:49:52.943Z</time>
      </trkpt>
      <trkpt lat="50.493997" lon="6.635169">
        <ele>450.935917</ele>
        <time>2024-03-23T07:50:12.162Z</time>
      </trkpt>
      <trkpt lat="50.493832" lon="6.635563">
        <ele>451.263231</ele>
        <time>2024-03-23T07:50:43.421Z</time>
      </trkpt>
      <trkpt lat="50.493673" lon="6.635948">
        <ele>451.581737</ele>
        <time>2024-03-23T07:51:13.581Z</time>
      </trkpt>
      <trkpt lat="50.493606" lon="6.636109">
        <ele>451.716547</ele>
        <time>2024-03-23T07:51:25.785Z</time>
      </trkpt>
      <trkpt lat="50.493477" lon="6.636239">
        <ele>451.889807</ele>
        <time>2024-03-23T07:51:41.726Z</time>
      </trkpt>
      <trkpt lat="50.493429" lon="6.636238">
        <ele>451.944085</ele>
        <time>2024-03-23T07:51:46.557Z</time>
      </trkpt>
      <trkpt lat="50.493202" lon="6.636159">
        <ele>452.206968</ele>
        <time>2024-03-23T07:52:10.832Z</time>
      </trkpt>
      <trkpt lat="50.491990" lon="6.635739">
        <ele>453.610277</ele>
        <time>2024-03-23T07:54:20.420Z</time>
      </trkpt>
      <trkpt lat="50.492021" lon="6.636140">
        <ele>454.033034</ele>
        <time>2024-03-23T07:54:47.404Z</time>
      </trkpt>
      <trkpt lat="50.491837" lon="6.636073">
        <ele>454.396947</ele>
        <time>2024-03-23T07:55:06.576Z</time>
      </trkpt>
      <trkpt lat="50.491772" lon="6.636035">
        <ele>454.530569</ele>
        <time>2024-03-23T07:55:14.027Z</time>
      </trkpt>
      <trkpt lat="50.491454" lon="6.635844">
        <ele>455.186489</ele>
        <time>2024-03-23T07:55:50.071Z</time>
      </trkpt>
      <trkpt lat="50.491152" lon="6.635611">
        <ele>455.834688</ele>
        <time>2024-03-23T07:56:26.380Z</time>
      </trkpt>
      <trkpt lat="50.490585" lon="6.635174">
        <ele>457.051429</ele>
        <time>2024-03-23T07:57:35.457Z</time>
      </trkpt>
      <trkpt lat="50.490285" lon="6.635030">
        <ele>457.691086</ele>
        <time>2024-03-23T07:58:09.444Z</time>
      </trkpt>
      <trkpt lat="50.490153" lon="6.635004">
        <ele>457.966359</ele>
        <time>2024-03-23T07:58:23.755Z</time>
      </trkpt>
      <trkpt lat="50.489916" lon="6.634958">
        <ele>458.460487</ele>
        <time>2024-03-23T07:58:49.270Z</time>
      </trkpt>
      <trkpt lat="50.489261" lon="6.634801">
        <ele>459.831491</ele>
        <time>2024-03-23T08:00:00.274Z</time>
      </trkpt>
      <trkpt lat="50.488932" lon="6.634853">
        <ele>460.515696</ele>
        <time>2024-03-23T08:00:35.697Z</time>
      </trkpt>
      <trkpt lat="50.488785" lon="6.634920">
        <ele>460.832401</ele>
        <time>2024-03-23T08:00:52.083Z</time>
      </trkpt>
      <trkpt lat="50.488667" lon="6.635050">
        <ele>461.034670</ele>
        <time>2024-03-23T08:01:07.653Z</time>
      </trkpt>
      <trkpt lat="50.488527" lon="6.635310">
        <ele>461.296210</ele>
        <time>2024-03-23T08:01:30.881Z</time>
      </trkpt>
      <trkpt lat="50.488316" lon="6.635702">
        <ele>461.690474</ele>
        <time>2024-03-23T08:02:05.221Z</time>
      </trkpt>
      <trkpt lat="50.488207" lon="6.635955">
        <ele>461.925088</ele>
        <time>2024-03-23T08:02:25.568Z</time>
      </trkpt>
      <trkpt lat="50.488131" lon="6.636300">
        <ele>462.205425</ele>
        <time>2024-03-23T08:02:49.661Z</time>
      </trkpt>
      <trkpt lat="50.488005" lon="6.637093">
        <ele>462.833032</ele>
        <time>2024-03-23T08:03:43.218Z</time>
      </trkpt>
      <trkpt lat="50.488018" lon="6.637316">
        <ele>463.004981</ele>
        <time>2024-03-23T08:03:57.755Z</time>
      </trkpt>
      <trkpt lat="50.488112" lon="6.637607">
        <ele>463.211024</ele>
        <time>2024-03-23T08:04:18.982Z</time>
      </trkpt>
      <trkpt lat="50.488481" lon="6.638362">
        <ele>463.765452</ele>
        <time>2024-03-23T08:05:20.629Z</time>
      </trkpt>
      <trkpt lat="50.488506" lon="6.638411">
        <ele>463.802029</ele>
        <time>2024-03-23T08:05:24.722Z</time>
      </trkpt>
      <trkpt lat="50.488709" lon="6.638896">
        <ele>464.140106</ele>
        <time>2024-03-23T08:06:03.067Z</time>
      </trkpt>
      <trkpt lat="50.488813" lon="6.639343">
        <ele>464.417275</ele>
        <time>2024-03-23T08:06:34.504Z</time>
      </trkpt>
      <trkpt lat="50.488836" lon="6.639975">
        <ele>464.876370</ele>
        <time>2024-03-23T08:07:16.503Z</time>
      </trkpt>
      <trkpt lat="50.488885" lon="6.640574">
        <ele>465.692852</ele>
        <time>2024-03-23T08:07:57.174Z</time>
      </trkpt>
      <trkpt lat="50.488856" lon="6.640758">
        <ele>465.949129</ele>
        <time>2024-03-23T08:08:09.780Z</time>
      </trkpt>
      <trkpt lat="50.488883" lon="6.641003">
        <ele>466.285287</ele>
        <time>2024-03-23T08:08:27.002Z</time>
      </trkpt>
      <trkpt lat="50.488897" lon="6.641128">
        <ele>466.456879</ele>
        <time>2024-03-23T08:08:35.821Z</time>
      </trkpt>
      <trkpt lat="50.488878" lon="6.641349">
        <ele>466.758374</ele>
        <time>2024-03-23T08:08:51.010Z</time>
      </trkpt>
      <trkpt lat="50.488862" lon="6.641655">
        <ele>467.173464</ele>
        <time>2024-03-23T08:09:12.641Z</time>
      </trkpt>
      <trkpt lat="50.488846" lon="6.641968">
        <ele>467.597987</ele>
        <time>2024-03-23T08:09:34.612Z</time>
      </trkpt>
      <trkpt lat="50.488980" lon="6.642982">
        <ele>468.703736</ele>
        <time>2024-03-23T08:10:46.490Z</time>
      </trkpt>
      <trkpt lat="50.489107" lon="6.643673">
        <ele>469.051986</ele>
        <time>2024-03-23T08:11:35.411Z</time>
      </trkpt>
      <trkpt lat="50.489196" lon="6.644159">
        <ele>469.296851</ele>
        <time>2024-03-23T08:12:08.576Z</time>
      </trkpt>
      <trkpt lat="50.489127" lon="6.645121">
        <ele>469.765583</ele>
        <time>2024-03-23T08:13:10.260Z</time>
      </trkpt>
      <trkpt lat="50.489103" lon="6.645917">
        <ele>469.409160</ele>
        <time>2024-03-23T08:14:02.188Z</time>
      </trkpt>
      <trkpt lat="50.489110" lon="6.646060">
        <ele>469.266604</ele>
        <time>2024-03-23T08:14:11.715Z</time>
      </trkpt>
      <trkpt lat="50.489129" lon="6.646463">
        <ele>468.864940</ele>
        <time>2024-03-23T08:14:38.446Z</time>
      </trkpt>
      <trkpt lat="50.489028" lon="6.646982">
        <ele>468.325482</ele>
        <time>2024-03-23T08:15:14.561Z</time>
      </trkpt>
      <trkpt lat="50.488979" lon="6.647187">
        <ele>468.107815</ele>
        <time>2024-03-23T08:15:29.137Z</time>
      </trkpt>
      <trkpt lat="50.488789" lon="6.647966">
        <ele>467.278570</ele>
        <time>2024-03-23T08:16:24.189Z</time>
      </trkpt>
      <trkpt lat="50.488712" lon="6.648231">
        <ele>467.056685</ele>
        <time>2024-03-23T08:16:43.276Z</time>
      </trkpt>
      <trkpt lat="50.488625" lon="6.648420">
        <ele>466.968390</ele>
        <time>2024-03-23T08:16:58.531Z</time>
      </trkpt>
      <trkpt lat="50.488341" lon="6.648814">
        <ele>466.743038</ele>
        <time>2024-03-23T08:17:37.309Z</time>
      </trkpt>
      <trkpt lat="50.488283" lon="6.648913">
        <ele>466.692101</ele>
        <time>2024-03-23T08:17:46.004Z</time>
      </trkpt>
      <trkpt lat="50.488193" lon="6.649066">
        <ele>466.613232</ele>
        <time>2024-03-23T08:17:59.661Z</time>
      </trkpt>
      <trkpt lat="50.487726" lon="6.649679">
        <ele>466.251271</ele>
        <time>2024-03-23T08:19:01.115Z</time>
      </trkpt>
      <trkpt lat="50.487495" lon="6.649885">
        <ele>466.093270</ele>
        <time>2024-03-23T08:19:27.937Z</time>
      </trkpt>
      <trkpt lat="50.487268" lon="6.650173">
        <ele>466.291158</ele>
        <time>2024-03-23T08:19:57.839Z</time>
      </trkpt>
      <trkpt lat="50.487184" lon="6.650311">
        <ele>466.466166</ele>
        <time>2024-03-23T08:20:10.389Z</time>
      </trkpt>
      <trkpt lat="50.487021" lon="6.650735">
        <ele>466.920118</ele>
        <time>2024-03-23T08:20:42.894Z</time>
      </trkpt>
      <trkpt lat="50.486859" lon="6.651134">
        <ele>467.353849</ele>
        <time>2024-03-23T08:21:14.261Z</time>
      </trkpt>
      <trkpt lat="50.486790" lon="6.651247">
        <ele>467.497369</ele>
        <time>2024-03-23T08:21:24.743Z</time>
      </trkpt>
      <trkpt lat="50.486718" lon="6.651319">
        <ele>467.620277</ele>
        <time>2024-03-23T08:21:33.674Z</time>
      </trkpt>
      <trkpt lat="50.486239" lon="6.651803">
        <ele>468.440426</ele>
        <time>2024-03-23T08:22:34.823Z</time>
      </trkpt>
      <trkpt lat="50.485939" lon="6.651882">
        <ele>469.032792</ele>
        <time>2024-03-23T08:23:08.084Z</time>
      </trkpt>
      <trkpt lat="50.485824" lon="6.651971">
        <ele>469.327066</ele>
        <time>2024-03-23T08:23:22.007Z</time>
      </trkpt>
      <trkpt lat="50.485730" lon="6.652084">
        <ele>469.598745</ele>
        <time>2024-03-23T08:23:35.186Z</time>
      </trkpt>
      <trkpt lat="50.485577" lon="6.652439">
        <ele>470.225043</ele>
        <time>2024-03-23T08:24:05.059Z</time>
      </trkpt>
      <trkpt lat="50.485552" lon="6.652742">
        <ele>470.671332</ele>
        <time>2024-03-23T08:24:26.247Z</time>
      </trkpt>
      <trkpt lat="50.485584" lon="6.653093">
        <ele>471.189264</ele>
        <time>2024-03-23T08:24:50.615Z</time>
      </trkpt>
      <trkpt lat="50.485625" lon="6.653242">
        <ele>471.426384</ele>
        <time>2024-03-23T08:25:01.790Z</time>
      </trkpt>
      <trkpt lat="50.485803" lon="6.653878">
        <ele>472.441268</ele>
        <time>2024-03-23T08:25:49.263Z</time>
      </trkpt>
      <trkpt lat="50.485948" lon="6.655035">
        <ele>473.639073</ele>
        <time>2024-03-23T08:27:09.707Z</time>
      </trkpt>
      <trkpt lat="50.485874" lon="6.655787">
        <ele>474.338685</ele>
        <time>2024-03-23T08:28:00.468Z</time>
      </trkpt>
      <trkpt lat="50.485534" lon="6.656941">
        <ele>475.479987</ele>
        <time>2024-03-23T08:29:23.939Z</time>
      </trkpt>
      <trkpt lat="50.485518" lon="6.656996">
        <ele>475.525946</ele>
        <time>2024-03-23T08:29:27.882Z</time>
      </trkpt>
      <trkpt lat="50.485068" lon="6.659994">
        <ele>477.604454</ele>
        <time>2024-03-23T08:32:52.817Z</time>
      </trkpt>
      <trkpt lat="50.484999" lon="6.660600">
        <ele>477.742028</ele>
        <time>2024-03-23T08:33:33.754Z</time>
      </trkpt>
      <trkpt lat="50.485182" lon="6.660576">
        <ele>477.806523</ele>
        <time>2024-03-23T08:33:52.500Z</time>
      </trkpt>
      <trkpt lat="50.485220" lon="6.660572">
        <ele>477.819899</ele>
        <time>2024-03-23T08:33:56.357Z</time>
      </trkpt>
      <trkpt lat="50.485425" lon="6.660636">
        <ele>477.893304</ele>
        <time>2024-03-23T08:34:17.481Z</time>
      </trkpt>
      <trkpt lat="50.485443" lon="6.660569">
        <ele>477.909556</ele>
        <time>2024-03-23T08:34:22.234Z</time>
      </trkpt>
      <trkpt lat="50.485519" lon="6.660336">
        <ele>477.968067</ele>
        <time>2024-03-23T08:34:39.334Z</time>
      </trkpt>
      <trkpt lat="50.485520" lon="6.660336">
        <ele>477.968418</ele>
        <time>2024-03-23T08:34:39.356Z</time>
      </trkpt>
      <trkpt lat="50.485519" lon="6.660252">
        <ele>477.987192</ele>
        <time>2024-03-23T08:34:44.768Z</time>
      </trkpt>
      <trkpt lat="50.485438" lon="6.659997">
        <ele>478.050883</ele>
        <time>2024-03-23T08:35:03.017Z</time>
      </trkpt>
      <trkpt lat="50.485351" lon="6.660040">
        <ele>478.082913</ele>
        <time>2024-03-23T08:35:12.402Z</time>
      </trkpt>
      <trkpt lat="50.485377" lon="6.660192">
        <ele>478.118086</ele>
        <time>2024-03-23T08:35:22.460Z</time>
      </trkpt>
      <trkpt lat="50.485340" lon="6.660244">
        <ele>478.121900</ele>
        <time>2024-03-23T08:35:27.641Z</time>
      </trkpt>
      <trkpt lat="50.485294" lon="6.660398">
        <ele>478.100055</ele>
        <time>2024-03-23T08:35:38.580Z</time>
      </trkpt>
      <trkpt lat="50.485394" lon="6.660527">
        <ele>478.073946</ele>
        <time>2024-03-23T08:35:51.806Z</time>
      </trkpt>
      <trkpt lat="50.485418" lon="6.660559">
        <ele>478.067594</ele>
        <time>2024-03-23T08:35:54.999Z</time>
      </trkpt>
      <trkpt lat="50.485443" lon="6.660569">
        <ele>478.062388</ele>
        <time>2024-03-23T08:35:57.600Z</time>
      </trkpt>
      <trkpt lat="50.485425" lon="6.660636">
        <ele>478.053050</ele>
        <time>2024-03-23T08:36:02.450Z</time>
      </trkpt>
      <trkpt lat="50.485220" lon="6.660572">
        <ele>478.010870</ele>
        <time>2024-03-23T08:36:23.449Z</time>
      </trkpt>
      <trkpt lat="50.485182" lon="6.660576">
        <ele>478.003184</ele>
        <time>2024-03-23T08:36:27.258Z</time>
      </trkpt>
      <trkpt lat="50.484999" lon="6.660600">
        <ele>477.966124</ele>
        <time>2024-03-23T08:36:46.506Z</time>
      </trkpt>
      <trkpt lat="50.484843" lon="6.660608">
        <ele>477.934625</ele>
        <time>2024-03-23T08:37:02.171Z</time>
      </trkpt>
      <trkpt lat="50.484598" lon="6.660555">
        <ele>477.884715</ele>
        <time>2024-03-23T08:37:26.894Z</time>
      </trkpt>
      <trkpt lat="50.484497" lon="6.660490">
        <ele>477.862689</ele>
        <time>2024-03-23T08:37:37.887Z</time>
      </trkpt>
      <trkpt lat="50.484455" lon="6.660463">
        <ele>477.853532</ele>
        <time>2024-03-23T08:37:42.606Z</time>
      </trkpt>
      <trkpt lat="50.484372" lon="6.660412">
        <ele>477.835547</ele>
        <time>2024-03-23T08:37:51.720Z</time>
      </trkpt>
      <trkpt lat="50.483910" lon="6.660100">
        <ele>477.738033</ele>
        <time>2024-03-23T08:38:42.814Z</time>
      </trkpt>
      <trkpt lat="50.483804" lon="6.659956">
        <ele>477.713519</ele>
        <time>2024-03-23T08:38:57.026Z</time>
      </trkpt>
      <trkpt lat="50.483696" lon="6.659728">
        <ele>477.681875</ele>
        <time>2024-03-23T08:39:15.291Z</time>
      </trkpt>
      <trkpt lat="50.483675" lon="6.659511">
        <ele>477.657439</ele>
        <time>2024-03-23T08:39:29.456Z</time>
      </trkpt>
      <trkpt lat="50.483795" lon="6.658987">
        <ele>477.595440</ele>
        <time>2024-03-23T08:40:05.684Z</time>
      </trkpt>
      <trkpt lat="50.484176" lon="6.657335">
        <ele>477.050408</ele>
        <time>2024-03-23T08:41:57.695Z</time>
      </trkpt>
      <trkpt lat="50.484277" lon="6.657083">
        <ele>476.782595</ele>
        <time>2024-03-23T08:42:17.282Z</time>
      </trkpt>
      <trkpt lat="50.484859" lon="6.655622">
        <ele>475.232600</ele>
        <time>2024-03-23T08:44:11.401Z</time>
      </trkpt>
      <trkpt lat="50.484920" lon="6.655469">
        <ele>475.070243</ele>
        <time>2024-03-23T08:44:23.303Z</time>
      </trkpt>
      <trkpt lat="50.485095" lon="6.654452">
        <ele>474.237633</ele>
        <time>2024-03-23T08:45:32.442Z</time>
      </trkpt>
      <trkpt lat="50.485090" lon="6.654203">
        <ele>474.046387</ele>
        <time>2024-03-23T08:45:48.645Z</time>
      </trkpt>
      <trkpt lat="50.485071" lon="6.653979">
        <ele>473.872906</ele>
        <time>2024-03-23T08:46:03.564Z</time>
      </trkpt>
      <trkpt lat="50.484994" lon="6.653778">
        <ele>473.692796</ele>
        <time>2024-03-23T08:46:18.821Z</time>
      </trkpt>
      <trkpt lat="50.484477" lon="6.652712">
        <ele>472.687116</ele>
        <time>2024-03-23T08:47:45.963Z</time>
      </trkpt>
      <trkpt lat="50.484521" lon="6.652538">
        <ele>472.588991</ele>
        <time>2024-03-23T08:47:58.183Z</time>
      </trkpt>
      <trkpt lat="50.485123" lon="6.651025">
        <ele>471.653817</ele>
        <time>2024-03-23T08:49:53.242Z</time>
      </trkpt>
      <trkpt lat="50.486158" lon="6.649359">
        <ele>470.338030</ele>
        <time>2024-03-23T08:52:24.717Z</time>
      </trkpt>
      <trkpt lat="50.487378" lon="6.647744">
        <ele>469.603520</ele>
        <time>2024-03-23T08:55:06.905Z</time>
      </trkpt>
      <trkpt lat="50.487539" lon="6.647412">
        <ele>469.603967</ele>
        <time>2024-03-23T08:55:33.863Z</time>
      </trkpt>
      <trkpt lat="50.487655" lon="6.646942">
        <ele>469.604507</ele>
        <time>2024-03-23T08:56:07.212Z</time>
      </trkpt>
      <trkpt lat="50.487667" lon="6.646810">
        <ele>469.604650</ele>
        <time>2024-03-23T08:56:16.117Z</time>
      </trkpt>
      <trkpt lat="50.487676" lon="6.646712">
        <ele>469.604756</ele>
        <time>2024-03-23T08:56:22.517Z</time>
      </trkpt>
      <trkpt lat="50.487535" lon="6.645205">
        <ele>469.119916</ele>
        <time>2024-03-23T08:58:00.394Z</time>
      </trkpt>
      <trkpt lat="50.487586" lon="6.644592">
        <ele>468.846971</ele>
        <time>2024-03-23T08:58:40.141Z</time>
      </trkpt>
      <trkpt lat="50.487839" lon="6.643164">
        <ele>467.845884</ele>
        <time>2024-03-23T09:00:17.767Z</time>
      </trkpt>
      <trkpt lat="50.488109" lon="6.641121">
        <ele>464.984343</ele>
        <time>2024-03-23T09:02:38.338Z</time>
      </trkpt>
      <trkpt lat="50.488263" lon="6.640251">
        <ele>464.847214</ele>
        <time>2024-03-23T09:03:37.094Z</time>
      </trkpt>
      <trkpt lat="50.488271" lon="6.639878">
        <ele>465.103020</ele>
        <time>2024-03-23T09:04:00.955Z</time>
      </trkpt>
      <trkpt lat="50.488242" lon="6.639577">
        <ele>465.311683</ele>
        <time>2024-03-23T09:04:20.848Z</time>
      </trkpt>
      <trkpt lat="50.488231" lon="6.639466">
        <ele>465.388682</ele>
        <time>2024-03-23T09:04:28.278Z</time>
      </trkpt>
      <trkpt lat="50.488126" lon="6.639029">
        <ele>465.708858</ele>
        <time>2024-03-23T09:04:59.874Z</time>
      </trkpt>
      <trkpt lat="50.487777" lon="6.638161">
        <ele>466.412650</ele>
        <time>2024-03-23T09:06:11.760Z</time>
      </trkpt>
      <trkpt lat="50.487450" lon="6.637211">
        <ele>467.447397</ele>
        <time>2024-03-23T09:07:27.189Z</time>
      </trkpt>
      <trkpt lat="50.487387" lon="6.636918">
        <ele>467.744289</ele>
        <time>2024-03-23T09:07:48.537Z</time>
      </trkpt>
      <trkpt lat="50.487357" lon="6.636602">
        <ele>468.050991</ele>
        <time>2024-03-23T09:08:10.264Z</time>
      </trkpt>
      <trkpt lat="50.487369" lon="6.636253">
        <ele>468.386502</ele>
        <time>2024-03-23T09:08:33.625Z</time>
      </trkpt>
      <trkpt lat="50.487436" lon="6.635943">
        <ele>468.700787</ele>
        <time>2024-03-23T09:08:55.056Z</time>
      </trkpt>
      <trkpt lat="50.487541" lon="6.635693">
        <ele>468.988347</ele>
        <time>2024-03-23T09:09:14.146Z</time>
      </trkpt>
      <trkpt lat="50.487693" lon="6.635419">
        <ele>468.814253</ele>
        <time>2024-03-23T09:09:37.578Z</time>
      </trkpt>
      <trkpt lat="50.488184" lon="6.634832">
        <ele>467.378078</ele>
        <time>2024-03-23T09:10:41.666Z</time>
      </trkpt>
      <trkpt lat="50.488275" lon="6.634753">
        <ele>467.136057</ele>
        <time>2024-03-23T09:10:52.641Z</time>
      </trkpt>
      <trkpt lat="50.488349" lon="6.634689">
        <ele>466.939422</ele>
        <time>2024-03-23T09:11:01.616Z</time>
      </trkpt>
      <trkpt lat="50.488509" lon="6.634609">
        <ele>466.548539</ele>
        <time>2024-03-23T09:11:19.451Z</time>
      </trkpt>
      <trkpt lat="50.489177" lon="6.634375">
        <ele>464.955242</ele>
        <time>2024-03-23T09:12:32.807Z</time>
      </trkpt>
      <trkpt lat="50.489354" lon="6.634353">
        <ele>464.431962</ele>
        <time>2024-03-23T09:12:51.843Z</time>
      </trkpt>
      <trkpt lat="50.489513" lon="6.634415">
        <ele>463.946392</ele>
        <time>2024-03-23T09:13:09.308Z</time>
      </trkpt>
      <trkpt lat="50.489891" lon="6.634467">
        <ele>462.821699</ele>
        <time>2024-03-23T09:13:49.776Z</time>
      </trkpt>
      <trkpt lat="50.490134" lon="6.634565">
        <ele>462.078105</ele>
        <time>2024-03-23T09:14:16.431Z</time>
      </trkpt>
      <trkpt lat="50.490313" lon="6.634563">
        <ele>461.547527</ele>
        <time>2024-03-23T09:14:35.301Z</time>
      </trkpt>
      <trkpt lat="50.490557" lon="6.634521">
        <ele>460.819975</ele>
        <time>2024-03-23T09:15:01.192Z</time>
      </trkpt>
      <trkpt lat="50.490894" lon="6.634601">
        <ele>459.809763</ele>
        <time>2024-03-23T09:15:37.042Z</time>
      </trkpt>
      <trkpt lat="50.491238" lon="6.634629">
        <ele>458.826487</ele>
        <time>2024-03-23T09:16:13.487Z</time>
      </trkpt>
      <trkpt lat="50.491576" lon="6.634526">
        <ele>457.852689</ele>
        <time>2024-03-23T09:16:50.058Z</time>
      </trkpt>
      <trkpt lat="50.491760" lon="6.634373">
        <ele>457.263930</ele>
        <time>2024-03-23T09:17:12.133Z</time>
      </trkpt>
      <trkpt lat="50.491826" lon="6.634707">
        <ele>456.634609</ele>
        <time>2024-03-23T09:17:35.821Z</time>
      </trkpt>
      <trkpt lat="50.492034" lon="6.634760">
        <ele>456.038623</ele>
        <time>2024-03-23T09:17:58.230Z</time>
      </trkpt>
      <trkpt lat="50.493204" lon="6.635057">
        <ele>453.147974</ele>
        <time>2024-03-23T09:20:03.518Z</time>
      </trkpt>
      <trkpt lat="50.493395" lon="6.635054">
        <ele>452.743270</ele>
        <time>2024-03-23T09:20:23.529Z</time>
      </trkpt>
      <trkpt lat="50.493416" lon="6.635082">
        <ele>452.684925</ele>
        <time>2024-03-23T09:20:26.385Z</time>
      </trkpt>
      <trkpt lat="50.493519" lon="6.635216">
        <ele>452.401644</ele>
        <time>2024-03-23T09:20:40.357Z</time>
      </trkpt>
      <trkpt lat="50.493626" lon="6.635339">
        <ele>452.120783</ele>
        <time>2024-03-23T09:20:54.196Z</time>
      </trkpt>
      <trkpt lat="50.493832" lon="6.635563">
        <ele>451.590065</ele>
        <time>2024-03-23T09:21:20.214Z</time>
      </trkpt>
      <trkpt lat="50.493997" lon="6.635169">
        <ele>450.954262</ele>
        <time>2024-03-23T09:21:51.345Z</time>
      </trkpt>
      <trkpt lat="50.494081" lon="6.634906">
        <ele>450.714835</ele>
        <time>2024-03-23T09:22:10.582Z</time>
      </trkpt>
      <trkpt lat="50.494356" lon="6.634042">
        <ele>450.714835</ele>
        <time>2024-03-23T09:23:13.319Z</time>
      </trkpt>
      <trkpt lat="50.494402" lon="6.633896">
        <ele>450.714835</ele>
        <time>2024-03-23T09:23:23.841Z</time>
      </trkpt>
      <trkpt lat="50.494436" lon="6.633811">
        <ele>450.714835</ele>
        <time>2024-03-23T09:23:30.302Z</time>
      </trkpt>
      <trkpt lat="50.494503" lon="6.633736">
        <ele>450.714835</ele>
        <time>2024-03-23T09:23:38.682Z</time>
      </trkpt>
      <trkpt lat="50.494384" lon="6.633372">
        <ele>450.714835</ele>
        <time>2024-03-23T09:24:05.166Z</time>
      </trkpt>
      <trkpt lat="50.494365" lon="6.633331">
        <ele>450.714835</ele>
        <time>2024-03-23T09:24:08.472Z</time>
      </trkpt>
      <trkpt lat="50.494177" lon="6.632935">
        <ele>450.714835</ele>
        <time>2024-03-23T09:24:40.287Z</time>
      </trkpt>
      <trkpt lat="50.494333" lon="6.632845">
        <ele>450.714835</ele>
        <time>2024-03-23T09:24:57.114Z</time>
      </trkpt>
      <trkpt lat="50.494392" lon="6.632782">
        <ele>450.714835</ele>
        <time>2024-03-23T09:25:04.358Z</time>
      </trkpt>
    </trkseg>
  </trk>
</gpx>