<?xml version='1.0' encoding='UTF-8'?>
<gpx version="1.1" creator="https://www.komoot.de" xmlns="http://www.topografix.com/GPX/1/1" xmlns:xsi="http://www.w3.org/2001/XMLSchema-instance" xsi:schemaLocation="http://www.topografix.com/GPX/1/1 http://www.topografix.com/GPX/1/1/gpx.xsd">
  <metadata>
    <name>DVV PW 41 NRW " Runde um Giersberg und Wehnsberg</name>
    <author>
      <link href="https://www.komoot.de">
        <text>komoot</text>
        <type>text/html</type>
      </link>
    </author>
  </metadata>
  <trk>
    <name>DVV PW 41 NRW " Runde um Giersberg und Wehnsberg</name>
    <trkseg>
      <trkpt lat="50.564295" lon="6.764505">
        <ele>272.321748</ele>
        <time>2022-03-08T16:29:26.967Z</time>
      </trkpt>
      <trkpt lat="50.564295" lon="6.764505">
        <ele>272.321748</ele>
        <time>2022-03-08T16:29:27.077Z</time>
      </trkpt>
      <trkpt lat="50.564275" lon="6.764598">
        <ele>272.321748</ele>
        <time>2022-03-08T16:29:33.384Z</time>
      </trkpt>
      <trkpt lat="50.564258" lon="6.764642">
        <ele>272.321748</ele>
        <time>2022-03-08T16:29:36.880Z</time>
      </trkpt>
      <trkpt lat="50.564046" lon="6.764738">
        <ele>272.321748</ele>
        <time>2022-03-08T16:29:59.878Z</time>
      </trkpt>
      <trkpt lat="50.564012" lon="6.764745">
        <ele>272.321748</ele>
        <time>2022-03-08T16:30:03.561Z</time>
      </trkpt>
      <trkpt lat="50.563625" lon="6.764595">
        <ele>272.321748</ele>
        <time>2022-03-08T16:30:47.032Z</time>
      </trkpt>
      <trkpt lat="50.563546" lon="6.764615">
        <ele>272.321748</ele>
        <time>2022-03-08T16:30:56.626Z</time>
      </trkpt>
      <trkpt lat="50.563345" lon="6.764666">
        <ele>273.354790</ele>
        <time>2022-03-08T16:31:20.498Z</time>
      </trkpt>
      <trkpt lat="50.563317" lon="6.764692">
        <ele>273.607645</ele>
        <time>2022-03-08T16:31:24.395Z</time>
      </trkpt>
      <trkpt lat="50.563259" lon="6.764706">
        <ele>274.064055</ele>
        <time>2022-03-08T16:31:31.501Z</time>
      </trkpt>
      <trkpt lat="50.563002" lon="6.764769">
        <ele>276.087150</ele>
        <time>2022-03-08T16:32:02.963Z</time>
      </trkpt>
      <trkpt lat="50.562851" lon="6.764756">
        <ele>277.263417</ele>
        <time>2022-03-08T16:32:21.666Z</time>
      </trkpt>
      <trkpt lat="50.562827" lon="6.764741">
        <ele>277.464269</ele>
        <time>2022-03-08T16:32:24.852Z</time>
      </trkpt>
      <trkpt lat="50.562805" lon="6.764726">
        <ele>277.650751</ele>
        <time>2022-03-08T16:32:28.028Z</time>
      </trkpt>
      <trkpt lat="50.562804" lon="6.764725">
        <ele>277.659966</ele>
        <time>2022-03-08T16:32:28.258Z</time>
      </trkpt>
      <trkpt lat="50.562805" lon="6.764726">
        <ele>277.669181</ele>
        <time>2022-03-08T16:32:28.382Z</time>
      </trkpt>
      <trkpt lat="50.562827" lon="6.764741">
        <ele>277.855662</ele>
        <time>2022-03-08T16:32:31.461Z</time>
      </trkpt>
      <trkpt lat="50.562808" lon="6.764871">
        <ele>278.514771</ele>
        <time>2022-03-08T16:32:47.365Z</time>
      </trkpt>
      <trkpt lat="50.562755" lon="6.765255">
        <ele>280.456378</ele>
        <time>2022-03-08T16:33:17.825Z</time>
      </trkpt>
      <trkpt lat="50.562743" lon="6.765342">
        <ele>280.896260</ele>
        <time>2022-03-08T16:33:26.457Z</time>
      </trkpt>
      <trkpt lat="50.562739" lon="6.765373">
        <ele>281.052559</ele>
        <time>2022-03-08T16:33:30.373Z</time>
      </trkpt>
      <trkpt lat="50.562774" lon="6.765387">
        <ele>281.333447</ele>
        <time>2022-03-08T16:33:37.094Z</time>
      </trkpt>
      <trkpt lat="50.562816" lon="6.765439">
        <ele>281.749064</ele>
        <time>2022-03-08T16:33:43.084Z</time>
      </trkpt>
      <trkpt lat="50.562820" lon="6.765470">
        <ele>281.905362</ele>
        <time>2022-03-08T16:33:45.426Z</time>
      </trkpt>
      <trkpt lat="50.563058" lon="6.765699">
        <ele>284.074984</ele>
        <time>2022-03-08T16:34:23.073Z</time>
      </trkpt>
      <trkpt lat="50.563585" lon="6.766243">
        <ele>287.896583</ele>
        <time>2022-03-08T16:35:42.066Z</time>
      </trkpt>
      <trkpt lat="50.563665" lon="6.766337">
        <ele>288.358308</ele>
        <time>2022-03-08T16:35:59.763Z</time>
      </trkpt>
      <trkpt lat="50.563671" lon="6.766346">
        <ele>288.396640</ele>
        <time>2022-03-08T16:36:04.833Z</time>
      </trkpt>
      <trkpt lat="50.563665" lon="6.766337">
        <ele>288.434973</ele>
        <time>2022-03-08T16:36:08.244Z</time>
      </trkpt>
      <trkpt lat="50.564105" lon="6.766356">
        <ele>290.470854</ele>
        <time>2022-03-08T16:37:01.880Z</time>
      </trkpt>
      <trkpt lat="50.564884" lon="6.766466">
        <ele>294.088400</ele>
        <time>2022-03-08T16:38:27.964Z</time>
      </trkpt>
      <trkpt lat="50.565114" lon="6.766414">
        <ele>294.148673</ele>
        <time>2022-03-08T16:38:52.370Z</time>
      </trkpt>
      <trkpt lat="50.565526" lon="6.766113">
        <ele>292.242929</ele>
        <time>2022-03-08T16:39:41.647Z</time>
      </trkpt>
      <trkpt lat="50.566395" lon="6.765935">
        <ele>288.566041</ele>
        <time>2022-03-08T16:41:19.856Z</time>
      </trkpt>
      <trkpt lat="50.566635" lon="6.765974">
        <ele>287.553697</ele>
        <time>2022-03-08T16:41:46.542Z</time>
      </trkpt>
      <trkpt lat="50.566934" lon="6.766255">
        <ele>286.519667</ele>
        <time>2022-03-08T16:42:25.529Z</time>
      </trkpt>
      <trkpt lat="50.567212" lon="6.766493">
        <ele>285.763603</ele>
        <time>2022-03-08T16:43:00.578Z</time>
      </trkpt>
      <trkpt lat="50.567246" lon="6.766506">
        <ele>285.680007</ele>
        <time>2022-03-08T16:43:04.261Z</time>
      </trkpt>
      <trkpt lat="50.567260" lon="6.766512">
        <ele>285.645340</ele>
        <time>2022-03-08T16:43:05.741Z</time>
      </trkpt>
      <trkpt lat="50.567281" lon="6.766512">
        <ele>285.595166</ele>
        <time>2022-03-08T16:43:07.969Z</time>
      </trkpt>
      <trkpt lat="50.567321" lon="6.766484">
        <ele>285.490575</ele>
        <time>2022-03-08T16:43:13.095Z</time>
      </trkpt>
      <trkpt lat="50.567407" lon="6.766281">
        <ele>285.120269</ele>
        <time>2022-03-08T16:43:29.605Z</time>
      </trkpt>
      <trkpt lat="50.567441" lon="6.766036">
        <ele>284.739691</ele>
        <time>2022-03-08T16:43:45.873Z</time>
      </trkpt>
      <trkpt lat="50.567568" lon="6.765945">
        <ele>284.406308</ele>
        <time>2022-03-08T16:44:01.086Z</time>
      </trkpt>
      <trkpt lat="50.567761" lon="6.765948">
        <ele>283.945160</ele>
        <time>2022-03-08T16:44:20.387Z</time>
      </trkpt>
      <trkpt lat="50.567989" lon="6.765953">
        <ele>283.400358</ele>
        <time>2022-03-08T16:44:43.678Z</time>
      </trkpt>
      <trkpt lat="50.568082" lon="6.766013">
        <ele>283.160225</ele>
        <time>2022-03-08T16:44:54.688Z</time>
      </trkpt>
      <trkpt lat="50.567629" lon="6.766074">
        <ele>283.871231</ele>
        <time>2022-03-08T16:45:42.395Z</time>
      </trkpt>
      <trkpt lat="50.567544" lon="6.766116">
        <ele>284.194857</ele>
        <time>2022-03-08T16:45:51.564Z</time>
      </trkpt>
      <trkpt lat="50.567513" lon="6.766132">
        <ele>284.313366</ele>
        <time>2022-03-08T16:45:54.919Z</time>
      </trkpt>
      <trkpt lat="50.567478" lon="6.766287">
        <ele>284.692934</ele>
        <time>2022-03-08T16:46:06.622Z</time>
      </trkpt>
      <trkpt lat="50.567449" lon="6.766447">
        <ele>285.076847</ele>
        <time>2022-03-08T16:46:19.295Z</time>
      </trkpt>
      <trkpt lat="50.567397" lon="6.766703">
        <ele>285.697000</ele>
        <time>2022-03-08T16:46:37.473Z</time>
      </trkpt>
      <trkpt lat="50.567397" lon="6.766704">
        <ele>285.699307</ele>
        <time>2022-03-08T16:46:37.662Z</time>
      </trkpt>
      <trkpt lat="50.567291" lon="6.767108">
        <ele>286.707881</ele>
        <time>2022-03-08T16:47:10.328Z</time>
      </trkpt>
      <trkpt lat="50.567277" lon="6.767246">
        <ele>287.030333</ele>
        <time>2022-03-08T16:47:20.159Z</time>
      </trkpt>
      <trkpt lat="50.567272" lon="6.767401">
        <ele>287.388435</ele>
        <time>2022-03-08T16:47:31.757Z</time>
      </trkpt>
      <trkpt lat="50.567271" lon="6.767424">
        <ele>287.441628</ele>
        <time>2022-03-08T16:47:34.117Z</time>
      </trkpt>
      <trkpt lat="50.567420" lon="6.769053">
        <ele>291.603314</ele>
        <time>2022-03-08T16:49:37.690Z</time>
      </trkpt>
      <trkpt lat="50.567432" lon="6.769166">
        <ele>291.917858</ele>
        <time>2022-03-08T16:49:46.890Z</time>
      </trkpt>
      <trkpt lat="50.567465" lon="6.769560">
        <ele>293.008938</ele>
        <time>2022-03-08T16:50:15.486Z</time>
      </trkpt>
      <trkpt lat="50.567593" lon="6.770474">
        <ele>295.578564</ele>
        <time>2022-03-08T16:51:22.940Z</time>
      </trkpt>
      <trkpt lat="50.568037" lon="6.771827">
        <ele>299.177328</ele>
        <time>2022-03-08T16:53:11.754Z</time>
      </trkpt>
      <trkpt lat="50.568616" lon="6.772537">
        <ele>301.656216</ele>
        <time>2022-03-08T16:54:33.122Z</time>
      </trkpt>
      <trkpt lat="50.569530" lon="6.773396">
        <ele>305.591786</ele>
        <time>2022-03-08T16:56:32.633Z</time>
      </trkpt>
      <trkpt lat="50.569644" lon="6.773513">
        <ele>306.126562</ele>
        <time>2022-03-08T16:56:47.638Z</time>
      </trkpt>
      <trkpt lat="50.569676" lon="6.773546">
        <ele>306.276891</ele>
        <time>2022-03-08T16:56:52.005Z</time>
      </trkpt>
      <trkpt lat="50.569837" lon="6.773769">
        <ele>307.119577</ele>
        <time>2022-03-08T16:57:16.869Z</time>
      </trkpt>
      <trkpt lat="50.570217" lon="6.774260">
        <ele>309.051401</ele>
        <time>2022-03-08T16:58:12.835Z</time>
      </trkpt>
      <trkpt lat="50.570268" lon="6.774340">
        <ele>309.334313</ele>
        <time>2022-03-08T16:58:21.309Z</time>
      </trkpt>
      <trkpt lat="50.570310" lon="6.774409">
        <ele>309.572855</ele>
        <time>2022-03-08T16:58:28.728Z</time>
      </trkpt>
      <trkpt lat="50.570615" lon="6.774869">
        <ele>311.544186</ele>
        <time>2022-03-08T16:59:17.010Z</time>
      </trkpt>
      <trkpt lat="50.570986" lon="6.775592">
        <ele>314.591556</ele>
        <time>2022-03-08T17:00:26.622Z</time>
      </trkpt>
      <trkpt lat="50.571723" lon="6.777297">
        <ele>321.187640</ele>
        <time>2022-03-08T17:03:02.598Z</time>
      </trkpt>
      <trkpt lat="50.571768" lon="6.777400">
        <ele>321.560407</ele>
        <time>2022-03-08T17:03:12.508Z</time>
      </trkpt>
      <trkpt lat="50.571797" lon="6.777526">
        <ele>321.960014</ele>
        <time>2022-03-08T17:03:23.308Z</time>
      </trkpt>
      <trkpt lat="50.571817" lon="6.777594">
        <ele>322.183458</ele>
        <time>2022-03-08T17:03:28.596Z</time>
      </trkpt>
      <trkpt lat="50.571719" lon="6.777726">
        <ele>322.788930</ele>
        <time>2022-03-08T17:03:42.271Z</time>
      </trkpt>
      <trkpt lat="50.571563" lon="6.778201">
        <ele>324.383414</ele>
        <time>2022-03-08T17:04:21.566Z</time>
      </trkpt>
      <trkpt lat="50.571134" lon="6.779505">
        <ele>328.560007</ele>
        <time>2022-03-08T17:06:10.667Z</time>
      </trkpt>
      <trkpt lat="50.570744" lon="6.780287">
        <ele>330.769620</ele>
        <time>2022-03-08T17:07:19.039Z</time>
      </trkpt>
      <trkpt lat="50.570299" lon="6.780840">
        <ele>332.753263</ele>
        <time>2022-03-08T17:08:21.755Z</time>
      </trkpt>
      <trkpt lat="50.569668" lon="6.781467">
        <ele>336.016830</ele>
        <time>2022-03-08T17:09:47.091Z</time>
      </trkpt>
      <trkpt lat="50.569367" lon="6.781941">
        <ele>338.388343</ele>
        <time>2022-03-08T17:10:37.444Z</time>
      </trkpt>
      <trkpt lat="50.569213" lon="6.782462">
        <ele>340.421561</ele>
        <time>2022-03-08T17:11:21.174Z</time>
      </trkpt>
      <trkpt lat="50.568871" lon="6.783112">
        <ele>343.407980</ele>
        <time>2022-03-08T17:12:26.921Z</time>
      </trkpt>
      <trkpt lat="50.568542" lon="6.783473">
        <ele>345.719352</ele>
        <time>2022-03-08T17:13:16.204Z</time>
      </trkpt>
      <trkpt lat="50.567921" lon="6.784345">
        <ele>350.618556</ele>
        <time>2022-03-08T17:14:58.113Z</time>
      </trkpt>
      <trkpt lat="50.567779" lon="6.784506">
        <ele>351.648846</ele>
        <time>2022-03-08T17:15:20.136Z</time>
      </trkpt>
      <trkpt lat="50.567034" lon="6.785350">
        <ele>356.003139</ele>
        <time>2022-03-08T17:17:05.748Z</time>
      </trkpt>
      <trkpt lat="50.566954" lon="6.785546">
        <ele>356.455249</ele>
        <time>2022-03-08T17:17:23.168Z</time>
      </trkpt>
      <trkpt lat="50.566888" lon="6.785639">
        <ele>356.725857</ele>
        <time>2022-03-08T17:17:32.328Z</time>
      </trkpt>
      <trkpt lat="50.566290" lon="6.787575">
        <ele>361.043890</ele>
        <time>2022-03-08T17:20:00.898Z</time>
      </trkpt>
      <trkpt lat="50.566252" lon="6.788073">
        <ele>362.271597</ele>
        <time>2022-03-08T17:20:35.069Z</time>
      </trkpt>
      <trkpt lat="50.566240" lon="6.788867">
        <ele>364.215605</ele>
        <time>2022-03-08T17:21:31.262Z</time>
      </trkpt>
      <trkpt lat="50.566150" lon="6.791897">
        <ele>372.813661</ele>
        <time>2022-03-08T17:25:19.011Z</time>
      </trkpt>
      <trkpt lat="50.566157" lon="6.792376">
        <ele>374.303291</ele>
        <time>2022-03-08T17:25:54.729Z</time>
      </trkpt>
      <trkpt lat="50.566172" lon="6.792808">
        <ele>375.648406</ele>
        <time>2022-03-08T17:26:26.741Z</time>
      </trkpt>
      <trkpt lat="50.566232" lon="6.793206">
        <ele>376.640430</ele>
        <time>2022-03-08T17:26:56.650Z</time>
      </trkpt>
      <trkpt lat="50.567218" lon="6.795798">
        <ele>382.420732</ele>
        <time>2022-03-08T17:30:29.091Z</time>
      </trkpt>
      <trkpt lat="50.567565" lon="6.796931">
        <ele>383.871366</ele>
        <time>2022-03-08T17:31:53.949Z</time>
      </trkpt>
      <trkpt lat="50.569292" lon="6.801615">
        <ele>388.944680</ele>
        <time>2022-03-08T17:37:53.485Z</time>
      </trkpt>
      <trkpt lat="50.569560" lon="6.802353">
        <ele>389.862250</ele>
        <time>2022-03-08T17:38:51.272Z</time>
      </trkpt>
      <trkpt lat="50.569343" lon="6.802363">
        <ele>390.231175</ele>
        <time>2022-03-08T17:39:14.829Z</time>
      </trkpt>
      <trkpt lat="50.568857" lon="6.802386">
        <ele>391.273751</ele>
        <time>2022-03-08T17:40:07.531Z</time>
      </trkpt>
      <trkpt lat="50.567426" lon="6.804146">
        <ele>394.315509</ele>
        <time>2022-03-08T17:43:24.594Z</time>
      </trkpt>
      <trkpt lat="50.566542" lon="6.804717">
        <ele>393.819571</ele>
        <time>2022-03-08T17:45:00.921Z</time>
      </trkpt>
      <trkpt lat="50.564584" lon="6.806335">
        <ele>385.565295</ele>
        <time>2022-03-08T17:49:01.890Z</time>
      </trkpt>
      <trkpt lat="50.564303" lon="6.806562">
        <ele>383.858420</ele>
        <time>2022-03-08T17:49:38.081Z</time>
      </trkpt>
      <trkpt lat="50.563272" lon="6.807215">
        <ele>377.719378</ele>
        <time>2022-03-08T17:51:44.048Z</time>
      </trkpt>
      <trkpt lat="50.563060" lon="6.807244">
        <ele>376.543849</ele>
        <time>2022-03-08T17:52:07.984Z</time>
      </trkpt>
      <trkpt lat="50.563007" lon="6.807197">
        <ele>376.207812</ele>
        <time>2022-03-08T17:52:14.746Z</time>
      </trkpt>
      <trkpt lat="50.562998" lon="6.807190">
        <ele>376.152358</ele>
        <time>2022-03-08T17:52:15.898Z</time>
      </trkpt>
      <trkpt lat="50.562928" lon="6.806929">
        <ele>375.485398</ele>
        <time>2022-03-08T17:52:35.503Z</time>
      </trkpt>
      <trkpt lat="50.562964" lon="6.805902">
        <ele>375.912214</ele>
        <time>2022-03-08T17:53:41.163Z</time>
      </trkpt>
      <trkpt lat="50.562901" lon="6.805777">
        <ele>375.978428</ele>
        <time>2022-03-08T17:53:51.617Z</time>
      </trkpt>
      <trkpt lat="50.562787" lon="6.805769">
        <ele>376.052973</ele>
        <time>2022-03-08T17:54:03.762Z</time>
      </trkpt>
      <trkpt lat="50.562729" lon="6.805879">
        <ele>376.112295</ele>
        <time>2022-03-08T17:54:14.090Z</time>
      </trkpt>
      <trkpt lat="50.562692" lon="6.806679">
        <ele>376.445147</ele>
        <time>2022-03-08T17:55:08.368Z</time>
      </trkpt>
      <trkpt lat="50.562636" lon="6.806812">
        <ele>376.511360</ele>
        <time>2022-03-08T17:55:19.695Z</time>
      </trkpt>
      <trkpt lat="50.562544" lon="6.806926">
        <ele>376.587844</ele>
        <time>2022-03-08T17:55:34.528Z</time>
      </trkpt>
      <trkpt lat="50.562340" lon="6.806975">
        <ele>376.985180</ele>
        <time>2022-03-08T17:55:56.421Z</time>
      </trkpt>
      <trkpt lat="50.562212" lon="6.806883">
        <ele>377.326165</ele>
        <time>2022-03-08T17:56:13.219Z</time>
      </trkpt>
      <trkpt lat="50.561691" lon="6.806072">
        <ele>379.101732</ele>
        <time>2022-03-08T17:57:35.651Z</time>
      </trkpt>
      <trkpt lat="50.561554" lon="6.805755">
        <ele>379.691947</ele>
        <time>2022-03-08T17:58:01.256Z</time>
      </trkpt>
      <trkpt lat="50.561512" lon="6.805585">
        <ele>379.972741</ele>
        <time>2022-03-08T17:58:15.453Z</time>
      </trkpt>
      <trkpt lat="50.561494" lon="6.805714">
        <ele>380.176059</ele>
        <time>2022-03-08T17:58:24.526Z</time>
      </trkpt>
      <trkpt lat="50.561512" lon="6.805585">
        <ele>380.379376</ele>
        <time>2022-03-08T17:58:33.059Z</time>
      </trkpt>
      <trkpt lat="50.561460" lon="6.805381">
        <ele>380.717754</ele>
        <time>2022-03-08T17:58:47.059Z</time>
      </trkpt>
      <trkpt lat="50.561350" lon="6.803250">
        <ele>379.455683</ele>
        <time>2022-03-08T18:01:05.274Z</time>
      </trkpt>
      <trkpt lat="50.561300" lon="6.802964">
        <ele>379.224881</ele>
        <time>2022-03-08T18:01:25.236Z</time>
      </trkpt>
      <trkpt lat="50.561016" lon="6.802167">
        <ele>377.867321</ele>
        <time>2022-03-08T18:02:25.949Z</time>
      </trkpt>
      <trkpt lat="50.560015" lon="6.799865">
        <ele>369.875745</ele>
        <time>2022-03-08T18:05:39.071Z</time>
      </trkpt>
      <trkpt lat="50.559824" lon="6.799340">
        <ele>367.114586</ele>
        <time>2022-03-08T18:06:22.986Z</time>
      </trkpt>
      <trkpt lat="50.559745" lon="6.799136">
        <ele>366.024193</ele>
        <time>2022-03-08T18:06:40.597Z</time>
      </trkpt>
      <trkpt lat="50.559539" lon="6.798606">
        <ele>363.188475</ele>
        <time>2022-03-08T18:07:26.298Z</time>
      </trkpt>
      <trkpt lat="50.559619" lon="6.798485">
        <ele>362.391423</ele>
        <time>2022-03-08T18:07:39.496Z</time>
      </trkpt>
      <trkpt lat="50.560012" lon="6.798038">
        <ele>358.908107</ele>
        <time>2022-03-08T18:08:35.585Z</time>
      </trkpt>
      <trkpt lat="50.560122" lon="6.797914">
        <ele>358.018694</ele>
        <time>2022-03-08T18:08:51.518Z</time>
      </trkpt>
      <trkpt lat="50.560479" lon="6.797512">
        <ele>355.521554</ele>
        <time>2022-03-08T18:09:42.376Z</time>
      </trkpt>
      <trkpt lat="50.560542" lon="6.797201">
        <ele>354.341825</ele>
        <time>2022-03-08T18:10:05.505Z</time>
      </trkpt>
      <trkpt lat="50.560134" lon="6.795785">
        <ele>348.722526</ele>
        <time>2022-03-08T18:11:54.789Z</time>
      </trkpt>
      <trkpt lat="50.559943" lon="6.793999">
        <ele>345.525658</ele>
        <time>2022-03-08T18:13:56.052Z</time>
      </trkpt>
      <trkpt lat="50.559446" lon="6.792791">
        <ele>343.295635</ele>
        <time>2022-03-08T18:15:30.866Z</time>
      </trkpt>
      <trkpt lat="50.559466" lon="6.792296">
        <ele>342.578476</ele>
        <time>2022-03-08T18:16:03.548Z</time>
      </trkpt>
      <trkpt lat="50.559659" lon="6.791550">
        <ele>341.413833</ele>
        <time>2022-03-08T18:16:56.920Z</time>
      </trkpt>
      <trkpt lat="50.559731" lon="6.790721">
        <ele>340.204050</ele>
        <time>2022-03-08T18:17:52.755Z</time>
      </trkpt>
      <trkpt lat="50.560020" lon="6.789556">
        <ele>337.738610</ele>
        <time>2022-03-08T18:19:17.159Z</time>
      </trkpt>
      <trkpt lat="50.560045" lon="6.789207">
        <ele>336.943923</ele>
        <time>2022-03-08T18:19:41.060Z</time>
      </trkpt>
      <trkpt lat="50.560068" lon="6.788897">
        <ele>336.237718</ele>
        <time>2022-03-08T18:20:02.419Z</time>
      </trkpt>
      <trkpt lat="50.559939" lon="6.788043">
        <ele>334.251494</ele>
        <time>2022-03-08T18:21:02.692Z</time>
      </trkpt>
      <trkpt lat="50.559932" lon="6.786124">
        <ele>329.232883</ele>
        <time>2022-03-08T18:23:14.813Z</time>
      </trkpt>
      <trkpt lat="50.560178" lon="6.783909">
        <ele>323.334575</ele>
        <time>2022-03-08T18:25:51.156Z</time>
      </trkpt>
      <trkpt lat="50.560289" lon="6.783304">
        <ele>321.798136</ele>
        <time>2022-03-08T18:26:34.683Z</time>
      </trkpt>
      <trkpt lat="50.560294" lon="6.782906">
        <ele>320.826887</ele>
        <time>2022-03-08T18:27:02.073Z</time>
      </trkpt>
      <trkpt lat="50.560307" lon="6.782723">
        <ele>320.377612</ele>
        <time>2022-03-08T18:27:14.771Z</time>
      </trkpt>
      <trkpt lat="50.560490" lon="6.782112">
        <ele>318.729491</ele>
        <time>2022-03-08T18:28:00.665Z</time>
      </trkpt>
      <trkpt lat="50.560826" lon="6.781424">
        <ele>319.335716</ele>
        <time>2022-03-08T18:28:58.532Z</time>
      </trkpt>
      <trkpt lat="50.561018" lon="6.780674">
        <ele>320.206090</ele>
        <time>2022-03-08T18:29:53.119Z</time>
      </trkpt>
      <trkpt lat="50.561052" lon="6.780543">
        <ele>320.358411</ele>
        <time>2022-03-08T18:30:02.173Z</time>
      </trkpt>
      <trkpt lat="50.560886" lon="6.780432">
        <ele>320.664007</ele>
        <time>2022-03-08T18:30:22.399Z</time>
      </trkpt>
      <trkpt lat="50.560812" lon="6.780383">
        <ele>320.800034</ele>
        <time>2022-03-08T18:30:32.797Z</time>
      </trkpt>
      <trkpt lat="50.560345" lon="6.780075">
        <ele>322.069450</ele>
        <time>2022-03-08T18:31:30.415Z</time>
      </trkpt>
      <trkpt lat="50.560217" lon="6.780017">
        <ele>323.152247</ele>
        <time>2022-03-08T18:31:47.513Z</time>
      </trkpt>
      <trkpt lat="50.560148" lon="6.779999">
        <ele>323.720816</ele>
        <time>2022-03-08T18:31:57.119Z</time>
      </trkpt>
      <trkpt lat="50.560023" lon="6.779980">
        <ele>324.741699</ele>
        <time>2022-03-08T18:32:11.209Z</time>
      </trkpt>
      <trkpt lat="50.559684" lon="6.779914">
        <ele>327.518515</ele>
        <time>2022-03-08T18:32:54.716Z</time>
      </trkpt>
      <trkpt lat="50.559375" lon="6.779861">
        <ele>330.045324</ele>
        <time>2022-03-08T18:33:35.844Z</time>
      </trkpt>
      <trkpt lat="50.559092" lon="6.779840">
        <ele>332.348458</ele>
        <time>2022-03-08T18:34:13.211Z</time>
      </trkpt>
      <trkpt lat="50.558956" lon="6.779842">
        <ele>333.454085</ele>
        <time>2022-03-08T18:34:30.393Z</time>
      </trkpt>
      <trkpt lat="50.559033" lon="6.779916">
        <ele>334.187479</ele>
        <time>2022-03-08T18:34:42.436Z</time>
      </trkpt>
      <trkpt lat="50.559072" lon="6.779954">
        <ele>334.560343</ele>
        <time>2022-03-08T18:34:49.639Z</time>
      </trkpt>
      <trkpt lat="50.559386" lon="6.780238">
        <ele>337.572518</ele>
        <time>2022-03-08T18:35:37.848Z</time>
      </trkpt>
      <trkpt lat="50.559565" lon="6.780613">
        <ele>340.118876</ele>
        <time>2022-03-08T18:36:15.623Z</time>
      </trkpt>
      <trkpt lat="50.559571" lon="6.780994">
        <ele>342.187818</ele>
        <time>2022-03-08T18:36:46.642Z</time>
      </trkpt>
      <trkpt lat="50.559480" lon="6.781564">
        <ele>345.378353</ele>
        <time>2022-03-08T18:37:34.686Z</time>
      </trkpt>
      <trkpt lat="50.559089" lon="6.782400">
        <ele>351.013992</ele>
        <time>2022-03-08T18:38:59.783Z</time>
      </trkpt>
      <trkpt lat="50.559067" lon="6.782939">
        <ele>353.188269</ele>
        <time>2022-03-08T18:39:43.382Z</time>
      </trkpt>
      <trkpt lat="50.559008" lon="6.783129">
        <ele>353.974568</ele>
        <time>2022-03-08T18:40:00.633Z</time>
      </trkpt>
      <trkpt lat="50.558791" lon="6.783824">
        <ele>356.853823</ele>
        <time>2022-03-08T18:41:02.660Z</time>
      </trkpt>
      <trkpt lat="50.558722" lon="6.783189">
        <ele>359.249065</ele>
        <time>2022-03-08T18:41:51.259Z</time>
      </trkpt>
      <trkpt lat="50.558644" lon="6.782709">
        <ele>361.091186</ele>
        <time>2022-03-08T18:42:26.502Z</time>
      </trkpt>
      <trkpt lat="50.558627" lon="6.782603">
        <ele>361.497663</ele>
        <time>2022-03-08T18:42:34.570Z</time>
      </trkpt>
      <trkpt lat="50.558467" lon="6.782314">
        <ele>361.917779</ele>
        <time>2022-03-08T18:43:00.690Z</time>
      </trkpt>
      <trkpt lat="50.558300" lon="6.782043">
        <ele>361.671442</ele>
        <time>2022-03-08T18:43:26.509Z</time>
      </trkpt>
      <trkpt lat="50.558230" lon="6.781490">
        <ele>361.303534</ele>
        <time>2022-03-08T18:44:02.515Z</time>
      </trkpt>
      <trkpt lat="50.558155" lon="6.781229">
        <ele>361.116628</ele>
        <time>2022-03-08T18:44:21.477Z</time>
      </trkpt>
      <trkpt lat="50.557987" lon="6.781029">
        <ele>360.900296</ele>
        <time>2022-03-08T18:44:43.278Z</time>
      </trkpt>
      <trkpt lat="50.557762" lon="6.780971">
        <ele>360.666135</ele>
        <time>2022-03-08T18:45:07.533Z</time>
      </trkpt>
      <trkpt lat="50.557498" lon="6.780903">
        <ele>360.391391</ele>
        <time>2022-03-08T18:45:36.387Z</time>
      </trkpt>
      <trkpt lat="50.557267" lon="6.780953">
        <ele>360.010848</ele>
        <time>2022-03-08T18:46:01.341Z</time>
      </trkpt>
      <trkpt lat="50.556618" lon="6.781415">
        <ele>357.776194</ele>
        <time>2022-03-08T18:47:19.119Z</time>
      </trkpt>
      <trkpt lat="50.555828" lon="6.781620">
        <ele>355.264271</ele>
        <time>2022-03-08T18:48:43.172Z</time>
      </trkpt>
      <trkpt lat="50.555780" lon="6.781536">
        <ele>355.039082</ele>
        <time>2022-03-08T18:48:50.569Z</time>
      </trkpt>
      <trkpt lat="50.555780" lon="6.781536">
        <ele>355.039082</ele>
        <time>2022-03-08T18:48:50.860Z</time>
      </trkpt>
      <trkpt lat="50.555780" lon="6.781536">
        <ele>355.039082</ele>
        <time>2022-03-08T18:48:51.284Z</time>
      </trkpt>
      <trkpt lat="50.555446" lon="6.781737">
        <ele>353.891755</ele>
        <time>2022-03-08T18:49:28.722Z</time>
      </trkpt>
      <trkpt lat="50.555386" lon="6.781779">
        <ele>353.677790</ele>
        <time>2022-03-08T18:49:35.639Z</time>
      </trkpt>
      <trkpt lat="50.555342" lon="6.781649">
        <ele>353.372863</ele>
        <time>2022-03-08T18:49:46.070Z</time>
      </trkpt>
      <trkpt lat="50.555269" lon="6.781481">
        <ele>352.951514</ele>
        <time>2022-03-08T18:49:59.176Z</time>
      </trkpt>
      <trkpt lat="50.555208" lon="6.781333">
        <ele>352.586305</ele>
        <time>2022-03-08T18:50:10.892Z</time>
      </trkpt>
      <trkpt lat="50.555113" lon="6.781005">
        <ele>351.840061</ele>
        <time>2022-03-08T18:50:35.625Z</time>
      </trkpt>
      <trkpt lat="50.555113" lon="6.781005">
        <ele>351.840061</ele>
        <time>2022-03-08T18:50:36.191Z</time>
      </trkpt>
      <trkpt lat="50.555068" lon="6.780832">
        <ele>351.453068</ele>
        <time>2022-03-08T18:50:48.448Z</time>
      </trkpt>
      <trkpt lat="50.555177" lon="6.780847">
        <ele>351.096548</ele>
        <time>2022-03-08T18:51:00.888Z</time>
      </trkpt>
      <trkpt lat="50.555515" lon="6.780792">
        <ele>349.989343</ele>
        <time>2022-03-08T18:51:37.075Z</time>
      </trkpt>
      <trkpt lat="50.555886" lon="6.780546">
        <ele>348.644185</ele>
        <time>2022-03-08T18:52:20.727Z</time>
      </trkpt>
      <trkpt lat="50.556188" lon="6.780221">
        <ele>346.441739</ele>
        <time>2022-03-08T18:53:00.552Z</time>
      </trkpt>
      <trkpt lat="50.556188" lon="6.780221">
        <ele>346.441739</ele>
        <time>2022-03-08T18:53:00.552Z</time>
      </trkpt>
      <trkpt lat="50.556631" lon="6.779751">
        <ele>343.225482</ele>
        <time>2022-03-08T18:53:59.306Z</time>
      </trkpt>
      <trkpt lat="50.556717" lon="6.779660">
        <ele>342.601624</ele>
        <time>2022-03-08T18:54:11.332Z</time>
      </trkpt>
      <trkpt lat="50.557005" lon="6.779422">
        <ele>340.643355</ele>
        <time>2022-03-08T18:54:48.283Z</time>
      </trkpt>
      <trkpt lat="50.557970" lon="6.779123">
        <ele>334.920627</ele>
        <time>2022-03-08T18:56:42.310Z</time>
      </trkpt>
      <trkpt lat="50.558169" lon="6.779061">
        <ele>333.775841</ele>
        <time>2022-03-08T18:57:06.455Z</time>
      </trkpt>
      <trkpt lat="50.558850" lon="6.779035">
        <ele>329.931683</ele>
        <time>2022-03-08T18:58:21.784Z</time>
      </trkpt>
      <trkpt lat="50.558850" lon="6.779035">
        <ele>329.931683</ele>
        <time>2022-03-08T18:58:21.784Z</time>
      </trkpt>
      <trkpt lat="50.558884" lon="6.779042">
        <ele>329.738180</ele>
        <time>2022-03-08T18:58:25.216Z</time>
      </trkpt>
      <trkpt lat="50.559112" lon="6.779036">
        <ele>328.451348</ele>
        <time>2022-03-08T18:58:48.825Z</time>
      </trkpt>
      <trkpt lat="50.559135" lon="6.779031">
        <ele>328.320322</ele>
        <time>2022-03-08T18:58:51.661Z</time>
      </trkpt>
      <trkpt lat="50.559294" lon="6.778995">
        <ele>327.704475</ele>
        <time>2022-03-08T18:59:08.671Z</time>
      </trkpt>
      <trkpt lat="50.559444" lon="6.778873">
        <ele>327.604441</ele>
        <time>2022-03-08T18:59:25.840Z</time>
      </trkpt>
      <trkpt lat="50.559488" lon="6.778755">
        <ele>327.552941</ele>
        <time>2022-03-08T18:59:35.919Z</time>
      </trkpt>
      <trkpt lat="50.559495" lon="6.778736">
        <ele>327.544674</ele>
        <time>2022-03-08T18:59:37.522Z</time>
      </trkpt>
      <trkpt lat="50.559478" lon="6.778595">
        <ele>327.490656</ele>
        <time>2022-03-08T18:59:46.757Z</time>
      </trkpt>
      <trkpt lat="50.559442" lon="6.778444">
        <ele>327.429950</ele>
        <time>2022-03-08T18:59:57.678Z</time>
      </trkpt>
      <trkpt lat="50.559260" lon="6.777692">
        <ele>327.127059</ele>
        <time>2022-03-08T19:00:51.191Z</time>
      </trkpt>
      <trkpt lat="50.559300" lon="6.777617">
        <ele>327.090201</ele>
        <time>2022-03-08T19:00:58.344Z</time>
      </trkpt>
      <trkpt lat="50.559389" lon="6.777453">
        <ele>327.009016</ele>
        <time>2022-03-08T19:01:13.784Z</time>
      </trkpt>
      <trkpt lat="50.559334" lon="6.777192">
        <ele>326.905514</ele>
        <time>2022-03-08T19:01:31.982Z</time>
      </trkpt>
      <trkpt lat="50.559294" lon="6.776826">
        <ele>326.765731</ele>
        <time>2022-03-08T19:01:58.587Z</time>
      </trkpt>
      <trkpt lat="50.559287" lon="6.776358">
        <ele>326.491275</ele>
        <time>2022-03-08T19:02:30.060Z</time>
      </trkpt>
      <trkpt lat="50.559283" lon="6.776130">
        <ele>326.304254</ele>
        <time>2022-03-08T19:02:45.131Z</time>
      </trkpt>
      <trkpt lat="50.559283" lon="6.776115">
        <ele>326.291954</ele>
        <time>2022-03-08T19:02:46.737Z</time>
      </trkpt>
      <trkpt lat="50.559250" lon="6.775388">
        <ele>325.694325</ele>
        <time>2022-03-08T19:03:33.926Z</time>
      </trkpt>
      <trkpt lat="50.559183" lon="6.775032">
        <ele>325.389879</ele>
        <time>2022-03-08T19:03:57.894Z</time>
      </trkpt>
      <trkpt lat="50.559049" lon="6.774315">
        <ele>324.777054</ele>
        <time>2022-03-08T19:04:48.735Z</time>
      </trkpt>
      <trkpt lat="50.559039" lon="6.774025">
        <ele>324.538915</ele>
        <time>2022-03-08T19:05:07.989Z</time>
      </trkpt>
      <trkpt lat="50.559060" lon="6.773517">
        <ele>323.521074</ele>
        <time>2022-03-08T19:05:42.615Z</time>
      </trkpt>
      <trkpt lat="50.559100" lon="6.772922">
        <ele>321.749170</ele>
        <time>2022-03-08T19:06:24.496Z</time>
      </trkpt>
      <trkpt lat="50.559107" lon="6.772819">
        <ele>321.442399</ele>
        <time>2022-03-08T19:06:31.504Z</time>
      </trkpt>
      <trkpt lat="50.559099" lon="6.772721">
        <ele>321.149791</ele>
        <time>2022-03-08T19:06:38.950Z</time>
      </trkpt>
      <trkpt lat="50.559203" lon="6.772197">
        <ele>319.524022</ele>
        <time>2022-03-08T19:07:17.997Z</time>
      </trkpt>
      <trkpt lat="50.559200" lon="6.771932">
        <ele>318.739113</ele>
        <time>2022-03-08T19:07:37.126Z</time>
      </trkpt>
      <trkpt lat="50.559424" lon="6.771382">
        <ele>316.804344</ele>
        <time>2022-03-08T19:08:21.848Z</time>
      </trkpt>
      <trkpt lat="50.559450" lon="6.771116">
        <ele>316.007333</ele>
        <time>2022-03-08T19:08:40.509Z</time>
      </trkpt>
      <trkpt lat="50.559480" lon="6.771080">
        <ele>315.827802</ele>
        <time>2022-03-08T19:08:44.897Z</time>
      </trkpt>
      <trkpt lat="50.559532" lon="6.771046">
        <ele>315.558176</ele>
        <time>2022-03-08T19:08:50.856Z</time>
      </trkpt>
      <trkpt lat="50.559532" lon="6.771046">
        <ele>315.558176</ele>
        <time>2022-03-08T19:08:51.583Z</time>
      </trkpt>
      <trkpt lat="50.559708" lon="6.770968">
        <ele>314.682646</ele>
        <time>2022-03-08T19:09:10.143Z</time>
      </trkpt>
      <trkpt lat="50.559789" lon="6.770961">
        <ele>314.294198</ele>
        <time>2022-03-08T19:09:19.337Z</time>
      </trkpt>
      <trkpt lat="50.559809" lon="6.770841">
        <ele>313.916808</ele>
        <time>2022-03-08T19:09:27.903Z</time>
      </trkpt>
      <trkpt lat="50.559815" lon="6.770771">
        <ele>313.701941</ele>
        <time>2022-03-08T19:09:32.894Z</time>
      </trkpt>
      <trkpt lat="50.559858" lon="6.770322">
        <ele>312.320666</ele>
        <time>2022-03-08T19:10:04.146Z</time>
      </trkpt>
      <trkpt lat="50.559857" lon="6.770190">
        <ele>311.919099</ele>
        <time>2022-03-08T19:10:13.228Z</time>
      </trkpt>
      <trkpt lat="50.559847" lon="6.770072">
        <ele>311.556967</ele>
        <time>2022-03-08T19:10:21.026Z</time>
      </trkpt>
      <trkpt lat="50.559920" lon="6.769726">
        <ele>310.447921</ele>
        <time>2022-03-08T19:10:46.913Z</time>
      </trkpt>
      <trkpt lat="50.559985" lon="6.769420">
        <ele>309.466424</ele>
        <time>2022-03-08T19:11:09.332Z</time>
      </trkpt>
      <trkpt lat="50.559938" lon="6.768970">
        <ele>308.079166</ele>
        <time>2022-03-08T19:11:41.838Z</time>
      </trkpt>
      <trkpt lat="50.559918" lon="6.768484">
        <ele>306.068920</ele>
        <time>2022-03-08T19:12:16.409Z</time>
      </trkpt>
      <trkpt lat="50.559872" lon="6.768329">
        <ele>305.184704</ele>
        <time>2022-03-08T19:12:28.968Z</time>
      </trkpt>
      <trkpt lat="50.559840" lon="6.768080">
        <ele>303.871691</ele>
        <time>2022-03-08T19:12:47.533Z</time>
      </trkpt>
      <trkpt lat="50.559840" lon="6.768080">
        <ele>303.871691</ele>
        <time>2022-03-08T19:12:47.738Z</time>
      </trkpt>
      <trkpt lat="50.559917" lon="6.767825">
        <ele>302.412426</ele>
        <time>2022-03-08T19:13:07.307Z</time>
      </trkpt>
      <trkpt lat="50.560222" lon="6.767283">
        <ele>298.670145</ele>
        <time>2022-03-08T19:14:00.897Z</time>
      </trkpt>
      <trkpt lat="50.560381" lon="6.766966">
        <ele>296.582638</ele>
        <time>2022-03-08T19:14:31.386Z</time>
      </trkpt>
      <trkpt lat="50.560450" lon="6.766828">
        <ele>295.674979</ele>
        <time>2022-03-08T19:14:44.706Z</time>
      </trkpt>
      <trkpt lat="50.560452" lon="6.766726">
        <ele>295.147553</ele>
        <time>2022-03-08T19:14:52.830Z</time>
      </trkpt>
      <trkpt lat="50.560543" lon="6.766445">
        <ele>293.517415</ele>
        <time>2022-03-08T19:15:16.754Z</time>
      </trkpt>
      <trkpt lat="50.560626" lon="6.766245">
        <ele>292.311181</ele>
        <time>2022-03-08T19:15:34.952Z</time>
      </trkpt>
      <trkpt lat="50.560626" lon="6.766245">
        <ele>292.311181</ele>
        <time>2022-03-08T19:15:35.440Z</time>
      </trkpt>
      <trkpt lat="50.560674" lon="6.766067">
        <ele>291.376715</ele>
        <time>2022-03-08T19:15:49.800Z</time>
      </trkpt>
      <trkpt lat="50.560575" lon="6.765943">
        <ele>290.414311</ele>
        <time>2022-03-08T19:16:04.537Z</time>
      </trkpt>
      <trkpt lat="50.560516" lon="6.765869">
        <ele>289.840453</ele>
        <time>2022-03-08T19:16:13.561Z</time>
      </trkpt>
      <trkpt lat="50.560352" lon="6.765665">
        <ele>288.250410</ele>
        <time>2022-03-08T19:16:38.747Z</time>
      </trkpt>
      <trkpt lat="50.560229" lon="6.765511">
        <ele>287.054875</ele>
        <time>2022-03-08T19:16:57.103Z</time>
      </trkpt>
      <trkpt lat="50.560223" lon="6.765503">
        <ele>286.995061</ele>
        <time>2022-03-08T19:16:58.448Z</time>
      </trkpt>
      <trkpt lat="50.560124" lon="6.765395">
        <ele>286.078795</ele>
        <time>2022-03-08T19:17:12.580Z</time>
      </trkpt>
      <trkpt lat="50.560062" lon="6.765352">
        <ele>285.563412</ele>
        <time>2022-03-08T19:17:20.664Z</time>
      </trkpt>
      <trkpt lat="50.559994" lon="6.765306">
        <ele>285.000392</ele>
        <time>2022-03-08T19:17:29.079Z</time>
      </trkpt>
      <trkpt lat="50.559923" lon="6.765359">
        <ele>284.402641</ele>
        <time>2022-03-08T19:17:38.170Z</time>
      </trkpt>
      <trkpt lat="50.559865" lon="6.765269">
        <ele>283.783105</ele>
        <time>2022-03-08T19:17:47.959Z</time>
      </trkpt>
      <trkpt lat="50.559779" lon="6.765154">
        <ele>282.924716</ele>
        <time>2022-03-08T19:18:00.706Z</time>
      </trkpt>
      <trkpt lat="50.559779" lon="6.765154">
        <ele>282.924716</ele>
        <time>2022-03-08T19:18:00.913Z</time>
      </trkpt>
      <trkpt lat="50.559779" lon="6.765154">
        <ele>282.924716</ele>
        <time>2022-03-08T19:18:01.191Z</time>
      </trkpt>
      <trkpt lat="50.559865" lon="6.765269">
        <ele>282.066327</ele>
        <time>2022-03-08T19:18:13.115Z</time>
      </trkpt>
      <trkpt lat="50.559923" lon="6.765359">
        <ele>281.446791</ele>
        <time>2022-03-08T19:18:22.271Z</time>
      </trkpt>
      <trkpt lat="50.559994" lon="6.765306">
        <ele>280.849040</ele>
        <time>2022-03-08T19:18:31.353Z</time>
      </trkpt>
      <trkpt lat="50.559948" lon="6.765266">
        <ele>280.449276</ele>
        <time>2022-03-08T19:18:37.256Z</time>
      </trkpt>
      <trkpt lat="50.559915" lon="6.765238">
        <ele>280.164099</ele>
        <time>2022-03-08T19:18:41.565Z</time>
      </trkpt>
      <trkpt lat="50.559893" lon="6.765216">
        <ele>279.965830</ele>
        <time>2022-03-08T19:18:44.280Z</time>
      </trkpt>
      <trkpt lat="50.559852" lon="6.765162">
        <ele>279.559170</ele>
        <time>2022-03-08T19:18:49.771Z</time>
      </trkpt>
      <trkpt lat="50.559831" lon="6.765125">
        <ele>279.319399</ele>
        <time>2022-03-08T19:18:53.109Z</time>
      </trkpt>
      <trkpt lat="50.559820" lon="6.765099">
        <ele>279.168440</ele>
        <time>2022-03-08T19:18:55.137Z</time>
      </trkpt>
      <trkpt lat="50.559811" lon="6.765052">
        <ele>279.006041</ele>
        <time>2022-03-08T19:18:58.361Z</time>
      </trkpt>
      <trkpt lat="50.559809" lon="6.765026">
        <ele>278.967894</ele>
        <time>2022-03-08T19:19:00.380Z</time>
      </trkpt>
      <trkpt lat="50.559809" lon="6.765003">
        <ele>278.934394</ele>
        <time>2022-03-08T19:19:01.978Z</time>
      </trkpt>
      <trkpt lat="50.559812" lon="6.764981">
        <ele>278.901620</ele>
        <time>2022-03-08T19:19:03.581Z</time>
      </trkpt>
      <trkpt lat="50.559817" lon="6.764960">
        <ele>278.868955</ele>
        <time>2022-03-08T19:19:05.168Z</time>
      </trkpt>
      <trkpt lat="50.559781" lon="6.764882">
        <ele>278.728526</ele>
        <time>2022-03-08T19:19:11.773Z</time>
      </trkpt>
      <trkpt lat="50.559830" lon="6.764836">
        <ele>278.597717</ele>
        <time>2022-03-08T19:19:18.246Z</time>
      </trkpt>
      <trkpt lat="50.560591" lon="6.764105">
        <ele>276.553702</ele>
        <time>2022-03-08T19:20:51.365Z</time>
      </trkpt>
      <trkpt lat="50.560686" lon="6.764000">
        <ele>276.287559</ele>
        <time>2022-03-08T19:21:03.586Z</time>
      </trkpt>
      <trkpt lat="50.560788" lon="6.763886">
        <ele>276.000744</ele>
        <time>2022-03-08T19:21:16.410Z</time>
      </trkpt>
      <trkpt lat="50.561339" lon="6.763370">
        <ele>274.914420</ele>
        <time>2022-03-08T19:22:22.139Z</time>
      </trkpt>
      <trkpt lat="50.561462" lon="6.763255">
        <ele>274.914420</ele>
        <time>2022-03-08T19:22:36.623Z</time>
      </trkpt>
      <trkpt lat="50.561608" lon="6.763166">
        <ele>274.914420</ele>
        <time>2022-03-08T19:22:52.622Z</time>
      </trkpt>
      <trkpt lat="50.561697" lon="6.763092">
        <ele>274.914420</ele>
        <time>2022-03-08T19:23:03.033Z</time>
      </trkpt>
      <trkpt lat="50.561773" lon="6.763042">
        <ele>274.914420</ele>
        <time>2022-03-08T19:23:11.354Z</time>
      </trkpt>
      <trkpt lat="50.561959" lon="6.762881">
        <ele>274.914420</ele>
        <time>2022-03-08T19:23:32.863Z</time>
      </trkpt>
      <trkpt lat="50.562047" lon="6.762868">
        <ele>274.914420</ele>
        <time>2022-03-08T19:23:42.188Z</time>
      </trkpt>
      <trkpt lat="50.562050" lon="6.763040">
        <ele>274.914420</ele>
        <time>2022-03-08T19:23:53.193Z</time>
      </trkpt>
      <trkpt lat="50.561986" lon="6.763043">
        <ele>274.914420</ele>
        <time>2022-03-08T19:23:59.727Z</time>
      </trkpt>
    </trkseg>
  </trk>
</gpx>