<?xml version='1.0' encoding='UTF-8'?>
<gpx version="1.1" creator="https://www.komoot.de" xmlns="http://www.topografix.com/GPX/1/1" xmlns:xsi="http://www.w3.org/2001/XMLSchema-instance" xsi:schemaLocation="http://www.topografix.com/GPX/1/1 http://www.topografix.com/GPX/1/1/gpx.xsd">
  <metadata>
    <name>Lüdingshausen PW</name>
    <author>
      <link href="https://www.komoot.de">
        <text>komoot</text>
        <type>text/html</type>
      </link>
    </author>
  </metadata>
  <trk>
    <name>Lüdingshausen PW</name>
    <trkseg>
      <trkpt lat="51.776418" lon="7.441023">
        <ele>53.675002</ele>
        <time>2020-06-04T09:06:47.000Z</time>
      </trkpt>
      <trkpt lat="51.776391" lon="7.441317">
        <ele>53.675002</ele>
        <time>2020-06-04T09:07:09.000Z</time>
      </trkpt>
      <trkpt lat="51.776378" lon="7.441611">
        <ele>53.675002</ele>
        <time>2020-06-04T09:07:27.000Z</time>
      </trkpt>
      <trkpt lat="51.776368" lon="7.441874">
        <ele>53.675002</ele>
        <time>2020-06-04T09:07:43.000Z</time>
      </trkpt>
      <trkpt lat="51.776338" lon="7.442158">
        <ele>53.675002</ele>
        <time>2020-06-04T09:08:13.000Z</time>
      </trkpt>
      <trkpt lat="51.776338" lon="7.442218">
        <ele>53.675002</ele>
        <time>2020-06-04T09:08:17.000Z</time>
      </trkpt>
      <trkpt lat="51.776374" lon="7.442425">
        <ele>53.675002</ele>
        <time>2020-06-04T09:09:16.000Z</time>
      </trkpt>
      <trkpt lat="51.776431" lon="7.442186">
        <ele>53.639635</ele>
        <time>2020-06-04T09:09:49.000Z</time>
      </trkpt>
      <trkpt lat="51.776617" lon="7.442203">
        <ele>53.591505</ele>
        <time>2020-06-04T09:10:08.000Z</time>
      </trkpt>
      <trkpt lat="51.776799" lon="7.442266">
        <ele>53.543419</ele>
        <time>2020-06-04T09:10:25.000Z</time>
      </trkpt>
      <trkpt lat="51.776960" lon="7.442423">
        <ele>53.494840</ele>
        <time>2020-06-04T09:10:40.000Z</time>
      </trkpt>
      <trkpt lat="51.776961" lon="7.442707">
        <ele>53.449442</ele>
        <time>2020-06-04T09:10:54.000Z</time>
      </trkpt>
      <trkpt lat="51.776872" lon="7.442964">
        <ele>53.402364</ele>
        <time>2020-06-04T09:11:19.000Z</time>
      </trkpt>
      <trkpt lat="51.776833" lon="7.443082">
        <ele>53.380979</ele>
        <time>2020-06-04T09:11:37.000Z</time>
      </trkpt>
      <trkpt lat="51.776769" lon="7.443361">
        <ele>53.333415</ele>
        <time>2020-06-04T09:11:54.000Z</time>
      </trkpt>
      <trkpt lat="51.776641" lon="7.443593">
        <ele>53.283728</ele>
        <time>2020-06-04T09:12:09.000Z</time>
      </trkpt>
      <trkpt lat="51.776558" lon="7.443735">
        <ele>53.252502</ele>
        <time>2020-06-04T09:12:21.000Z</time>
      </trkpt>
      <trkpt lat="51.776404" lon="7.443888">
        <ele>53.210795</ele>
        <time>2020-06-04T09:12:44.000Z</time>
      </trkpt>
      <trkpt lat="51.776306" lon="7.443878">
        <ele>53.213459</ele>
        <time>2020-06-04T09:12:57.000Z</time>
      </trkpt>
      <trkpt lat="51.776256" lon="7.443901">
        <ele>53.214870</ele>
        <time>2020-06-04T09:13:01.000Z</time>
      </trkpt>
      <trkpt lat="51.776084" lon="7.443929">
        <ele>53.219561</ele>
        <time>2020-06-04T09:13:23.000Z</time>
      </trkpt>
      <trkpt lat="51.775922" lon="7.443764">
        <ele>53.224758</ele>
        <time>2020-06-04T09:13:39.000Z</time>
      </trkpt>
      <trkpt lat="51.775847" lon="7.443495">
        <ele>53.229712</ele>
        <time>2020-06-04T09:13:56.000Z</time>
      </trkpt>
      <trkpt lat="51.775879" lon="7.443199">
        <ele>53.234757</ele>
        <time>2020-06-04T09:14:12.000Z</time>
      </trkpt>
      <trkpt lat="51.775909" lon="7.442902">
        <ele>53.239810</ele>
        <time>2020-06-04T09:14:31.000Z</time>
      </trkpt>
      <trkpt lat="51.775931" lon="7.442603">
        <ele>53.244866</ele>
        <time>2020-06-04T09:14:49.000Z</time>
      </trkpt>
      <trkpt lat="51.775927" lon="7.442402">
        <ele>53.248243</ele>
        <time>2020-06-04T09:15:03.000Z</time>
      </trkpt>
      <trkpt lat="51.775792" lon="7.442199">
        <ele>53.253247</ele>
        <time>2020-06-04T09:15:26.000Z</time>
      </trkpt>
      <trkpt lat="51.775662" lon="7.441999">
        <ele>53.258118</ele>
        <time>2020-06-04T09:15:41.000Z</time>
      </trkpt>
      <trkpt lat="51.775514" lon="7.441826">
        <ele>53.202157</ele>
        <time>2020-06-04T09:15:53.000Z</time>
      </trkpt>
      <trkpt lat="51.775387" lon="7.441622">
        <ele>53.131963</ele>
        <time>2020-06-04T09:16:10.000Z</time>
      </trkpt>
      <trkpt lat="51.775301" lon="7.441531">
        <ele>53.091666</ele>
        <time>2020-06-04T09:16:21.000Z</time>
      </trkpt>
      <trkpt lat="51.775123" lon="7.441489">
        <ele>53.021147</ele>
        <time>2020-06-04T09:16:37.000Z</time>
      </trkpt>
      <trkpt lat="51.774949" lon="7.441365">
        <ele>52.946599</ele>
        <time>2020-06-04T09:16:53.000Z</time>
      </trkpt>
      <trkpt lat="51.774782" lon="7.441257">
        <ele>52.876084</ele>
        <time>2020-06-04T09:17:08.000Z</time>
      </trkpt>
      <trkpt lat="51.774612" lon="7.441140">
        <ele>52.803650</ele>
        <time>2020-06-04T09:17:23.000Z</time>
      </trkpt>
      <trkpt lat="51.774429" lon="7.441049">
        <ele>52.728591</ele>
        <time>2020-06-04T09:17:38.000Z</time>
      </trkpt>
      <trkpt lat="51.774321" lon="7.440992">
        <ele>52.684052</ele>
        <time>2020-06-04T09:17:48.000Z</time>
      </trkpt>
      <trkpt lat="51.774154" lon="7.440874">
        <ele>52.612601</ele>
        <time>2020-06-04T09:18:06.000Z</time>
      </trkpt>
      <trkpt lat="51.773978" lon="7.440756">
        <ele>52.548307</ele>
        <time>2020-06-04T09:18:20.000Z</time>
      </trkpt>
      <trkpt lat="51.773808" lon="7.440649">
        <ele>52.522937</ele>
        <time>2020-06-04T09:18:35.000Z</time>
      </trkpt>
      <trkpt lat="51.773647" lon="7.440496">
        <ele>52.496964</ele>
        <time>2020-06-04T09:18:49.000Z</time>
      </trkpt>
      <trkpt lat="51.773579" lon="7.440219">
        <ele>52.471322</ele>
        <time>2020-06-04T09:19:03.000Z</time>
      </trkpt>
      <trkpt lat="51.773519" lon="7.439932">
        <ele>52.445254</ele>
        <time>2020-06-04T09:19:17.000Z</time>
      </trkpt>
      <trkpt lat="51.773449" lon="7.439659">
        <ele>52.419826</ele>
        <time>2020-06-04T09:19:32.000Z</time>
      </trkpt>
      <trkpt lat="51.773368" lon="7.439378">
        <ele>52.393152</ele>
        <time>2020-06-04T09:19:47.000Z</time>
      </trkpt>
      <trkpt lat="51.773268" lon="7.439119">
        <ele>52.366883</ele>
        <time>2020-06-04T09:20:03.000Z</time>
      </trkpt>
      <trkpt lat="51.773144" lon="7.438897">
        <ele>52.341148</ele>
        <time>2020-06-04T09:20:19.000Z</time>
      </trkpt>
      <trkpt lat="51.772994" lon="7.438709">
        <ele>52.314751</ele>
        <time>2020-06-04T09:20:35.000Z</time>
      </trkpt>
      <trkpt lat="51.772832" lon="7.438585">
        <ele>52.357019</ele>
        <time>2020-06-04T09:20:50.000Z</time>
      </trkpt>
      <trkpt lat="51.772805" lon="7.438561">
        <ele>52.373186</ele>
        <time>2020-06-04T09:20:53.000Z</time>
      </trkpt>
      <trkpt lat="51.772622" lon="7.438510">
        <ele>52.470614</ele>
        <time>2020-06-04T09:21:09.000Z</time>
      </trkpt>
      <trkpt lat="51.772613" lon="7.438511">
        <ele>52.475347</ele>
        <time>2020-06-04T09:21:10.000Z</time>
      </trkpt>
      <trkpt lat="51.772438" lon="7.438559">
        <ele>52.568474</ele>
        <time>2020-06-04T09:21:25.000Z</time>
      </trkpt>
      <trkpt lat="51.772303" lon="7.438629">
        <ele>52.642858</ele>
        <time>2020-06-04T09:21:36.000Z</time>
      </trkpt>
      <trkpt lat="51.772272" lon="7.438655">
        <ele>52.661182</ele>
        <time>2020-06-04T09:21:39.000Z</time>
      </trkpt>
      <trkpt lat="51.772212" lon="7.438717">
        <ele>52.698546</ele>
        <time>2020-06-04T09:21:45.000Z</time>
      </trkpt>
      <trkpt lat="51.772065" lon="7.438904">
        <ele>52.796698</ele>
        <time>2020-06-04T09:22:00.000Z</time>
      </trkpt>
      <trkpt lat="51.771993" lon="7.439031">
        <ele>52.852616</ele>
        <time>2020-06-04T09:22:09.000Z</time>
      </trkpt>
      <trkpt lat="51.771826" lon="7.439110">
        <ele>52.943910</ele>
        <time>2020-06-04T09:22:25.000Z</time>
      </trkpt>
      <trkpt lat="51.771656" lon="7.439014">
        <ele>53.038389</ele>
        <time>2020-06-04T09:22:39.000Z</time>
      </trkpt>
      <trkpt lat="51.771463" lon="7.438985">
        <ele>53.140083</ele>
        <time>2020-06-04T09:22:57.000Z</time>
      </trkpt>
      <trkpt lat="51.771291" lon="7.439068">
        <ele>53.234261</ele>
        <time>2020-06-04T09:23:10.000Z</time>
      </trkpt>
      <trkpt lat="51.771112" lon="7.439139">
        <ele>53.345500</ele>
        <time>2020-06-04T09:23:27.000Z</time>
      </trkpt>
      <trkpt lat="51.770931" lon="7.439189">
        <ele>53.458635</ele>
        <time>2020-06-04T09:23:43.000Z</time>
      </trkpt>
      <trkpt lat="51.770761" lon="7.439298">
        <ele>53.571318</ele>
        <time>2020-06-04T09:24:03.000Z</time>
      </trkpt>
      <trkpt lat="51.770706" lon="7.439571">
        <ele>53.680779</ele>
        <time>2020-06-04T09:24:21.000Z</time>
      </trkpt>
      <trkpt lat="51.770699" lon="7.439621">
        <ele>53.700323</ele>
        <time>2020-06-04T09:24:24.000Z</time>
      </trkpt>
      <trkpt lat="51.770666" lon="7.439905">
        <ele>53.810493</ele>
        <time>2020-06-04T09:24:58.000Z</time>
      </trkpt>
      <trkpt lat="51.770602" lon="7.440186">
        <ele>53.924653</ele>
        <time>2020-06-04T09:25:16.000Z</time>
      </trkpt>
      <trkpt lat="51.770779" lon="7.440254">
        <ele>54.036745</ele>
        <time>2020-06-04T09:25:35.000Z</time>
      </trkpt>
      <trkpt lat="51.770947" lon="7.440363">
        <ele>54.148284</ele>
        <time>2020-06-04T09:25:51.000Z</time>
      </trkpt>
      <trkpt lat="51.771118" lon="7.440463">
        <ele>54.260326</ele>
        <time>2020-06-04T09:26:09.000Z</time>
      </trkpt>
      <trkpt lat="51.771293" lon="7.440556">
        <ele>54.370322</ele>
        <time>2020-06-04T09:26:25.000Z</time>
      </trkpt>
      <trkpt lat="51.771473" lon="7.440594">
        <ele>54.460501</ele>
        <time>2020-06-04T09:26:42.000Z</time>
      </trkpt>
      <trkpt lat="51.771528" lon="7.440583">
        <ele>54.488031</ele>
        <time>2020-06-04T09:26:48.000Z</time>
      </trkpt>
      <trkpt lat="51.771706" lon="7.440510">
        <ele>54.579259</ele>
        <time>2020-06-04T09:27:05.000Z</time>
      </trkpt>
      <trkpt lat="51.771732" lon="7.440524">
        <ele>54.592873</ele>
        <time>2020-06-04T09:27:09.000Z</time>
      </trkpt>
      <trkpt lat="51.771893" lon="7.440685">
        <ele>54.686927</ele>
        <time>2020-06-04T09:27:23.000Z</time>
      </trkpt>
      <trkpt lat="51.772006" lon="7.440925">
        <ele>54.779630</ele>
        <time>2020-06-04T09:27:39.000Z</time>
      </trkpt>
      <trkpt lat="51.771994" lon="7.440952">
        <ele>54.789849</ele>
        <time>2020-06-04T09:27:40.000Z</time>
      </trkpt>
      <trkpt lat="51.771979" lon="7.440980">
        <ele>54.801233</ele>
        <time>2020-06-04T09:27:41.000Z</time>
      </trkpt>
      <trkpt lat="51.771926" lon="7.441267">
        <ele>54.893301</ele>
        <time>2020-06-04T09:27:56.000Z</time>
      </trkpt>
      <trkpt lat="51.771864" lon="7.441567">
        <ele>54.990528</ele>
        <time>2020-06-04T09:28:12.000Z</time>
      </trkpt>
      <trkpt lat="51.771784" lon="7.441851">
        <ele>55.086449</ele>
        <time>2020-06-04T09:28:28.000Z</time>
      </trkpt>
      <trkpt lat="51.771706" lon="7.442114">
        <ele>55.176101</ele>
        <time>2020-06-04T09:28:45.000Z</time>
      </trkpt>
      <trkpt lat="51.771623" lon="7.442378">
        <ele>55.233322</ele>
        <time>2020-06-04T09:29:02.000Z</time>
      </trkpt>
      <trkpt lat="51.771444" lon="7.442442">
        <ele>55.152224</ele>
        <time>2020-06-04T09:29:18.000Z</time>
      </trkpt>
      <trkpt lat="51.771351" lon="7.442484">
        <ele>55.109507</ele>
        <time>2020-06-04T09:29:27.000Z</time>
      </trkpt>
      <trkpt lat="51.771173" lon="7.442543">
        <ele>55.029127</ele>
        <time>2020-06-04T09:29:42.000Z</time>
      </trkpt>
      <trkpt lat="51.771084" lon="7.442781">
        <ele>54.953005</ele>
        <time>2020-06-04T09:29:56.000Z</time>
      </trkpt>
      <trkpt lat="51.771053" lon="7.442859">
        <ele>54.927629</ele>
        <time>2020-06-04T09:30:06.000Z</time>
      </trkpt>
      <trkpt lat="51.771014" lon="7.442908">
        <ele>54.905776</ele>
        <time>2020-06-04T09:30:11.000Z</time>
      </trkpt>
      <trkpt lat="51.770955" lon="7.442911">
        <ele>54.879663</ele>
        <time>2020-06-04T09:30:22.000Z</time>
      </trkpt>
      <trkpt lat="51.770931" lon="7.442888">
        <ele>54.867320</ele>
        <time>2020-06-04T09:30:25.000Z</time>
      </trkpt>
      <trkpt lat="51.770869" lon="7.442845">
        <ele>54.837474</ele>
        <time>2020-06-04T09:30:31.000Z</time>
      </trkpt>
      <trkpt lat="51.770856" lon="7.442813">
        <ele>54.826995</ele>
        <time>2020-06-04T09:30:33.000Z</time>
      </trkpt>
      <trkpt lat="51.770850" lon="7.442767">
        <ele>54.814126</ele>
        <time>2020-06-04T09:30:35.000Z</time>
      </trkpt>
      <trkpt lat="51.770859" lon="7.442727">
        <ele>54.802476</ele>
        <time>2020-06-04T09:30:39.000Z</time>
      </trkpt>
      <trkpt lat="51.770674" lon="7.442782">
        <ele>54.719264</ele>
        <time>2020-06-04T09:30:59.000Z</time>
      </trkpt>
      <trkpt lat="51.770593" lon="7.442967">
        <ele>54.657228</ele>
        <time>2020-06-04T09:31:12.000Z</time>
      </trkpt>
      <trkpt lat="51.770576" lon="7.443112">
        <ele>54.616829</ele>
        <time>2020-06-04T09:31:21.000Z</time>
      </trkpt>
      <trkpt lat="51.770598" lon="7.443136">
        <ele>54.605087</ele>
        <time>2020-06-04T09:31:24.000Z</time>
      </trkpt>
      <trkpt lat="51.770600" lon="7.443147">
        <ele>54.601949</ele>
        <time>2020-06-04T09:31:26.000Z</time>
      </trkpt>
      <trkpt lat="51.770619" lon="7.443147">
        <ele>54.593544</ele>
        <time>2020-06-04T09:31:34.000Z</time>
      </trkpt>
      <trkpt lat="51.770672" lon="7.443118">
        <ele>54.568791</ele>
        <time>2020-06-04T09:31:41.000Z</time>
      </trkpt>
      <trkpt lat="51.770808" lon="7.443023">
        <ele>54.503249</ele>
        <time>2020-06-04T09:31:58.000Z</time>
      </trkpt>
      <trkpt lat="51.770981" lon="7.442936">
        <ele>54.485519</ele>
        <time>2020-06-04T09:32:22.000Z</time>
      </trkpt>
      <trkpt lat="51.771157" lon="7.443001">
        <ele>54.569173</ele>
        <time>2020-06-04T09:32:38.000Z</time>
      </trkpt>
      <trkpt lat="51.771323" lon="7.443057">
        <ele>54.647750</ele>
        <time>2020-06-04T09:33:23.000Z</time>
      </trkpt>
      <trkpt lat="51.771473" lon="7.443033">
        <ele>54.717594</ele>
        <time>2020-06-04T09:33:42.000Z</time>
      </trkpt>
      <trkpt lat="51.771549" lon="7.443038">
        <ele>54.752839</ele>
        <time>2020-06-04T09:33:51.000Z</time>
      </trkpt>
      <trkpt lat="51.771599" lon="7.443076">
        <ele>54.778441</ele>
        <time>2020-06-04T09:33:56.000Z</time>
      </trkpt>
      <trkpt lat="51.771592" lon="7.442899">
        <ele>54.829295</ele>
        <time>2020-06-04T09:34:33.000Z</time>
      </trkpt>
      <trkpt lat="51.771601" lon="7.442853">
        <ele>54.843128</ele>
        <time>2020-06-04T09:34:35.000Z</time>
      </trkpt>
      <trkpt lat="51.771623" lon="7.442546">
        <ele>54.931742</ele>
        <time>2020-06-04T09:34:52.000Z</time>
      </trkpt>
      <trkpt lat="51.771623" lon="7.442533">
        <ele>54.935469</ele>
        <time>2020-06-04T09:34:53.000Z</time>
      </trkpt>
      <trkpt lat="51.771774" lon="7.442425">
        <ele>55.011983</ele>
        <time>2020-06-04T09:35:13.000Z</time>
      </trkpt>
      <trkpt lat="51.771814" lon="7.442423">
        <ele>55.030527</ele>
        <time>2020-06-04T09:35:18.000Z</time>
      </trkpt>
      <trkpt lat="51.771870" lon="7.442461">
        <ele>55.058670</ele>
        <time>2020-06-04T09:35:26.000Z</time>
      </trkpt>
      <trkpt lat="51.771914" lon="7.442457">
        <ele>55.079090</ele>
        <time>2020-06-04T09:35:30.000Z</time>
      </trkpt>
      <trkpt lat="51.772105" lon="7.442462">
        <ele>55.167604</ele>
        <time>2020-06-04T09:35:45.000Z</time>
      </trkpt>
      <trkpt lat="51.772285" lon="7.442440">
        <ele>55.251247</ele>
        <time>2020-06-04T09:35:59.000Z</time>
      </trkpt>
      <trkpt lat="51.772471" lon="7.442438">
        <ele>55.277073</ele>
        <time>2020-06-04T09:36:13.000Z</time>
      </trkpt>
      <trkpt lat="51.772650" lon="7.442487">
        <ele>55.260496</ele>
        <time>2020-06-04T09:36:28.000Z</time>
      </trkpt>
      <trkpt lat="51.772693" lon="7.442517">
        <ele>55.256219</ele>
        <time>2020-06-04T09:36:32.000Z</time>
      </trkpt>
      <trkpt lat="51.772818" lon="7.442592">
        <ele>55.244044</ele>
        <time>2020-06-04T09:36:42.000Z</time>
      </trkpt>
      <trkpt lat="51.772831" lon="7.442616">
        <ele>55.242242</ele>
        <time>2020-06-04T09:36:44.000Z</time>
      </trkpt>
      <trkpt lat="51.772964" lon="7.442740">
        <ele>55.228222</ele>
        <time>2020-06-04T09:36:56.000Z</time>
      </trkpt>
      <trkpt lat="51.772995" lon="7.442797">
        <ele>55.223935</ele>
        <time>2020-06-04T09:37:00.000Z</time>
      </trkpt>
      <trkpt lat="51.773038" lon="7.442839">
        <ele>55.219347</ele>
        <time>2020-06-04T09:37:03.000Z</time>
      </trkpt>
      <trkpt lat="51.773185" lon="7.443010">
        <ele>55.202809</ele>
        <time>2020-06-04T09:37:17.000Z</time>
      </trkpt>
      <trkpt lat="51.773347" lon="7.443154">
        <ele>55.185928</ele>
        <time>2020-06-04T09:37:34.000Z</time>
      </trkpt>
      <trkpt lat="51.773430" lon="7.443178">
        <ele>55.178229</ele>
        <time>2020-06-04T09:37:40.000Z</time>
      </trkpt>
      <trkpt lat="51.773471" lon="7.443200">
        <ele>55.174284</ele>
        <time>2020-06-04T09:37:45.000Z</time>
      </trkpt>
      <trkpt lat="51.773490" lon="7.443208">
        <ele>55.172491</ele>
        <time>2020-06-04T09:37:47.000Z</time>
      </trkpt>
      <trkpt lat="51.773512" lon="7.443208">
        <ele>55.170483</ele>
        <time>2020-06-04T09:37:50.000Z</time>
      </trkpt>
      <trkpt lat="51.773569" lon="7.443220">
        <ele>55.165234</ele>
        <time>2020-06-04T09:37:55.000Z</time>
      </trkpt>
      <trkpt lat="51.773752" lon="7.443274">
        <ele>55.148248</ele>
        <time>2020-06-04T09:38:09.000Z</time>
      </trkpt>
      <trkpt lat="51.773778" lon="7.443297">
        <ele>55.145542</ele>
        <time>2020-06-04T09:38:13.000Z</time>
      </trkpt>
      <trkpt lat="51.773822" lon="7.443319">
        <ele>55.141337</ele>
        <time>2020-06-04T09:38:17.000Z</time>
      </trkpt>
      <trkpt lat="51.773977" lon="7.443458">
        <ele>55.125151</ele>
        <time>2020-06-04T09:38:31.000Z</time>
      </trkpt>
      <trkpt lat="51.774114" lon="7.443655">
        <ele>55.106119</ele>
        <time>2020-06-04T09:38:46.000Z</time>
      </trkpt>
      <trkpt lat="51.774242" lon="7.443879">
        <ele>55.086151</ele>
        <time>2020-06-04T09:39:00.000Z</time>
      </trkpt>
      <trkpt lat="51.774387" lon="7.444058">
        <ele>55.066839</ele>
        <time>2020-06-04T09:39:13.000Z</time>
      </trkpt>
      <trkpt lat="51.774555" lon="7.444175">
        <ele>55.047477</ele>
        <time>2020-06-04T09:39:30.000Z</time>
      </trkpt>
      <trkpt lat="51.774741" lon="7.444191">
        <ele>55.027762</ele>
        <time>2020-06-04T09:39:47.000Z</time>
      </trkpt>
      <trkpt lat="51.774830" lon="7.444204">
        <ele>55.018304</ele>
        <time>2020-06-04T09:39:56.000Z</time>
      </trkpt>
      <trkpt lat="51.775022" lon="7.444193">
        <ele>54.997969</ele>
        <time>2020-06-04T09:40:13.000Z</time>
      </trkpt>
      <trkpt lat="51.775192" lon="7.444220">
        <ele>54.979890</ele>
        <time>2020-06-04T09:40:26.000Z</time>
      </trkpt>
      <trkpt lat="51.775229" lon="7.444232">
        <ele>54.975895</ele>
        <time>2020-06-04T09:40:29.000Z</time>
      </trkpt>
      <trkpt lat="51.775398" lon="7.444362">
        <ele>54.956085</ele>
        <time>2020-06-04T09:40:43.000Z</time>
      </trkpt>
      <trkpt lat="51.775550" lon="7.444544">
        <ele>54.936063</ele>
        <time>2020-06-04T09:40:58.000Z</time>
      </trkpt>
      <trkpt lat="51.775676" lon="7.444764">
        <ele>54.939721</ele>
        <time>2020-06-04T09:41:13.000Z</time>
      </trkpt>
      <trkpt lat="51.775789" lon="7.444986">
        <ele>54.948340</ele>
        <time>2020-06-04T09:41:28.000Z</time>
      </trkpt>
      <trkpt lat="51.775929" lon="7.445186">
        <ele>54.957394</ele>
        <time>2020-06-04T09:41:43.000Z</time>
      </trkpt>
      <trkpt lat="51.776048" lon="7.445404">
        <ele>54.966110</ele>
        <time>2020-06-04T09:41:56.000Z</time>
      </trkpt>
      <trkpt lat="51.776101" lon="7.445487">
        <ele>54.969686</ele>
        <time>2020-06-04T09:42:02.000Z</time>
      </trkpt>
      <trkpt lat="51.776124" lon="7.445533">
        <ele>54.971459</ele>
        <time>2020-06-04T09:42:05.000Z</time>
      </trkpt>
      <trkpt lat="51.776183" lon="7.445614">
        <ele>54.975210</ele>
        <time>2020-06-04T09:42:11.000Z</time>
      </trkpt>
      <trkpt lat="51.776255" lon="7.445760">
        <ele>54.980808</ele>
        <time>2020-06-04T09:42:20.000Z</time>
      </trkpt>
      <trkpt lat="51.776271" lon="7.445829">
        <ele>54.983017</ele>
        <time>2020-06-04T09:42:24.000Z</time>
      </trkpt>
      <trkpt lat="51.776350" lon="7.445958">
        <ele>54.988459</ele>
        <time>2020-06-04T09:42:32.000Z</time>
      </trkpt>
      <trkpt lat="51.776357" lon="7.445985">
        <ele>54.989336</ele>
        <time>2020-06-04T09:42:34.000Z</time>
      </trkpt>
      <trkpt lat="51.776419" lon="7.446077">
        <ele>54.993415</ele>
        <time>2020-06-04T09:42:41.000Z</time>
      </trkpt>
      <trkpt lat="51.776543" lon="7.446297">
        <ele>55.002337</ele>
        <time>2020-06-04T09:42:56.000Z</time>
      </trkpt>
      <trkpt lat="51.776629" lon="7.446552">
        <ele>55.011044</ele>
        <time>2020-06-04T09:43:12.000Z</time>
      </trkpt>
      <trkpt lat="51.776747" lon="7.446779">
        <ele>55.020055</ele>
        <time>2020-06-04T09:43:27.000Z</time>
      </trkpt>
      <trkpt lat="51.776862" lon="7.446911">
        <ele>55.029139</ele>
        <time>2020-06-04T09:43:37.000Z</time>
      </trkpt>
      <trkpt lat="51.776973" lon="7.447019">
        <ele>55.037482</ele>
        <time>2020-06-04T09:43:47.000Z</time>
      </trkpt>
      <trkpt lat="51.777094" lon="7.447132">
        <ele>55.046481</ele>
        <time>2020-06-04T09:44:00.000Z</time>
      </trkpt>
      <trkpt lat="51.777131" lon="7.447143">
        <ele>55.048904</ele>
        <time>2020-06-04T09:44:03.000Z</time>
      </trkpt>
      <trkpt lat="51.777153" lon="7.447151">
        <ele>55.050356</ele>
        <time>2020-06-04T09:44:06.000Z</time>
      </trkpt>
      <trkpt lat="51.777273" lon="7.447171">
        <ele>55.058125</ele>
        <time>2020-06-04T09:44:18.000Z</time>
      </trkpt>
      <trkpt lat="51.777356" lon="7.447176">
        <ele>55.063474</ele>
        <time>2020-06-04T09:44:25.000Z</time>
      </trkpt>
      <trkpt lat="51.777494" lon="7.447174">
        <ele>55.072361</ele>
        <time>2020-06-04T09:44:37.000Z</time>
      </trkpt>
      <trkpt lat="51.777528" lon="7.447183">
        <ele>55.074579</ele>
        <time>2020-06-04T09:44:40.000Z</time>
      </trkpt>
      <trkpt lat="51.777624" lon="7.447183">
        <ele>55.080762</ele>
        <time>2020-06-04T09:44:47.000Z</time>
      </trkpt>
      <trkpt lat="51.777657" lon="7.447185">
        <ele>55.082888</ele>
        <time>2020-06-04T09:44:50.000Z</time>
      </trkpt>
      <trkpt lat="51.777838" lon="7.447205">
        <ele>55.094571</ele>
        <time>2020-06-04T09:45:05.000Z</time>
      </trkpt>
      <trkpt lat="51.778029" lon="7.447224">
        <ele>55.106894</ele>
        <time>2020-06-04T09:45:21.000Z</time>
      </trkpt>
      <trkpt lat="51.778210" lon="7.447277">
        <ele>55.118740</ele>
        <time>2020-06-04T09:45:36.000Z</time>
      </trkpt>
      <trkpt lat="51.778338" lon="7.447238">
        <ele>55.127128</ele>
        <time>2020-06-04T09:45:47.000Z</time>
      </trkpt>
      <trkpt lat="51.778364" lon="7.447225">
        <ele>55.128881</ele>
        <time>2020-06-04T09:45:50.000Z</time>
      </trkpt>
      <trkpt lat="51.778490" lon="7.447209">
        <ele>55.149762</ele>
        <time>2020-06-04T09:45:59.000Z</time>
      </trkpt>
      <trkpt lat="51.778521" lon="7.447218">
        <ele>55.167647</ele>
        <time>2020-06-04T09:46:03.000Z</time>
      </trkpt>
      <trkpt lat="51.778715" lon="7.447185">
        <ele>55.278418</ele>
        <time>2020-06-04T09:46:18.000Z</time>
      </trkpt>
      <trkpt lat="51.778899" lon="7.447167">
        <ele>55.383093</ele>
        <time>2020-06-04T09:46:31.000Z</time>
      </trkpt>
      <trkpt lat="51.778908" lon="7.447171">
        <ele>55.388394</ele>
        <time>2020-06-04T09:46:32.000Z</time>
      </trkpt>
      <trkpt lat="51.778955" lon="7.447194">
        <ele>55.416279</ele>
        <time>2020-06-04T09:46:36.000Z</time>
      </trkpt>
      <trkpt lat="51.779037" lon="7.447224">
        <ele>55.464021</ele>
        <time>2020-06-04T09:46:44.000Z</time>
      </trkpt>
      <trkpt lat="51.779062" lon="7.447243">
        <ele>55.479708</ele>
        <time>2020-06-04T09:46:46.000Z</time>
      </trkpt>
      <trkpt lat="51.779240" lon="7.447261">
        <ele>55.580982</ele>
        <time>2020-06-04T09:47:00.000Z</time>
      </trkpt>
      <trkpt lat="51.779268" lon="7.447274">
        <ele>55.597525</ele>
        <time>2020-06-04T09:47:03.000Z</time>
      </trkpt>
      <trkpt lat="51.779296" lon="7.447293">
        <ele>55.614769</ele>
        <time>2020-06-04T09:47:06.000Z</time>
      </trkpt>
      <trkpt lat="51.779377" lon="7.447337">
        <ele>55.663293</ele>
        <time>2020-06-04T09:47:13.000Z</time>
      </trkpt>
      <trkpt lat="51.779408" lon="7.447346">
        <ele>55.681178</ele>
        <time>2020-06-04T09:47:16.000Z</time>
      </trkpt>
      <trkpt lat="51.779489" lon="7.447359">
        <ele>55.727400</ele>
        <time>2020-06-04T09:47:23.000Z</time>
      </trkpt>
      <trkpt lat="51.779508" lon="7.447350">
        <ele>55.738643</ele>
        <time>2020-06-04T09:47:25.000Z</time>
      </trkpt>
      <trkpt lat="51.779660" lon="7.447190">
        <ele>55.841646</ele>
        <time>2020-06-04T09:47:40.000Z</time>
      </trkpt>
      <trkpt lat="51.779773" lon="7.446960">
        <ele>55.944828</ele>
        <time>2020-06-04T09:47:55.000Z</time>
      </trkpt>
      <trkpt lat="51.779869" lon="7.446801">
        <ele>56.022879</ele>
        <time>2020-06-04T09:48:07.000Z</time>
      </trkpt>
      <trkpt lat="51.779935" lon="7.446845">
        <ele>56.063420</ele>
        <time>2020-06-04T09:48:13.000Z</time>
      </trkpt>
      <trkpt lat="51.780096" lon="7.446980">
        <ele>56.164000</ele>
        <time>2020-06-04T09:48:28.000Z</time>
      </trkpt>
      <trkpt lat="51.780108" lon="7.446993">
        <ele>56.170155</ele>
        <time>2020-06-04T09:48:29.000Z</time>
      </trkpt>
      <trkpt lat="51.780275" lon="7.447142">
        <ele>56.251429</ele>
        <time>2020-06-04T09:48:45.000Z</time>
      </trkpt>
      <trkpt lat="51.780320" lon="7.447234">
        <ele>56.282343</ele>
        <time>2020-06-04T09:48:51.000Z</time>
      </trkpt>
      <trkpt lat="51.780476" lon="7.447166">
        <ele>56.351185</ele>
        <time>2020-06-04T09:49:07.000Z</time>
      </trkpt>
      <trkpt lat="51.780550" lon="7.447173">
        <ele>56.382768</ele>
        <time>2020-06-04T09:49:13.000Z</time>
      </trkpt>
      <trkpt lat="51.780690" lon="7.447152">
        <ele>56.442674</ele>
        <time>2020-06-04T09:49:27.000Z</time>
      </trkpt>
      <trkpt lat="51.780874" lon="7.447167">
        <ele>56.521170</ele>
        <time>2020-06-04T09:49:42.000Z</time>
      </trkpt>
      <trkpt lat="51.780961" lon="7.447402">
        <ele>56.593358</ele>
        <time>2020-06-04T09:49:56.000Z</time>
      </trkpt>
      <trkpt lat="51.780971" lon="7.447697">
        <ele>56.671236</ele>
        <time>2020-06-04T09:50:11.000Z</time>
      </trkpt>
      <trkpt lat="51.780971" lon="7.447987">
        <ele>56.747678</ele>
        <time>2020-06-04T09:50:26.000Z</time>
      </trkpt>
      <trkpt lat="51.780910" lon="7.448253">
        <ele>56.822457</ele>
        <time>2020-06-04T09:50:41.000Z</time>
      </trkpt>
      <trkpt lat="51.780964" lon="7.448391">
        <ele>56.865498</ele>
        <time>2020-06-04T09:50:50.000Z</time>
      </trkpt>
      <trkpt lat="51.781131" lon="7.448509">
        <ele>56.902816</ele>
        <time>2020-06-04T09:51:05.000Z</time>
      </trkpt>
      <trkpt lat="51.781304" lon="7.448569">
        <ele>56.826633</ele>
        <time>2020-06-04T09:51:21.000Z</time>
      </trkpt>
      <trkpt lat="51.781444" lon="7.448375">
        <ele>56.747235</ele>
        <time>2020-06-04T09:51:37.000Z</time>
      </trkpt>
      <trkpt lat="51.781597" lon="7.448181">
        <ele>56.663508</ele>
        <time>2020-06-04T09:51:52.000Z</time>
      </trkpt>
      <trkpt lat="51.781735" lon="7.447986">
        <ele>56.584587</ele>
        <time>2020-06-04T09:52:05.000Z</time>
      </trkpt>
      <trkpt lat="51.781886" lon="7.447799">
        <ele>56.502684</ele>
        <time>2020-06-04T09:52:19.000Z</time>
      </trkpt>
      <trkpt lat="51.782038" lon="7.447608">
        <ele>56.419789</ele>
        <time>2020-06-04T09:52:35.000Z</time>
      </trkpt>
      <trkpt lat="51.782175" lon="7.447401">
        <ele>56.339043</ele>
        <time>2020-06-04T09:52:51.000Z</time>
      </trkpt>
      <trkpt lat="51.782238" lon="7.447287">
        <ele>56.298326</ele>
        <time>2020-06-04T09:53:00.000Z</time>
      </trkpt>
      <trkpt lat="51.782250" lon="7.447258">
        <ele>56.289033</ele>
        <time>2020-06-04T09:53:20.000Z</time>
      </trkpt>
      <trkpt lat="51.782306" lon="7.447118">
        <ele>56.244625</ele>
        <time>2020-06-04T09:53:39.000Z</time>
      </trkpt>
      <trkpt lat="51.782388" lon="7.446848">
        <ele>56.164507</ele>
        <time>2020-06-04T09:53:54.000Z</time>
      </trkpt>
      <trkpt lat="51.782435" lon="7.446556">
        <ele>56.152731</ele>
        <time>2020-06-04T09:54:10.000Z</time>
      </trkpt>
      <trkpt lat="51.782437" lon="7.446551">
        <ele>56.152831</ele>
        <time>2020-06-04T09:54:11.000Z</time>
      </trkpt>
      <trkpt lat="51.782490" lon="7.446326">
        <ele>56.156879</ele>
        <time>2020-06-04T09:54:31.000Z</time>
      </trkpt>
      <trkpt lat="51.782493" lon="7.446195">
        <ele>56.159083</ele>
        <time>2020-06-04T09:54:38.000Z</time>
      </trkpt>
      <trkpt lat="51.782497" lon="7.445896">
        <ele>56.164112</ele>
        <time>2020-06-04T09:54:52.000Z</time>
      </trkpt>
      <trkpt lat="51.782497" lon="7.445592">
        <ele>56.169223</ele>
        <time>2020-06-04T09:55:06.000Z</time>
      </trkpt>
      <trkpt lat="51.782498" lon="7.445299">
        <ele>56.174150</ele>
        <time>2020-06-04T09:55:20.000Z</time>
      </trkpt>
      <trkpt lat="51.782503" lon="7.445128">
        <ele>56.177028</ele>
        <time>2020-06-04T09:55:31.000Z</time>
      </trkpt>
      <trkpt lat="51.782526" lon="7.445090">
        <ele>56.177922</ele>
        <time>2020-06-04T09:56:36.000Z</time>
      </trkpt>
      <trkpt lat="51.782530" lon="7.445082">
        <ele>56.178095</ele>
        <time>2020-06-04T09:56:52.000Z</time>
      </trkpt>
      <trkpt lat="51.782516" lon="7.444923">
        <ele>56.180795</ele>
        <time>2020-06-04T09:58:19.000Z</time>
      </trkpt>
      <trkpt lat="51.782509" lon="7.444627">
        <ele>56.185776</ele>
        <time>2020-06-04T09:58:33.000Z</time>
      </trkpt>
      <trkpt lat="51.782509" lon="7.444334">
        <ele>56.190702</ele>
        <time>2020-06-04T09:58:46.000Z</time>
      </trkpt>
      <trkpt lat="51.782531" lon="7.444047">
        <ele>56.195565</ele>
        <time>2020-06-04T09:58:59.000Z</time>
      </trkpt>
      <trkpt lat="51.782572" lon="7.443755">
        <ele>56.191434</ele>
        <time>2020-06-04T09:59:12.000Z</time>
      </trkpt>
      <trkpt lat="51.782670" lon="7.443511">
        <ele>56.181660</ele>
        <time>2020-06-04T09:59:27.000Z</time>
      </trkpt>
      <trkpt lat="51.782818" lon="7.443406">
        <ele>56.172882</ele>
        <time>2020-06-04T09:59:39.000Z</time>
      </trkpt>
      <trkpt lat="51.782846" lon="7.443402">
        <ele>56.171356</ele>
        <time>2020-06-04T09:59:41.000Z</time>
      </trkpt>
      <trkpt lat="51.783035" lon="7.443419">
        <ele>56.161076</ele>
        <time>2020-06-04T09:59:54.000Z</time>
      </trkpt>
      <trkpt lat="51.783216" lon="7.443401">
        <ele>56.151227</ele>
        <time>2020-06-04T10:00:07.000Z</time>
      </trkpt>
      <trkpt lat="51.783397" lon="7.443337">
        <ele>56.141165</ele>
        <time>2020-06-04T10:00:19.000Z</time>
      </trkpt>
      <trkpt lat="51.783516" lon="7.443125">
        <ele>56.131548</ele>
        <time>2020-06-04T10:00:33.000Z</time>
      </trkpt>
      <trkpt lat="51.783562" lon="7.442828">
        <ele>56.121261</ele>
        <time>2020-06-04T10:00:46.000Z</time>
      </trkpt>
      <trkpt lat="51.783564" lon="7.442521">
        <ele>56.110947</ele>
        <time>2020-06-04T10:01:00.000Z</time>
      </trkpt>
      <trkpt lat="51.783642" lon="7.442242">
        <ele>56.100660</ele>
        <time>2020-06-04T10:01:15.000Z</time>
      </trkpt>
      <trkpt lat="51.783740" lon="7.441995">
        <ele>56.205973</ele>
        <time>2020-06-04T10:01:28.000Z</time>
      </trkpt>
      <trkpt lat="51.783704" lon="7.441799">
        <ele>56.286431</ele>
        <time>2020-06-04T10:01:40.000Z</time>
      </trkpt>
      <trkpt lat="51.783526" lon="7.441892">
        <ele>56.405426</ele>
        <time>2020-06-04T10:01:57.000Z</time>
      </trkpt>
      <trkpt lat="51.783390" lon="7.442043">
        <ele>56.510379</ele>
        <time>2020-06-04T10:02:12.000Z</time>
      </trkpt>
      <trkpt lat="51.783361" lon="7.442070">
        <ele>56.531667</ele>
        <time>2020-06-04T10:02:15.000Z</time>
      </trkpt>
      <trkpt lat="51.783221" lon="7.442266">
        <ele>56.649481</ele>
        <time>2020-06-04T10:02:31.000Z</time>
      </trkpt>
      <trkpt lat="51.783092" lon="7.442503">
        <ele>56.773706</ele>
        <time>2020-06-04T10:02:45.000Z</time>
      </trkpt>
      <trkpt lat="51.783028" lon="7.442680">
        <ele>56.854385</ele>
        <time>2020-06-04T10:02:57.000Z</time>
      </trkpt>
      <trkpt lat="51.782956" lon="7.442804">
        <ele>56.921308</ele>
        <time>2020-06-04T10:03:09.000Z</time>
      </trkpt>
      <trkpt lat="51.782938" lon="7.442793">
        <ele>56.933549</ele>
        <time>2020-06-04T10:03:11.000Z</time>
      </trkpt>
      <trkpt lat="51.782837" lon="7.442658">
        <ele>57.016916</ele>
        <time>2020-06-04T10:03:24.000Z</time>
      </trkpt>
      <trkpt lat="51.782807" lon="7.442608">
        <ele>57.044327</ele>
        <time>2020-06-04T10:03:28.000Z</time>
      </trkpt>
      <trkpt lat="51.782798" lon="7.442583">
        <ele>57.055710</ele>
        <time>2020-06-04T10:03:30.000Z</time>
      </trkpt>
      <trkpt lat="51.782699" lon="7.442329">
        <ele>57.173849</ele>
        <time>2020-06-04T10:03:43.000Z</time>
      </trkpt>
      <trkpt lat="51.782654" lon="7.442041">
        <ele>57.260947</ele>
        <time>2020-06-04T10:03:58.000Z</time>
      </trkpt>
      <trkpt lat="51.782643" lon="7.441832">
        <ele>57.290876</ele>
        <time>2020-06-04T10:04:14.000Z</time>
      </trkpt>
      <trkpt lat="51.782650" lon="7.441829">
        <ele>57.292546</ele>
        <time>2020-06-04T10:04:49.000Z</time>
      </trkpt>
      <trkpt lat="51.782767" lon="7.441726">
        <ele>57.323273</ele>
        <time>2020-06-04T10:05:25.000Z</time>
      </trkpt>
      <trkpt lat="51.782780" lon="7.441714">
        <ele>57.326726</ele>
        <time>2020-06-04T10:05:26.000Z</time>
      </trkpt>
      <trkpt lat="51.782929" lon="7.441548">
        <ele>57.368463</ele>
        <time>2020-06-04T10:05:41.000Z</time>
      </trkpt>
      <trkpt lat="51.783092" lon="7.441424">
        <ele>57.410012</ele>
        <time>2020-06-04T10:05:57.000Z</time>
      </trkpt>
      <trkpt lat="51.783257" lon="7.441290">
        <ele>57.452600</ele>
        <time>2020-06-04T10:06:16.000Z</time>
      </trkpt>
      <trkpt lat="51.783410" lon="7.441131">
        <ele>57.494551</ele>
        <time>2020-06-04T10:06:31.000Z</time>
      </trkpt>
      <trkpt lat="51.783566" lon="7.440951">
        <ele>57.538757</ele>
        <time>2020-06-04T10:06:46.000Z</time>
      </trkpt>
      <trkpt lat="51.783733" lon="7.440810">
        <ele>57.582211</ele>
        <time>2020-06-04T10:07:01.000Z</time>
      </trkpt>
      <trkpt lat="51.783898" lon="7.440683">
        <ele>57.624360</ele>
        <time>2020-06-04T10:07:13.000Z</time>
      </trkpt>
      <trkpt lat="51.784052" lon="7.440508">
        <ele>57.643365</ele>
        <time>2020-06-04T10:07:29.000Z</time>
      </trkpt>
      <trkpt lat="51.784210" lon="7.440339">
        <ele>57.567775</ele>
        <time>2020-06-04T10:07:45.000Z</time>
      </trkpt>
      <trkpt lat="51.784374" lon="7.440188">
        <ele>57.492473</ele>
        <time>2020-06-04T10:08:00.000Z</time>
      </trkpt>
      <trkpt lat="51.784521" lon="7.440018">
        <ele>57.420359</ele>
        <time>2020-06-04T10:08:14.000Z</time>
      </trkpt>
      <trkpt lat="51.784687" lon="7.439865">
        <ele>57.344119</ele>
        <time>2020-06-04T10:08:29.000Z</time>
      </trkpt>
      <trkpt lat="51.784856" lon="7.439722">
        <ele>57.268012</ele>
        <time>2020-06-04T10:08:45.000Z</time>
      </trkpt>
      <trkpt lat="51.785024" lon="7.439583">
        <ele>57.192713</ele>
        <time>2020-06-04T10:09:00.000Z</time>
      </trkpt>
      <trkpt lat="51.785182" lon="7.439440">
        <ele>57.120466</ele>
        <time>2020-06-04T10:09:14.000Z</time>
      </trkpt>
      <trkpt lat="51.785339" lon="7.439284">
        <ele>57.046939</ele>
        <time>2020-06-04T10:09:30.000Z</time>
      </trkpt>
      <trkpt lat="51.785501" lon="7.439129">
        <ele>56.971831</ele>
        <time>2020-06-04T10:09:46.000Z</time>
      </trkpt>
      <trkpt lat="51.785663" lon="7.439011">
        <ele>56.908113</ele>
        <time>2020-06-04T10:10:01.000Z</time>
      </trkpt>
      <trkpt lat="51.785742" lon="7.438975">
        <ele>56.881200</ele>
        <time>2020-06-04T10:10:08.000Z</time>
      </trkpt>
      <trkpt lat="51.785771" lon="7.438951">
        <ele>56.870518</ele>
        <time>2020-06-04T10:10:11.000Z</time>
      </trkpt>
      <trkpt lat="51.785807" lon="7.438910">
        <ele>56.856078</ele>
        <time>2020-06-04T10:10:15.000Z</time>
      </trkpt>
      <trkpt lat="51.785980" lon="7.438823">
        <ele>56.796671</ele>
        <time>2020-06-04T10:10:32.000Z</time>
      </trkpt>
      <trkpt lat="51.786095" lon="7.438748">
        <ele>56.756010</ele>
        <time>2020-06-04T10:10:43.000Z</time>
      </trkpt>
      <trkpt lat="51.786263" lon="7.438625">
        <ele>56.695538</ele>
        <time>2020-06-04T10:11:00.000Z</time>
      </trkpt>
      <trkpt lat="51.786330" lon="7.438594">
        <ele>56.672687</ele>
        <time>2020-06-04T10:11:06.000Z</time>
      </trkpt>
      <trkpt lat="51.786518" lon="7.438550">
        <ele>56.610400</ele>
        <time>2020-06-04T10:11:21.000Z</time>
      </trkpt>
      <trkpt lat="51.786706" lon="7.438601">
        <ele>56.547895</ele>
        <time>2020-06-04T10:11:40.000Z</time>
      </trkpt>
      <trkpt lat="51.786882" lon="7.438702">
        <ele>56.486657</ele>
        <time>2020-06-04T10:11:56.000Z</time>
      </trkpt>
      <trkpt lat="51.787061" lon="7.438770">
        <ele>56.426365</ele>
        <time>2020-06-04T10:12:11.000Z</time>
      </trkpt>
      <trkpt lat="51.787242" lon="7.438813">
        <ele>56.366379</ele>
        <time>2020-06-04T10:12:25.000Z</time>
      </trkpt>
      <trkpt lat="51.787429" lon="7.438839">
        <ele>56.379645</ele>
        <time>2020-06-04T10:12:41.000Z</time>
      </trkpt>
      <trkpt lat="51.787616" lon="7.438790">
        <ele>56.417225</ele>
        <time>2020-06-04T10:12:58.000Z</time>
      </trkpt>
      <trkpt lat="51.787768" lon="7.438616">
        <ele>56.454171</ele>
        <time>2020-06-04T10:13:14.000Z</time>
      </trkpt>
      <trkpt lat="51.787903" lon="7.438411">
        <ele>56.490912</ele>
        <time>2020-06-04T10:13:31.000Z</time>
      </trkpt>
      <trkpt lat="51.788050" lon="7.438215">
        <ele>56.528711</ele>
        <time>2020-06-04T10:13:48.000Z</time>
      </trkpt>
      <trkpt lat="51.788165" lon="7.437985">
        <ele>56.565001</ele>
        <time>2020-06-04T10:14:03.000Z</time>
      </trkpt>
      <trkpt lat="51.788270" lon="7.437740">
        <ele>56.601574</ele>
        <time>2020-06-04T10:14:20.000Z</time>
      </trkpt>
      <trkpt lat="51.788283" lon="7.437687">
        <ele>56.608570</ele>
        <time>2020-06-04T10:14:25.000Z</time>
      </trkpt>
      <trkpt lat="51.788351" lon="7.437425">
        <ele>56.643434</ele>
        <time>2020-06-04T10:15:49.000Z</time>
      </trkpt>
      <trkpt lat="51.788427" lon="7.437160">
        <ele>56.679276</ele>
        <time>2020-06-04T10:17:33.000Z</time>
      </trkpt>
      <trkpt lat="51.788450" lon="7.436864">
        <ele>56.713453</ele>
        <time>2020-06-04T10:17:49.000Z</time>
      </trkpt>
      <trkpt lat="51.788445" lon="7.436567">
        <ele>56.738313</ele>
        <time>2020-06-04T10:18:05.000Z</time>
      </trkpt>
      <trkpt lat="51.788446" lon="7.436508">
        <ele>56.743252</ele>
        <time>2020-06-04T10:18:08.000Z</time>
      </trkpt>
      <trkpt lat="51.788440" lon="7.436206">
        <ele>56.768534</ele>
        <time>2020-06-04T10:18:24.000Z</time>
      </trkpt>
      <trkpt lat="51.788416" lon="7.435911">
        <ele>56.793431</ele>
        <time>2020-06-04T10:18:40.000Z</time>
      </trkpt>
      <trkpt lat="51.788348" lon="7.435637">
        <ele>56.818134</ele>
        <time>2020-06-04T10:18:57.000Z</time>
      </trkpt>
      <trkpt lat="51.788178" lon="7.435546">
        <ele>56.842358</ele>
        <time>2020-06-04T10:19:13.000Z</time>
      </trkpt>
      <trkpt lat="51.787992" lon="7.435514">
        <ele>56.867660</ele>
        <time>2020-06-04T10:19:29.000Z</time>
      </trkpt>
      <trkpt lat="51.787804" lon="7.435494">
        <ele>56.893146</ele>
        <time>2020-06-04T10:19:45.000Z</time>
      </trkpt>
      <trkpt lat="51.787625" lon="7.435458">
        <ele>56.917546</ele>
        <time>2020-06-04T10:20:00.000Z</time>
      </trkpt>
      <trkpt lat="51.787458" lon="7.435355">
        <ele>56.941725</ele>
        <time>2020-06-04T10:20:15.000Z</time>
      </trkpt>
      <trkpt lat="51.787311" lon="7.435162">
        <ele>56.956759</ele>
        <time>2020-06-04T10:20:31.000Z</time>
      </trkpt>
      <trkpt lat="51.787191" lon="7.434929">
        <ele>56.965130</ele>
        <time>2020-06-04T10:20:47.000Z</time>
      </trkpt>
      <trkpt lat="51.787182" lon="7.434915">
        <ele>56.965687</ele>
        <time>2020-06-04T10:20:48.000Z</time>
      </trkpt>
      <trkpt lat="51.787036" lon="7.434751">
        <ele>56.973622</ele>
        <time>2020-06-04T10:21:03.000Z</time>
      </trkpt>
      <trkpt lat="51.787003" lon="7.434736">
        <ele>56.975152</ele>
        <time>2020-06-04T10:21:06.000Z</time>
      </trkpt>
      <trkpt lat="51.786869" lon="7.434701">
        <ele>56.981210</ele>
        <time>2020-06-04T10:21:19.000Z</time>
      </trkpt>
      <trkpt lat="51.786686" lon="7.434685">
        <ele>56.989390</ele>
        <time>2020-06-04T10:21:34.000Z</time>
      </trkpt>
      <trkpt lat="51.786629" lon="7.434684">
        <ele>56.991934</ele>
        <time>2020-06-04T10:21:40.000Z</time>
      </trkpt>
      <trkpt lat="51.786505" lon="7.434701">
        <ele>56.997488</ele>
        <time>2020-06-04T10:21:51.000Z</time>
      </trkpt>
      <trkpt lat="51.786404" lon="7.434708">
        <ele>57.002000</ele>
        <time>2020-06-04T10:22:00.000Z</time>
      </trkpt>
      <trkpt lat="51.786362" lon="7.434730">
        <ele>57.003970</ele>
        <time>2020-06-04T10:22:03.000Z</time>
      </trkpt>
      <trkpt lat="51.786178" lon="7.434825">
        <ele>57.012591</ele>
        <time>2020-06-04T10:22:19.000Z</time>
      </trkpt>
      <trkpt lat="51.786132" lon="7.434845">
        <ele>57.014717</ele>
        <time>2020-06-04T10:22:23.000Z</time>
      </trkpt>
      <trkpt lat="51.786101" lon="7.434852">
        <ele>57.016114</ele>
        <time>2020-06-04T10:22:27.000Z</time>
      </trkpt>
      <trkpt lat="51.785914" lon="7.434873">
        <ele>57.024481</ele>
        <time>2020-06-04T10:22:44.000Z</time>
      </trkpt>
      <trkpt lat="51.785880" lon="7.434871">
        <ele>57.025999</ele>
        <time>2020-06-04T10:22:47.000Z</time>
      </trkpt>
      <trkpt lat="51.785827" lon="7.434884">
        <ele>57.028392</ele>
        <time>2020-06-04T10:22:51.000Z</time>
      </trkpt>
      <trkpt lat="51.785771" lon="7.434879">
        <ele>57.030895</ele>
        <time>2020-06-04T10:22:56.000Z</time>
      </trkpt>
      <trkpt lat="51.785722" lon="7.434874">
        <ele>57.027883</ele>
        <time>2020-06-04T10:23:00.000Z</time>
      </trkpt>
      <trkpt lat="51.785546" lon="7.434845">
        <ele>57.003210</ele>
        <time>2020-06-04T10:23:15.000Z</time>
      </trkpt>
      <trkpt lat="51.785450" lon="7.434855">
        <ele>56.989793</ele>
        <time>2020-06-04T10:23:24.000Z</time>
      </trkpt>
      <trkpt lat="51.785424" lon="7.434858">
        <ele>56.986158</ele>
        <time>2020-06-04T10:23:26.000Z</time>
      </trkpt>
      <trkpt lat="51.785360" lon="7.434848">
        <ele>56.977190</ele>
        <time>2020-06-04T10:23:32.000Z</time>
      </trkpt>
      <trkpt lat="51.785204" lon="7.434693">
        <ele>56.951652</ele>
        <time>2020-06-04T10:23:47.000Z</time>
      </trkpt>
      <trkpt lat="51.785134" lon="7.434545">
        <ele>56.935579</ele>
        <time>2020-06-04T10:23:58.000Z</time>
      </trkpt>
      <trkpt lat="51.785095" lon="7.434285">
        <ele>56.912497</ele>
        <time>2020-06-04T10:24:13.000Z</time>
      </trkpt>
      <trkpt lat="51.785248" lon="7.434142">
        <ele>56.887849</ele>
        <time>2020-06-04T10:24:30.000Z</time>
      </trkpt>
      <trkpt lat="51.785313" lon="7.434056">
        <ele>56.876134</ele>
        <time>2020-06-04T10:24:38.000Z</time>
      </trkpt>
      <trkpt lat="51.785440" lon="7.433915">
        <ele>56.854647</ele>
        <time>2020-06-04T10:24:50.000Z</time>
      </trkpt>
      <trkpt lat="51.785471" lon="7.433899">
        <ele>56.850108</ele>
        <time>2020-06-04T10:24:53.000Z</time>
      </trkpt>
      <trkpt lat="51.785564" lon="7.433824">
        <ele>56.835614</ele>
        <time>2020-06-04T10:25:02.000Z</time>
      </trkpt>
      <trkpt lat="51.785585" lon="7.433806">
        <ele>56.832299</ele>
        <time>2020-06-04T10:25:04.000Z</time>
      </trkpt>
      <trkpt lat="51.785728" lon="7.433621">
        <ele>56.806754</ele>
        <time>2020-06-04T10:25:18.000Z</time>
      </trkpt>
      <trkpt lat="51.785872" lon="7.433442">
        <ele>56.781420</ele>
        <time>2020-06-04T10:25:32.000Z</time>
      </trkpt>
      <trkpt lat="51.786010" lon="7.433246">
        <ele>56.801457</ele>
        <time>2020-06-04T10:25:47.000Z</time>
      </trkpt>
      <trkpt lat="51.786161" lon="7.433059">
        <ele>56.823044</ele>
        <time>2020-06-04T10:26:03.000Z</time>
      </trkpt>
      <trkpt lat="51.786295" lon="7.432835">
        <ele>56.844919</ele>
        <time>2020-06-04T10:26:18.000Z</time>
      </trkpt>
      <trkpt lat="51.786403" lon="7.432603">
        <ele>56.865302</ele>
        <time>2020-06-04T10:26:32.000Z</time>
      </trkpt>
      <trkpt lat="51.786532" lon="7.432379">
        <ele>56.886786</ele>
        <time>2020-06-04T10:26:47.000Z</time>
      </trkpt>
      <trkpt lat="51.786666" lon="7.432175">
        <ele>56.907675</ele>
        <time>2020-06-04T10:27:01.000Z</time>
      </trkpt>
      <trkpt lat="51.786786" lon="7.431950">
        <ele>56.928530</ele>
        <time>2020-06-04T10:27:16.000Z</time>
      </trkpt>
      <trkpt lat="51.786916" lon="7.431731">
        <ele>56.949837</ele>
        <time>2020-06-04T10:27:31.000Z</time>
      </trkpt>
      <trkpt lat="51.787042" lon="7.431515">
        <ele>56.970679</ele>
        <time>2020-06-04T10:27:46.000Z</time>
      </trkpt>
      <trkpt lat="51.787122" lon="7.431381">
        <ele>56.983752</ele>
        <time>2020-06-04T10:27:55.000Z</time>
      </trkpt>
      <trkpt lat="51.787229" lon="7.431144">
        <ele>57.022463</ele>
        <time>2020-06-04T10:28:10.000Z</time>
      </trkpt>
      <trkpt lat="51.787342" lon="7.430909">
        <ele>57.063010</ele>
        <time>2020-06-04T10:28:25.000Z</time>
      </trkpt>
      <trkpt lat="51.787468" lon="7.430676">
        <ele>57.105168</ele>
        <time>2020-06-04T10:28:40.000Z</time>
      </trkpt>
      <trkpt lat="51.787599" lon="7.430473">
        <ele>57.145130</ele>
        <time>2020-06-04T10:28:54.000Z</time>
      </trkpt>
      <trkpt lat="51.787713" lon="7.430240">
        <ele>57.185598</ele>
        <time>2020-06-04T10:29:08.000Z</time>
      </trkpt>
      <trkpt lat="51.787832" lon="7.430003">
        <ele>57.227179</ele>
        <time>2020-06-04T10:29:23.000Z</time>
      </trkpt>
      <trkpt lat="51.787949" lon="7.429777">
        <ele>57.267325</ele>
        <time>2020-06-04T10:29:37.000Z</time>
      </trkpt>
      <trkpt lat="51.788057" lon="7.429531">
        <ele>57.308417</ele>
        <time>2020-06-04T10:29:52.000Z</time>
      </trkpt>
      <trkpt lat="51.788171" lon="7.429299">
        <ele>57.348778</ele>
        <time>2020-06-04T10:30:08.000Z</time>
      </trkpt>
      <trkpt lat="51.788270" lon="7.429097">
        <ele>57.381856</ele>
        <time>2020-06-04T10:30:22.000Z</time>
      </trkpt>
      <trkpt lat="51.788276" lon="7.429084">
        <ele>57.382407</ele>
        <time>2020-06-04T10:30:24.000Z</time>
      </trkpt>
      <trkpt lat="51.788364" lon="7.428923">
        <ele>57.389697</ele>
        <time>2020-06-04T10:30:36.000Z</time>
      </trkpt>
      <trkpt lat="51.788411" lon="7.428773">
        <ele>57.395402</ele>
        <time>2020-06-04T10:30:52.000Z</time>
      </trkpt>
      <trkpt lat="51.788407" lon="7.428737">
        <ele>57.396643</ele>
        <time>2020-06-04T10:30:55.000Z</time>
      </trkpt>
      <trkpt lat="51.788259" lon="7.428544">
        <ele>57.407073</ele>
        <time>2020-06-04T10:31:10.000Z</time>
      </trkpt>
      <trkpt lat="51.788121" lon="7.428359">
        <ele>57.416906</ele>
        <time>2020-06-04T10:31:24.000Z</time>
      </trkpt>
      <trkpt lat="51.787968" lon="7.428184">
        <ele>57.427187</ele>
        <time>2020-06-04T10:31:40.000Z</time>
      </trkpt>
      <trkpt lat="51.787838" lon="7.427973">
        <ele>57.437291</ele>
        <time>2020-06-04T10:31:55.000Z</time>
      </trkpt>
      <trkpt lat="51.787697" lon="7.427760">
        <ele>57.447877</ele>
        <time>2020-06-04T10:32:12.000Z</time>
      </trkpt>
      <trkpt lat="51.787566" lon="7.427547">
        <ele>57.458068</ele>
        <time>2020-06-04T10:32:27.000Z</time>
      </trkpt>
      <trkpt lat="51.787483" lon="7.427278">
        <ele>57.468268</ele>
        <time>2020-06-04T10:32:43.000Z</time>
      </trkpt>
      <trkpt lat="51.787447" lon="7.426991">
        <ele>57.478204</ele>
        <time>2020-06-04T10:32:58.000Z</time>
      </trkpt>
      <trkpt lat="51.787428" lon="7.426695">
        <ele>57.492042</ele>
        <time>2020-06-04T10:33:14.000Z</time>
      </trkpt>
      <trkpt lat="51.787417" lon="7.426501">
        <ele>57.501576</ele>
        <time>2020-06-04T10:33:23.000Z</time>
      </trkpt>
      <trkpt lat="51.787402" lon="7.426203">
        <ele>57.516207</ele>
        <time>2020-06-04T10:33:37.000Z</time>
      </trkpt>
      <trkpt lat="51.787355" lon="7.425947">
        <ele>57.529275</ele>
        <time>2020-06-04T10:34:04.000Z</time>
      </trkpt>
      <trkpt lat="51.787333" lon="7.425650">
        <ele>57.543913</ele>
        <time>2020-06-04T10:34:21.000Z</time>
      </trkpt>
      <trkpt lat="51.787290" lon="7.425362">
        <ele>57.558412</ele>
        <time>2020-06-04T10:34:36.000Z</time>
      </trkpt>
      <trkpt lat="51.787286" lon="7.425309">
        <ele>57.561025</ele>
        <time>2020-06-04T10:34:40.000Z</time>
      </trkpt>
      <trkpt lat="51.787217" lon="7.425033">
        <ele>57.575593</ele>
        <time>2020-06-04T10:35:01.000Z</time>
      </trkpt>
      <trkpt lat="51.787183" lon="7.424891">
        <ele>57.583044</ele>
        <time>2020-06-04T10:35:09.000Z</time>
      </trkpt>
      <trkpt lat="51.787107" lon="7.424620">
        <ele>57.597606</ele>
        <time>2020-06-04T10:35:24.000Z</time>
      </trkpt>
      <trkpt lat="51.787008" lon="7.424370">
        <ele>57.612132</ele>
        <time>2020-06-04T10:35:39.000Z</time>
      </trkpt>
      <trkpt lat="51.786909" lon="7.424109">
        <ele>57.619230</ele>
        <time>2020-06-04T10:35:56.000Z</time>
      </trkpt>
      <trkpt lat="51.786800" lon="7.423870">
        <ele>57.610747</ele>
        <time>2020-06-04T10:36:10.000Z</time>
      </trkpt>
      <trkpt lat="51.786786" lon="7.423857">
        <ele>57.610001</ele>
        <time>2020-06-04T10:36:11.000Z</time>
      </trkpt>
      <trkpt lat="51.786660" lon="7.423650">
        <ele>57.601704</ele>
        <time>2020-06-04T10:36:25.000Z</time>
      </trkpt>
      <trkpt lat="51.786555" lon="7.423407">
        <ele>57.593235</ele>
        <time>2020-06-04T10:36:38.000Z</time>
      </trkpt>
      <trkpt lat="51.786517" lon="7.423332">
        <ele>57.590465</ele>
        <time>2020-06-04T10:36:43.000Z</time>
      </trkpt>
      <trkpt lat="51.786501" lon="7.423289">
        <ele>57.589032</ele>
        <time>2020-06-04T10:36:46.000Z</time>
      </trkpt>
      <trkpt lat="51.786359" lon="7.423165">
        <ele>57.581578</ele>
        <time>2020-06-04T10:37:03.000Z</time>
      </trkpt>
      <trkpt lat="51.786185" lon="7.423285">
        <ele>57.572841</ele>
        <time>2020-06-04T10:37:23.000Z</time>
      </trkpt>
      <trkpt lat="51.786008" lon="7.423375">
        <ele>57.564271</ele>
        <time>2020-06-04T10:37:41.000Z</time>
      </trkpt>
      <trkpt lat="51.785833" lon="7.423506">
        <ele>57.555364</ele>
        <time>2020-06-04T10:37:56.000Z</time>
      </trkpt>
      <trkpt lat="51.785659" lon="7.423621">
        <ele>57.546682</ele>
        <time>2020-06-04T10:38:11.000Z</time>
      </trkpt>
      <trkpt lat="51.785495" lon="7.423738">
        <ele>57.534267</ele>
        <time>2020-06-04T10:38:29.000Z</time>
      </trkpt>
      <trkpt lat="51.785320" lon="7.423875">
        <ele>57.469198</ele>
        <time>2020-06-04T10:38:47.000Z</time>
      </trkpt>
      <trkpt lat="51.785152" lon="7.424010">
        <ele>57.406413</ele>
        <time>2020-06-04T10:39:03.000Z</time>
      </trkpt>
      <trkpt lat="51.784968" lon="7.424112">
        <ele>57.341318</ele>
        <time>2020-06-04T10:39:19.000Z</time>
      </trkpt>
      <trkpt lat="51.784854" lon="7.424205">
        <ele>57.298586</ele>
        <time>2020-06-04T10:39:30.000Z</time>
      </trkpt>
      <trkpt lat="51.784816" lon="7.424235">
        <ele>57.284433</ele>
        <time>2020-06-04T10:39:34.000Z</time>
      </trkpt>
      <trkpt lat="51.784783" lon="7.424251">
        <ele>57.272904</ele>
        <time>2020-06-04T10:39:37.000Z</time>
      </trkpt>
      <trkpt lat="51.784738" lon="7.424277">
        <ele>57.256912</ele>
        <time>2020-06-04T10:39:41.000Z</time>
      </trkpt>
      <trkpt lat="51.784688" lon="7.424309">
        <ele>57.238916</ele>
        <time>2020-06-04T10:39:46.000Z</time>
      </trkpt>
      <trkpt lat="51.784513" lon="7.424411">
        <ele>57.176662</ele>
        <time>2020-06-04T10:40:01.000Z</time>
      </trkpt>
      <trkpt lat="51.784436" lon="7.424471">
        <ele>57.148056</ele>
        <time>2020-06-04T10:40:09.000Z</time>
      </trkpt>
      <trkpt lat="51.784406" lon="7.424498">
        <ele>57.136566</ele>
        <time>2020-06-04T10:40:12.000Z</time>
      </trkpt>
      <trkpt lat="51.784377" lon="7.424526">
        <ele>57.125262</ele>
        <time>2020-06-04T10:40:15.000Z</time>
      </trkpt>
      <trkpt lat="51.784341" lon="7.424574">
        <ele>57.109645</ele>
        <time>2020-06-04T10:40:19.000Z</time>
      </trkpt>
      <trkpt lat="51.784333" lon="7.424582">
        <ele>57.106497</ele>
        <time>2020-06-04T10:40:20.000Z</time>
      </trkpt>
      <trkpt lat="51.784308" lon="7.424610">
        <ele>57.096319</ele>
        <time>2020-06-04T10:40:22.000Z</time>
      </trkpt>
      <trkpt lat="51.784137" lon="7.424721">
        <ele>57.034652</ele>
        <time>2020-06-04T10:40:37.000Z</time>
      </trkpt>
      <trkpt lat="51.784095" lon="7.424739">
        <ele>57.020112</ele>
        <time>2020-06-04T10:40:41.000Z</time>
      </trkpt>
      <trkpt lat="51.784045" lon="7.424763">
        <ele>57.002657</ele>
        <time>2020-06-04T10:40:45.000Z</time>
      </trkpt>
      <trkpt lat="51.783931" lon="7.424871">
        <ele>56.958438</ele>
        <time>2020-06-04T10:40:57.000Z</time>
      </trkpt>
      <trkpt lat="51.783849" lon="7.425116">
        <ele>56.924612</ele>
        <time>2020-06-04T10:41:13.000Z</time>
      </trkpt>
      <trkpt lat="51.783726" lon="7.425331">
        <ele>56.903716</ele>
        <time>2020-06-04T10:41:29.000Z</time>
      </trkpt>
      <trkpt lat="51.783690" lon="7.425398">
        <ele>56.897383</ele>
        <time>2020-06-04T10:41:35.000Z</time>
      </trkpt>
      <trkpt lat="51.783657" lon="7.425469">
        <ele>56.891046</ele>
        <time>2020-06-04T10:41:40.000Z</time>
      </trkpt>
      <trkpt lat="51.783627" lon="7.425521">
        <ele>56.885972</ele>
        <time>2020-06-04T10:41:44.000Z</time>
      </trkpt>
      <trkpt lat="51.783607" lon="7.425543">
        <ele>56.883182</ele>
        <time>2020-06-04T10:41:46.000Z</time>
      </trkpt>
      <trkpt lat="51.783481" lon="7.425773">
        <ele>56.861260</ele>
        <time>2020-06-04T10:42:04.000Z</time>
      </trkpt>
      <trkpt lat="51.783362" lon="7.425996">
        <ele>56.840245</ele>
        <time>2020-06-04T10:42:21.000Z</time>
      </trkpt>
      <trkpt lat="51.783236" lon="7.426209">
        <ele>56.819215</ele>
        <time>2020-06-04T10:42:36.000Z</time>
      </trkpt>
      <trkpt lat="51.783181" lon="7.426304">
        <ele>56.809931</ele>
        <time>2020-06-04T10:42:42.000Z</time>
      </trkpt>
      <trkpt lat="51.783165" lon="7.426332">
        <ele>56.807211</ele>
        <time>2020-06-04T10:42:44.000Z</time>
      </trkpt>
      <trkpt lat="51.783148" lon="7.426361">
        <ele>56.804360</ele>
        <time>2020-06-04T10:42:46.000Z</time>
      </trkpt>
      <trkpt lat="51.783065" lon="7.426514">
        <ele>56.789839</ele>
        <time>2020-06-04T10:42:57.000Z</time>
      </trkpt>
      <trkpt lat="51.783048" lon="7.426548">
        <ele>56.786720</ele>
        <time>2020-06-04T10:42:59.000Z</time>
      </trkpt>
      <trkpt lat="51.783017" lon="7.426603">
        <ele>56.781410</ele>
        <time>2020-06-04T10:43:03.000Z</time>
      </trkpt>
      <trkpt lat="51.782994" lon="7.426637">
        <ele>56.777815</ele>
        <time>2020-06-04T10:43:06.000Z</time>
      </trkpt>
      <trkpt lat="51.782979" lon="7.426658">
        <ele>56.775526</ele>
        <time>2020-06-04T10:43:08.000Z</time>
      </trkpt>
      <trkpt lat="51.782932" lon="7.426735">
        <ele>56.767807</ele>
        <time>2020-06-04T10:43:13.000Z</time>
      </trkpt>
      <trkpt lat="51.782793" lon="7.426929">
        <ele>56.746625</ele>
        <time>2020-06-04T10:43:28.000Z</time>
      </trkpt>
      <trkpt lat="51.782775" lon="7.426961">
        <ele>56.743538</ele>
        <time>2020-06-04T10:43:31.000Z</time>
      </trkpt>
      <trkpt lat="51.782763" lon="7.426978">
        <ele>56.741698</ele>
        <time>2020-06-04T10:43:33.000Z</time>
      </trkpt>
      <trkpt lat="51.782709" lon="7.427090">
        <ele>56.731565</ele>
        <time>2020-06-04T10:43:40.000Z</time>
      </trkpt>
      <trkpt lat="51.782691" lon="7.427121">
        <ele>56.728763</ele>
        <time>2020-06-04T10:43:43.000Z</time>
      </trkpt>
      <trkpt lat="51.782664" lon="7.427155">
        <ele>56.725608</ele>
        <time>2020-06-04T10:43:46.000Z</time>
      </trkpt>
      <trkpt lat="51.782647" lon="7.427168">
        <ele>56.723874</ele>
        <time>2020-06-04T10:43:48.000Z</time>
      </trkpt>
      <trkpt lat="51.782617" lon="7.427204">
        <ele>56.720430</ele>
        <time>2020-06-04T10:43:51.000Z</time>
      </trkpt>
      <trkpt lat="51.782600" lon="7.427229">
        <ele>56.718311</ele>
        <time>2020-06-04T10:43:53.000Z</time>
      </trkpt>
      <trkpt lat="51.782488" lon="7.427468">
        <ele>56.701211</ele>
        <time>2020-06-04T10:44:07.000Z</time>
      </trkpt>
      <trkpt lat="51.782383" lon="7.427720">
        <ele>56.683883</ele>
        <time>2020-06-04T10:44:22.000Z</time>
      </trkpt>
      <trkpt lat="51.782247" lon="7.427963">
        <ele>56.665195</ele>
        <time>2020-06-04T10:44:39.000Z</time>
      </trkpt>
      <trkpt lat="51.782115" lon="7.428200">
        <ele>56.647008</ele>
        <time>2020-06-04T10:44:53.000Z</time>
      </trkpt>
      <trkpt lat="51.781996" lon="7.428437">
        <ele>56.629600</ele>
        <time>2020-06-04T10:45:10.000Z</time>
      </trkpt>
      <trkpt lat="51.781929" lon="7.428567">
        <ele>56.619950</ele>
        <time>2020-06-04T10:45:20.000Z</time>
      </trkpt>
      <trkpt lat="51.781920" lon="7.428595">
        <ele>56.618150</ele>
        <time>2020-06-04T10:45:22.000Z</time>
      </trkpt>
      <trkpt lat="51.781903" lon="7.428633">
        <ele>56.615476</ele>
        <time>2020-06-04T10:45:24.000Z</time>
      </trkpt>
      <trkpt lat="51.781776" lon="7.428859">
        <ele>56.598063</ele>
        <time>2020-06-04T10:45:38.000Z</time>
      </trkpt>
      <trkpt lat="51.781666" lon="7.429112">
        <ele>56.580426</ele>
        <time>2020-06-04T10:45:56.000Z</time>
      </trkpt>
      <trkpt lat="51.781533" lon="7.429323">
        <ele>56.561751</ele>
        <time>2020-06-04T10:46:09.000Z</time>
      </trkpt>
      <trkpt lat="51.781412" lon="7.429550">
        <ele>56.503800</ele>
        <time>2020-06-04T10:46:26.000Z</time>
      </trkpt>
      <trkpt lat="51.781364" lon="7.429637">
        <ele>56.481254</ele>
        <time>2020-06-04T10:46:32.000Z</time>
      </trkpt>
      <trkpt lat="51.781331" lon="7.429675">
        <ele>56.468588</ele>
        <time>2020-06-04T10:46:35.000Z</time>
      </trkpt>
      <trkpt lat="51.781302" lon="7.429702">
        <ele>56.458125</ele>
        <time>2020-06-04T10:46:38.000Z</time>
      </trkpt>
      <trkpt lat="51.781278" lon="7.429744">
        <ele>56.447068</ele>
        <time>2020-06-04T10:46:41.000Z</time>
      </trkpt>
      <trkpt lat="51.781260" lon="7.429781">
        <ele>56.437964</ele>
        <time>2020-06-04T10:46:44.000Z</time>
      </trkpt>
      <trkpt lat="51.781145" lon="7.430015">
        <ele>56.380165</ele>
        <time>2020-06-04T10:46:58.000Z</time>
      </trkpt>
      <trkpt lat="51.781074" lon="7.430184">
        <ele>56.340656</ele>
        <time>2020-06-04T10:47:09.000Z</time>
      </trkpt>
      <trkpt lat="51.781028" lon="7.430250">
        <ele>56.321427</ele>
        <time>2020-06-04T10:47:14.000Z</time>
      </trkpt>
      <trkpt lat="51.780919" lon="7.430487">
        <ele>56.264311</ele>
        <time>2020-06-04T10:47:28.000Z</time>
      </trkpt>
      <trkpt lat="51.780804" lon="7.430734">
        <ele>56.204523</ele>
        <time>2020-06-04T10:47:46.000Z</time>
      </trkpt>
      <trkpt lat="51.780677" lon="7.430961">
        <ele>56.145330</ele>
        <time>2020-06-04T10:48:01.000Z</time>
      </trkpt>
      <trkpt lat="51.780541" lon="7.431191">
        <ele>56.083796</ele>
        <time>2020-06-04T10:48:17.000Z</time>
      </trkpt>
      <trkpt lat="51.780382" lon="7.431347">
        <ele>56.025649</ele>
        <time>2020-06-04T10:48:31.000Z</time>
      </trkpt>
      <trkpt lat="51.780204" lon="7.431434">
        <ele>55.956865</ele>
        <time>2020-06-04T10:48:46.000Z</time>
      </trkpt>
      <trkpt lat="51.780069" lon="7.431483">
        <ele>55.900089</ele>
        <time>2020-06-04T10:48:55.000Z</time>
      </trkpt>
      <trkpt lat="51.780044" lon="7.431467">
        <ele>55.889056</ele>
        <time>2020-06-04T10:48:59.000Z</time>
      </trkpt>
      <trkpt lat="51.780005" lon="7.431484">
        <ele>55.872481</ele>
        <time>2020-06-04T10:49:02.000Z</time>
      </trkpt>
      <trkpt lat="51.779942" lon="7.431504">
        <ele>55.846136</ele>
        <time>2020-06-04T10:49:09.000Z</time>
      </trkpt>
      <trkpt lat="51.779852" lon="7.431511">
        <ele>55.809162</ele>
        <time>2020-06-04T10:49:17.000Z</time>
      </trkpt>
      <trkpt lat="51.779826" lon="7.431514">
        <ele>55.798466</ele>
        <time>2020-06-04T10:49:20.000Z</time>
      </trkpt>
      <trkpt lat="51.779781" lon="7.431520">
        <ele>55.779938</ele>
        <time>2020-06-04T10:49:23.000Z</time>
      </trkpt>
      <trkpt lat="51.779598" lon="7.431583">
        <ele>55.703162</ele>
        <time>2020-06-04T10:49:37.000Z</time>
      </trkpt>
      <trkpt lat="51.779553" lon="7.431604">
        <ele>55.683942</ele>
        <time>2020-06-04T10:49:42.000Z</time>
      </trkpt>
      <trkpt lat="51.779525" lon="7.431607">
        <ele>55.672428</ele>
        <time>2020-06-04T10:49:45.000Z</time>
      </trkpt>
      <trkpt lat="51.779353" lon="7.431635">
        <ele>55.601492</ele>
        <time>2020-06-04T10:49:58.000Z</time>
      </trkpt>
      <trkpt lat="51.779195" lon="7.431657">
        <ele>55.536418</ele>
        <time>2020-06-04T10:50:09.000Z</time>
      </trkpt>
      <trkpt lat="51.779047" lon="7.431684">
        <ele>55.475302</ele>
        <time>2020-06-04T10:50:21.000Z</time>
      </trkpt>
      <trkpt lat="51.778905" lon="7.431714">
        <ele>55.416539</ele>
        <time>2020-06-04T10:50:33.000Z</time>
      </trkpt>
      <trkpt lat="51.778717" lon="7.431735">
        <ele>55.339211</ele>
        <time>2020-06-04T10:50:48.000Z</time>
      </trkpt>
      <trkpt lat="51.778530" lon="7.431753">
        <ele>55.263179</ele>
        <time>2020-06-04T10:51:04.000Z</time>
      </trkpt>
      <trkpt lat="51.778341" lon="7.431773">
        <ele>55.240272</ele>
        <time>2020-06-04T10:51:18.000Z</time>
      </trkpt>
      <trkpt lat="51.778153" lon="7.431841">
        <ele>55.216973</ele>
        <time>2020-06-04T10:51:32.000Z</time>
      </trkpt>
      <trkpt lat="51.778124" lon="7.431837">
        <ele>55.213453</ele>
        <time>2020-06-04T10:51:35.000Z</time>
      </trkpt>
      <trkpt lat="51.777936" lon="7.431824">
        <ele>55.190696</ele>
        <time>2020-06-04T10:51:52.000Z</time>
      </trkpt>
      <trkpt lat="51.777765" lon="7.431739">
        <ele>55.169060</ele>
        <time>2020-06-04T10:52:07.000Z</time>
      </trkpt>
      <trkpt lat="51.777746" lon="7.431713">
        <ele>55.166049</ele>
        <time>2020-06-04T10:52:10.000Z</time>
      </trkpt>
      <trkpt lat="51.777685" lon="7.431455">
        <ele>55.145382</ele>
        <time>2020-06-04T10:52:23.000Z</time>
      </trkpt>
      <trkpt lat="51.777696" lon="7.431155">
        <ele>55.122895</ele>
        <time>2020-06-04T10:52:37.000Z</time>
      </trkpt>
      <trkpt lat="51.777689" lon="7.430853">
        <ele>55.100281</ele>
        <time>2020-06-04T10:52:53.000Z</time>
      </trkpt>
      <trkpt lat="51.777686" lon="7.430552">
        <ele>55.077756</ele>
        <time>2020-06-04T10:53:07.000Z</time>
      </trkpt>
      <trkpt lat="51.777701" lon="7.430253">
        <ele>55.055309</ele>
        <time>2020-06-04T10:53:21.000Z</time>
      </trkpt>
      <trkpt lat="51.777713" lon="7.429953">
        <ele>55.093707</ele>
        <time>2020-06-04T10:53:36.000Z</time>
      </trkpt>
      <trkpt lat="51.777717" lon="7.429653">
        <ele>55.174920</ele>
        <time>2020-06-04T10:53:51.000Z</time>
      </trkpt>
      <trkpt lat="51.777724" lon="7.429359">
        <ele>55.254550</ele>
        <time>2020-06-04T10:54:06.000Z</time>
      </trkpt>
      <trkpt lat="51.777742" lon="7.429058">
        <ele>55.336395</ele>
        <time>2020-06-04T10:54:21.000Z</time>
      </trkpt>
      <trkpt lat="51.777767" lon="7.428763">
        <ele>55.416981</ele>
        <time>2020-06-04T10:54:37.000Z</time>
      </trkpt>
      <trkpt lat="51.777777" lon="7.428455">
        <ele>55.500456</ele>
        <time>2020-06-04T10:54:53.000Z</time>
      </trkpt>
      <trkpt lat="51.777772" lon="7.428152">
        <ele>55.582491</ele>
        <time>2020-06-04T10:55:08.000Z</time>
      </trkpt>
      <trkpt lat="51.777778" lon="7.427896">
        <ele>55.651827</ele>
        <time>2020-06-04T10:55:21.000Z</time>
      </trkpt>
      <trkpt lat="51.777793" lon="7.427604">
        <ele>55.731128</ele>
        <time>2020-06-04T10:55:36.000Z</time>
      </trkpt>
      <trkpt lat="51.777879" lon="7.427345">
        <ele>55.810683</ele>
        <time>2020-06-04T10:55:55.000Z</time>
      </trkpt>
      <trkpt lat="51.777896" lon="7.427279">
        <ele>55.830032</ele>
        <time>2020-06-04T10:56:00.000Z</time>
      </trkpt>
      <trkpt lat="51.777922" lon="7.427210">
        <ele>55.842983</ele>
        <time>2020-06-04T10:56:05.000Z</time>
      </trkpt>
      <trkpt lat="51.777979" lon="7.427064">
        <ele>55.867902</ele>
        <time>2020-06-04T10:56:16.000Z</time>
      </trkpt>
      <trkpt lat="51.778019" lon="7.426881">
        <ele>55.895916</ele>
        <time>2020-06-04T10:56:31.000Z</time>
      </trkpt>
      <trkpt lat="51.777902" lon="7.426827">
        <ele>55.924302</ele>
        <time>2020-06-04T10:58:01.000Z</time>
      </trkpt>
      <trkpt lat="51.777888" lon="7.426815">
        <ele>55.927999</ele>
        <time>2020-06-04T10:58:04.000Z</time>
      </trkpt>
      <trkpt lat="51.777715" lon="7.426785">
        <ele>55.968590</ele>
        <time>2020-06-04T10:58:23.000Z</time>
      </trkpt>
      <trkpt lat="51.777661" lon="7.426684">
        <ele>55.987857</ele>
        <time>2020-06-04T10:58:29.000Z</time>
      </trkpt>
      <trkpt lat="51.777566" lon="7.426438">
        <ele>56.029714</ele>
        <time>2020-06-04T10:58:43.000Z</time>
      </trkpt>
      <trkpt lat="51.777467" lon="7.426172">
        <ele>56.074520</ele>
        <time>2020-06-04T10:58:58.000Z</time>
      </trkpt>
      <trkpt lat="51.777355" lon="7.425923">
        <ele>56.118955</ele>
        <time>2020-06-04T10:59:14.000Z</time>
      </trkpt>
      <trkpt lat="51.777320" lon="7.425834">
        <ele>56.134177</ele>
        <time>2020-06-04T10:59:21.000Z</time>
      </trkpt>
      <trkpt lat="51.777303" lon="7.425816">
        <ele>56.138918</ele>
        <time>2020-06-04T10:59:23.000Z</time>
      </trkpt>
      <trkpt lat="51.777120" lon="7.425724">
        <ele>56.183628</ele>
        <time>2020-06-04T10:59:39.000Z</time>
      </trkpt>
      <trkpt lat="51.776940" lon="7.425675">
        <ele>56.226212</ele>
        <time>2020-06-04T10:59:53.000Z</time>
      </trkpt>
      <trkpt lat="51.776761" lon="7.425596">
        <ele>56.262358</ele>
        <time>2020-06-04T11:00:08.000Z</time>
      </trkpt>
      <trkpt lat="51.776641" lon="7.425571">
        <ele>56.278791</ele>
        <time>2020-06-04T11:00:19.000Z</time>
      </trkpt>
      <trkpt lat="51.776451" lon="7.425564">
        <ele>56.304603</ele>
        <time>2020-06-04T11:00:35.000Z</time>
      </trkpt>
      <trkpt lat="51.776262" lon="7.425596">
        <ele>56.330413</ele>
        <time>2020-06-04T11:00:51.000Z</time>
      </trkpt>
      <trkpt lat="51.776070" lon="7.425604">
        <ele>56.356498</ele>
        <time>2020-06-04T11:01:10.000Z</time>
      </trkpt>
      <trkpt lat="51.775980" lon="7.425615">
        <ele>56.368757</ele>
        <time>2020-06-04T11:01:20.000Z</time>
      </trkpt>
      <trkpt lat="51.775941" lon="7.425617">
        <ele>56.374056</ele>
        <time>2020-06-04T11:01:24.000Z</time>
      </trkpt>
      <trkpt lat="51.775911" lon="7.425620">
        <ele>56.378139</ele>
        <time>2020-06-04T11:01:26.000Z</time>
      </trkpt>
      <trkpt lat="51.775773" lon="7.425692">
        <ele>56.397834</ele>
        <time>2020-06-04T11:01:39.000Z</time>
      </trkpt>
      <trkpt lat="51.775742" lon="7.425714">
        <ele>56.402432</ele>
        <time>2020-06-04T11:01:42.000Z</time>
      </trkpt>
      <trkpt lat="51.775688" lon="7.425785">
        <ele>56.411887</ele>
        <time>2020-06-04T11:01:47.000Z</time>
      </trkpt>
      <trkpt lat="51.775527" lon="7.425943">
        <ele>56.437469</ele>
        <time>2020-06-04T11:02:03.000Z</time>
      </trkpt>
      <trkpt lat="51.775447" lon="7.426201">
        <ele>56.461721</ele>
        <time>2020-06-04T11:02:20.000Z</time>
      </trkpt>
      <trkpt lat="51.775367" lon="7.426480">
        <ele>56.487562</ele>
        <time>2020-06-04T11:02:37.000Z</time>
      </trkpt>
      <trkpt lat="51.775278" lon="7.426749">
        <ele>56.508507</ele>
        <time>2020-06-04T11:02:53.000Z</time>
      </trkpt>
      <trkpt lat="51.775227" lon="7.427030">
        <ele>56.526125</ele>
        <time>2020-06-04T11:03:08.000Z</time>
      </trkpt>
      <trkpt lat="51.775195" lon="7.427319">
        <ele>56.543787</ele>
        <time>2020-06-04T11:03:24.000Z</time>
      </trkpt>
      <trkpt lat="51.775075" lon="7.427550">
        <ele>56.561933</ele>
        <time>2020-06-04T11:03:39.000Z</time>
      </trkpt>
      <trkpt lat="51.774889" lon="7.427587">
        <ele>56.580154</ele>
        <time>2020-06-04T11:03:54.000Z</time>
      </trkpt>
      <trkpt lat="51.774710" lon="7.427630">
        <ele>56.597749</ele>
        <time>2020-06-04T11:04:08.000Z</time>
      </trkpt>
      <trkpt lat="51.774524" lon="7.427600">
        <ele>56.615923</ele>
        <time>2020-06-04T11:04:25.000Z</time>
      </trkpt>
      <trkpt lat="51.774347" lon="7.427707">
        <ele>56.634297</ele>
        <time>2020-06-04T11:04:41.000Z</time>
      </trkpt>
      <trkpt lat="51.774162" lon="7.427686">
        <ele>56.652329</ele>
        <time>2020-06-04T11:04:56.000Z</time>
      </trkpt>
      <trkpt lat="51.774132" lon="7.427666">
        <ele>56.655484</ele>
        <time>2020-06-04T11:05:00.000Z</time>
      </trkpt>
      <trkpt lat="51.774090" lon="7.427646">
        <ele>56.659741</ele>
        <time>2020-06-04T11:05:40.000Z</time>
      </trkpt>
      <trkpt lat="51.774066" lon="7.427629">
        <ele>56.662289</ele>
        <time>2020-06-04T11:05:53.000Z</time>
      </trkpt>
      <trkpt lat="51.774046" lon="7.427601">
        <ele>56.664862</ele>
        <time>2020-06-04T11:05:56.000Z</time>
      </trkpt>
      <trkpt lat="51.773896" lon="7.427423">
        <ele>56.677561</ele>
        <time>2020-06-04T11:06:17.000Z</time>
      </trkpt>
      <trkpt lat="51.773761" lon="7.427239">
        <ele>56.686594</ele>
        <time>2020-06-04T11:06:33.000Z</time>
      </trkpt>
      <trkpt lat="51.773608" lon="7.427301">
        <ele>56.694662</ele>
        <time>2020-06-04T11:06:51.000Z</time>
      </trkpt>
      <trkpt lat="51.773456" lon="7.427463">
        <ele>56.703976</ele>
        <time>2020-06-04T11:07:09.000Z</time>
      </trkpt>
      <trkpt lat="51.773318" lon="7.427666">
        <ele>56.713521</ele>
        <time>2020-06-04T11:07:25.000Z</time>
      </trkpt>
      <trkpt lat="51.773339" lon="7.427931">
        <ele>56.721976</ele>
        <time>2020-06-04T11:07:42.000Z</time>
      </trkpt>
      <trkpt lat="51.773435" lon="7.428183">
        <ele>56.731343</ele>
        <time>2020-06-04T11:07:58.000Z</time>
      </trkpt>
      <trkpt lat="51.773561" lon="7.428413">
        <ele>56.741065</ele>
        <time>2020-06-04T11:08:14.000Z</time>
      </trkpt>
      <trkpt lat="51.773652" lon="7.428679">
        <ele>56.750685</ele>
        <time>2020-06-04T11:08:31.000Z</time>
      </trkpt>
      <trkpt lat="51.773748" lon="7.428940">
        <ele>56.760295</ele>
        <time>2020-06-04T11:08:46.000Z</time>
      </trkpt>
      <trkpt lat="51.773853" lon="7.429202">
        <ele>56.748994</ele>
        <time>2020-06-04T11:09:01.000Z</time>
      </trkpt>
      <trkpt lat="51.773956" lon="7.429458">
        <ele>56.727649</ele>
        <time>2020-06-04T11:09:16.000Z</time>
      </trkpt>
      <trkpt lat="51.774048" lon="7.429709">
        <ele>56.707257</ele>
        <time>2020-06-04T11:09:32.000Z</time>
      </trkpt>
      <trkpt lat="51.774158" lon="7.429963">
        <ele>56.685587</ele>
        <time>2020-06-04T11:09:48.000Z</time>
      </trkpt>
      <trkpt lat="51.774243" lon="7.430224">
        <ele>56.664970</ele>
        <time>2020-06-04T11:10:04.000Z</time>
      </trkpt>
      <trkpt lat="51.774328" lon="7.430485">
        <ele>56.644354</ele>
        <time>2020-06-04T11:10:20.000Z</time>
      </trkpt>
      <trkpt lat="51.774418" lon="7.430742">
        <ele>56.623712</ele>
        <time>2020-06-04T11:10:36.000Z</time>
      </trkpt>
      <trkpt lat="51.774517" lon="7.431007">
        <ele>56.602075</ele>
        <time>2020-06-04T11:10:52.000Z</time>
      </trkpt>
      <trkpt lat="51.774592" lon="7.431285">
        <ele>56.580876</ele>
        <time>2020-06-04T11:11:09.000Z</time>
      </trkpt>
      <trkpt lat="51.774680" lon="7.431488">
        <ele>56.563551</ele>
        <time>2020-06-04T11:11:22.000Z</time>
      </trkpt>
      <trkpt lat="51.774704" lon="7.431552">
        <ele>56.552427</ele>
        <time>2020-06-04T11:11:27.000Z</time>
      </trkpt>
      <trkpt lat="51.774692" lon="7.431570">
        <ele>56.545306</ele>
        <time>2020-06-04T11:11:30.000Z</time>
      </trkpt>
      <trkpt lat="51.774526" lon="7.431670">
        <ele>56.468250</ele>
        <time>2020-06-04T11:11:50.000Z</time>
      </trkpt>
      <trkpt lat="51.774355" lon="7.431776">
        <ele>56.388589</ele>
        <time>2020-06-04T11:12:05.000Z</time>
      </trkpt>
      <trkpt lat="51.774181" lon="7.431900">
        <ele>56.305876</ele>
        <time>2020-06-04T11:12:20.000Z</time>
      </trkpt>
      <trkpt lat="51.774009" lon="7.432028">
        <ele>56.223513</ele>
        <time>2020-06-04T11:12:35.000Z</time>
      </trkpt>
      <trkpt lat="51.773840" lon="7.432151">
        <ele>56.142895</ele>
        <time>2020-06-04T11:12:50.000Z</time>
      </trkpt>
      <trkpt lat="51.773674" lon="7.432290">
        <ele>56.061577</ele>
        <time>2020-06-04T11:13:05.000Z</time>
      </trkpt>
      <trkpt lat="51.773613" lon="7.432302">
        <ele>56.034849</ele>
        <time>2020-06-04T11:13:11.000Z</time>
      </trkpt>
      <trkpt lat="51.773579" lon="7.432282">
        <ele>56.019111</ele>
        <time>2020-06-04T11:13:15.000Z</time>
      </trkpt>
      <trkpt lat="51.773397" lon="7.432379">
        <ele>55.935755</ele>
        <time>2020-06-04T11:13:34.000Z</time>
      </trkpt>
      <trkpt lat="51.773318" lon="7.432525">
        <ele>55.883556</ele>
        <time>2020-06-04T11:13:44.000Z</time>
      </trkpt>
      <trkpt lat="51.773215" lon="7.432775">
        <ele>55.802721</ele>
        <time>2020-06-04T11:13:59.000Z</time>
      </trkpt>
      <trkpt lat="51.773134" lon="7.433054">
        <ele>55.746317</ele>
        <time>2020-06-04T11:14:15.000Z</time>
      </trkpt>
      <trkpt lat="51.773124" lon="7.433092">
        <ele>55.740264</ele>
        <time>2020-06-04T11:14:17.000Z</time>
      </trkpt>
      <trkpt lat="51.773061" lon="7.433371">
        <ele>55.696729</ele>
        <time>2020-06-04T11:14:33.000Z</time>
      </trkpt>
      <trkpt lat="51.772993" lon="7.433645">
        <ele>55.653456</ele>
        <time>2020-06-04T11:14:50.000Z</time>
      </trkpt>
      <trkpt lat="51.772927" lon="7.433919">
        <ele>55.610357</ele>
        <time>2020-06-04T11:15:05.000Z</time>
      </trkpt>
      <trkpt lat="51.772877" lon="7.434212">
        <ele>55.565805</ele>
        <time>2020-06-04T11:15:21.000Z</time>
      </trkpt>
      <trkpt lat="51.772852" lon="7.434521">
        <ele>55.520125</ele>
        <time>2020-06-04T11:15:39.000Z</time>
      </trkpt>
      <trkpt lat="51.772806" lon="7.434806">
        <ele>55.476951</ele>
        <time>2020-06-04T11:15:55.000Z</time>
      </trkpt>
      <trkpt lat="51.772740" lon="7.435092">
        <ele>55.432208</ele>
        <time>2020-06-04T11:16:11.000Z</time>
      </trkpt>
      <trkpt lat="51.772733" lon="7.435398">
        <ele>55.387323</ele>
        <time>2020-06-04T11:16:28.000Z</time>
      </trkpt>
      <trkpt lat="51.772877" lon="7.435564">
        <ele>55.343397</ele>
        <time>2020-06-04T11:16:45.000Z</time>
      </trkpt>
      <trkpt lat="51.773028" lon="7.435737">
        <ele>55.286011</ele>
        <time>2020-06-04T11:17:02.000Z</time>
      </trkpt>
      <trkpt lat="51.773190" lon="7.435873">
        <ele>55.229412</ele>
        <time>2020-06-04T11:17:18.000Z</time>
      </trkpt>
      <trkpt lat="51.773349" lon="7.436022">
        <ele>55.172429</ele>
        <time>2020-06-04T11:17:33.000Z</time>
      </trkpt>
      <trkpt lat="51.773410" lon="7.436082">
        <ele>55.150289</ele>
        <time>2020-06-04T11:17:38.000Z</time>
      </trkpt>
      <trkpt lat="51.773558" lon="7.436253">
        <ele>55.093883</ele>
        <time>2020-06-04T11:17:52.000Z</time>
      </trkpt>
      <trkpt lat="51.773703" lon="7.436445">
        <ele>55.035765</ele>
        <time>2020-06-04T11:18:08.000Z</time>
      </trkpt>
      <trkpt lat="51.773852" lon="7.436627">
        <ele>54.977859</ele>
        <time>2020-06-04T11:18:26.000Z</time>
      </trkpt>
      <trkpt lat="51.773905" lon="7.436727">
        <ele>54.952600</ele>
        <time>2020-06-04T11:18:36.000Z</time>
      </trkpt>
      <trkpt lat="51.773848" lon="7.436897">
        <ele>54.915507</ele>
        <time>2020-06-04T11:18:48.000Z</time>
      </trkpt>
      <trkpt lat="51.773838" lon="7.436917">
        <ele>54.910574</ele>
        <time>2020-06-04T11:18:50.000Z</time>
      </trkpt>
      <trkpt lat="51.773735" lon="7.437154">
        <ele>54.855013</ele>
        <time>2020-06-04T11:19:10.000Z</time>
      </trkpt>
      <trkpt lat="51.773612" lon="7.437382">
        <ele>54.796984</ele>
        <time>2020-06-04T11:19:25.000Z</time>
      </trkpt>
      <trkpt lat="51.773484" lon="7.437594">
        <ele>54.767481</ele>
        <time>2020-06-04T11:19:41.000Z</time>
      </trkpt>
      <trkpt lat="51.773376" lon="7.437842">
        <ele>54.738644</ele>
        <time>2020-06-04T11:20:00.000Z</time>
      </trkpt>
      <trkpt lat="51.773351" lon="7.438102">
        <ele>54.713623</ele>
        <time>2020-06-04T11:20:15.000Z</time>
      </trkpt>
      <trkpt lat="51.773463" lon="7.438342">
        <ele>54.685038</ele>
        <time>2020-06-04T11:20:30.000Z</time>
      </trkpt>
      <trkpt lat="51.773595" lon="7.438541">
        <ele>54.657297</ele>
        <time>2020-06-04T11:20:45.000Z</time>
      </trkpt>
      <trkpt lat="51.773722" lon="7.438759">
        <ele>54.628825</ele>
        <time>2020-06-04T11:21:03.000Z</time>
      </trkpt>
      <trkpt lat="51.773865" lon="7.438976">
        <ele>54.598680</ele>
        <time>2020-06-04T11:21:19.000Z</time>
      </trkpt>
      <trkpt lat="51.773979" lon="7.439216">
        <ele>54.569909</ele>
        <time>2020-06-04T11:21:35.000Z</time>
      </trkpt>
      <trkpt lat="51.774125" lon="7.439427">
        <ele>54.539810</ele>
        <time>2020-06-04T11:21:53.000Z</time>
      </trkpt>
      <trkpt lat="51.774258" lon="7.439640">
        <ele>54.527501</ele>
        <time>2020-06-04T11:22:08.000Z</time>
      </trkpt>
      <trkpt lat="51.774329" lon="7.439923">
        <ele>54.567881</ele>
        <time>2020-06-04T11:22:22.000Z</time>
      </trkpt>
      <trkpt lat="51.774351" lon="7.440227">
        <ele>54.608352</ele>
        <time>2020-06-04T11:22:36.000Z</time>
      </trkpt>
      <trkpt lat="51.774361" lon="7.440537">
        <ele>54.649398</ele>
        <time>2020-06-04T11:22:51.000Z</time>
      </trkpt>
      <trkpt lat="51.774376" lon="7.440835">
        <ele>54.688932</ele>
        <time>2020-06-04T11:23:06.000Z</time>
      </trkpt>
      <trkpt lat="51.774440" lon="7.441017">
        <ele>54.716613</ele>
        <time>2020-06-04T11:23:17.000Z</time>
      </trkpt>
      <trkpt lat="51.774602" lon="7.441158">
        <ele>54.755933</ele>
        <time>2020-06-04T11:23:33.000Z</time>
      </trkpt>
      <trkpt lat="51.774777" lon="7.441277">
        <ele>54.796505</ele>
        <time>2020-06-04T11:23:50.000Z</time>
      </trkpt>
      <trkpt lat="51.774957" lon="7.441381">
        <ele>54.837355</ele>
        <time>2020-06-04T11:24:07.000Z</time>
      </trkpt>
      <trkpt lat="51.775016" lon="7.441424">
        <ele>54.851186</ele>
        <time>2020-06-04T11:24:13.000Z</time>
      </trkpt>
      <trkpt lat="51.775027" lon="7.441430">
        <ele>54.853667</ele>
        <time>2020-06-04T11:24:14.000Z</time>
      </trkpt>
      <trkpt lat="51.775146" lon="7.441467">
        <ele>54.879564</ele>
        <time>2020-06-04T11:24:25.000Z</time>
      </trkpt>
      <trkpt lat="51.775149" lon="7.441469">
        <ele>54.880257</ele>
        <time>2020-06-04T11:24:27.000Z</time>
      </trkpt>
      <trkpt lat="51.775186" lon="7.441441">
        <ele>54.888988</ele>
        <time>2020-06-04T11:24:32.000Z</time>
      </trkpt>
      <trkpt lat="51.775349" lon="7.441290">
        <ele>54.902290</ele>
        <time>2020-06-04T11:24:51.000Z</time>
      </trkpt>
      <trkpt lat="51.775440" lon="7.441024">
        <ele>54.902290</ele>
        <time>2020-06-04T11:25:07.000Z</time>
      </trkpt>
      <trkpt lat="51.775563" lon="7.440790">
        <ele>54.902290</ele>
        <time>2020-06-04T11:25:23.000Z</time>
      </trkpt>
      <trkpt lat="51.775721" lon="7.440632">
        <ele>54.902290</ele>
        <time>2020-06-04T11:25:39.000Z</time>
      </trkpt>
      <trkpt lat="51.775895" lon="7.440527">
        <ele>54.902290</ele>
        <time>2020-06-04T11:25:55.000Z</time>
      </trkpt>
      <trkpt lat="51.775966" lon="7.440478">
        <ele>54.902290</ele>
        <time>2020-06-04T11:26:03.000Z</time>
      </trkpt>
      <trkpt lat="51.775993" lon="7.440449">
        <ele>54.902290</ele>
        <time>2020-06-04T11:26:06.000Z</time>
      </trkpt>
      <trkpt lat="51.776171" lon="7.440361">
        <ele>54.902290</ele>
        <time>2020-06-04T11:26:21.000Z</time>
      </trkpt>
      <trkpt lat="51.776321" lon="7.440329">
        <ele>54.902290</ele>
        <time>2020-06-04T11:26:37.000Z</time>
      </trkpt>
      <trkpt lat="51.776383" lon="7.440355">
        <ele>54.902290</ele>
        <time>2020-06-04T11:27:15.000Z</time>
      </trkpt>
      <trkpt lat="51.776403" lon="7.440581">
        <ele>54.902290</ele>
        <time>2020-06-04T11:29:04.000Z</time>
      </trkpt>
      <trkpt lat="51.776382" lon="7.440640">
        <ele>54.902290</ele>
        <time>2020-06-04T11:30:09.000Z</time>
      </trkpt>
      <trkpt lat="51.776394" lon="7.440602">
        <ele>54.902290</ele>
        <time>2020-06-04T11:31:38.000Z</time>
      </trkpt>
      <trkpt lat="51.776376" lon="7.440638">
        <ele>54.902290</ele>
        <time>2020-06-04T11:33:36.000Z</time>
      </trkpt>
      <trkpt lat="51.776522" lon="7.440484">
        <ele>54.902290</ele>
        <time>2020-06-04T11:34:02.000Z</time>
      </trkpt>
      <trkpt lat="51.776559" lon="7.440476">
        <ele>54.902290</ele>
        <time>2020-06-04T11:34:06.000Z</time>
      </trkpt>
      <trkpt lat="51.776656" lon="7.440463">
        <ele>54.902290</ele>
        <time>2020-06-04T11:34:15.000Z</time>
      </trkpt>
      <trkpt lat="51.776833" lon="7.440415">
        <ele>54.902290</ele>
        <time>2020-06-04T11:34:34.000Z</time>
      </trkpt>
      <trkpt lat="51.776892" lon="7.440348">
        <ele>54.902290</ele>
        <time>2020-06-04T11:34:40.000Z</time>
      </trkpt>
      <trkpt lat="51.776953" lon="7.440282">
        <ele>54.902290</ele>
        <time>2020-06-04T11:34:47.000Z</time>
      </trkpt>
    </trkseg>
  </trk>
</gpx>