<?xml version='1.0' encoding='UTF-8'?>
<gpx version="1.1" creator="https://www.komoot.de" xmlns="http://www.topografix.com/GPX/1/1" xmlns:xsi="http://www.w3.org/2001/XMLSchema-instance" xsi:schemaLocation="http://www.topografix.com/GPX/1/1 http://www.topografix.com/GPX/1/1/gpx.xsd">
  <metadata>
    <name>PW NETTERSHEIM 10 KM</name>
    <author>
      <link href="https://www.komoot.de">
        <text>komoot</text>
        <type>text/html</type>
      </link>
    </author>
  </metadata>
  <trk>
    <name>PW NETTERSHEIM 10 KM</name>
    <trkseg>
      <trkpt lat="50.494418" lon="6.632755">
        <ele>447.438520</ele>
        <time>2024-03-23T08:32:20.554Z</time>
      </trkpt>
      <trkpt lat="50.494392" lon="6.632782">
        <ele>447.438520</ele>
        <time>2024-03-23T08:32:23.654Z</time>
      </trkpt>
      <trkpt lat="50.494333" lon="6.632845">
        <ele>447.438520</ele>
        <time>2024-03-23T08:32:30.888Z</time>
      </trkpt>
      <trkpt lat="50.494177" lon="6.632935">
        <ele>447.438520</ele>
        <time>2024-03-23T08:32:47.667Z</time>
      </trkpt>
      <trkpt lat="50.494211" lon="6.632821">
        <ele>447.438520</ele>
        <time>2024-03-23T08:32:55.859Z</time>
      </trkpt>
      <trkpt lat="50.494242" lon="6.632716">
        <ele>447.438520</ele>
        <time>2024-03-23T08:33:03.300Z</time>
      </trkpt>
      <trkpt lat="50.494281" lon="6.632587">
        <ele>447.438520</ele>
        <time>2024-03-23T08:33:12.432Z</time>
      </trkpt>
      <trkpt lat="50.494357" lon="6.632329">
        <ele>447.438520</ele>
        <time>2024-03-23T08:33:30.715Z</time>
      </trkpt>
      <trkpt lat="50.494441" lon="6.632054">
        <ele>447.438520</ele>
        <time>2024-03-23T08:33:50.268Z</time>
      </trkpt>
      <trkpt lat="50.494465" lon="6.631976">
        <ele>447.407490</ele>
        <time>2024-03-23T08:33:55.787Z</time>
      </trkpt>
      <trkpt lat="50.494661" lon="6.631569">
        <ele>447.178413</ele>
        <time>2024-03-23T08:34:28.391Z</time>
      </trkpt>
      <trkpt lat="50.494743" lon="6.631454">
        <ele>447.100892</ele>
        <time>2024-03-23T08:34:39.530Z</time>
      </trkpt>
      <trkpt lat="50.495476" lon="6.630425">
        <ele>446.407638</ele>
        <time>2024-03-23T08:36:19.477Z</time>
      </trkpt>
      <trkpt lat="50.495575" lon="6.630237">
        <ele>446.298117</ele>
        <time>2024-03-23T08:36:35.278Z</time>
      </trkpt>
      <trkpt lat="50.495696" lon="6.630008">
        <ele>446.160420</ele>
        <time>2024-03-23T08:36:54.596Z</time>
      </trkpt>
      <trkpt lat="50.495710" lon="6.629953">
        <ele>446.112743</ele>
        <time>2024-03-23T08:36:58.462Z</time>
      </trkpt>
      <trkpt lat="50.495855" lon="6.629421">
        <ele>445.646939</ele>
        <time>2024-03-23T08:37:36.051Z</time>
      </trkpt>
      <trkpt lat="50.496017" lon="6.628819">
        <ele>445.120876</ele>
        <time>2024-03-23T08:38:18.706Z</time>
      </trkpt>
      <trkpt lat="50.496158" lon="6.628546">
        <ele>444.837865</ele>
        <time>2024-03-23T08:38:41.634Z</time>
      </trkpt>
      <trkpt lat="50.496383" lon="6.628112">
        <ele>444.387275</ele>
        <time>2024-03-23T08:39:18.239Z</time>
      </trkpt>
      <trkpt lat="50.496685" lon="6.627763">
        <ele>443.913067</ele>
        <time>2024-03-23T08:39:57.238Z</time>
      </trkpt>
      <trkpt lat="50.496948" lon="6.627461">
        <ele>443.678330</ele>
        <time>2024-03-23T08:40:30.993Z</time>
      </trkpt>
      <trkpt lat="50.497317" lon="6.627026">
        <ele>443.357999</ele>
        <time>2024-03-23T08:41:18.309Z</time>
      </trkpt>
      <trkpt lat="50.497467" lon="6.626868">
        <ele>443.232598</ele>
        <time>2024-03-23T08:41:36.792Z</time>
      </trkpt>
      <trkpt lat="50.497697" lon="6.626680">
        <ele>443.052556</ele>
        <time>2024-03-23T08:42:02.825Z</time>
      </trkpt>
      <trkpt lat="50.497994" lon="6.626437">
        <ele>442.820020</ele>
        <time>2024-03-23T08:42:36.409Z</time>
      </trkpt>
      <trkpt lat="50.498159" lon="6.626392">
        <ele>442.703712</ele>
        <time>2024-03-23T08:42:53.334Z</time>
      </trkpt>
      <trkpt lat="50.498850" lon="6.626411">
        <ele>442.657636</ele>
        <time>2024-03-23T08:44:03.408Z</time>
      </trkpt>
      <trkpt lat="50.498916" lon="6.626414">
        <ele>442.659017</ele>
        <time>2024-03-23T08:44:10.017Z</time>
      </trkpt>
      <trkpt lat="50.499113" lon="6.626422">
        <ele>442.663141</ele>
        <time>2024-03-23T08:44:29.967Z</time>
      </trkpt>
      <trkpt lat="50.499308" lon="6.626291">
        <ele>442.667578</ele>
        <time>2024-03-23T08:44:51.213Z</time>
      </trkpt>
      <trkpt lat="50.499518" lon="6.626005">
        <ele>442.673392</ele>
        <time>2024-03-23T08:45:18.993Z</time>
      </trkpt>
      <trkpt lat="50.499817" lon="6.625480">
        <ele>442.670609</ele>
        <time>2024-03-23T08:46:04.007Z</time>
      </trkpt>
      <trkpt lat="50.500089" lon="6.624931">
        <ele>442.086782</ele>
        <time>2024-03-23T08:46:48.767Z</time>
      </trkpt>
      <trkpt lat="50.500343" lon="6.624420">
        <ele>441.542696</ele>
        <time>2024-03-23T08:47:31.320Z</time>
      </trkpt>
      <trkpt lat="50.500557" lon="6.624075">
        <ele>441.138412</ele>
        <time>2024-03-23T08:48:03.004Z</time>
      </trkpt>
      <trkpt lat="50.500782" lon="6.623838">
        <ele>440.781193</ele>
        <time>2024-03-23T08:48:31.082Z</time>
      </trkpt>
      <trkpt lat="50.500949" lon="6.623757">
        <ele>440.550681</ele>
        <time>2024-03-23T08:48:49.215Z</time>
      </trkpt>
      <trkpt lat="50.501086" lon="6.623745">
        <ele>440.369703</ele>
        <time>2024-03-23T08:49:03.494Z</time>
      </trkpt>
      <trkpt lat="50.501330" lon="6.623833">
        <ele>440.032794</ele>
        <time>2024-03-23T08:49:29.577Z</time>
      </trkpt>
      <trkpt lat="50.501488" lon="6.623889">
        <ele>439.813863</ele>
        <time>2024-03-23T08:49:46.380Z</time>
      </trkpt>
      <trkpt lat="50.501697" lon="6.624001">
        <ele>439.515394</ele>
        <time>2024-03-23T08:50:09.408Z</time>
      </trkpt>
      <trkpt lat="50.502138" lon="6.624370">
        <ele>438.840123</ele>
        <time>2024-03-23T08:51:01.344Z</time>
      </trkpt>
      <trkpt lat="50.502469" lon="6.624701">
        <ele>438.309870</ele>
        <time>2024-03-23T08:51:41.325Z</time>
      </trkpt>
      <trkpt lat="50.503182" lon="6.625170">
        <ele>437.993031</ele>
        <time>2024-03-23T08:52:59.268Z</time>
      </trkpt>
      <trkpt lat="50.503314" lon="6.625288">
        <ele>438.031168</ele>
        <time>2024-03-23T08:53:14.473Z</time>
      </trkpt>
      <trkpt lat="50.504348" lon="6.626107">
        <ele>438.321959</ele>
        <time>2024-03-23T08:55:12.962Z</time>
      </trkpt>
      <trkpt lat="50.504371" lon="6.626125">
        <ele>438.328411</ele>
        <time>2024-03-23T08:55:15.604Z</time>
      </trkpt>
      <trkpt lat="50.504583" lon="6.626239">
        <ele>438.245231</ele>
        <time>2024-03-23T08:55:38.490Z</time>
      </trkpt>
      <trkpt lat="50.504849" lon="6.626246">
        <ele>438.139379</ele>
        <time>2024-03-23T08:56:05.788Z</time>
      </trkpt>
      <trkpt lat="50.505180" lon="6.626117">
        <ele>438.003693</ele>
        <time>2024-03-23T08:56:40.028Z</time>
      </trkpt>
      <trkpt lat="50.505489" lon="6.625930">
        <ele>437.871953</ele>
        <time>2024-03-23T08:57:13.509Z</time>
      </trkpt>
      <trkpt lat="50.505879" lon="6.625492">
        <ele>437.681258</ele>
        <time>2024-03-23T08:58:02.622Z</time>
      </trkpt>
      <trkpt lat="50.506473" lon="6.624750">
        <ele>436.701248</ele>
        <time>2024-03-23T08:59:21.389Z</time>
      </trkpt>
      <trkpt lat="50.506659" lon="6.624580">
        <ele>436.369311</ele>
        <time>2024-03-23T08:59:43.762Z</time>
      </trkpt>
      <trkpt lat="50.507061" lon="6.624394">
        <ele>435.722776</ele>
        <time>2024-03-23T09:00:27.027Z</time>
      </trkpt>
      <trkpt lat="50.507597" lon="6.624233">
        <ele>434.880837</ele>
        <time>2024-03-23T09:01:23.364Z</time>
      </trkpt>
      <trkpt lat="50.507886" lon="6.624146">
        <ele>434.689360</ele>
        <time>2024-03-23T09:01:53.650Z</time>
      </trkpt>
      <trkpt lat="50.508068" lon="6.624064">
        <ele>434.582869</ele>
        <time>2024-03-23T09:02:13.030Z</time>
      </trkpt>
      <trkpt lat="50.508460" lon="6.623731">
        <ele>434.332258</ele>
        <time>2024-03-23T09:02:58.138Z</time>
      </trkpt>
      <trkpt lat="50.508704" lon="6.623470">
        <ele>434.166268</ele>
        <time>2024-03-23T09:03:27.750Z</time>
      </trkpt>
      <trkpt lat="50.509057" lon="6.622868">
        <ele>433.873357</ele>
        <time>2024-03-23T09:04:20.010Z</time>
      </trkpt>
      <trkpt lat="50.509306" lon="6.622605">
        <ele>433.769679</ele>
        <time>2024-03-23T09:04:50.128Z</time>
      </trkpt>
      <trkpt lat="50.509777" lon="6.622258">
        <ele>433.631027</ele>
        <time>2024-03-23T09:05:42.478Z</time>
      </trkpt>
      <trkpt lat="50.510029" lon="6.622018">
        <ele>433.552490</ele>
        <time>2024-03-23T09:06:12.279Z</time>
      </trkpt>
      <trkpt lat="50.510191" lon="6.621715">
        <ele>433.485384</ele>
        <time>2024-03-23T09:06:37.682Z</time>
      </trkpt>
      <trkpt lat="50.510502" lon="6.620937">
        <ele>433.322904</ele>
        <time>2024-03-23T09:07:36.600Z</time>
      </trkpt>
      <trkpt lat="50.510850" lon="6.620525">
        <ele>433.166280</ele>
        <time>2024-03-23T09:08:20.445Z</time>
      </trkpt>
      <trkpt lat="50.510866" lon="6.620491">
        <ele>433.156609</ele>
        <time>2024-03-23T09:08:23.118Z</time>
      </trkpt>
      <trkpt lat="50.511115" lon="6.619982">
        <ele>433.009773</ele>
        <time>2024-03-23T09:09:04.144Z</time>
      </trkpt>
      <trkpt lat="50.511451" lon="6.619379">
        <ele>432.826455</ele>
        <time>2024-03-23T09:09:55.468Z</time>
      </trkpt>
      <trkpt lat="50.511982" lon="6.618669">
        <ele>432.407816</ele>
        <time>2024-03-23T09:11:06.228Z</time>
      </trkpt>
      <trkpt lat="50.512077" lon="6.618443">
        <ele>432.263433</ele>
        <time>2024-03-23T09:11:23.738Z</time>
      </trkpt>
      <trkpt lat="50.512220" lon="6.617862">
        <ele>431.931404</ele>
        <time>2024-03-23T09:12:04.035Z</time>
      </trkpt>
      <trkpt lat="50.512321" lon="6.617626">
        <ele>431.779796</ele>
        <time>2024-03-23T09:12:22.461Z</time>
      </trkpt>
      <trkpt lat="50.512773" lon="6.616922">
        <ele>431.246624</ele>
        <time>2024-03-23T09:13:27.366Z</time>
      </trkpt>
      <trkpt lat="50.513493" lon="6.615651">
        <ele>430.253159</ele>
        <time>2024-03-23T09:15:18.327Z</time>
      </trkpt>
      <trkpt lat="50.513906" lon="6.614530">
        <ele>429.499751</ele>
        <time>2024-03-23T09:16:42.006Z</time>
      </trkpt>
      <trkpt lat="50.514130" lon="6.613921">
        <ele>429.152802</ele>
        <time>2024-03-23T09:17:27.098Z</time>
      </trkpt>
      <trkpt lat="50.514099" lon="6.613668">
        <ele>429.025741</ele>
        <time>2024-03-23T09:17:43.889Z</time>
      </trkpt>
      <trkpt lat="50.514087" lon="6.613219">
        <ele>428.804123</ele>
        <time>2024-03-23T09:18:12.710Z</time>
      </trkpt>
      <trkpt lat="50.514200" lon="6.612175">
        <ele>428.281874</ele>
        <time>2024-03-23T09:19:21.349Z</time>
      </trkpt>
      <trkpt lat="50.514185" lon="6.611979">
        <ele>428.184520</ele>
        <time>2024-03-23T09:19:34.331Z</time>
      </trkpt>
      <trkpt lat="50.513998" lon="6.611073">
        <ele>427.829569</ele>
        <time>2024-03-23T09:20:36.339Z</time>
      </trkpt>
      <trkpt lat="50.513866" lon="6.609388">
        <ele>427.218212</ele>
        <time>2024-03-23T09:22:25.629Z</time>
      </trkpt>
      <trkpt lat="50.513859" lon="6.608968">
        <ele>427.179272</ele>
        <time>2024-03-23T09:22:52.422Z</time>
      </trkpt>
      <trkpt lat="50.513777" lon="6.608727">
        <ele>427.282760</ele>
        <time>2024-03-23T09:23:10.482Z</time>
      </trkpt>
      <trkpt lat="50.513524" lon="6.608318">
        <ele>427.498798</ele>
        <time>2024-03-23T09:23:47.606Z</time>
      </trkpt>
      <trkpt lat="50.513397" lon="6.608069">
        <ele>427.619654</ele>
        <time>2024-03-23T09:24:08.035Z</time>
      </trkpt>
      <trkpt lat="50.513322" lon="6.607791">
        <ele>427.733992</ele>
        <time>2024-03-23T09:24:28.274Z</time>
      </trkpt>
      <trkpt lat="50.513223" lon="6.606680">
        <ele>428.158753</ele>
        <time>2024-03-23T09:25:41.997Z</time>
      </trkpt>
      <trkpt lat="50.513027" lon="6.605332">
        <ele>428.608247</ele>
        <time>2024-03-23T09:27:10.993Z</time>
      </trkpt>
      <trkpt lat="50.512831" lon="6.604644">
        <ele>428.850516</ele>
        <time>2024-03-23T09:27:59.421Z</time>
      </trkpt>
      <trkpt lat="50.512786" lon="6.604486">
        <ele>428.906151</ele>
        <time>2024-03-23T09:28:10.579Z</time>
      </trkpt>
      <trkpt lat="50.512617" lon="6.603451">
        <ele>429.488270</ele>
        <time>2024-03-23T09:29:19.697Z</time>
      </trkpt>
      <trkpt lat="50.512680" lon="6.602011">
        <ele>430.700479</ele>
        <time>2024-03-23T09:30:58.114Z</time>
      </trkpt>
      <trkpt lat="50.512762" lon="6.601947">
        <ele>430.821379</ele>
        <time>2024-03-23T09:31:07.895Z</time>
      </trkpt>
      <trkpt lat="50.512832" lon="6.601683">
        <ele>431.061595</ele>
        <time>2024-03-23T09:31:27.650Z</time>
      </trkpt>
      <trkpt lat="50.512985" lon="6.600654">
        <ele>430.755474</ele>
        <time>2024-03-23T09:32:36.528Z</time>
      </trkpt>
      <trkpt lat="50.512967" lon="6.600520">
        <ele>430.579675</ele>
        <time>2024-03-23T09:32:45.511Z</time>
      </trkpt>
      <trkpt lat="50.512974" lon="6.600318">
        <ele>430.320002</ele>
        <time>2024-03-23T09:32:58.674Z</time>
      </trkpt>
      <trkpt lat="50.513143" lon="6.599729">
        <ele>429.490559</ele>
        <time>2024-03-23T09:33:42.304Z</time>
      </trkpt>
      <trkpt lat="50.513215" lon="6.599238">
        <ele>428.843771</ele>
        <time>2024-03-23T09:34:15.547Z</time>
      </trkpt>
      <trkpt lat="50.513177" lon="6.599239">
        <ele>428.767055</ele>
        <time>2024-03-23T09:34:20.340Z</time>
      </trkpt>
      <trkpt lat="50.513146" lon="6.599198">
        <ele>428.685291</ele>
        <time>2024-03-23T09:34:24.767Z</time>
      </trkpt>
      <trkpt lat="50.513027" lon="6.598918">
        <ele>428.253001</ele>
        <time>2024-03-23T09:34:47.132Z</time>
      </trkpt>
      <trkpt lat="50.512924" lon="6.598759">
        <ele>427.961657</ele>
        <time>2024-03-23T09:35:03.457Z</time>
      </trkpt>
      <trkpt lat="50.512803" lon="6.598634">
        <ele>427.505384</ele>
        <time>2024-03-23T09:35:18.923Z</time>
      </trkpt>
      <trkpt lat="50.512563" lon="6.598468">
        <ele>426.485428</ele>
        <time>2024-03-23T09:35:48.195Z</time>
      </trkpt>
      <trkpt lat="50.512220" lon="6.598083">
        <ele>424.846068</ele>
        <time>2024-03-23T09:36:34.745Z</time>
      </trkpt>
      <trkpt lat="50.512057" lon="6.597749">
        <ele>423.804546</ele>
        <time>2024-03-23T09:37:04.440Z</time>
      </trkpt>
      <trkpt lat="50.511931" lon="6.597349">
        <ele>422.700274</ele>
        <time>2024-03-23T09:37:34.796Z</time>
      </trkpt>
      <trkpt lat="50.511848" lon="6.596840">
        <ele>421.400362</ele>
        <time>2024-03-23T09:38:10.307Z</time>
      </trkpt>
      <trkpt lat="50.511787" lon="6.596720">
        <ele>421.020314</ele>
        <time>2024-03-23T09:38:20.576Z</time>
      </trkpt>
      <trkpt lat="50.511716" lon="6.596619">
        <ele>420.840802</ele>
        <time>2024-03-23T09:38:30.500Z</time>
      </trkpt>
      <trkpt lat="50.511635" lon="6.596575">
        <ele>420.826663</ele>
        <time>2024-03-23T09:38:39.328Z</time>
      </trkpt>
      <trkpt lat="50.511409" lon="6.596642">
        <ele>420.788721</ele>
        <time>2024-03-23T09:39:03.101Z</time>
      </trkpt>
      <trkpt lat="50.511437" lon="6.596441">
        <ele>420.767133</ele>
        <time>2024-03-23T09:39:16.289Z</time>
      </trkpt>
      <trkpt lat="50.511382" lon="6.596322">
        <ele>420.751699</ele>
        <time>2024-03-23T09:39:25.736Z</time>
      </trkpt>
      <trkpt lat="50.511313" lon="6.596193">
        <ele>420.734014</ele>
        <time>2024-03-23T09:39:36.672Z</time>
      </trkpt>
      <trkpt lat="50.511244" lon="6.596014">
        <ele>420.712054</ele>
        <time>2024-03-23T09:39:50.303Z</time>
      </trkpt>
      <trkpt lat="50.511106" lon="6.595994">
        <ele>420.689190</ele>
        <time>2024-03-23T09:40:04.197Z</time>
      </trkpt>
      <trkpt lat="50.511057" lon="6.596031">
        <ele>420.680222</ele>
        <time>2024-03-23T09:40:09.636Z</time>
      </trkpt>
      <trkpt lat="50.511025" lon="6.596120">
        <ele>420.669496</ele>
        <time>2024-03-23T09:40:16.191Z</time>
      </trkpt>
      <trkpt lat="50.511019" lon="6.596656">
        <ele>420.613252</ele>
        <time>2024-03-23T09:40:51.081Z</time>
      </trkpt>
      <trkpt lat="50.511093" lon="6.597484">
        <ele>420.789479</ele>
        <time>2024-03-23T09:41:46.683Z</time>
      </trkpt>
      <trkpt lat="50.511169" lon="6.598035">
        <ele>421.306939</ele>
        <time>2024-03-23T09:42:24.394Z</time>
      </trkpt>
      <trkpt lat="50.511219" lon="6.598295">
        <ele>421.556236</ele>
        <time>2024-03-23T09:42:42.329Z</time>
      </trkpt>
      <trkpt lat="50.511678" lon="6.600038">
        <ele>423.411014</ele>
        <time>2024-03-23T09:44:48.263Z</time>
      </trkpt>
      <trkpt lat="50.511755" lon="6.600331">
        <ele>423.959791</ele>
        <time>2024-03-23T09:45:09.869Z</time>
      </trkpt>
      <trkpt lat="50.511853" lon="6.600948">
        <ele>425.060607</ele>
        <time>2024-03-23T09:45:54.263Z</time>
      </trkpt>
      <trkpt lat="50.511932" lon="6.601942">
        <ele>426.794572</ele>
        <time>2024-03-23T09:47:06.031Z</time>
      </trkpt>
      <trkpt lat="50.511944" lon="6.602479">
        <ele>427.724673</ele>
        <time>2024-03-23T09:47:43.846Z</time>
      </trkpt>
      <trkpt lat="50.512017" lon="6.603073">
        <ele>428.467807</ele>
        <time>2024-03-23T09:48:25.915Z</time>
      </trkpt>
      <trkpt lat="50.512079" lon="6.603665">
        <ele>429.072274</ele>
        <time>2024-03-23T09:49:06.989Z</time>
      </trkpt>
      <trkpt lat="50.512097" lon="6.605613">
        <ele>430.850099</ele>
        <time>2024-03-23T09:51:16.865Z</time>
      </trkpt>
      <trkpt lat="50.512121" lon="6.605899">
        <ele>430.759764</ele>
        <time>2024-03-23T09:51:35.272Z</time>
      </trkpt>
      <trkpt lat="50.512263" lon="6.605932">
        <ele>430.689080</ele>
        <time>2024-03-23T09:51:49.922Z</time>
      </trkpt>
      <trkpt lat="50.512321" lon="6.605937">
        <ele>430.660477</ele>
        <time>2024-03-23T09:51:55.870Z</time>
      </trkpt>
      <trkpt lat="50.512355" lon="6.605988">
        <ele>430.637339</ele>
        <time>2024-03-23T09:52:00.718Z</time>
      </trkpt>
      <trkpt lat="50.512385" lon="6.606108">
        <ele>430.596963</ele>
        <time>2024-03-23T09:52:09.136Z</time>
      </trkpt>
      <trkpt lat="50.512387" lon="6.606241">
        <ele>430.555303</ele>
        <time>2024-03-23T09:52:17.791Z</time>
      </trkpt>
      <trkpt lat="50.512383" lon="6.606321">
        <ele>430.530175</ele>
        <time>2024-03-23T09:52:22.952Z</time>
      </trkpt>
      <trkpt lat="50.512468" lon="6.606759">
        <ele>430.386775</ele>
        <time>2024-03-23T09:52:52.663Z</time>
      </trkpt>
      <trkpt lat="50.512423" lon="6.607056">
        <ele>430.291169</ele>
        <time>2024-03-23T09:53:12.473Z</time>
      </trkpt>
      <trkpt lat="50.512402" lon="6.607399">
        <ele>430.183266</ele>
        <time>2024-03-23T09:53:34.859Z</time>
      </trkpt>
      <trkpt lat="50.512414" lon="6.608235">
        <ele>430.072118</ele>
        <time>2024-03-23T09:54:28.971Z</time>
      </trkpt>
      <trkpt lat="50.512345" lon="6.608350">
        <ele>430.108525</ele>
        <time>2024-03-23T09:54:39.056Z</time>
      </trkpt>
      <trkpt lat="50.512262" lon="6.608827">
        <ele>430.222401</ele>
        <time>2024-03-23T09:55:10.701Z</time>
      </trkpt>
      <trkpt lat="50.512488" lon="6.609645">
        <ele>430.427769</ele>
        <time>2024-03-23T09:56:08.027Z</time>
      </trkpt>
      <trkpt lat="50.512723" lon="6.610562">
        <ele>430.655425</ele>
        <time>2024-03-23T09:57:13.417Z</time>
      </trkpt>
      <trkpt lat="50.512848" lon="6.610797">
        <ele>431.144986</ele>
        <time>2024-03-23T09:57:34.007Z</time>
      </trkpt>
      <trkpt lat="50.512866" lon="6.610892">
        <ele>431.311818</ele>
        <time>2024-03-23T09:57:40.749Z</time>
      </trkpt>
      <trkpt lat="50.512854" lon="6.611016">
        <ele>431.522915</ele>
        <time>2024-03-23T09:57:49.021Z</time>
      </trkpt>
      <trkpt lat="50.512887" lon="6.611065">
        <ele>431.643036</ele>
        <time>2024-03-23T09:57:53.692Z</time>
      </trkpt>
      <trkpt lat="50.512781" lon="6.611391">
        <ele>432.259263</ele>
        <time>2024-03-23T09:58:18.706Z</time>
      </trkpt>
      <trkpt lat="50.512714" lon="6.611475">
        <ele>432.486046</ele>
        <time>2024-03-23T09:58:27.795Z</time>
      </trkpt>
      <trkpt lat="50.512670" lon="6.611488">
        <ele>432.604536</ele>
        <time>2024-03-23T09:58:32.588Z</time>
      </trkpt>
      <trkpt lat="50.512690" lon="6.611631">
        <ele>432.850960</ele>
        <time>2024-03-23T09:58:42.658Z</time>
      </trkpt>
      <trkpt lat="50.512868" lon="6.613119">
        <ele>435.399214</ele>
        <time>2024-03-23T10:00:30.274Z</time>
      </trkpt>
      <trkpt lat="50.512867" lon="6.613449">
        <ele>435.960385</ele>
        <time>2024-03-23T10:00:54.412Z</time>
      </trkpt>
      <trkpt lat="50.512864" lon="6.613466">
        <ele>435.990398</ele>
        <time>2024-03-23T10:00:55.782Z</time>
      </trkpt>
      <trkpt lat="50.512773" lon="6.613981">
        <ele>436.899699</ele>
        <time>2024-03-23T10:01:35.257Z</time>
      </trkpt>
      <trkpt lat="50.512653" lon="6.614243">
        <ele>437.448984</ele>
        <time>2024-03-23T10:01:57.732Z</time>
      </trkpt>
      <trkpt lat="50.512319" lon="6.614585">
        <ele>438.515227</ele>
        <time>2024-03-23T10:02:40.854Z</time>
      </trkpt>
      <trkpt lat="50.512102" lon="6.614880">
        <ele>439.282599</ele>
        <time>2024-03-23T10:03:11.278Z</time>
      </trkpt>
      <trkpt lat="50.511699" lon="6.615550">
        <ele>440.549581</ele>
        <time>2024-03-23T10:04:13.563Z</time>
      </trkpt>
      <trkpt lat="50.511570" lon="6.615816">
        <ele>440.841470</ele>
        <time>2024-03-23T10:04:35.302Z</time>
      </trkpt>
      <trkpt lat="50.511363" lon="6.616126">
        <ele>441.233689</ele>
        <time>2024-03-23T10:05:06.046Z</time>
      </trkpt>
      <trkpt lat="50.511004" lon="6.616589">
        <ele>441.870754</ele>
        <time>2024-03-23T10:05:55.690Z</time>
      </trkpt>
      <trkpt lat="50.510408" lon="6.617198">
        <ele>442.756674</ele>
        <time>2024-03-23T10:07:08.392Z</time>
      </trkpt>
      <trkpt lat="50.509808" lon="6.617742">
        <ele>443.127165</ele>
        <time>2024-03-23T10:08:19.705Z</time>
      </trkpt>
      <trkpt lat="50.509546" lon="6.618055">
        <ele>443.303179</ele>
        <time>2024-03-23T10:08:54.124Z</time>
      </trkpt>
      <trkpt lat="50.509392" lon="6.618357">
        <ele>443.434867</ele>
        <time>2024-03-23T10:09:19.335Z</time>
      </trkpt>
      <trkpt lat="50.509187" lon="6.618868">
        <ele>443.640404</ele>
        <time>2024-03-23T10:09:58.006Z</time>
      </trkpt>
      <trkpt lat="50.508811" lon="6.619902">
        <ele>443.908447</ele>
        <time>2024-03-23T10:11:15.167Z</time>
      </trkpt>
      <trkpt lat="50.508241" lon="6.621468">
        <ele>444.436621</ele>
        <time>2024-03-23T10:13:12.411Z</time>
      </trkpt>
      <trkpt lat="50.508085" lon="6.621723">
        <ele>444.966654</ele>
        <time>2024-03-23T10:13:36.776Z</time>
      </trkpt>
      <trkpt lat="50.507919" lon="6.621913">
        <ele>445.450280</ele>
        <time>2024-03-23T10:13:58.564Z</time>
      </trkpt>
      <trkpt lat="50.507767" lon="6.622038">
        <ele>445.854319</ele>
        <time>2024-03-23T10:14:17.583Z</time>
      </trkpt>
      <trkpt lat="50.507286" lon="6.622316">
        <ele>447.061406</ele>
        <time>2024-03-23T10:15:13.618Z</time>
      </trkpt>
      <trkpt lat="50.506752" lon="6.622467">
        <ele>448.339397</ele>
        <time>2024-03-23T10:16:14.418Z</time>
      </trkpt>
      <trkpt lat="50.506632" lon="6.622557">
        <ele>448.546327</ele>
        <time>2024-03-23T10:16:28.956Z</time>
      </trkpt>
      <trkpt lat="50.506525" lon="6.622675">
        <ele>448.613416</ele>
        <time>2024-03-23T10:16:43.150Z</time>
      </trkpt>
      <trkpt lat="50.506387" lon="6.622825">
        <ele>448.699534</ele>
        <time>2024-03-23T10:17:01.542Z</time>
      </trkpt>
      <trkpt lat="50.506152" lon="6.622974">
        <ele>448.829603</ele>
        <time>2024-03-23T10:17:28.385Z</time>
      </trkpt>
      <trkpt lat="50.505611" lon="6.623029">
        <ele>449.107892</ele>
        <time>2024-03-23T10:18:23.380Z</time>
      </trkpt>
      <trkpt lat="50.505445" lon="6.623078">
        <ele>449.194592</ele>
        <time>2024-03-23T10:18:40.482Z</time>
      </trkpt>
      <trkpt lat="50.505160" lon="6.623209">
        <ele>449.347013</ele>
        <time>2024-03-23T10:19:10.804Z</time>
      </trkpt>
      <trkpt lat="50.504721" lon="6.623479">
        <ele>449.198817</ele>
        <time>2024-03-23T10:20:00.162Z</time>
      </trkpt>
      <trkpt lat="50.504508" lon="6.623511">
        <ele>449.020993</ele>
        <time>2024-03-23T10:20:21.768Z</time>
      </trkpt>
      <trkpt lat="50.504272" lon="6.623456">
        <ele>448.822716</ele>
        <time>2024-03-23T10:20:46.648Z</time>
      </trkpt>
      <trkpt lat="50.503828" lon="6.623237">
        <ele>448.435988</ele>
        <time>2024-03-23T10:21:34.067Z</time>
      </trkpt>
      <trkpt lat="50.503671" lon="6.623122">
        <ele>448.292044</ele>
        <time>2024-03-23T10:21:52.164Z</time>
      </trkpt>
      <trkpt lat="50.502671" lon="6.622144">
        <ele>449.047731</ele>
        <time>2024-03-23T10:23:52.654Z</time>
      </trkpt>
      <trkpt lat="50.502063" lon="6.621463">
        <ele>450.130195</ele>
        <time>2024-03-23T10:25:12.628Z</time>
      </trkpt>
      <trkpt lat="50.501840" lon="6.621320">
        <ele>450.479413</ele>
        <time>2024-03-23T10:25:39.362Z</time>
      </trkpt>
      <trkpt lat="50.501558" lon="6.621261">
        <ele>450.886621</ele>
        <time>2024-03-23T10:26:10.255Z</time>
      </trkpt>
      <trkpt lat="50.501379" lon="6.621216">
        <ele>451.145356</ele>
        <time>2024-03-23T10:26:29.661Z</time>
      </trkpt>
      <trkpt lat="50.501032" lon="6.621197">
        <ele>451.640934</ele>
        <time>2024-03-23T10:27:06.694Z</time>
      </trkpt>
      <trkpt lat="50.500806" lon="6.621266">
        <ele>451.969533</ele>
        <time>2024-03-23T10:27:31.445Z</time>
      </trkpt>
      <trkpt lat="50.500716" lon="6.621308">
        <ele>452.103531</ele>
        <time>2024-03-23T10:27:41.135Z</time>
      </trkpt>
      <trkpt lat="50.500502" lon="6.621409">
        <ele>452.422443</ele>
        <time>2024-03-23T10:28:04.416Z</time>
      </trkpt>
      <trkpt lat="50.499599" lon="6.621932">
        <ele>453.172702</ele>
        <time>2024-03-23T10:29:41.759Z</time>
      </trkpt>
      <trkpt lat="50.499373" lon="6.621973">
        <ele>453.197788</ele>
        <time>2024-03-23T10:30:04.933Z</time>
      </trkpt>
      <trkpt lat="50.499190" lon="6.622798">
        <ele>453.259072</ele>
        <time>2024-03-23T10:31:00.836Z</time>
      </trkpt>
      <trkpt lat="50.498938" lon="6.623935">
        <ele>453.350286</ele>
        <time>2024-03-23T10:32:17.686Z</time>
      </trkpt>
      <trkpt lat="50.498874" lon="6.624046">
        <ele>453.363673</ele>
        <time>2024-03-23T10:32:27.345Z</time>
      </trkpt>
      <trkpt lat="50.497980" lon="6.624911">
        <ele>453.511146</ele>
        <time>2024-03-23T10:34:15.085Z</time>
      </trkpt>
      <trkpt lat="50.497767" lon="6.625082">
        <ele>453.544744</ele>
        <time>2024-03-23T10:34:39.882Z</time>
      </trkpt>
      <trkpt lat="50.497692" lon="6.625108">
        <ele>453.555534</ele>
        <time>2024-03-23T10:34:47.554Z</time>
      </trkpt>
      <trkpt lat="50.497350" lon="6.625085">
        <ele>453.103785</ele>
        <time>2024-03-23T10:35:23.146Z</time>
      </trkpt>
      <trkpt lat="50.496464" lon="6.625653">
        <ele>451.144571</ele>
        <time>2024-03-23T10:37:02.690Z</time>
      </trkpt>
      <trkpt lat="50.496307" lon="6.625837">
        <ele>450.743593</ele>
        <time>2024-03-23T10:37:24.004Z</time>
      </trkpt>
      <trkpt lat="50.496257" lon="6.626047">
        <ele>450.451531</ele>
        <time>2024-03-23T10:37:38.324Z</time>
      </trkpt>
      <trkpt lat="50.496255" lon="6.626199">
        <ele>450.253504</ele>
        <time>2024-03-23T10:37:49.569Z</time>
      </trkpt>
      <trkpt lat="50.496251" lon="6.626442">
        <ele>449.936884</ele>
        <time>2024-03-23T10:38:05.590Z</time>
      </trkpt>
      <trkpt lat="50.496245" lon="6.626627">
        <ele>449.759307</ele>
        <time>2024-03-23T10:38:17.578Z</time>
      </trkpt>
      <trkpt lat="50.496220" lon="6.626703">
        <ele>449.684637</ele>
        <time>2024-03-23T10:38:23.930Z</time>
      </trkpt>
      <trkpt lat="50.496005" lon="6.627353">
        <ele>449.045265</ele>
        <time>2024-03-23T10:39:13.587Z</time>
      </trkpt>
      <trkpt lat="50.495400" lon="6.628437">
        <ele>447.786731</ele>
        <time>2024-03-23T10:40:47.239Z</time>
      </trkpt>
      <trkpt lat="50.495186" lon="6.628755">
        <ele>447.426546</ele>
        <time>2024-03-23T10:41:16.833Z</time>
      </trkpt>
      <trkpt lat="50.494886" lon="6.629277">
        <ele>447.514436</ele>
        <time>2024-03-23T10:42:03.034Z</time>
      </trkpt>
      <trkpt lat="50.494687" lon="6.629503">
        <ele>447.562651</ele>
        <time>2024-03-23T10:42:28.708Z</time>
      </trkpt>
      <trkpt lat="50.494642" lon="6.629608">
        <ele>447.578469</ele>
        <time>2024-03-23T10:42:36.925Z</time>
      </trkpt>
      <trkpt lat="50.494352" lon="6.629750">
        <ele>447.638123</ele>
        <time>2024-03-23T10:43:07.696Z</time>
      </trkpt>
      <trkpt lat="50.494206" lon="6.629717">
        <ele>447.667092</ele>
        <time>2024-03-23T10:43:22.652Z</time>
      </trkpt>
      <trkpt lat="50.494114" lon="6.629572">
        <ele>447.692678</ele>
        <time>2024-03-23T10:43:35.969Z</time>
      </trkpt>
      <trkpt lat="50.493834" lon="6.629406">
        <ele>447.751450</ele>
        <time>2024-03-23T10:44:06.462Z</time>
      </trkpt>
      <trkpt lat="50.493756" lon="6.629386">
        <ele>447.766972</ele>
        <time>2024-03-23T10:44:14.529Z</time>
      </trkpt>
      <trkpt lat="50.493597" lon="6.629346">
        <ele>447.828193</ele>
        <time>2024-03-23T10:44:30.898Z</time>
      </trkpt>
      <trkpt lat="50.493460" lon="6.629258">
        <ele>447.892673</ele>
        <time>2024-03-23T10:44:45.882Z</time>
      </trkpt>
      <trkpt lat="50.492946" lon="6.629830">
        <ele>448.167059</ele>
        <time>2024-03-23T10:45:49.477Z</time>
      </trkpt>
      <trkpt lat="50.492912" lon="6.629886">
        <ele>448.188515</ele>
        <time>2024-03-23T10:45:54.512Z</time>
      </trkpt>
      <trkpt lat="50.492673" lon="6.629992">
        <ele>448.296710</ele>
        <time>2024-03-23T10:46:20.337Z</time>
      </trkpt>
      <trkpt lat="50.492628" lon="6.629923">
        <ele>448.324100</ele>
        <time>2024-03-23T10:46:26.752Z</time>
      </trkpt>
      <trkpt lat="50.492582" lon="6.629928">
        <ele>448.344189</ele>
        <time>2024-03-23T10:46:31.559Z</time>
      </trkpt>
      <trkpt lat="50.492598" lon="6.629992">
        <ele>448.363249</ele>
        <time>2024-03-23T10:46:36.303Z</time>
      </trkpt>
      <trkpt lat="50.492662" lon="6.630254">
        <ele>448.441039</ele>
        <time>2024-03-23T10:46:55.688Z</time>
      </trkpt>
      <trkpt lat="50.492675" lon="6.630297">
        <ele>448.454235</ele>
        <time>2024-03-23T10:46:59.276Z</time>
      </trkpt>
      <trkpt lat="50.492736" lon="6.630534">
        <ele>448.525098</ele>
        <time>2024-03-23T10:47:15.761Z</time>
      </trkpt>
      <trkpt lat="50.492790" lon="6.630705">
        <ele>448.592316</ele>
        <time>2024-03-23T10:47:29.029Z</time>
      </trkpt>
      <trkpt lat="50.492818" lon="6.630797">
        <ele>448.640743</ele>
        <time>2024-03-23T10:47:35.908Z</time>
      </trkpt>
      <trkpt lat="50.492919" lon="6.631145">
        <ele>448.822371</ele>
        <time>2024-03-23T10:48:00.921Z</time>
      </trkpt>
      <trkpt lat="50.492969" lon="6.631538">
        <ele>449.012678</ele>
        <time>2024-03-23T10:48:26.466Z</time>
      </trkpt>
      <trkpt lat="50.492941" lon="6.631950">
        <ele>449.209424</ele>
        <time>2024-03-23T10:48:55.138Z</time>
      </trkpt>
      <trkpt lat="50.492890" lon="6.632259">
        <ele>449.361007</ele>
        <time>2024-03-23T10:49:15.745Z</time>
      </trkpt>
      <trkpt lat="50.492869" lon="6.632414">
        <ele>449.436258</ele>
        <time>2024-03-23T10:49:26.191Z</time>
      </trkpt>
      <trkpt lat="50.492899" lon="6.632502">
        <ele>449.483665</ele>
        <time>2024-03-23T10:49:34.040Z</time>
      </trkpt>
      <trkpt lat="50.492966" lon="6.632545">
        <ele>449.537681</ele>
        <time>2024-03-23T10:49:42.014Z</time>
      </trkpt>
      <trkpt lat="50.493401" lon="6.632577">
        <ele>449.862720</ele>
        <time>2024-03-23T10:50:26.754Z</time>
      </trkpt>
      <trkpt lat="50.493421" lon="6.632580">
        <ele>449.877716</ele>
        <time>2024-03-23T10:50:28.850Z</time>
      </trkpt>
      <trkpt lat="50.493786" lon="6.632637">
        <ele>449.900461</ele>
        <time>2024-03-23T10:51:05.636Z</time>
      </trkpt>
      <trkpt lat="50.493908" lon="6.632698">
        <ele>449.900461</ele>
        <time>2024-03-23T10:51:18.752Z</time>
      </trkpt>
      <trkpt lat="50.494177" lon="6.632935">
        <ele>449.900461</ele>
        <time>2024-03-23T10:51:50.229Z</time>
      </trkpt>
      <trkpt lat="50.494333" lon="6.632845">
        <ele>449.900461</ele>
        <time>2024-03-23T10:52:07.323Z</time>
      </trkpt>
      <trkpt lat="50.494392" lon="6.632782">
        <ele>449.900461</ele>
        <time>2024-03-23T10:52:14.989Z</time>
      </trkpt>
    </trkseg>
  </trk>
</gpx>