<?xml version='1.0' encoding='UTF-8'?>
<gpx version="1.1" creator="https://www.komoot.de" xmlns="http://www.topografix.com/GPX/1/1" xmlns:xsi="http://www.w3.org/2001/XMLSchema-instance" xsi:schemaLocation="http://www.topografix.com/GPX/1/1 http://www.topografix.com/GPX/1/1/gpx.xsd">
  <metadata>
    <name>PW NETTERSHEIM 19 KM</name>
    <author>
      <link href="https://www.komoot.de">
        <text>komoot</text>
        <type>text/html</type>
      </link>
    </author>
  </metadata>
  <trk>
    <name>PW NETTERSHEIM 19 KM</name>
    <trkseg>
      <trkpt lat="50.494390" lon="6.632785">
        <ele>447.428436</ele>
        <time>2024-03-23T08:11:59.217Z</time>
      </trkpt>
      <trkpt lat="50.494356" lon="6.632820">
        <ele>447.428436</ele>
        <time>2024-03-23T08:12:03.286Z</time>
      </trkpt>
      <trkpt lat="50.494333" lon="6.632845">
        <ele>447.428436</ele>
        <time>2024-03-23T08:12:06.120Z</time>
      </trkpt>
      <trkpt lat="50.494177" lon="6.632935">
        <ele>447.428436</ele>
        <time>2024-03-23T08:12:22.899Z</time>
      </trkpt>
      <trkpt lat="50.494281" lon="6.632587">
        <ele>447.428436</ele>
        <time>2024-03-23T08:12:47.674Z</time>
      </trkpt>
      <trkpt lat="50.494306" lon="6.632500">
        <ele>447.428436</ele>
        <time>2024-03-23T08:12:53.814Z</time>
      </trkpt>
      <trkpt lat="50.494357" lon="6.632329">
        <ele>447.428436</ele>
        <time>2024-03-23T08:13:05.957Z</time>
      </trkpt>
      <trkpt lat="50.494465" lon="6.631976">
        <ele>447.421158</ele>
        <time>2024-03-23T08:13:31.039Z</time>
      </trkpt>
      <trkpt lat="50.494661" lon="6.631569">
        <ele>447.187379</ele>
        <time>2024-03-23T08:14:03.652Z</time>
      </trkpt>
      <trkpt lat="50.494915" lon="6.631212">
        <ele>446.942089</ele>
        <time>2024-03-23T08:14:38.261Z</time>
      </trkpt>
      <trkpt lat="50.495476" lon="6.630425">
        <ele>446.400783</ele>
        <time>2024-03-23T08:15:54.749Z</time>
      </trkpt>
      <trkpt lat="50.495661" lon="6.630072">
        <ele>446.191326</ele>
        <time>2024-03-23T08:16:24.407Z</time>
      </trkpt>
      <trkpt lat="50.495696" lon="6.630008">
        <ele>446.152675</ele>
        <time>2024-03-23T08:16:29.868Z</time>
      </trkpt>
      <trkpt lat="50.495855" lon="6.629421">
        <ele>445.648313</ele>
        <time>2024-03-23T08:17:11.323Z</time>
      </trkpt>
      <trkpt lat="50.496017" lon="6.628819">
        <ele>445.116374</ele>
        <time>2024-03-23T08:17:53.978Z</time>
      </trkpt>
      <trkpt lat="50.496088" lon="6.628683">
        <ele>444.973199</ele>
        <time>2024-03-23T08:18:05.443Z</time>
      </trkpt>
      <trkpt lat="50.496383" lon="6.628112">
        <ele>444.374578</ele>
        <time>2024-03-23T08:18:53.511Z</time>
      </trkpt>
      <trkpt lat="50.496847" lon="6.627577">
        <ele>443.735666</ele>
        <time>2024-03-23T08:19:53.323Z</time>
      </trkpt>
      <trkpt lat="50.496948" lon="6.627461">
        <ele>443.655781</ele>
        <time>2024-03-23T08:20:06.265Z</time>
      </trkpt>
      <trkpt lat="50.497317" lon="6.627026">
        <ele>443.361218</ele>
        <time>2024-03-23T08:20:53.581Z</time>
      </trkpt>
      <trkpt lat="50.497467" lon="6.626868">
        <ele>443.245904</ele>
        <time>2024-03-23T08:21:12.064Z</time>
      </trkpt>
      <trkpt lat="50.497723" lon="6.626659">
        <ele>443.061676</ele>
        <time>2024-03-23T08:21:41.084Z</time>
      </trkpt>
      <trkpt lat="50.497994" lon="6.626437">
        <ele>442.866513</ele>
        <time>2024-03-23T08:22:11.681Z</time>
      </trkpt>
      <trkpt lat="50.498159" lon="6.626392">
        <ele>442.759562</ele>
        <time>2024-03-23T08:22:28.606Z</time>
      </trkpt>
      <trkpt lat="50.498707" lon="6.626407">
        <ele>442.670902</ele>
        <time>2024-03-23T08:23:24.560Z</time>
      </trkpt>
      <trkpt lat="50.498850" lon="6.626411">
        <ele>442.666580</ele>
        <time>2024-03-23T08:23:39.016Z</time>
      </trkpt>
      <trkpt lat="50.499113" lon="6.626422">
        <ele>442.658629</ele>
        <time>2024-03-23T08:24:05.575Z</time>
      </trkpt>
      <trkpt lat="50.499308" lon="6.626291">
        <ele>442.652220</ele>
        <time>2024-03-23T08:24:26.821Z</time>
      </trkpt>
      <trkpt lat="50.499518" lon="6.626005">
        <ele>442.643823</ele>
        <time>2024-03-23T08:24:54.601Z</time>
      </trkpt>
      <trkpt lat="50.499612" lon="6.625839">
        <ele>442.639551</ele>
        <time>2024-03-23T08:25:09.130Z</time>
      </trkpt>
      <trkpt lat="50.499817" lon="6.625480">
        <ele>442.630277</ele>
        <time>2024-03-23T08:25:40.204Z</time>
      </trkpt>
      <trkpt lat="50.500343" lon="6.624420">
        <ele>441.527018</ele>
        <time>2024-03-23T08:27:07.519Z</time>
      </trkpt>
      <trkpt lat="50.500557" lon="6.624075">
        <ele>441.120036</ele>
        <time>2024-03-23T08:27:39.203Z</time>
      </trkpt>
      <trkpt lat="50.500626" lon="6.624003">
        <ele>441.010076</ele>
        <time>2024-03-23T08:27:47.792Z</time>
      </trkpt>
      <trkpt lat="50.500782" lon="6.623838">
        <ele>440.760432</ele>
        <time>2024-03-23T08:28:07.281Z</time>
      </trkpt>
      <trkpt lat="50.500949" lon="6.623757">
        <ele>440.528382</ele>
        <time>2024-03-23T08:28:25.414Z</time>
      </trkpt>
      <trkpt lat="50.501086" lon="6.623745">
        <ele>440.346195</ele>
        <time>2024-03-23T08:28:39.693Z</time>
      </trkpt>
      <trkpt lat="50.501488" lon="6.623889">
        <ele>439.800668</ele>
        <time>2024-03-23T08:29:22.579Z</time>
      </trkpt>
      <trkpt lat="50.501697" lon="6.624001">
        <ele>439.508755</ele>
        <time>2024-03-23T08:29:45.607Z</time>
      </trkpt>
      <trkpt lat="50.502015" lon="6.624267">
        <ele>439.032553</ele>
        <time>2024-03-23T08:30:23.083Z</time>
      </trkpt>
      <trkpt lat="50.502138" lon="6.624370">
        <ele>438.848317</ele>
        <time>2024-03-23T08:30:37.543Z</time>
      </trkpt>
      <trkpt lat="50.502469" lon="6.624701">
        <ele>438.329711</ele>
        <time>2024-03-23T08:31:17.525Z</time>
      </trkpt>
      <trkpt lat="50.503182" lon="6.625170">
        <ele>437.982970</ele>
        <time>2024-03-23T08:32:35.467Z</time>
      </trkpt>
      <trkpt lat="50.503314" lon="6.625288">
        <ele>438.026140</ele>
        <time>2024-03-23T08:32:50.672Z</time>
      </trkpt>
      <trkpt lat="50.503836" lon="6.625701">
        <ele>438.192278</ele>
        <time>2024-03-23T08:33:50.477Z</time>
      </trkpt>
      <trkpt lat="50.504371" lon="6.626125">
        <ele>438.362611</ele>
        <time>2024-03-23T08:34:51.803Z</time>
      </trkpt>
      <trkpt lat="50.504583" lon="6.626239">
        <ele>438.293718</ele>
        <time>2024-03-23T08:35:14.689Z</time>
      </trkpt>
      <trkpt lat="50.504849" lon="6.626246">
        <ele>438.174445</ele>
        <time>2024-03-23T08:35:41.987Z</time>
      </trkpt>
      <trkpt lat="50.505180" lon="6.626117">
        <ele>438.021557</ele>
        <time>2024-03-23T08:36:16.227Z</time>
      </trkpt>
      <trkpt lat="50.505312" lon="6.626037">
        <ele>437.958133</ele>
        <time>2024-03-23T08:36:30.462Z</time>
      </trkpt>
      <trkpt lat="50.505489" lon="6.625930">
        <ele>437.873116</ele>
        <time>2024-03-23T08:36:49.708Z</time>
      </trkpt>
      <trkpt lat="50.505879" lon="6.625492">
        <ele>437.658244</ele>
        <time>2024-03-23T08:37:38.821Z</time>
      </trkpt>
      <trkpt lat="50.506473" lon="6.624750">
        <ele>436.706133</ele>
        <time>2024-03-23T08:38:57.589Z</time>
      </trkpt>
      <trkpt lat="50.506659" lon="6.624580">
        <ele>436.373892</ele>
        <time>2024-03-23T08:39:19.961Z</time>
      </trkpt>
      <trkpt lat="50.507061" lon="6.624394">
        <ele>435.726764</ele>
        <time>2024-03-23T08:40:03.227Z</time>
      </trkpt>
      <trkpt lat="50.507365" lon="6.624303">
        <ele>435.248866</ele>
        <time>2024-03-23T08:40:35.200Z</time>
      </trkpt>
      <trkpt lat="50.507886" lon="6.624146">
        <ele>434.665253</ele>
        <time>2024-03-23T08:41:29.849Z</time>
      </trkpt>
      <trkpt lat="50.508068" lon="6.624064">
        <ele>434.563600</ele>
        <time>2024-03-23T08:41:49.229Z</time>
      </trkpt>
      <trkpt lat="50.508460" lon="6.623731">
        <ele>434.324374</ele>
        <time>2024-03-23T08:42:34.337Z</time>
      </trkpt>
      <trkpt lat="50.508511" lon="6.623676">
        <ele>434.291170</ele>
        <time>2024-03-23T08:42:40.640Z</time>
      </trkpt>
      <trkpt lat="50.508704" lon="6.623470">
        <ele>434.165925</ele>
        <time>2024-03-23T08:43:03.949Z</time>
      </trkpt>
      <trkpt lat="50.509057" lon="6.622868">
        <ele>433.886321</ele>
        <time>2024-03-23T08:43:56.209Z</time>
      </trkpt>
      <trkpt lat="50.509306" lon="6.622605">
        <ele>433.774744</ele>
        <time>2024-03-23T08:44:26.327Z</time>
      </trkpt>
      <trkpt lat="50.509777" lon="6.622258">
        <ele>433.633888</ele>
        <time>2024-03-23T08:45:18.677Z</time>
      </trkpt>
      <trkpt lat="50.510029" lon="6.622018">
        <ele>433.554104</ele>
        <time>2024-03-23T08:45:48.478Z</time>
      </trkpt>
      <trkpt lat="50.510191" lon="6.621715">
        <ele>433.485931</ele>
        <time>2024-03-23T08:46:13.881Z</time>
      </trkpt>
      <trkpt lat="50.510502" lon="6.620937">
        <ele>433.324021</ele>
        <time>2024-03-23T08:47:12.799Z</time>
      </trkpt>
      <trkpt lat="50.510850" lon="6.620525">
        <ele>433.164363</ele>
        <time>2024-03-23T08:47:56.644Z</time>
      </trkpt>
      <trkpt lat="50.511115" lon="6.619982">
        <ele>433.004826</ele>
        <time>2024-03-23T08:48:40.343Z</time>
      </trkpt>
      <trkpt lat="50.511451" lon="6.619379">
        <ele>432.817958</ele>
        <time>2024-03-23T08:49:31.666Z</time>
      </trkpt>
      <trkpt lat="50.511982" lon="6.618669">
        <ele>432.411058</ele>
        <time>2024-03-23T08:50:42.427Z</time>
      </trkpt>
      <trkpt lat="50.512026" lon="6.618564">
        <ele>432.343579</ele>
        <time>2024-03-23T08:50:50.596Z</time>
      </trkpt>
      <trkpt lat="50.512077" lon="6.618443">
        <ele>432.265680</ele>
        <time>2024-03-23T08:50:59.937Z</time>
      </trkpt>
      <trkpt lat="50.512220" lon="6.617862">
        <ele>431.931365</ele>
        <time>2024-03-23T08:51:40.234Z</time>
      </trkpt>
      <trkpt lat="50.512321" lon="6.617626">
        <ele>431.778714</ele>
        <time>2024-03-23T08:51:58.660Z</time>
      </trkpt>
      <trkpt lat="50.512773" lon="6.616922">
        <ele>431.241871</ele>
        <time>2024-03-23T08:53:03.564Z</time>
      </trkpt>
      <trkpt lat="50.513493" lon="6.615651">
        <ele>430.292549</ele>
        <time>2024-03-23T08:54:54.526Z</time>
      </trkpt>
      <trkpt lat="50.514130" lon="6.613921">
        <ele>429.202373</ele>
        <time>2024-03-23T08:57:03.297Z</time>
      </trkpt>
      <trkpt lat="50.514099" lon="6.613668">
        <ele>429.068437</ele>
        <time>2024-03-23T08:57:20.088Z</time>
      </trkpt>
      <trkpt lat="50.514097" lon="6.613604">
        <ele>429.035128</ele>
        <time>2024-03-23T08:57:24.184Z</time>
      </trkpt>
      <trkpt lat="50.514087" lon="6.613219">
        <ele>428.834826</ele>
        <time>2024-03-23T08:57:48.909Z</time>
      </trkpt>
      <trkpt lat="50.514200" lon="6.612175">
        <ele>428.284317</ele>
        <time>2024-03-23T08:58:57.548Z</time>
      </trkpt>
      <trkpt lat="50.514185" lon="6.611979">
        <ele>428.181695</ele>
        <time>2024-03-23T08:59:10.530Z</time>
      </trkpt>
      <trkpt lat="50.513998" lon="6.611073">
        <ele>427.826091</ele>
        <time>2024-03-23T09:00:12.538Z</time>
      </trkpt>
      <trkpt lat="50.513977" lon="6.610804">
        <ele>427.731929</ele>
        <time>2024-03-23T09:00:30.028Z</time>
      </trkpt>
      <trkpt lat="50.513866" lon="6.609388">
        <ele>427.236237</ele>
        <time>2024-03-23T09:02:01.827Z</time>
      </trkpt>
      <trkpt lat="50.513859" lon="6.608968">
        <ele>427.162526</ele>
        <time>2024-03-23T09:02:28.621Z</time>
      </trkpt>
      <trkpt lat="50.513777" lon="6.608727">
        <ele>427.267449</ele>
        <time>2024-03-23T09:02:46.681Z</time>
      </trkpt>
      <trkpt lat="50.513524" lon="6.608318">
        <ele>427.486483</ele>
        <time>2024-03-23T09:03:23.805Z</time>
      </trkpt>
      <trkpt lat="50.513397" lon="6.608069">
        <ele>427.609014</ele>
        <time>2024-03-23T09:03:44.233Z</time>
      </trkpt>
      <trkpt lat="50.513322" lon="6.607791">
        <ele>427.724937</ele>
        <time>2024-03-23T09:04:04.473Z</time>
      </trkpt>
      <trkpt lat="50.513319" lon="6.607763">
        <ele>427.735837</ele>
        <time>2024-03-23T09:04:06.284Z</time>
      </trkpt>
      <trkpt lat="50.513223" lon="6.606680">
        <ele>428.155590</ele>
        <time>2024-03-23T09:05:18.196Z</time>
      </trkpt>
      <trkpt lat="50.513027" lon="6.605332">
        <ele>428.387621</ele>
        <time>2024-03-23T09:06:47.191Z</time>
      </trkpt>
      <trkpt lat="50.512786" lon="6.604486">
        <ele>428.520120</ele>
        <time>2024-03-23T09:07:46.777Z</time>
      </trkpt>
      <trkpt lat="50.512647" lon="6.603638">
        <ele>428.503047</ele>
        <time>2024-03-23T09:08:42.530Z</time>
      </trkpt>
      <trkpt lat="50.512617" lon="6.603451">
        <ele>428.402608</ele>
        <time>2024-03-23T09:08:54.926Z</time>
      </trkpt>
      <trkpt lat="50.512680" lon="6.602011">
        <ele>427.650903</ele>
        <time>2024-03-23T09:10:27.927Z</time>
      </trkpt>
      <trkpt lat="50.512743" lon="6.601420">
        <ele>427.338824</ele>
        <time>2024-03-23T09:11:07.045Z</time>
      </trkpt>
      <trkpt lat="50.512734" lon="6.600952">
        <ele>426.999081</ele>
        <time>2024-03-23T09:11:37.682Z</time>
      </trkpt>
      <trkpt lat="50.512685" lon="6.600203">
        <ele>425.800715</ele>
        <time>2024-03-23T09:12:27.534Z</time>
      </trkpt>
      <trkpt lat="50.512616" lon="6.599689">
        <ele>424.964626</ele>
        <time>2024-03-23T09:13:02.826Z</time>
      </trkpt>
      <trkpt lat="50.512550" lon="6.599196">
        <ele>424.162788</ele>
        <time>2024-03-23T09:13:37.067Z</time>
      </trkpt>
      <trkpt lat="50.512423" lon="6.598879">
        <ele>423.566484</ele>
        <time>2024-03-23T09:14:02.400Z</time>
      </trkpt>
      <trkpt lat="50.511573" lon="6.597478">
        <ele>421.196361</ele>
        <time>2024-03-23T09:16:12.518Z</time>
      </trkpt>
      <trkpt lat="50.511410" lon="6.597032">
        <ele>420.647989</ele>
        <time>2024-03-23T09:16:46.406Z</time>
      </trkpt>
      <trkpt lat="50.511386" lon="6.596868">
        <ele>420.468591</ele>
        <time>2024-03-23T09:16:57.421Z</time>
      </trkpt>
      <trkpt lat="50.511409" lon="6.596642">
        <ele>420.224603</ele>
        <time>2024-03-23T09:17:12.204Z</time>
      </trkpt>
      <trkpt lat="50.511437" lon="6.596441">
        <ele>420.005251</ele>
        <time>2024-03-23T09:17:25.502Z</time>
      </trkpt>
      <trkpt lat="50.511663" lon="6.596443">
        <ele>419.626392</ele>
        <time>2024-03-23T09:17:48.190Z</time>
      </trkpt>
      <trkpt lat="50.511841" lon="6.596517">
        <ele>419.929670</ele>
        <time>2024-03-23T09:18:06.667Z</time>
      </trkpt>
      <trkpt lat="50.512338" lon="6.597323">
        <ele>421.117776</ele>
        <time>2024-03-23T09:19:20.802Z</time>
      </trkpt>
      <trkpt lat="50.512349" lon="6.597336">
        <ele>421.140675</ele>
        <time>2024-03-23T09:19:22.235Z</time>
      </trkpt>
      <trkpt lat="50.512695" lon="6.597772">
        <ele>421.878527</ele>
        <time>2024-03-23T09:20:10.328Z</time>
      </trkpt>
      <trkpt lat="50.512907" lon="6.597968">
        <ele>422.287780</ele>
        <time>2024-03-23T09:20:37.293Z</time>
      </trkpt>
      <trkpt lat="50.513296" lon="6.598174">
        <ele>423.303511</ele>
        <time>2024-03-23T09:21:23.219Z</time>
      </trkpt>
      <trkpt lat="50.513766" lon="6.598186">
        <ele>424.823315</ele>
        <time>2024-03-23T09:22:16.218Z</time>
      </trkpt>
      <trkpt lat="50.513998" lon="6.598137">
        <ele>425.580152</ele>
        <time>2024-03-23T09:22:42.965Z</time>
      </trkpt>
      <trkpt lat="50.514092" lon="6.598081">
        <ele>425.905150</ele>
        <time>2024-03-23T09:22:54.443Z</time>
      </trkpt>
      <trkpt lat="50.514182" lon="6.597997">
        <ele>426.243528</ele>
        <time>2024-03-23T09:23:06.268Z</time>
      </trkpt>
      <trkpt lat="50.514227" lon="6.597921">
        <ele>426.457030</ele>
        <time>2024-03-23T09:23:13.826Z</time>
      </trkpt>
      <trkpt lat="50.514255" lon="6.597874">
        <ele>426.589442</ele>
        <time>2024-03-23T09:23:18.520Z</time>
      </trkpt>
      <trkpt lat="50.514414" lon="6.597510">
        <ele>427.497365</ele>
        <time>2024-03-23T09:23:50.084Z</time>
      </trkpt>
      <trkpt lat="50.514622" lon="6.596508">
        <ele>428.165468</ele>
        <time>2024-03-23T09:25:02.616Z</time>
      </trkpt>
      <trkpt lat="50.514603" lon="6.596058">
        <ele>427.963651</ele>
        <time>2024-03-23T09:25:31.683Z</time>
      </trkpt>
      <trkpt lat="50.514554" lon="6.595769">
        <ele>427.829806</ele>
        <time>2024-03-23T09:25:51.030Z</time>
      </trkpt>
      <trkpt lat="50.514527" lon="6.595708">
        <ele>427.796547</ele>
        <time>2024-03-23T09:25:55.877Z</time>
      </trkpt>
      <trkpt lat="50.514284" lon="6.595149">
        <ele>427.493528</ele>
        <time>2024-03-23T09:26:40.941Z</time>
      </trkpt>
      <trkpt lat="50.514190" lon="6.594993">
        <ele>427.397354</ele>
        <time>2024-03-23T09:26:55.524Z</time>
      </trkpt>
      <trkpt lat="50.513423" lon="6.594137">
        <ele>426.079910</ele>
        <time>2024-03-23T09:28:35.183Z</time>
      </trkpt>
      <trkpt lat="50.513010" lon="6.593675">
        <ele>425.182165</ele>
        <time>2024-03-23T09:29:28.194Z</time>
      </trkpt>
      <trkpt lat="50.512911" lon="6.593285">
        <ele>424.709174</ele>
        <time>2024-03-23T09:29:55.686Z</time>
      </trkpt>
      <trkpt lat="50.512920" lon="6.592186">
        <ele>424.339747</ele>
        <time>2024-03-23T09:31:06.678Z</time>
      </trkpt>
      <trkpt lat="50.512929" lon="6.591063">
        <ele>425.226904</ele>
        <time>2024-03-23T09:32:22.195Z</time>
      </trkpt>
      <trkpt lat="50.512921" lon="6.590982">
        <ele>425.291655</ele>
        <time>2024-03-23T09:32:28.066Z</time>
      </trkpt>
      <trkpt lat="50.512879" lon="6.590840">
        <ele>425.415364</ele>
        <time>2024-03-23T09:32:38.378Z</time>
      </trkpt>
      <trkpt lat="50.512597" lon="6.590233">
        <ele>426.009182</ele>
        <time>2024-03-23T09:33:31.243Z</time>
      </trkpt>
      <trkpt lat="50.512503" lon="6.589946">
        <ele>426.200696</ele>
        <time>2024-03-23T09:33:53.161Z</time>
      </trkpt>
      <trkpt lat="50.512453" lon="6.589791">
        <ele>426.157078</ele>
        <time>2024-03-23T09:34:04.978Z</time>
      </trkpt>
      <trkpt lat="50.512402" lon="6.589544">
        <ele>426.091905</ele>
        <time>2024-03-23T09:34:22.356Z</time>
      </trkpt>
      <trkpt lat="50.512340" lon="6.588600">
        <ele>425.853737</ele>
        <time>2024-03-23T09:35:23.464Z</time>
      </trkpt>
      <trkpt lat="50.512334" lon="6.588046">
        <ele>425.714684</ele>
        <time>2024-03-23T09:35:59.319Z</time>
      </trkpt>
      <trkpt lat="50.512350" lon="6.587524">
        <ele>425.583530</ele>
        <time>2024-03-23T09:36:33.365Z</time>
      </trkpt>
      <trkpt lat="50.512397" lon="6.587222">
        <ele>425.500003</ele>
        <time>2024-03-23T09:36:53.958Z</time>
      </trkpt>
      <trkpt lat="50.512369" lon="6.586787">
        <ele>424.491111</ele>
        <time>2024-03-23T09:37:22.925Z</time>
      </trkpt>
      <trkpt lat="50.512366" lon="6.586742">
        <ele>424.386705</ele>
        <time>2024-03-23T09:37:25.923Z</time>
      </trkpt>
      <trkpt lat="50.512375" lon="6.586322">
        <ele>423.417005</ele>
        <time>2024-03-23T09:37:54.294Z</time>
      </trkpt>
      <trkpt lat="50.512584" lon="6.585438">
        <ele>421.240760</ele>
        <time>2024-03-23T09:38:59.123Z</time>
      </trkpt>
      <trkpt lat="50.512912" lon="6.584501">
        <ele>418.743540</ele>
        <time>2024-03-23T09:40:13.728Z</time>
      </trkpt>
      <trkpt lat="50.512895" lon="6.583925">
        <ele>417.225372</ele>
        <time>2024-03-23T09:40:54.047Z</time>
      </trkpt>
      <trkpt lat="50.512945" lon="6.583570">
        <ele>416.268050</ele>
        <time>2024-03-23T09:41:19.844Z</time>
      </trkpt>
      <trkpt lat="50.513010" lon="6.583103">
        <ele>415.009392</ele>
        <time>2024-03-23T09:41:53.274Z</time>
      </trkpt>
      <trkpt lat="50.513035" lon="6.582718">
        <ele>413.990466</ele>
        <time>2024-03-23T09:42:19.626Z</time>
      </trkpt>
      <trkpt lat="50.512984" lon="6.582189">
        <ele>412.581763</ele>
        <time>2024-03-23T09:42:56.150Z</time>
      </trkpt>
      <trkpt lat="50.512894" lon="6.581801">
        <ele>411.526661</ele>
        <time>2024-03-23T09:43:24.623Z</time>
      </trkpt>
      <trkpt lat="50.512903" lon="6.581730">
        <ele>411.497496</ele>
        <time>2024-03-23T09:43:29.351Z</time>
      </trkpt>
      <trkpt lat="50.512960" lon="6.581630">
        <ele>411.443397</ele>
        <time>2024-03-23T09:43:38.279Z</time>
      </trkpt>
      <trkpt lat="50.512908" lon="6.581505">
        <ele>411.383223</ele>
        <time>2024-03-23T09:43:48.504Z</time>
      </trkpt>
      <trkpt lat="50.512824" lon="6.581177">
        <ele>411.240777</ele>
        <time>2024-03-23T09:44:11.634Z</time>
      </trkpt>
      <trkpt lat="50.512793" lon="6.581060">
        <ele>411.189717</ele>
        <time>2024-03-23T09:44:19.961Z</time>
      </trkpt>
      <trkpt lat="50.512971" lon="6.581067">
        <ele>411.076919</ele>
        <time>2024-03-23T09:44:38.302Z</time>
      </trkpt>
      <trkpt lat="50.513463" lon="6.580718">
        <ele>410.734996</ele>
        <time>2024-03-23T09:45:32.401Z</time>
      </trkpt>
      <trkpt lat="50.513673" lon="6.580484">
        <ele>410.571950</ele>
        <time>2024-03-23T09:45:58.554Z</time>
      </trkpt>
      <trkpt lat="50.513767" lon="6.580320">
        <ele>410.483008</ele>
        <time>2024-03-23T09:46:12.845Z</time>
      </trkpt>
      <trkpt lat="50.514327" lon="6.579334">
        <ele>410.629563</ele>
        <time>2024-03-23T09:47:41.270Z</time>
      </trkpt>
      <trkpt lat="50.514427" lon="6.579104">
        <ele>410.689538</ele>
        <time>2024-03-23T09:47:59.694Z</time>
      </trkpt>
      <trkpt lat="50.514534" lon="6.578706">
        <ele>410.782551</ele>
        <time>2024-03-23T09:48:27.816Z</time>
      </trkpt>
      <trkpt lat="50.514544" lon="6.578644">
        <ele>410.796319</ele>
        <time>2024-03-23T09:48:32.029Z</time>
      </trkpt>
      <trkpt lat="50.514597" lon="6.578296">
        <ele>410.873345</ele>
        <time>2024-03-23T09:48:54.932Z</time>
      </trkpt>
      <trkpt lat="50.514596" lon="6.577927">
        <ele>410.952774</ele>
        <time>2024-03-23T09:49:19.041Z</time>
      </trkpt>
      <trkpt lat="50.514521" lon="6.576826">
        <ele>410.377813</ele>
        <time>2024-03-23T09:50:31.351Z</time>
      </trkpt>
      <trkpt lat="50.514514" lon="6.576585">
        <ele>410.206522</ele>
        <time>2024-03-23T09:50:47.053Z</time>
      </trkpt>
      <trkpt lat="50.514534" lon="6.576445">
        <ele>410.104643</ele>
        <time>2024-03-23T09:50:56.648Z</time>
      </trkpt>
      <trkpt lat="50.514436" lon="6.576449">
        <ele>409.995182</ele>
        <time>2024-03-23T09:51:06.532Z</time>
      </trkpt>
      <trkpt lat="50.514347" lon="6.576454">
        <ele>409.895744</ele>
        <time>2024-03-23T09:51:15.657Z</time>
      </trkpt>
      <trkpt lat="50.514232" lon="6.576528">
        <ele>409.757004</ele>
        <time>2024-03-23T09:51:28.482Z</time>
      </trkpt>
      <trkpt lat="50.514131" lon="6.576665">
        <ele>409.608075</ele>
        <time>2024-03-23T09:51:42.162Z</time>
      </trkpt>
      <trkpt lat="50.514103" lon="6.576703">
        <ele>409.566779</ele>
        <time>2024-03-23T09:51:45.946Z</time>
      </trkpt>
      <trkpt lat="50.513999" lon="6.576767">
        <ele>409.442081</ele>
        <time>2024-03-23T09:51:57.351Z</time>
      </trkpt>
      <trkpt lat="50.513876" lon="6.576790">
        <ele>409.303775</ele>
        <time>2024-03-23T09:52:10.214Z</time>
      </trkpt>
      <trkpt lat="50.513815" lon="6.576811">
        <ele>409.234051</ele>
        <time>2024-03-23T09:52:16.576Z</time>
      </trkpt>
      <trkpt lat="50.513641" lon="6.577056">
        <ele>408.988542</ele>
        <time>2024-03-23T09:52:40.384Z</time>
      </trkpt>
      <trkpt lat="50.513539" lon="6.577141">
        <ele>408.956487</ele>
        <time>2024-03-23T09:52:52.351Z</time>
      </trkpt>
      <trkpt lat="50.513388" lon="6.577209">
        <ele>408.912872</ele>
        <time>2024-03-23T09:53:08.219Z</time>
      </trkpt>
      <trkpt lat="50.513291" lon="6.577709">
        <ele>408.820566</ele>
        <time>2024-03-23T09:53:41.772Z</time>
      </trkpt>
      <trkpt lat="50.513209" lon="6.578128">
        <ele>408.743155</ele>
        <time>2024-03-23T09:54:10.173Z</time>
      </trkpt>
      <trkpt lat="50.513089" lon="6.578616">
        <ele>408.650766</ele>
        <time>2024-03-23T09:54:44.708Z</time>
      </trkpt>
      <trkpt lat="50.512953" lon="6.578934">
        <ele>408.583096</ele>
        <time>2024-03-23T09:55:10.070Z</time>
      </trkpt>
      <trkpt lat="50.512853" lon="6.579106">
        <ele>408.541943</ele>
        <time>2024-03-23T09:55:24.937Z</time>
      </trkpt>
      <trkpt lat="50.512777" lon="6.579131">
        <ele>408.520383</ele>
        <time>2024-03-23T09:55:32.896Z</time>
      </trkpt>
      <trkpt lat="50.512740" lon="6.579077">
        <ele>408.506365</ele>
        <time>2024-03-23T09:55:38.183Z</time>
      </trkpt>
      <trkpt lat="50.512664" lon="6.578828">
        <ele>408.472303</ele>
        <time>2024-03-23T09:55:55.755Z</time>
      </trkpt>
      <trkpt lat="50.512605" lon="6.578697">
        <ele>408.455363</ele>
        <time>2024-03-23T09:56:06.365Z</time>
      </trkpt>
      <trkpt lat="50.512560" lon="6.578721">
        <ele>408.447478</ele>
        <time>2024-03-23T09:56:11.284Z</time>
      </trkpt>
      <trkpt lat="50.512438" lon="6.578908">
        <ele>408.419207</ele>
        <time>2024-03-23T09:56:28.508Z</time>
      </trkpt>
      <trkpt lat="50.512324" lon="6.579015">
        <ele>408.397176</ele>
        <time>2024-03-23T09:56:41.958Z</time>
      </trkpt>
      <trkpt lat="50.512422" lon="6.579437">
        <ele>408.349768</ele>
        <time>2024-03-23T09:57:10.636Z</time>
      </trkpt>
      <trkpt lat="50.512508" lon="6.579760">
        <ele>408.312816</ele>
        <time>2024-03-23T09:57:33.166Z</time>
      </trkpt>
      <trkpt lat="50.512541" lon="6.579883">
        <ele>408.298729</ele>
        <time>2024-03-23T09:57:41.867Z</time>
      </trkpt>
      <trkpt lat="50.512611" lon="6.580145">
        <ele>408.268741</ele>
        <time>2024-03-23T09:58:00.395Z</time>
      </trkpt>
      <trkpt lat="50.512613" lon="6.580154">
        <ele>408.267735</ele>
        <time>2024-03-23T09:58:01.005Z</time>
      </trkpt>
      <trkpt lat="50.512793" lon="6.581060">
        <ele>408.356700</ele>
        <time>2024-03-23T09:59:01.709Z</time>
      </trkpt>
      <trkpt lat="50.512824" lon="6.581177">
        <ele>408.433342</ele>
        <time>2024-03-23T09:59:09.919Z</time>
      </trkpt>
      <trkpt lat="50.512908" lon="6.581505">
        <ele>408.647153</ele>
        <time>2024-03-23T09:59:32.789Z</time>
      </trkpt>
      <trkpt lat="50.512960" lon="6.581630">
        <ele>408.737473</ele>
        <time>2024-03-23T09:59:42.845Z</time>
      </trkpt>
      <trkpt lat="50.512903" lon="6.581730">
        <ele>408.818676</ele>
        <time>2024-03-23T09:59:51.446Z</time>
      </trkpt>
      <trkpt lat="50.512894" lon="6.581801">
        <ele>408.862452</ele>
        <time>2024-03-23T09:59:56.241Z</time>
      </trkpt>
      <trkpt lat="50.512824" lon="6.582359">
        <ele>409.206359</ele>
        <time>2024-03-23T10:00:33.628Z</time>
      </trkpt>
      <trkpt lat="50.512556" lon="6.583507">
        <ele>409.986147</ele>
        <time>2024-03-23T10:01:56.270Z</time>
      </trkpt>
      <trkpt lat="50.512472" lon="6.584080">
        <ele>410.701487</ele>
        <time>2024-03-23T10:02:37.112Z</time>
      </trkpt>
      <trkpt lat="50.512452" lon="6.584139">
        <ele>410.782822</ele>
        <time>2024-03-23T10:02:41.813Z</time>
      </trkpt>
      <trkpt lat="50.512019" lon="6.585367">
        <ele>412.490982</ele>
        <time>2024-03-23T10:04:17.791Z</time>
      </trkpt>
      <trkpt lat="50.511870" lon="6.585937">
        <ele>413.240698</ele>
        <time>2024-03-23T10:04:58.566Z</time>
      </trkpt>
      <trkpt lat="50.511855" lon="6.586810">
        <ele>414.086819</ele>
        <time>2024-03-23T10:05:57.343Z</time>
      </trkpt>
      <trkpt lat="50.511808" lon="6.587003">
        <ele>414.281371</ele>
        <time>2024-03-23T10:06:12.195Z</time>
      </trkpt>
      <trkpt lat="50.511734" lon="6.587086">
        <ele>414.415927</ele>
        <time>2024-03-23T10:06:22.178Z</time>
      </trkpt>
      <trkpt lat="50.511614" lon="6.587210">
        <ele>414.628489</ele>
        <time>2024-03-23T10:06:38.407Z</time>
      </trkpt>
      <trkpt lat="50.511066" lon="6.587836">
        <ele>415.631175</ele>
        <time>2024-03-23T10:07:48.925Z</time>
      </trkpt>
      <trkpt lat="50.511162" lon="6.588590">
        <ele>416.574384</ele>
        <time>2024-03-23T10:08:40.138Z</time>
      </trkpt>
      <trkpt lat="50.511571" lon="6.591000">
        <ele>420.397883</ele>
        <time>2024-03-23T10:11:34.495Z</time>
      </trkpt>
      <trkpt lat="50.511604" lon="6.593096">
        <ele>422.707693</ele>
        <time>2024-03-23T10:13:59.238Z</time>
      </trkpt>
      <trkpt lat="50.511584" lon="6.593469">
        <ele>423.120074</ele>
        <time>2024-03-23T10:14:23.364Z</time>
      </trkpt>
      <trkpt lat="50.511553" lon="6.593784">
        <ele>423.471231</ele>
        <time>2024-03-23T10:14:44.185Z</time>
      </trkpt>
      <trkpt lat="50.511543" lon="6.593850">
        <ele>423.436393</ele>
        <time>2024-03-23T10:14:48.563Z</time>
      </trkpt>
      <trkpt lat="50.511269" lon="6.595599">
        <ele>422.252337</ele>
        <time>2024-03-23T10:16:45.859Z</time>
      </trkpt>
      <trkpt lat="50.511244" lon="6.596014">
        <ele>421.978320</ele>
        <time>2024-03-23T10:17:13.499Z</time>
      </trkpt>
      <trkpt lat="50.511106" lon="6.595994">
        <ele>421.835069</ele>
        <time>2024-03-23T10:17:28.184Z</time>
      </trkpt>
      <trkpt lat="50.511057" lon="6.596031">
        <ele>421.778882</ele>
        <time>2024-03-23T10:17:33.827Z</time>
      </trkpt>
      <trkpt lat="50.511025" lon="6.596120">
        <ele>421.711675</ele>
        <time>2024-03-23T10:17:40.565Z</time>
      </trkpt>
      <trkpt lat="50.511019" lon="6.596656">
        <ele>421.682877</ele>
        <time>2024-03-23T10:18:15.745Z</time>
      </trkpt>
      <trkpt lat="50.511093" lon="6.597484">
        <ele>421.820341</ele>
        <time>2024-03-23T10:19:09.292Z</time>
      </trkpt>
      <trkpt lat="50.511169" lon="6.598035">
        <ele>421.913033</ele>
        <time>2024-03-23T10:19:46.554Z</time>
      </trkpt>
      <trkpt lat="50.511219" lon="6.598295">
        <ele>421.957689</ele>
        <time>2024-03-23T10:20:04.488Z</time>
      </trkpt>
      <trkpt lat="50.511540" lon="6.599513">
        <ele>422.901739</ele>
        <time>2024-03-23T10:21:32.125Z</time>
      </trkpt>
      <trkpt lat="50.511755" lon="6.600331">
        <ele>424.206214</ele>
        <time>2024-03-23T10:22:32.029Z</time>
      </trkpt>
      <trkpt lat="50.511853" lon="6.600948">
        <ele>425.143474</ele>
        <time>2024-03-23T10:23:16.423Z</time>
      </trkpt>
      <trkpt lat="50.511932" lon="6.601942">
        <ele>426.620566</ele>
        <time>2024-03-23T10:24:28.191Z</time>
      </trkpt>
      <trkpt lat="50.511944" lon="6.602479">
        <ele>427.414100</ele>
        <time>2024-03-23T10:25:06.005Z</time>
      </trkpt>
      <trkpt lat="50.512017" lon="6.603073">
        <ele>428.307552</ele>
        <time>2024-03-23T10:25:48.074Z</time>
      </trkpt>
      <trkpt lat="50.512079" lon="6.603665">
        <ele>429.193596</ele>
        <time>2024-03-23T10:26:29.148Z</time>
      </trkpt>
      <trkpt lat="50.512095" lon="6.605346">
        <ele>430.437988</ele>
        <time>2024-03-23T10:28:21.684Z</time>
      </trkpt>
      <trkpt lat="50.512097" lon="6.605613">
        <ele>430.440944</ele>
        <time>2024-03-23T10:28:39.021Z</time>
      </trkpt>
      <trkpt lat="50.512121" lon="6.605899">
        <ele>430.444139</ele>
        <time>2024-03-23T10:28:57.427Z</time>
      </trkpt>
      <trkpt lat="50.512263" lon="6.605932">
        <ele>430.446638</ele>
        <time>2024-03-23T10:29:12.078Z</time>
      </trkpt>
      <trkpt lat="50.512321" lon="6.605937">
        <ele>430.447649</ele>
        <time>2024-03-23T10:29:18.025Z</time>
      </trkpt>
      <trkpt lat="50.512355" lon="6.605988">
        <ele>430.448468</ele>
        <time>2024-03-23T10:29:22.873Z</time>
      </trkpt>
      <trkpt lat="50.512385" lon="6.606108">
        <ele>430.449895</ele>
        <time>2024-03-23T10:29:31.292Z</time>
      </trkpt>
      <trkpt lat="50.512387" lon="6.606241">
        <ele>430.451368</ele>
        <time>2024-03-23T10:29:39.947Z</time>
      </trkpt>
      <trkpt lat="50.512383" lon="6.606321">
        <ele>430.452257</ele>
        <time>2024-03-23T10:29:45.108Z</time>
      </trkpt>
      <trkpt lat="50.512468" lon="6.606759">
        <ele>430.457327</ele>
        <time>2024-03-23T10:30:14.819Z</time>
      </trkpt>
      <trkpt lat="50.512423" lon="6.607056">
        <ele>430.449794</ele>
        <time>2024-03-23T10:30:34.629Z</time>
      </trkpt>
      <trkpt lat="50.512402" lon="6.607399">
        <ele>430.398624</ele>
        <time>2024-03-23T10:30:57.015Z</time>
      </trkpt>
      <trkpt lat="50.512414" lon="6.608235">
        <ele>430.274447</ele>
        <time>2024-03-23T10:31:51.128Z</time>
      </trkpt>
      <trkpt lat="50.512345" lon="6.608350">
        <ele>430.250968</ele>
        <time>2024-03-23T10:32:01.212Z</time>
      </trkpt>
      <trkpt lat="50.512262" lon="6.608827">
        <ele>430.177531</ele>
        <time>2024-03-23T10:32:32.858Z</time>
      </trkpt>
      <trkpt lat="50.512488" lon="6.609645">
        <ele>430.045089</ele>
        <time>2024-03-23T10:33:30.184Z</time>
      </trkpt>
      <trkpt lat="50.512723" lon="6.610562">
        <ele>431.139512</ele>
        <time>2024-03-23T10:34:35.574Z</time>
      </trkpt>
      <trkpt lat="50.512848" lon="6.610797">
        <ele>431.492667</ele>
        <time>2024-03-23T10:34:56.164Z</time>
      </trkpt>
      <trkpt lat="50.512866" lon="6.610892">
        <ele>431.606931</ele>
        <time>2024-03-23T10:35:02.906Z</time>
      </trkpt>
      <trkpt lat="50.512854" lon="6.611016">
        <ele>431.751510</ele>
        <time>2024-03-23T10:35:11.178Z</time>
      </trkpt>
      <trkpt lat="50.512887" lon="6.611065">
        <ele>431.833781</ele>
        <time>2024-03-23T10:35:15.848Z</time>
      </trkpt>
      <trkpt lat="50.512781" lon="6.611391">
        <ele>432.255833</ele>
        <time>2024-03-23T10:35:40.862Z</time>
      </trkpt>
      <trkpt lat="50.512714" lon="6.611475">
        <ele>432.411156</ele>
        <time>2024-03-23T10:35:49.952Z</time>
      </trkpt>
      <trkpt lat="50.512670" lon="6.611488">
        <ele>432.492310</ele>
        <time>2024-03-23T10:35:54.745Z</time>
      </trkpt>
      <trkpt lat="50.512690" lon="6.611631">
        <ele>432.661085</ele>
        <time>2024-03-23T10:36:04.814Z</time>
      </trkpt>
      <trkpt lat="50.512868" lon="6.613119">
        <ele>435.251092</ele>
        <time>2024-03-23T10:37:52.430Z</time>
      </trkpt>
      <trkpt lat="50.512867" lon="6.613449">
        <ele>435.921989</ele>
        <time>2024-03-23T10:38:16.568Z</time>
      </trkpt>
      <trkpt lat="50.512773" lon="6.613981">
        <ele>437.044521</ele>
        <time>2024-03-23T10:38:57.413Z</time>
      </trkpt>
      <trkpt lat="50.512653" lon="6.614243">
        <ele>437.700946</ele>
        <time>2024-03-23T10:39:19.889Z</time>
      </trkpt>
      <trkpt lat="50.512319" lon="6.614585">
        <ele>438.975166</ele>
        <time>2024-03-23T10:40:03.011Z</time>
      </trkpt>
      <trkpt lat="50.512102" lon="6.614880">
        <ele>439.482843</ele>
        <time>2024-03-23T10:40:33.435Z</time>
      </trkpt>
      <trkpt lat="50.511699" lon="6.615550">
        <ele>440.445798</ele>
        <time>2024-03-23T10:41:35.720Z</time>
      </trkpt>
      <trkpt lat="50.511570" lon="6.615816">
        <ele>440.795096</ele>
        <time>2024-03-23T10:41:57.458Z</time>
      </trkpt>
      <trkpt lat="50.511363" lon="6.616126">
        <ele>441.264456</ele>
        <time>2024-03-23T10:42:28.202Z</time>
      </trkpt>
      <trkpt lat="50.511004" lon="6.616589">
        <ele>442.016060</ele>
        <time>2024-03-23T10:43:17.846Z</time>
      </trkpt>
      <trkpt lat="50.510408" lon="6.617198">
        <ele>442.635283</ele>
        <time>2024-03-23T10:44:30.548Z</time>
      </trkpt>
      <trkpt lat="50.510162" lon="6.617422">
        <ele>442.882934</ele>
        <time>2024-03-23T10:44:59.726Z</time>
      </trkpt>
      <trkpt lat="50.509808" lon="6.617742">
        <ele>443.238663</ele>
        <time>2024-03-23T10:45:41.861Z</time>
      </trkpt>
      <trkpt lat="50.509546" lon="6.618055">
        <ele>443.525317</ele>
        <time>2024-03-23T10:46:16.280Z</time>
      </trkpt>
      <trkpt lat="50.509392" lon="6.618357">
        <ele>443.616249</ele>
        <time>2024-03-23T10:46:41.491Z</time>
      </trkpt>
      <trkpt lat="50.509187" lon="6.618868">
        <ele>443.706192</ele>
        <time>2024-03-23T10:47:20.162Z</time>
      </trkpt>
      <trkpt lat="50.508241" lon="6.621468">
        <ele>445.089078</ele>
        <time>2024-03-23T10:50:30.910Z</time>
      </trkpt>
      <trkpt lat="50.508085" lon="6.621723">
        <ele>445.449784</ele>
        <time>2024-03-23T10:50:55.274Z</time>
      </trkpt>
      <trkpt lat="50.507919" lon="6.621913">
        <ele>445.778908</ele>
        <time>2024-03-23T10:51:17.062Z</time>
      </trkpt>
      <trkpt lat="50.507767" lon="6.622038">
        <ele>446.053871</ele>
        <time>2024-03-23T10:51:36.082Z</time>
      </trkpt>
      <trkpt lat="50.507286" lon="6.622316">
        <ele>446.875351</ele>
        <time>2024-03-23T10:52:32.117Z</time>
      </trkpt>
      <trkpt lat="50.506752" lon="6.622467">
        <ele>447.794579</ele>
        <time>2024-03-23T10:53:32.916Z</time>
      </trkpt>
      <trkpt lat="50.506632" lon="6.622557">
        <ele>448.019830</ele>
        <time>2024-03-23T10:53:47.454Z</time>
      </trkpt>
      <trkpt lat="50.506387" lon="6.622825">
        <ele>448.525483</ele>
        <time>2024-03-23T10:54:20.041Z</time>
      </trkpt>
      <trkpt lat="50.506152" lon="6.622974">
        <ele>448.954777</ele>
        <time>2024-03-23T10:54:46.884Z</time>
      </trkpt>
      <trkpt lat="50.505611" lon="6.623029">
        <ele>449.873265</ele>
        <time>2024-03-23T10:55:41.879Z</time>
      </trkpt>
      <trkpt lat="50.505445" lon="6.623078">
        <ele>449.778544</ele>
        <time>2024-03-23T10:55:58.980Z</time>
      </trkpt>
      <trkpt lat="50.505160" lon="6.623209">
        <ele>449.473325</ele>
        <time>2024-03-23T10:56:29.302Z</time>
      </trkpt>
      <trkpt lat="50.504721" lon="6.623479">
        <ele>448.988773</ele>
        <time>2024-03-23T10:57:18.661Z</time>
      </trkpt>
      <trkpt lat="50.504508" lon="6.623511">
        <ele>448.768829</ele>
        <time>2024-03-23T10:57:40.267Z</time>
      </trkpt>
      <trkpt lat="50.504272" lon="6.623456">
        <ele>448.523590</ele>
        <time>2024-03-23T10:58:05.147Z</time>
      </trkpt>
      <trkpt lat="50.503828" lon="6.623237">
        <ele>448.092201</ele>
        <time>2024-03-23T10:58:52.565Z</time>
      </trkpt>
      <trkpt lat="50.503671" lon="6.623122">
        <ele>448.210022</ele>
        <time>2024-03-23T10:59:10.662Z</time>
      </trkpt>
      <trkpt lat="50.502671" lon="6.622144">
        <ele>449.011142</ele>
        <time>2024-03-23T11:01:11.153Z</time>
      </trkpt>
      <trkpt lat="50.502063" lon="6.621463">
        <ele>449.898483</ele>
        <time>2024-03-23T11:02:31.127Z</time>
      </trkpt>
      <trkpt lat="50.501840" lon="6.621320">
        <ele>450.342488</ele>
        <time>2024-03-23T11:02:57.861Z</time>
      </trkpt>
      <trkpt lat="50.501558" lon="6.621261">
        <ele>450.866968</ele>
        <time>2024-03-23T11:03:28.754Z</time>
      </trkpt>
      <trkpt lat="50.501379" lon="6.621216">
        <ele>451.201165</ele>
        <time>2024-03-23T11:03:48.159Z</time>
      </trkpt>
      <trkpt lat="50.501032" lon="6.621197">
        <ele>451.841283</ele>
        <time>2024-03-23T11:04:25.192Z</time>
      </trkpt>
      <trkpt lat="50.500806" lon="6.621266">
        <ele>452.265721</ele>
        <time>2024-03-23T11:04:49.943Z</time>
      </trkpt>
      <trkpt lat="50.500502" lon="6.621409">
        <ele>452.661779</ele>
        <time>2024-03-23T11:05:22.914Z</time>
      </trkpt>
      <trkpt lat="50.499599" lon="6.621932">
        <ele>453.025682</ele>
        <time>2024-03-23T11:07:00.258Z</time>
      </trkpt>
      <trkpt lat="50.499373" lon="6.621973">
        <ele>453.111710</ele>
        <time>2024-03-23T11:07:23.431Z</time>
      </trkpt>
      <trkpt lat="50.498978" lon="6.623755">
        <ele>453.471894</ele>
        <time>2024-03-23T11:09:24.135Z</time>
      </trkpt>
      <trkpt lat="50.498938" lon="6.623935">
        <ele>453.501978</ele>
        <time>2024-03-23T11:09:36.372Z</time>
      </trkpt>
      <trkpt lat="50.498874" lon="6.624046">
        <ele>453.525616</ele>
        <time>2024-03-23T11:09:46.031Z</time>
      </trkpt>
      <trkpt lat="50.497980" lon="6.624911">
        <ele>453.508379</ele>
        <time>2024-03-23T11:11:33.771Z</time>
      </trkpt>
      <trkpt lat="50.497767" lon="6.625082">
        <ele>453.214837</ele>
        <time>2024-03-23T11:11:58.568Z</time>
      </trkpt>
      <trkpt lat="50.497692" lon="6.625108">
        <ele>453.120574</ele>
        <time>2024-03-23T11:12:06.240Z</time>
      </trkpt>
      <trkpt lat="50.497350" lon="6.625085">
        <ele>452.700435</ele>
        <time>2024-03-23T11:12:41.832Z</time>
      </trkpt>
      <trkpt lat="50.496464" lon="6.625653">
        <ele>451.521661</ele>
        <time>2024-03-23T11:14:21.376Z</time>
      </trkpt>
      <trkpt lat="50.496307" lon="6.625837">
        <ele>451.096491</ele>
        <time>2024-03-23T11:14:42.691Z</time>
      </trkpt>
      <trkpt lat="50.496257" lon="6.626047">
        <ele>450.786807</ele>
        <time>2024-03-23T11:14:57.010Z</time>
      </trkpt>
      <trkpt lat="50.496255" lon="6.626199">
        <ele>450.576832</ele>
        <time>2024-03-23T11:15:08.256Z</time>
      </trkpt>
      <trkpt lat="50.496251" lon="6.626442">
        <ele>450.241108</ele>
        <time>2024-03-23T11:15:24.276Z</time>
      </trkpt>
      <trkpt lat="50.496245" lon="6.626627">
        <ele>449.985270</ele>
        <time>2024-03-23T11:15:36.264Z</time>
      </trkpt>
      <trkpt lat="50.496005" lon="6.627353">
        <ele>448.855266</ele>
        <time>2024-03-23T11:16:32.293Z</time>
      </trkpt>
      <trkpt lat="50.495400" lon="6.628437">
        <ele>447.664059</ele>
        <time>2024-03-23T11:18:05.945Z</time>
      </trkpt>
      <trkpt lat="50.495186" lon="6.628755">
        <ele>447.695378</ele>
        <time>2024-03-23T11:18:35.538Z</time>
      </trkpt>
      <trkpt lat="50.494981" lon="6.629112">
        <ele>447.727915</ele>
        <time>2024-03-23T11:19:07.035Z</time>
      </trkpt>
      <trkpt lat="50.494886" lon="6.629277">
        <ele>447.742972</ele>
        <time>2024-03-23T11:19:21.740Z</time>
      </trkpt>
      <trkpt lat="50.494687" lon="6.629503">
        <ele>447.769081</ele>
        <time>2024-03-23T11:19:47.414Z</time>
      </trkpt>
      <trkpt lat="50.494642" lon="6.629608">
        <ele>447.777647</ele>
        <time>2024-03-23T11:19:55.631Z</time>
      </trkpt>
      <trkpt lat="50.494352" lon="6.629750">
        <ele>447.809950</ele>
        <time>2024-03-23T11:20:26.402Z</time>
      </trkpt>
      <trkpt lat="50.494206" lon="6.629717">
        <ele>447.824194</ele>
        <time>2024-03-23T11:20:41.358Z</time>
      </trkpt>
      <trkpt lat="50.494114" lon="6.629572">
        <ele>447.835443</ele>
        <time>2024-03-23T11:20:54.675Z</time>
      </trkpt>
      <trkpt lat="50.493834" lon="6.629406">
        <ele>447.861280</ele>
        <time>2024-03-23T11:21:25.167Z</time>
      </trkpt>
      <trkpt lat="50.493709" lon="6.629374">
        <ele>447.872215</ele>
        <time>2024-03-23T11:21:37.928Z</time>
      </trkpt>
      <trkpt lat="50.493597" lon="6.629346">
        <ele>447.882007</ele>
        <time>2024-03-23T11:21:49.465Z</time>
      </trkpt>
      <trkpt lat="50.493460" lon="6.629258">
        <ele>447.894785</ele>
        <time>2024-03-23T11:22:04.449Z</time>
      </trkpt>
      <trkpt lat="50.492946" lon="6.629830">
        <ele>447.949160</ele>
        <time>2024-03-23T11:23:08.044Z</time>
      </trkpt>
      <trkpt lat="50.492912" lon="6.629886">
        <ele>447.953412</ele>
        <time>2024-03-23T11:23:13.079Z</time>
      </trkpt>
      <trkpt lat="50.492673" lon="6.629992">
        <ele>447.991783</ele>
        <time>2024-03-23T11:23:38.905Z</time>
      </trkpt>
      <trkpt lat="50.492628" lon="6.629923">
        <ele>448.055046</ele>
        <time>2024-03-23T11:23:45.319Z</time>
      </trkpt>
      <trkpt lat="50.492582" lon="6.629928">
        <ele>448.101448</ele>
        <time>2024-03-23T11:23:50.126Z</time>
      </trkpt>
      <trkpt lat="50.492598" lon="6.629992">
        <ele>448.145472</ele>
        <time>2024-03-23T11:23:54.870Z</time>
      </trkpt>
      <trkpt lat="50.492662" lon="6.630254">
        <ele>448.325147</ele>
        <time>2024-03-23T11:24:14.255Z</time>
      </trkpt>
      <trkpt lat="50.492675" lon="6.630297">
        <ele>448.355627</ele>
        <time>2024-03-23T11:24:17.843Z</time>
      </trkpt>
      <trkpt lat="50.492736" lon="6.630534">
        <ele>448.519305</ele>
        <time>2024-03-23T11:24:34.328Z</time>
      </trkpt>
      <trkpt lat="50.492790" lon="6.630705">
        <ele>448.641526</ele>
        <time>2024-03-23T11:24:47.596Z</time>
      </trkpt>
      <trkpt lat="50.492818" lon="6.630797">
        <ele>448.706819</ele>
        <time>2024-03-23T11:24:54.476Z</time>
      </trkpt>
      <trkpt lat="50.492919" lon="6.631145">
        <ele>448.951701</ele>
        <time>2024-03-23T11:25:19.488Z</time>
      </trkpt>
      <trkpt lat="50.492959" lon="6.631464">
        <ele>449.159857</ele>
        <time>2024-03-23T11:25:40.821Z</time>
      </trkpt>
      <trkpt lat="50.492969" lon="6.631538">
        <ele>449.208289</ele>
        <time>2024-03-23T11:25:46.004Z</time>
      </trkpt>
      <trkpt lat="50.492941" lon="6.631950">
        <ele>449.473556</ele>
        <time>2024-03-23T11:26:14.677Z</time>
      </trkpt>
      <trkpt lat="50.492890" lon="6.632259">
        <ele>449.677929</ele>
        <time>2024-03-23T11:26:35.283Z</time>
      </trkpt>
      <trkpt lat="50.492869" lon="6.632414">
        <ele>449.779387</ele>
        <time>2024-03-23T11:26:45.780Z</time>
      </trkpt>
      <trkpt lat="50.492899" lon="6.632502">
        <ele>449.800262</ele>
        <time>2024-03-23T11:26:53.698Z</time>
      </trkpt>
      <trkpt lat="50.492966" lon="6.632545">
        <ele>449.820835</ele>
        <time>2024-03-23T11:27:01.625Z</time>
      </trkpt>
      <trkpt lat="50.493401" lon="6.632577">
        <ele>449.944632</ele>
        <time>2024-03-23T11:27:47.027Z</time>
      </trkpt>
      <trkpt lat="50.493786" lon="6.632637">
        <ele>450.054616</ele>
        <time>2024-03-23T11:28:26.493Z</time>
      </trkpt>
      <trkpt lat="50.493908" lon="6.632698">
        <ele>450.091010</ele>
        <time>2024-03-23T11:28:39.919Z</time>
      </trkpt>
      <trkpt lat="50.494177" lon="6.632935">
        <ele>450.178674</ele>
        <time>2024-03-23T11:29:11.040Z</time>
      </trkpt>
      <trkpt lat="50.494384" lon="6.633372">
        <ele>450.277206</ele>
        <time>2024-03-23T11:29:46.596Z</time>
      </trkpt>
      <trkpt lat="50.494461" lon="6.633607">
        <ele>450.368018</ele>
        <time>2024-03-23T11:30:03.726Z</time>
      </trkpt>
      <trkpt lat="50.494503" lon="6.633736">
        <ele>450.431329</ele>
        <time>2024-03-23T11:30:13.083Z</time>
      </trkpt>
      <trkpt lat="50.494436" lon="6.633811">
        <ele>450.487816</ele>
        <time>2024-03-23T11:30:21.344Z</time>
      </trkpt>
      <trkpt lat="50.494402" lon="6.633896">
        <ele>450.531682</ele>
        <time>2024-03-23T11:30:27.784Z</time>
      </trkpt>
      <trkpt lat="50.494031" lon="6.635062">
        <ele>451.101257</ele>
        <time>2024-03-23T11:31:54.449Z</time>
      </trkpt>
      <trkpt lat="50.493997" lon="6.635169">
        <ele>451.153512</ele>
        <time>2024-03-23T11:32:02.270Z</time>
      </trkpt>
      <trkpt lat="50.493832" lon="6.635563">
        <ele>451.359596</ele>
        <time>2024-03-23T11:32:33.529Z</time>
      </trkpt>
      <trkpt lat="50.493606" lon="6.636109">
        <ele>451.714658</ele>
        <time>2024-03-23T11:33:15.894Z</time>
      </trkpt>
      <trkpt lat="50.493477" lon="6.636239">
        <ele>451.884764</ele>
        <time>2024-03-23T11:33:31.835Z</time>
      </trkpt>
      <trkpt lat="50.493429" lon="6.636238">
        <ele>451.938054</ele>
        <time>2024-03-23T11:33:36.666Z</time>
      </trkpt>
      <trkpt lat="50.492844" lon="6.636035">
        <ele>452.603107</ele>
        <time>2024-03-23T11:34:39.234Z</time>
      </trkpt>
      <trkpt lat="50.491990" lon="6.635739">
        <ele>453.605800</ele>
        <time>2024-03-23T11:36:10.530Z</time>
      </trkpt>
      <trkpt lat="50.492021" lon="6.636140">
        <ele>454.083182</ele>
        <time>2024-03-23T11:36:37.513Z</time>
      </trkpt>
      <trkpt lat="50.491837" lon="6.636073">
        <ele>454.434034</ele>
        <time>2024-03-23T11:36:56.685Z</time>
      </trkpt>
      <trkpt lat="50.491816" lon="6.636061">
        <ele>454.475542</ele>
        <time>2024-03-23T11:36:59.083Z</time>
      </trkpt>
      <trkpt lat="50.491454" lon="6.635844">
        <ele>455.195237</ele>
        <time>2024-03-23T11:37:40.181Z</time>
      </trkpt>
      <trkpt lat="50.491152" lon="6.635611">
        <ele>455.820172</ele>
        <time>2024-03-23T11:38:16.489Z</time>
      </trkpt>
      <trkpt lat="50.490837" lon="6.635368">
        <ele>456.471992</ele>
        <time>2024-03-23T11:38:54.832Z</time>
      </trkpt>
      <trkpt lat="50.490585" lon="6.635174">
        <ele>457.009525</ele>
        <time>2024-03-23T11:39:25.566Z</time>
      </trkpt>
      <trkpt lat="50.490285" lon="6.635030">
        <ele>457.667827</ele>
        <time>2024-03-23T11:39:59.554Z</time>
      </trkpt>
      <trkpt lat="50.489916" lon="6.634958">
        <ele>458.448179</ele>
        <time>2024-03-23T11:40:39.380Z</time>
      </trkpt>
      <trkpt lat="50.489785" lon="6.634926">
        <ele>458.726404</ele>
        <time>2024-03-23T11:40:53.371Z</time>
      </trkpt>
      <trkpt lat="50.489261" lon="6.634801">
        <ele>459.838697</ele>
        <time>2024-03-23T11:41:50.384Z</time>
      </trkpt>
      <trkpt lat="50.488932" lon="6.634853">
        <ele>460.532639</ele>
        <time>2024-03-23T11:42:25.807Z</time>
      </trkpt>
      <trkpt lat="50.488785" lon="6.634920">
        <ele>460.773643</ele>
        <time>2024-03-23T11:42:42.193Z</time>
      </trkpt>
      <trkpt lat="50.488667" lon="6.635050">
        <ele>460.961295</ele>
        <time>2024-03-23T11:42:57.763Z</time>
      </trkpt>
      <trkpt lat="50.488626" lon="6.635125">
        <ele>461.043222</ele>
        <time>2024-03-23T11:43:04.576Z</time>
      </trkpt>
      <trkpt lat="50.488316" lon="6.635702">
        <ele>461.668926</ele>
        <time>2024-03-23T11:43:55.331Z</time>
      </trkpt>
      <trkpt lat="50.488207" lon="6.635955">
        <ele>461.922081</ele>
        <time>2024-03-23T11:44:15.678Z</time>
      </trkpt>
      <trkpt lat="50.488131" lon="6.636300">
        <ele>462.224572</ele>
        <time>2024-03-23T11:44:39.771Z</time>
      </trkpt>
      <trkpt lat="50.488045" lon="6.636838">
        <ele>462.684174</ele>
        <time>2024-03-23T11:45:16.159Z</time>
      </trkpt>
      <trkpt lat="50.488005" lon="6.637093">
        <ele>462.901776</ele>
        <time>2024-03-23T11:45:33.328Z</time>
      </trkpt>
      <trkpt lat="50.488018" lon="6.637316">
        <ele>463.052209</ele>
        <time>2024-03-23T11:45:47.865Z</time>
      </trkpt>
      <trkpt lat="50.488112" lon="6.637607">
        <ele>463.230064</ele>
        <time>2024-03-23T11:46:09.092Z</time>
      </trkpt>
      <trkpt lat="50.488461" lon="6.638321">
        <ele>463.720743</ele>
        <time>2024-03-23T11:47:07.398Z</time>
      </trkpt>
      <trkpt lat="50.488506" lon="6.638411">
        <ele>463.783123</ele>
        <time>2024-03-23T11:47:14.832Z</time>
      </trkpt>
      <trkpt lat="50.488709" lon="6.638896">
        <ele>464.099496</ele>
        <time>2024-03-23T11:47:53.177Z</time>
      </trkpt>
      <trkpt lat="50.488813" lon="6.639343">
        <ele>464.358871</ele>
        <time>2024-03-23T11:48:24.614Z</time>
      </trkpt>
      <trkpt lat="50.488836" lon="6.639975">
        <ele>464.949490</ele>
        <time>2024-03-23T11:49:06.613Z</time>
      </trkpt>
      <trkpt lat="50.488885" lon="6.640574">
        <ele>465.731571</ele>
        <time>2024-03-23T11:49:47.284Z</time>
      </trkpt>
      <trkpt lat="50.488856" lon="6.640758">
        <ele>465.977050</ele>
        <time>2024-03-23T11:49:59.890Z</time>
      </trkpt>
      <trkpt lat="50.488890" lon="6.641066">
        <ele>466.381864</ele>
        <time>2024-03-23T11:50:21.534Z</time>
      </trkpt>
      <trkpt lat="50.488897" lon="6.641128">
        <ele>466.463408</ele>
        <time>2024-03-23T11:50:25.931Z</time>
      </trkpt>
      <trkpt lat="50.488878" lon="6.641349">
        <ele>466.752200</ele>
        <time>2024-03-23T11:50:41.120Z</time>
      </trkpt>
      <trkpt lat="50.488851" lon="6.641860">
        <ele>467.416215</ele>
        <time>2024-03-23T11:51:17.059Z</time>
      </trkpt>
      <trkpt lat="50.488846" lon="6.641968">
        <ele>467.556443</ele>
        <time>2024-03-23T11:51:24.722Z</time>
      </trkpt>
      <trkpt lat="50.488980" lon="6.642982">
        <ele>468.541948</ele>
        <time>2024-03-23T11:52:36.600Z</time>
      </trkpt>
      <trkpt lat="50.489196" lon="6.644159">
        <ele>469.335081</ele>
        <time>2024-03-23T11:53:58.692Z</time>
      </trkpt>
      <trkpt lat="50.489177" lon="6.644429">
        <ele>469.510962</ele>
        <time>2024-03-23T11:54:16.202Z</time>
      </trkpt>
      <trkpt lat="50.489127" lon="6.645121">
        <ele>469.961886</ele>
        <time>2024-03-23T11:55:00.625Z</time>
      </trkpt>
      <trkpt lat="50.489103" lon="6.645917">
        <ele>469.333818</ele>
        <time>2024-03-23T11:55:52.552Z</time>
      </trkpt>
      <trkpt lat="50.489129" lon="6.646463">
        <ele>468.808748</ele>
        <time>2024-03-23T11:56:28.811Z</time>
      </trkpt>
      <trkpt lat="50.489047" lon="6.646884">
        <ele>468.386520</ele>
        <time>2024-03-23T11:56:58.177Z</time>
      </trkpt>
      <trkpt lat="50.489028" lon="6.646982">
        <ele>468.288273</ele>
        <time>2024-03-23T11:57:04.925Z</time>
      </trkpt>
      <trkpt lat="50.488789" lon="6.647966">
        <ele>467.292074</ele>
        <time>2024-03-23T11:58:14.553Z</time>
      </trkpt>
      <trkpt lat="50.488750" lon="6.648104">
        <ele>467.220434</ele>
        <time>2024-03-23T11:58:24.421Z</time>
      </trkpt>
      <trkpt lat="50.488712" lon="6.648231">
        <ele>467.153851</ele>
        <time>2024-03-23T11:58:33.641Z</time>
      </trkpt>
      <trkpt lat="50.488625" lon="6.648420">
        <ele>467.043176</ele>
        <time>2024-03-23T11:58:48.896Z</time>
      </trkpt>
      <trkpt lat="50.488341" lon="6.648814">
        <ele>466.760705</ele>
        <time>2024-03-23T11:59:27.673Z</time>
      </trkpt>
      <trkpt lat="50.488193" lon="6.649066">
        <ele>466.597998</ele>
        <time>2024-03-23T11:59:50.026Z</time>
      </trkpt>
      <trkpt lat="50.488078" lon="6.649217">
        <ele>466.486257</ele>
        <time>2024-03-23T12:00:05.404Z</time>
      </trkpt>
      <trkpt lat="50.487726" lon="6.649679">
        <ele>466.144290</ele>
        <time>2024-03-23T12:00:51.478Z</time>
      </trkpt>
      <trkpt lat="50.487495" lon="6.649885">
        <ele>465.996241</ele>
        <time>2024-03-23T12:01:18.300Z</time>
      </trkpt>
      <trkpt lat="50.487310" lon="6.650120">
        <ele>466.306492</ele>
        <time>2024-03-23T12:01:42.697Z</time>
      </trkpt>
      <trkpt lat="50.487268" lon="6.650173">
        <ele>466.376745</ele>
        <time>2024-03-23T12:01:48.202Z</time>
      </trkpt>
      <trkpt lat="50.487184" lon="6.650311">
        <ele>466.535235</ele>
        <time>2024-03-23T12:02:00.752Z</time>
      </trkpt>
      <trkpt lat="50.487021" lon="6.650735">
        <ele>466.946340</ele>
        <time>2024-03-23T12:02:33.257Z</time>
      </trkpt>
      <trkpt lat="50.486859" lon="6.651134">
        <ele>467.339133</ele>
        <time>2024-03-23T12:03:04.625Z</time>
      </trkpt>
      <trkpt lat="50.486790" lon="6.651247">
        <ele>467.469108</ele>
        <time>2024-03-23T12:03:15.106Z</time>
      </trkpt>
      <trkpt lat="50.486588" lon="6.651451">
        <ele>467.782280</ele>
        <time>2024-03-23T12:03:40.552Z</time>
      </trkpt>
      <trkpt lat="50.486239" lon="6.651803">
        <ele>468.333153</ele>
        <time>2024-03-23T12:04:25.185Z</time>
      </trkpt>
      <trkpt lat="50.485939" lon="6.651882">
        <ele>469.041336</ele>
        <time>2024-03-23T12:04:58.447Z</time>
      </trkpt>
      <trkpt lat="50.485824" lon="6.651971">
        <ele>469.339774</ele>
        <time>2024-03-23T12:05:12.370Z</time>
      </trkpt>
      <trkpt lat="50.485730" lon="6.652084">
        <ele>469.615298</ele>
        <time>2024-03-23T12:05:25.549Z</time>
      </trkpt>
      <trkpt lat="50.485577" lon="6.652439">
        <ele>470.250459</ele>
        <time>2024-03-23T12:05:55.422Z</time>
      </trkpt>
      <trkpt lat="50.485566" lon="6.652574">
        <ele>470.452074</ele>
        <time>2024-03-23T12:06:04.852Z</time>
      </trkpt>
      <trkpt lat="50.485552" lon="6.652742">
        <ele>470.703065</ele>
        <time>2024-03-23T12:06:16.610Z</time>
      </trkpt>
      <trkpt lat="50.485584" lon="6.653093">
        <ele>471.228326</ele>
        <time>2024-03-23T12:06:40.978Z</time>
      </trkpt>
      <trkpt lat="50.485803" lon="6.653878">
        <ele>472.498005</ele>
        <time>2024-03-23T12:07:39.626Z</time>
      </trkpt>
      <trkpt lat="50.485883" lon="6.654517">
        <ele>473.110848</ele>
        <time>2024-03-23T12:08:24.075Z</time>
      </trkpt>
      <trkpt lat="50.485948" lon="6.655035">
        <ele>473.607686</ele>
        <time>2024-03-23T12:09:00.070Z</time>
      </trkpt>
      <trkpt lat="50.485874" lon="6.655787">
        <ele>474.323747</ele>
        <time>2024-03-23T12:09:50.831Z</time>
      </trkpt>
      <trkpt lat="50.485743" lon="6.656231">
        <ele>474.784296</ele>
        <time>2024-03-23T12:10:23.054Z</time>
      </trkpt>
      <trkpt lat="50.485518" lon="6.656996">
        <ele>475.476782</ele>
        <time>2024-03-23T12:11:18.245Z</time>
      </trkpt>
      <trkpt lat="50.485327" lon="6.658271">
        <ele>476.413694</ele>
        <time>2024-03-23T12:12:44.261Z</time>
      </trkpt>
      <trkpt lat="50.485068" lon="6.659994">
        <ele>477.419766</ele>
        <time>2024-03-23T12:14:43.173Z</time>
      </trkpt>
      <trkpt lat="50.485055" lon="6.660108">
        <ele>477.459484</ele>
        <time>2024-03-23T12:14:51.094Z</time>
      </trkpt>
      <trkpt lat="50.484999" lon="6.660600">
        <ele>477.630889</ele>
        <time>2024-03-23T12:15:24.109Z</time>
      </trkpt>
      <trkpt lat="50.485220" lon="6.660572">
        <ele>477.750389</ele>
        <time>2024-03-23T12:15:46.570Z</time>
      </trkpt>
      <trkpt lat="50.485233" lon="6.660576">
        <ele>477.757529</ele>
        <time>2024-03-23T12:15:47.877Z</time>
      </trkpt>
      <trkpt lat="50.485425" lon="6.660636">
        <ele>477.863038</ele>
        <time>2024-03-23T12:16:07.709Z</time>
      </trkpt>
      <trkpt lat="50.485443" lon="6.660569">
        <ele>477.887979</ele>
        <time>2024-03-23T12:16:12.461Z</time>
      </trkpt>
      <trkpt lat="50.485520" lon="6.660336">
        <ele>477.978018</ele>
        <time>2024-03-23T12:16:29.584Z</time>
      </trkpt>
      <trkpt lat="50.485519" lon="6.660252">
        <ele>478.006829</ele>
        <time>2024-03-23T12:16:34.995Z</time>
      </trkpt>
      <trkpt lat="50.485488" lon="6.660153">
        <ele>478.044669</ele>
        <time>2024-03-23T12:16:42.143Z</time>
      </trkpt>
      <trkpt lat="50.485438" lon="6.659997">
        <ele>478.104571</ele>
        <time>2024-03-23T12:16:53.483Z</time>
      </trkpt>
      <trkpt lat="50.485351" lon="6.660040">
        <ele>478.147969</ele>
        <time>2024-03-23T12:17:02.868Z</time>
      </trkpt>
      <trkpt lat="50.485377" lon="6.660192">
        <ele>478.128994</ele>
        <time>2024-03-23T12:17:12.926Z</time>
      </trkpt>
      <trkpt lat="50.485340" lon="6.660244">
        <ele>478.119590</ele>
        <time>2024-03-23T12:17:18.107Z</time>
      </trkpt>
      <trkpt lat="50.485294" lon="6.660398">
        <ele>478.099081</ele>
        <time>2024-03-23T12:17:29.046Z</time>
      </trkpt>
      <trkpt lat="50.485394" lon="6.660527">
        <ele>478.074570</ele>
        <time>2024-03-23T12:17:42.272Z</time>
      </trkpt>
      <trkpt lat="50.485418" lon="6.660559">
        <ele>478.068607</ele>
        <time>2024-03-23T12:17:45.466Z</time>
      </trkpt>
      <trkpt lat="50.485443" lon="6.660569">
        <ele>478.063720</ele>
        <time>2024-03-23T12:17:48.066Z</time>
      </trkpt>
      <trkpt lat="50.485425" lon="6.660636">
        <ele>478.054952</ele>
        <time>2024-03-23T12:17:52.916Z</time>
      </trkpt>
      <trkpt lat="50.485233" lon="6.660576">
        <ele>478.017863</ele>
        <time>2024-03-23T12:18:12.600Z</time>
      </trkpt>
      <trkpt lat="50.485220" lon="6.660572">
        <ele>478.015354</ele>
        <time>2024-03-23T12:18:13.915Z</time>
      </trkpt>
      <trkpt lat="50.484999" lon="6.660600">
        <ele>477.973346</ele>
        <time>2024-03-23T12:18:36.974Z</time>
      </trkpt>
      <trkpt lat="50.484843" lon="6.660608">
        <ele>477.943775</ele>
        <time>2024-03-23T12:18:52.638Z</time>
      </trkpt>
      <trkpt lat="50.484682" lon="6.660573">
        <ele>477.912981</ele>
        <time>2024-03-23T12:19:08.885Z</time>
      </trkpt>
      <trkpt lat="50.484598" lon="6.660555">
        <ele>477.896918</ele>
        <time>2024-03-23T12:19:17.425Z</time>
      </trkpt>
      <trkpt lat="50.484455" lon="6.660463">
        <ele>477.867643</ele>
        <time>2024-03-23T12:19:33.136Z</time>
      </trkpt>
      <trkpt lat="50.484372" lon="6.660412">
        <ele>477.850758</ele>
        <time>2024-03-23T12:19:42.251Z</time>
      </trkpt>
      <trkpt lat="50.483910" lon="6.660100">
        <ele>477.752785</ele>
        <time>2024-03-23T12:20:33.345Z</time>
      </trkpt>
      <trkpt lat="50.483804" lon="6.659956">
        <ele>477.724891</ele>
        <time>2024-03-23T12:20:47.557Z</time>
      </trkpt>
      <trkpt lat="50.483696" lon="6.659728">
        <ele>477.688883</ele>
        <time>2024-03-23T12:21:05.821Z</time>
      </trkpt>
      <trkpt lat="50.483675" lon="6.659511">
        <ele>477.661078</ele>
        <time>2024-03-23T12:21:19.987Z</time>
      </trkpt>
      <trkpt lat="50.483728" lon="6.659279">
        <ele>477.629852</ele>
        <time>2024-03-23T12:21:35.834Z</time>
      </trkpt>
      <trkpt lat="50.484176" lon="6.657335">
        <ele>476.910052</ele>
        <time>2024-03-23T12:23:47.963Z</time>
      </trkpt>
      <trkpt lat="50.484277" lon="6.657083">
        <ele>476.663357</ele>
        <time>2024-03-23T12:24:07.549Z</time>
      </trkpt>
      <trkpt lat="50.484704" lon="6.656010">
        <ele>475.615058</ele>
        <time>2024-03-23T12:25:31.419Z</time>
      </trkpt>
      <trkpt lat="50.484920" lon="6.655469">
        <ele>475.086763</ele>
        <time>2024-03-23T12:26:13.571Z</time>
      </trkpt>
      <trkpt lat="50.485095" lon="6.654452">
        <ele>474.241975</ele>
        <time>2024-03-23T12:27:22.710Z</time>
      </trkpt>
      <trkpt lat="50.485090" lon="6.654203">
        <ele>474.042212</ele>
        <time>2024-03-23T12:27:38.913Z</time>
      </trkpt>
      <trkpt lat="50.485071" lon="6.653979">
        <ele>473.861006</ele>
        <time>2024-03-23T12:27:53.832Z</time>
      </trkpt>
      <trkpt lat="50.484994" lon="6.653778">
        <ele>473.672875</ele>
        <time>2024-03-23T12:28:09.089Z</time>
      </trkpt>
      <trkpt lat="50.484477" lon="6.652712">
        <ele>472.684165</ele>
        <time>2024-03-23T12:29:36.230Z</time>
      </trkpt>
      <trkpt lat="50.484521" lon="6.652538">
        <ele>472.586919</ele>
        <time>2024-03-23T12:29:48.451Z</time>
      </trkpt>
      <trkpt lat="50.484813" lon="6.651804">
        <ele>472.137322</ele>
        <time>2024-03-23T12:30:44.365Z</time>
      </trkpt>
      <trkpt lat="50.485123" lon="6.651025">
        <ele>471.660121</ele>
        <time>2024-03-23T12:31:43.510Z</time>
      </trkpt>
      <trkpt lat="50.486158" lon="6.649359">
        <ele>470.248225</ele>
        <time>2024-03-23T12:34:14.985Z</time>
      </trkpt>
      <trkpt lat="50.487105" lon="6.648105">
        <ele>469.570996</ele>
        <time>2024-03-23T12:36:21.474Z</time>
      </trkpt>
      <trkpt lat="50.487378" lon="6.647744">
        <ele>469.562870</ele>
        <time>2024-03-23T12:36:57.169Z</time>
      </trkpt>
      <trkpt lat="50.487539" lon="6.647412">
        <ele>469.556820</ele>
        <time>2024-03-23T12:37:24.127Z</time>
      </trkpt>
      <trkpt lat="50.487655" lon="6.646942">
        <ele>469.549515</ele>
        <time>2024-03-23T12:37:57.475Z</time>
      </trkpt>
      <trkpt lat="50.487676" lon="6.646712">
        <ele>469.546147</ele>
        <time>2024-03-23T12:38:12.782Z</time>
      </trkpt>
      <trkpt lat="50.487535" lon="6.645205">
        <ele>469.138668</ele>
        <time>2024-03-23T12:39:50.659Z</time>
      </trkpt>
      <trkpt lat="50.487586" lon="6.644592">
        <ele>468.947594</ele>
        <time>2024-03-23T12:40:30.406Z</time>
      </trkpt>
      <trkpt lat="50.487718" lon="6.643848">
        <ele>468.708871</ele>
        <time>2024-03-23T12:41:20.804Z</time>
      </trkpt>
      <trkpt lat="50.487839" lon="6.643164">
        <ele>467.844764</ele>
        <time>2024-03-23T12:42:08.029Z</time>
      </trkpt>
      <trkpt lat="50.488109" lon="6.641121">
        <ele>464.888132</ele>
        <time>2024-03-23T12:44:28.600Z</time>
      </trkpt>
      <trkpt lat="50.488263" lon="6.640251">
        <ele>465.035992</ele>
        <time>2024-03-23T12:45:27.356Z</time>
      </trkpt>
      <trkpt lat="50.488264" lon="6.640241">
        <ele>465.041055</ele>
        <time>2024-03-23T12:45:27.999Z</time>
      </trkpt>
      <trkpt lat="50.488271" lon="6.639878">
        <ele>465.222700</ele>
        <time>2024-03-23T12:45:51.237Z</time>
      </trkpt>
      <trkpt lat="50.488231" lon="6.639466">
        <ele>465.431156</ele>
        <time>2024-03-23T12:46:18.560Z</time>
      </trkpt>
      <trkpt lat="50.488126" lon="6.639029">
        <ele>465.664799</ele>
        <time>2024-03-23T12:46:50.155Z</time>
      </trkpt>
      <trkpt lat="50.487777" lon="6.638161">
        <ele>466.297624</ele>
        <time>2024-03-23T12:48:02.042Z</time>
      </trkpt>
      <trkpt lat="50.487450" lon="6.637211">
        <ele>467.476928</ele>
        <time>2024-03-23T12:49:17.471Z</time>
      </trkpt>
      <trkpt lat="50.487387" lon="6.636918">
        <ele>467.814610</ele>
        <time>2024-03-23T12:49:38.820Z</time>
      </trkpt>
      <trkpt lat="50.487357" lon="6.636602">
        <ele>468.163450</ele>
        <time>2024-03-23T12:50:00.546Z</time>
      </trkpt>
      <trkpt lat="50.487369" lon="6.636253">
        <ele>468.545057</ele>
        <time>2024-03-23T12:50:23.906Z</time>
      </trkpt>
      <trkpt lat="50.487436" lon="6.635943">
        <ele>468.902522</ele>
        <time>2024-03-23T12:50:45.338Z</time>
      </trkpt>
      <trkpt lat="50.487463" lon="6.635878">
        <ele>468.987277</ele>
        <time>2024-03-23T12:50:50.386Z</time>
      </trkpt>
      <trkpt lat="50.487541" lon="6.635693">
        <ele>469.083953</ele>
        <time>2024-03-23T12:51:04.478Z</time>
      </trkpt>
      <trkpt lat="50.487693" lon="6.635419">
        <ele>468.597720</ele>
        <time>2024-03-23T12:51:27.911Z</time>
      </trkpt>
      <trkpt lat="50.488184" lon="6.634832">
        <ele>467.300840</ele>
        <time>2024-03-23T12:52:32.000Z</time>
      </trkpt>
      <trkpt lat="50.488349" lon="6.634689">
        <ele>466.904729</ele>
        <time>2024-03-23T12:52:51.949Z</time>
      </trkpt>
      <trkpt lat="50.488509" lon="6.634609">
        <ele>466.551758</ele>
        <time>2024-03-23T12:53:09.785Z</time>
      </trkpt>
      <trkpt lat="50.489177" lon="6.634375">
        <ele>464.997241</ele>
        <time>2024-03-23T12:54:23.140Z</time>
      </trkpt>
      <trkpt lat="50.489354" lon="6.634353">
        <ele>464.463914</ele>
        <time>2024-03-23T12:54:42.177Z</time>
      </trkpt>
      <trkpt lat="50.489513" lon="6.634415">
        <ele>463.971837</ele>
        <time>2024-03-23T12:54:59.641Z</time>
      </trkpt>
      <trkpt lat="50.489891" lon="6.634467">
        <ele>462.832071</ele>
        <time>2024-03-23T12:55:40.109Z</time>
      </trkpt>
      <trkpt lat="50.489902" lon="6.634471">
        <ele>462.798157</ele>
        <time>2024-03-23T12:55:41.280Z</time>
      </trkpt>
      <trkpt lat="50.490134" lon="6.634565">
        <ele>462.078502</ele>
        <time>2024-03-23T12:56:06.764Z</time>
      </trkpt>
      <trkpt lat="50.490313" lon="6.634563">
        <ele>461.540813</ele>
        <time>2024-03-23T12:56:25.635Z</time>
      </trkpt>
      <trkpt lat="50.490557" lon="6.634521">
        <ele>460.803512</ele>
        <time>2024-03-23T12:56:51.525Z</time>
      </trkpt>
      <trkpt lat="50.490894" lon="6.634601">
        <ele>459.790091</ele>
        <time>2024-03-23T12:57:27.376Z</time>
      </trkpt>
      <trkpt lat="50.491238" lon="6.634629">
        <ele>458.808729</ele>
        <time>2024-03-23T12:58:03.820Z</time>
      </trkpt>
      <trkpt lat="50.491576" lon="6.634526">
        <ele>457.827843</ele>
        <time>2024-03-23T12:58:40.391Z</time>
      </trkpt>
      <trkpt lat="50.491760" lon="6.634373">
        <ele>457.234800</ele>
        <time>2024-03-23T12:59:02.466Z</time>
      </trkpt>
      <trkpt lat="50.491826" lon="6.634707">
        <ele>456.600898</ele>
        <time>2024-03-23T12:59:26.154Z</time>
      </trkpt>
      <trkpt lat="50.492246" lon="6.634814">
        <ele>455.388712</ele>
        <time>2024-03-23T13:00:11.363Z</time>
      </trkpt>
      <trkpt lat="50.493204" lon="6.635057">
        <ele>453.135020</ele>
        <time>2024-03-23T13:01:53.851Z</time>
      </trkpt>
      <trkpt lat="50.493395" lon="6.635054">
        <ele>452.715419</ele>
        <time>2024-03-23T13:02:13.862Z</time>
      </trkpt>
      <trkpt lat="50.493519" lon="6.635216">
        <ele>452.361222</ele>
        <time>2024-03-23T13:02:30.690Z</time>
      </trkpt>
      <trkpt lat="50.493626" lon="6.635339">
        <ele>452.070023</ele>
        <time>2024-03-23T13:02:44.529Z</time>
      </trkpt>
      <trkpt lat="50.493677" lon="6.635395">
        <ele>451.933361</ele>
        <time>2024-03-23T13:02:51.015Z</time>
      </trkpt>
      <trkpt lat="50.493832" lon="6.635563">
        <ele>451.519768</ele>
        <time>2024-03-23T13:03:10.548Z</time>
      </trkpt>
      <trkpt lat="50.493997" lon="6.635169">
        <ele>450.904731</ele>
        <time>2024-03-23T13:03:41.679Z</time>
      </trkpt>
      <trkpt lat="50.494031" lon="6.635062">
        <ele>450.904731</ele>
        <time>2024-03-23T13:03:49.501Z</time>
      </trkpt>
      <trkpt lat="50.494402" lon="6.633896">
        <ele>450.904731</ele>
        <time>2024-03-23T13:05:14.183Z</time>
      </trkpt>
      <trkpt lat="50.494436" lon="6.633811">
        <ele>450.904731</ele>
        <time>2024-03-23T13:05:20.645Z</time>
      </trkpt>
      <trkpt lat="50.494503" lon="6.633736">
        <ele>450.904731</ele>
        <time>2024-03-23T13:05:29.025Z</time>
      </trkpt>
      <trkpt lat="50.494461" lon="6.633607">
        <ele>450.904731</ele>
        <time>2024-03-23T13:05:38.371Z</time>
      </trkpt>
      <trkpt lat="50.494384" lon="6.633372">
        <ele>450.904731</ele>
        <time>2024-03-23T13:05:55.514Z</time>
      </trkpt>
      <trkpt lat="50.494177" lon="6.632935">
        <ele>450.904731</ele>
        <time>2024-03-23T13:06:30.639Z</time>
      </trkpt>
      <trkpt lat="50.494333" lon="6.632845">
        <ele>450.904731</ele>
        <time>2024-03-23T13:06:47.466Z</time>
      </trkpt>
      <trkpt lat="50.494356" lon="6.632820">
        <ele>450.904731</ele>
        <time>2024-03-23T13:06:50.304Z</time>
      </trkpt>
      <trkpt lat="50.494390" lon="6.632785">
        <ele>450.904731</ele>
        <time>2024-03-23T13:06:54.379Z</time>
      </trkpt>
      <trkpt lat="50.494405" lon="6.632768">
        <ele>450.904731</ele>
        <time>2024-03-23T13:06:56.323Z</time>
      </trkpt>
    </trkseg>
  </trk>
</gpx>